{
"type": "FeatureCollection",
"name": "pluto_Central_Park",
"crs": { "type": "name", "properties": { "name": "urn:ogc:def:crs:OGC:1.3:CRS84" } },
"features": [
{ "type": "Feature", "properties": { "Borough": "MN", "Block": 1111, "Lot": 1, "CD": 164, "BCT2020": "1012200", "BCTCB2020": "10122003002", "CT2010": "122", "CB2010": "3002", "SchoolDist": "02", "Council": 4, "ZipCode": 10065, "FireComp": "E039", "PolicePrct": 19, "HealthCent": 13, "HealthArea": 4100, "Sanitboro": "1", "SanitDistr": "08", "SanitSub": "1A", "Address": "1000 5 AVENUE", "ZoneDist1": "PARK", "ZoneDist2": null, "ZoneDist3": null, "ZoneDist4": null, "Overlay1": null, "Overlay2": null, "SPDist1": null, "SPDist2": null, "SPDist3": null, "LtdHeight": null, "SplitZone": "N", "BldgClass": "Q1", "LandUse": "09", "Easements": 0, "OwnerType": "C", "OwnerName": "NYC DEPARTMENT OF PARKS AND RECREATION", "LotArea": 36590000, "BldgArea": 34025, "ComArea": 34025, "ResArea": 0, "OfficeArea": 0, "RetailArea": 0, "GarageArea": 0, "StrgeArea": 0, "FactryArea": 0, "OtherArea": 34025, "AreaSource": "2", "NumBldgs": 62, "NumFloors": 0.0, "UnitsRes": 0, "UnitsTotal": 0, "LotFront": 0.0, "LotDepth": 0.0, "BldgFront": 0.0, "BldgDepth": 0.0, "Ext": "E", "ProxCode": "0", "IrrLotCode": "N", "LotType": "5", "BsmtCode": "0", "AssessLand": 2855117700.0, "AssessTot": 3300050700.0, "ExemptTot": 3300050700.0, "YearBuilt": 0, "YearAlter1": 0, "YearAlter2": 0, "HistDist": "Scenic Landmark", "Landmark": "INDIVIDUAL AND INTERIOR LANDMARK", "BuiltFAR": 0.0, "ResidFAR": 0.0, "CommFAR": 0.0, "FacilFAR": 0.0, "BoroCode": 1, "BBL": 1011110001.0000001, "CondoNo": 0, "Tract2010": "0122", "XCoord": 993791, "YCoord": 224362, "ZoneMap": "8c", "ZMCode": "Y", "Sanborn": "106W070", "TaxMap": "10406", "EDesigNum": null, "APPBBL": 0.0, "APPDate": null, "PLUTOMapID": "1", "FIRM07_FLA": null, "PFIRM15_FL": null, "Version": "25v4", "DCPEdited": "t", "Latitude": 40.7824929, "Longitude": -73.9655482, "Notes": null, "Shape_Leng": 0.0, "Shape_Area": 36538762.915700004 }, "geometry": { "type": "MultiPolygon", "coordinates": [ [ [ [ -73.958049045483293, 40.800134812961474 ], [ -73.957986291817065, 40.800149697835039 ], [ -73.957925483686395, 40.800168680616288 ], [ -73.957867085640061, 40.800191619258889 ], [ -73.957811538586384, 40.800218337489135 ], [ -73.957759268142794, 40.800248633598372 ], [ -73.957734413815899, 40.800265841187191 ], [ -73.949911512496442, 40.796967963614492 ], [ -73.949915869245572, 40.796955776300273 ], [ -73.94992257478259, 40.796927470129596 ], [ -73.949926005329914, 40.796898824880344 ], [ -73.949926139585571, 40.796870063832451 ], [ -73.949922973650615, 40.796841403076208 ], [ -73.949916534778012, 40.796813059720193 ], [ -73.949906867609499, 40.796785250714258 ], [ -73.949894050369423, 40.796758190425898 ], [ -73.949878176591582, 40.796732079762876 ], [ -73.949859369093389, 40.796707119559251 ], [ -73.949837771390946, 40.796683500789641 ], [ -73.949813546715433, 40.796661402722158 ], [ -73.949786880987119, 40.796640992921098 ], [ -73.94975797311784, 40.796622427249346 ], [ -73.949727049445514, 40.79660584626636 ], [ -73.949694339727316, 40.796591377068331 ], [ -73.949660094981525, 40.796579128770354 ], [ -73.949640237359873, 40.796573575692598 ], [ -73.973020770995333, 40.764558173090407 ], [ -73.981100495964725, 40.767988054600949 ], [ -73.981092282912599, 40.768039239717552 ], [ -73.98108936607116, 40.768104267512513 ], [ -73.981093912399061, 40.768169239736089 ], [ -73.981105891246926, 40.768233665630525 ], [ -73.981125207817499, 40.768297050917283 ], [ -73.981151719103906, 40.768358915525894 ], [ -73.981185220370364, 40.76841878757422 ], [ -73.981237844470087, 40.768486516922387 ], [ -73.981329858447779, 40.768570008795351 ], [ -73.958313279966617, 40.800118409231459 ], [ -73.958309818739096, 40.800118055015261 ], [ -73.958244151402965, 40.800115731274047 ], [ -73.958178467132285, 40.800117765904652 ], [ -73.958113265839998, 40.800124142942813 ], [ -73.958049045483293, 40.800134812961474 ] ] ] ] } }
]
}
