{
"type": "FeatureCollection",
"name": "pluto_McGuire_Fields",
"crs": { "type": "name", "properties": { "name": "urn:ogc:def:crs:OGC:1.3:CRS84" } },
"features": [
{ "type": "Feature", "properties": { "Borough": "BK", "Block": 8462, "Lot": 106, "CD": 318, "BCT2020": "3070601", "BCTCB2020": "30706011006", "CT2010": "706", "CB2010": "2003", "SchoolDist": "22", "Council": 46, "ZipCode": 11234, "FireComp": "E323", "PolicePrct": 63, "HealthCent": 35, "HealthArea": 8822, "Sanitboro": "3", "SanitDistr": "18", "SanitSub": "4C", "Address": "7524 AVENUE X", "ZoneDist1": "R3-2", "ZoneDist2": null, "ZoneDist3": null, "ZoneDist4": null, "Overlay1": null, "Overlay2": null, "SPDist1": null, "SPDist2": null, "SPDist3": null, "LtdHeight": null, "SplitZone": "N", "BldgClass": "A9", "LandUse": "01", "Easements": 0, "OwnerType": null, "OwnerName": "LEONE, LISA MARIE, TRUSTEE", "LotArea": 3027, "BldgArea": 1732, "ComArea": 0, "ResArea": 1732, "OfficeArea": 0, "RetailArea": 0, "GarageArea": 0, "StrgeArea": 0, "FactryArea": 0, "OtherArea": 0, "AreaSource": "2", "NumBldgs": 1, "NumFloors": 2.0, "UnitsRes": 1, "UnitsTotal": 1, "LotFront": 75.07, "LotDepth": 110.0, "BldgFront": 16.0, "BldgDepth": 42.45, "Ext": "N", "ProxCode": "2", "IrrLotCode": "Y", "LotType": "5", "BsmtCode": "1", "AssessLand": 14520.0, "AssessTot": 62820.0, "ExemptTot": 0.0, "YearBuilt": 1998, "YearAlter1": 0, "YearAlter2": 0, "HistDist": null, "Landmark": null, "BuiltFAR": 0.57, "ResidFAR": 0.75, "CommFAR": 0.0, "FacilFAR": 1.0, "BoroCode": 3, "BBL": 3084620106.0, "CondoNo": 0, "Tract2010": "0706", "XCoord": 1012495, "YCoord": 164124, "ZoneMap": "23d", "ZMCode": null, "Sanborn": "315 075", "TaxMap": "32502", "EDesigNum": null, "APPBBL": 3084620010.0, "APPDate": "12/02/1999", "PLUTOMapID": "1", "FIRM07_FLA": null, "PFIRM15_FL": null, "Version": "25v4", "DCPEdited": null, "Latitude": 40.6171138, "Longitude": -73.8982622, "Notes": null, "Shape_Leng": 0.0, "Shape_Area": 3066.4408774 }, "geometry": { "type": "MultiPolygon", "coordinates": [ [ [ [ -73.898186185904891, 40.617261066815068 ], [ -73.898203166527921, 40.616957624612716 ], [ -73.898393399057696, 40.617128941668845 ], [ -73.898186185904891, 40.617261066815068 ] ] ] ] } },
{ "type": "Feature", "properties": { "Borough": "BK", "Block": 8470, "Lot": 150, "CD": 356, "BCT2020": "3070602", "BCTCB2020": "30706021004", "CT2010": "706", "CB2010": "2000", "SchoolDist": "22", "Council": 46, "ZipCode": 11234, "FireComp": "E323", "PolicePrct": 63, "HealthCent": 35, "HealthArea": 8822, "Sanitboro": "3", "SanitDistr": "56", "SanitSub": null, "Address": "7000 AVENUE Y", "ZoneDist1": "PARK", "ZoneDist2": null, "ZoneDist3": null, "ZoneDist4": null, "Overlay1": null, "Overlay2": null, "SPDist1": null, "SPDist2": null, "SPDist3": null, "LtdHeight": null, "SplitZone": "N", "BldgClass": "Y7", "LandUse": "07", "Easements": 0, "OwnerType": "X", "OwnerName": "NYC DEPARTMENT OF SMALL BUSINESS SERVICES", "LotArea": 9907500, "BldgArea": 16200, "ComArea": 16200, "ResArea": 0, "OfficeArea": 16200, "RetailArea": 0, "GarageArea": 0, "StrgeArea": 0, "FactryArea": 0, "OtherArea": 0, "AreaSource": "2", "NumBldgs": 3, "NumFloors": 0.0, "UnitsRes": 0, "UnitsTotal": 1, "LotFront": 360.42, "LotDepth": 474.17, "BldgFront": 0.0, "BldgDepth": 0.0, "Ext": "N", "ProxCode": "0", "IrrLotCode": "Y", "LotType": "5", "BsmtCode": "0", "AssessLand": 7213563.0, "AssessTot": 10720800.0, "ExemptTot": 10720800.0, "YearBuilt": 1960, "YearAlter1": 0, "YearAlter2": 0, "HistDist": null, "Landmark": null, "BuiltFAR": 0.0, "ResidFAR": 0.0, "CommFAR": 0.0, "FacilFAR": 0.0, "BoroCode": 3, "BBL": 3084700150.0, "CondoNo": 0, "Tract2010": "0706", "XCoord": 1013944, "YCoord": 162349, "ZoneMap": "23d", "ZMCode": null, "Sanborn": "319 082", "TaxMap": "32502", "EDesigNum": null, "APPBBL": 0.0, "APPDate": null, "PLUTOMapID": "1", "FIRM07_FLA": "1", "PFIRM15_FL": "1", "Version": "25v4", "DCPEdited": "t", "Latitude": 40.6122371, "Longitude": -73.8930508, "Notes": null, "Shape_Leng": 0.0, "Shape_Area": 5135661.9838399999 }, "geometry": { "type": "MultiPolygon", "coordinates": [ [ [ [ -73.896361789261803, 40.611446858969458 ], [ -73.896327196235859, 40.612023920902679 ], [ -73.896309104060776, 40.612594518553543 ], [ -73.896323031911223, 40.613379175400148 ], [ -73.896422002020302, 40.615947789470376 ], [ -73.896393045178939, 40.616959483998272 ], [ -73.89636667170187, 40.616918422749578 ], [ -73.896291727646386, 40.616817565195845 ], [ -73.896276073666115, 40.616793635007653 ], [ -73.896262656364286, 40.616772268802492 ], [ -73.896247013390038, 40.616739796288478 ], [ -73.896232493360316, 40.616705615670256 ], [ -73.896220221144944, 40.616670584239564 ], [ -73.896210188629325, 40.616633846551309 ], [ -73.896201281468421, 40.616595401515106 ], [ -73.896195737663632, 40.616556105004982 ], [ -73.896191317998955, 40.616515102149073 ], [ -73.896190263013466, 40.616472392216387 ], [ -73.896190310884222, 40.616441643096948 ], [ -73.896197154330821, 40.616366481946443 ], [ -73.896196094023864, 40.616327189491663 ], [ -73.896188335105023, 40.616270807232461 ], [ -73.896176096480445, 40.616212716232432 ], [ -73.896171631757483, 40.616199897774429 ], [ -73.896164931583243, 40.616185370765983 ], [ -73.896133611547057, 40.616141780666126 ], [ -73.896123551944498, 40.616125543251322 ], [ -73.896116848286596, 40.616110162639764 ], [ -73.896115740005044, 40.616102472065663 ], [ -73.896114629182037, 40.616095637930329 ], [ -73.896114673093095, 40.616067452610039 ], [ -73.896115843798697, 40.616035848985305 ], [ -73.896126111932247, 40.615919692079203 ], [ -73.896128429377171, 40.615871860349763 ], [ -73.896129658737479, 40.615801820802368 ], [ -73.896128571743631, 40.615780466665072 ], [ -73.89612523783488, 40.615761670700195 ], [ -73.896123009420791, 40.615753127187055 ], [ -73.8961196582149, 40.615745437341602 ], [ -73.89610959770161, 40.615728344485468 ], [ -73.896096176440849, 40.615710394819331 ], [ -73.896071560398113, 40.615681330798076 ], [ -73.896046941588978, 40.615654829567795 ], [ -73.89601896071774, 40.615628327124405 ], [ -73.895987619241708, 40.615600963345223 ], [ -73.895951792054902, 40.615573599168535 ], [ -73.89591148511515, 40.615545374556497 ], [ -73.895863330282339, 40.615517997323479 ], [ -73.895808449150678, 40.61549061488013 ], [ -73.895722203934454, 40.615451245921633 ], [ -73.895722215957974, 40.615443557281779 ], [ -73.895720001090993, 40.615425618680419 ], [ -73.8957166524916, 40.615417073302893 ], [ -73.895713303655711, 40.615409382527311 ], [ -73.895694296768866, 40.615377760556179 ], [ -73.895671722320316, 40.6153419233177 ], [ -73.895665226643757, 40.615331611327697 ], [ -73.895638390485303, 40.615289732446136 ], [ -73.895605957283152, 40.615243578300472 ], [ -73.895595887744179, 40.615231611158187 ], [ -73.895583576507335, 40.61521964281053 ], [ -73.895567903221547, 40.615207668723826 ], [ -73.895544390184156, 40.615191418169637 ], [ -73.89552535386413, 40.615179443690757 ], [ -73.895502954160364, 40.615168318068854 ], [ -73.895426788540263, 40.615134082917713 ], [ -73.895399908397039, 40.615120390306366 ], [ -73.895375272393892, 40.615105848731503 ], [ -73.895355121245743, 40.615090456726051 ], [ -73.895268400046774, 40.615013671180449 ], [ -73.895256620814763, 40.615003241397687 ], [ -73.895163717414178, 40.614921156030576 ], [ -73.895143574565495, 40.614899784547219 ], [ -73.895124560994262, 40.614874141921575 ], [ -73.895108912164147, 40.614846794087946 ], [ -73.895079861765296, 40.614786976625346 ], [ -73.895068693519519, 40.614762195768854 ], [ -73.895060881963701, 40.614739980865352 ], [ -73.895056432199823, 40.614718622801988 ], [ -73.895055340466442, 40.614698975090391 ], [ -73.89505876126168, 40.61466310236262 ], [ -73.895067788474478, 40.614624673721231 ], [ -73.895082425990736, 40.614581979965031 ], [ -73.895106611653674, 40.614527335957931 ], [ -73.895112225857787, 40.614521360806393 ], [ -73.895118397624884, 40.614516242439429 ], [ -73.895153177776706, 40.614495773927231 ], [ -73.895160471117336, 40.614489801144622 ], [ -73.895165805925259, 40.614483399647824 ], [ -73.895166099777754, 40.614475393435193 ], [ -73.89514651576188, 40.61445562257007 ], [ -73.895125246108336, 40.614438520297014 ], [ -73.895099493009226, 40.614421413837015 ], [ -73.895061419633706, 40.614398316733627 ], [ -73.894972954918401, 40.614345276153806 ], [ -73.894916960017213, 40.614315330296868 ], [ -73.894731037926917, 40.614224617814124 ], [ -73.894546236029043, 40.614136469025972 ], [ -73.894505914331589, 40.614118496275445 ], [ -73.894458866461605, 40.614100514643695 ], [ -73.894407335437577, 40.614081675100593 ], [ -73.894334517117812, 40.614058546682266 ], [ -73.894276259676786, 40.614041408245114 ], [ -73.894224723177999, 40.614026842543062 ], [ -73.894175422945153, 40.614015691848643 ], [ -73.894128357756458, 40.614007959760379 ], [ -73.894068966465554, 40.614000219032185 ], [ -73.893873974842492, 40.613976121812762 ], [ -73.893773127218424, 40.613958091027179 ], [ -73.893733906855942, 40.61395292892837 ], [ -73.893721577285305, 40.613952063823341 ], [ -73.893708126127493, 40.613952051358567 ], [ -73.893682341948747, 40.613956298627443 ], [ -73.893670005567543, 40.613959703757075 ], [ -73.893657670237303, 40.613963964407596 ], [ -73.893647572790258, 40.613969078972673 ], [ -73.89363747885389, 40.613974193541452 ], [ -73.893629621540313, 40.613981021226039 ], [ -73.893621760297322, 40.61398955534834 ], [ -73.893594801775023, 40.614026259884049 ], [ -73.893588064262289, 40.614034794210163 ], [ -73.893580206937983, 40.614041620971228 ], [ -73.893555517304719, 40.614061243771346 ], [ -73.893527463245974, 40.61408086168656 ], [ -73.893456771320928, 40.614128629043783 ], [ -73.893425360448305, 40.614146540051735 ], [ -73.893398438784772, 40.614159325772903 ], [ -73.893372645264961, 40.614167842373767 ], [ -73.893360310033486, 40.614171249227702 ], [ -73.893346858407384, 40.614172944166036 ], [ -73.893324439176311, 40.614173776997994 ], [ -73.893299783474944, 40.614172046702066 ], [ -73.893275129414278, 40.614168606278803 ], [ -73.893203415207253, 40.61415572778381 ], [ -73.893182122887268, 40.614153145991885 ], [ -73.893161948065142, 40.614152271680133 ], [ -73.892955706597263, 40.614154643191149 ], [ -73.892877245793912, 40.614154569939409 ], [ -73.892808876765798, 40.614153651463354 ], [ -73.892768529765561, 40.614150196264532 ], [ -73.89272482647992, 40.614143322268397 ], [ -73.892683371465822, 40.614133032872282 ], [ -73.892573573779444, 40.614104744721182 ], [ -73.892542200294088, 40.614097882117811 ], [ -73.89251306682614, 40.614092729050846 ], [ -73.892483928020113, 40.614090139777424 ], [ -73.892452547493093, 40.614088402074415 ], [ -73.892337097130067, 40.614089147447103 ], [ -73.892290024859676, 40.614087394969573 ], [ -73.892191404252344, 40.614077905380668 ], [ -73.892146579351305, 40.614071886551578 ], [ -73.892105118769067, 40.614065867188067 ], [ -73.892064778876644, 40.614058142339751 ], [ -73.892026684347684, 40.61404956415091 ], [ -73.891989710227165, 40.614040134244853 ], [ -73.891954979276406, 40.614029849997294 ], [ -73.891893368600932, 40.614008439706438 ], [ -73.891825036407496, 40.613982748280115 ], [ -73.891612210651417, 40.613898841259427 ], [ -73.891539401840205, 40.613870583467808 ], [ -73.891474431431746, 40.613846606891343 ], [ -73.891413936215699, 40.613826904761481 ], [ -73.891248131937118, 40.613776352705457 ], [ -73.891133859228916, 40.613743785089966 ], [ -73.891083445263732, 40.613728363520636 ], [ -73.891022954272259, 40.613706951984824 ], [ -73.890908698638697, 40.613663280698816 ], [ -73.890766446955368, 40.613605060854894 ], [ -73.890724996965147, 40.61359135594774 ], [ -73.890683544301297, 40.61357935846894 ], [ -73.890642086848032, 40.613571630296207 ], [ -73.890602864649708, 40.613566467126475 ], [ -73.890565878192135, 40.61356557724352 ], [ -73.890532249387093, 40.613567256196909 ], [ -73.890499736209932, 40.613573202773409 ], [ -73.890470579580949, 40.613581717269597 ], [ -73.890436929721588, 40.613596205160867 ], [ -73.890404395769522, 40.613614110673041 ], [ -73.890370738661034, 40.613633725143906 ], [ -73.890338196132959, 40.613656757235077 ], [ -73.890246170448791, 40.613727565424313 ], [ -73.890208003724098, 40.613761694639166 ], [ -73.890191638583687, 40.613773850457115 ], [ -73.890184855766293, 40.613775914249452 ], [ -73.890174643617925, 40.613770204116648 ], [ -73.890166531044741, 40.613762508615928 ], [ -73.890160938975086, 40.613754814608164 ], [ -73.890155074781077, 40.613743705613885 ], [ -73.890145358259147, 40.613688175567141 ], [ -73.890142072572004, 40.613641193177749 ], [ -73.890142211870881, 40.613556631759558 ], [ -73.890147912261668, 40.613498554513136 ], [ -73.890147926332759, 40.613490012192308 ], [ -73.890145695943502, 40.613483177844429 ], [ -73.890143463144696, 40.613476341654 ], [ -73.890140112341982, 40.613470358995251 ], [ -73.890119982486624, 40.613443007939779 ], [ -73.890076355651885, 40.613390862965723 ], [ -73.89000476416858, 40.613304522658318 ], [ -73.8899857450821, 40.613282296655946 ], [ -73.889925326434124, 40.613218177452453 ], [ -73.889894010048366, 40.613177146679938 ], [ -73.889866060874212, 40.613133557168268 ], [ -73.889843720751628, 40.613087411991657 ], [ -73.889825864013261, 40.61304041551049 ], [ -73.889818061459167, 40.613013929169135 ], [ -73.88981362195743, 40.6129874441339 ], [ -73.88981030790049, 40.612959255577564 ], [ -73.889810353063936, 40.612931921252766 ], [ -73.889812669892791, 40.612884944146856 ], [ -73.889814942354874, 40.612867010655414 ], [ -73.889819452411118, 40.612850785838006 ], [ -73.889827328322525, 40.612832855972229 ], [ -73.889839687784075, 40.612814074804263 ], [ -73.889855414187807, 40.612793591431085 ], [ -73.889880677237002, 40.61276628123526 ], [ -73.889886850561496, 40.612761162311806 ], [ -73.889896948317443, 40.612755193475309 ], [ -73.889940688774956, 40.612738152538931 ], [ -73.889958079029114, 40.612728345446527 ], [ -73.88996724723448, 40.612718531384488 ], [ -73.889969873993337, 40.612712127613079 ], [ -73.889972141879966, 40.612695474635018 ], [ -73.8899710498616, 40.612678389837491 ], [ -73.889967737364614, 40.612648491998733 ], [ -73.889964405344529, 40.61262969676843 ], [ -73.889949931708344, 40.61256989188724 ], [ -73.889946606544314, 40.612547680096569 ], [ -73.889946622046807, 40.612538285851507 ], [ -73.889947757754868, 40.612528890003425 ], [ -73.889955637621526, 40.612509250928262 ], [ -73.889968002308464, 40.612487909627532 ], [ -73.889988219170846, 40.612462303770457 ], [ -73.889996078085986, 40.612454622736252 ], [ -73.890007299005376, 40.612446091998251 ], [ -73.890047688891997, 40.612421360158969 ], [ -73.890061156634474, 40.612411125125874 ], [ -73.89007462891108, 40.612397469932574 ], [ -73.890080248706766, 40.612388933903098 ], [ -73.89008587475243, 40.612375272025282 ], [ -73.890089259075566, 40.612361610760736 ], [ -73.890089280194474, 40.612348796440358 ], [ -73.890088181109661, 40.612335984560737 ], [ -73.890083720626933, 40.612321459337203 ], [ -73.890079254316433, 40.612311203601536 ], [ -73.890070867401406, 40.61230009301984 ], [ -73.890062472355282, 40.612293250920835 ], [ -73.890051272792078, 40.61228811533686 ], [ -73.890040069007952, 40.612285540791397 ], [ -73.890024381902577, 40.612282965542903 ], [ -73.889991881088378, 40.612280371492389 ], [ -73.889959379963841, 40.612278631112261 ], [ -73.88993247921978, 40.612279459902553 ], [ -73.889920146984181, 40.612281156351614 ], [ -73.889908935950643, 40.612283708476809 ], [ -73.889898842496507, 40.61228711543739 ], [ -73.88988986923863, 40.612290523389959 ], [ -73.889871332825138, 40.612300092610425 ], [ -73.889711507041739, 40.61238260132491 ], [ -73.889626247472322, 40.612426935677668 ], [ -73.889574649886484, 40.612452084426195 ], [ -73.889564554475811, 40.612455918113 ], [ -73.889554464517033, 40.612457188084036 ], [ -73.889539333042279, 40.612458028114368 ], [ -73.889519723620708, 40.612455021259649 ], [ -73.889501797723355, 40.612450732824428 ], [ -73.889481633371091, 40.612443879344482 ], [ -73.889428991911217, 40.612420765408785 ], [ -73.889377474514305, 40.612396799686785 ], [ -73.889360677342907, 40.612387388305493 ], [ -73.889346120683257, 40.612377979166936 ], [ -73.889310303202592, 40.612348901033933 ], [ -73.889278972889159, 40.612318121615118 ], [ -73.889263241099101, 40.612300091356971 ], [ -73.889258834226439, 40.612295040727574 ], [ -73.889246535306896, 40.612276664494154 ], [ -73.889237603442993, 40.612256583313375 ], [ -73.889235377236005, 40.612248039663086 ], [ -73.889233149710464, 40.612239496096528 ], [ -73.889229934573834, 40.612149804737058 ], [ -73.889227792285965, 40.612090012590372 ], [ -73.889224487246722, 40.612055842730911 ], [ -73.889221145534876, 40.61204302691872 ], [ -73.889215562229481, 40.612030208022617 ], [ -73.889188732537733, 40.611988328540043 ], [ -73.88917978908998, 40.61197379903205 ], [ -73.88912731796907, 40.611849895238983 ], [ -73.889089351821212, 40.611764442281029 ], [ -73.889061426706064, 40.611706333476313 ], [ -73.88903461582818, 40.611653348836555 ], [ -73.889007796353908, 40.61160548903257 ], [ -73.88898096586378, 40.611563609582298 ], [ -73.888941834255931, 40.611505488979631 ], [ -73.888894862297477, 40.611443943283362 ], [ -73.888876977984253, 40.611414884221404 ], [ -73.888872511918279, 40.611404629274169 ], [ -73.88886916767072, 40.611392670728868 ], [ -73.888864754056073, 40.61135166572857 ], [ -73.888861416500973, 40.611337141542393 ], [ -73.8888502715008, 40.611298693824317 ], [ -73.888839110638415, 40.611270494952429 ], [ -73.888835757647158, 40.611264513088209 ], [ -73.888831285791156, 40.611257675620479 ], [ -73.88882569365208, 40.611251689827967 ], [ -73.888818976286188, 40.611246558467336 ], [ -73.888802183535077, 40.611235439643124 ], [ -73.888793224390469, 40.61123115978895 ], [ -73.888779781260283, 40.61122666216621 ], [ -73.888771376151325, 40.611226012834365 ], [ -73.888760726983506, 40.611226857108463 ], [ -73.888731858217525, 40.611231100275454 ], [ -73.888722052745635, 40.611229809320214 ], [ -73.888710851822125, 40.611226380966023 ], [ -73.888699656710443, 40.611218681448115 ], [ -73.888686789497456, 40.611205430455655 ], [ -73.888674489012857, 40.611187481919728 ], [ -73.888656603549208, 40.611159277339056 ], [ -73.888645428745448, 40.611138767090871 ], [ -73.88863649354272, 40.611120819976279 ], [ -73.888632036309289, 40.611104586496879 ], [ -73.888631505457184, 40.611087077143317 ], [ -73.888634888868111, 40.611075548364852 ], [ -73.888642190045928, 40.611065730753943 ], [ -73.888650046807584, 40.611059333929227 ], [ -73.888662384880988, 40.611053366453831 ], [ -73.888676962977542, 40.611048255670163 ], [ -73.888719575108425, 40.611036338114907 ], [ -73.888770031088356, 40.611023575390753 ], [ -73.888805910180935, 40.61101592327995 ], [ -73.888837301764383, 40.611010828858134 ], [ -73.888870932169652, 40.611007443123235 ], [ -73.888981898605593, 40.611003280249847 ], [ -73.889020010581604, 40.611000756087002 ], [ -73.889059246893694, 40.610996521955919 ], [ -73.889090638772487, 40.610990572862477 ], [ -73.889117551679647, 40.610982057466458 ], [ -73.889128769195693, 40.610976945216919 ], [ -73.889139985618598, 40.610971829367294 ], [ -73.889191595492591, 40.610939421770972 ], [ -73.889247700487843, 40.610899756676623 ], [ -73.889300450353716, 40.61085752819146 ], [ -73.889363305879797, 40.610802921762605 ], [ -73.889502495534032, 40.610676639954818 ], [ -73.889759535878753, 40.610448826815123 ], [ -73.889799940176502, 40.610414698049723 ], [ -73.88990880209937, 40.610326823527252 ], [ -73.889948086080494, 40.610292695390669 ], [ -73.890031153691709, 40.610215045698801 ], [ -73.890068194495001, 40.610181770056741 ], [ -73.890180428738432, 40.610087064452571 ], [ -73.890269086185555, 40.610017963198715 ], [ -73.890310608210299, 40.609986398208143 ], [ -73.890352123481506, 40.609958250682034 ], [ -73.890392514542114, 40.609931811272176 ], [ -73.89043290136317, 40.609907932970749 ], [ -73.890485625349953, 40.609879794264636 ], [ -73.890559657063577, 40.609843990891356 ], [ -73.890832216093273, 40.609716981807871 ], [ -73.89087371420419, 40.609699083862182 ], [ -73.890983615433967, 40.609659896853088 ], [ -73.891012778659032, 40.609646258216983 ], [ -73.891022960843429, 40.609641210472532 ], [ -73.891038577717723, 40.609633468386185 ], [ -73.891080086879725, 40.609608738079686 ], [ -73.891124967142048, 40.609578884266696 ], [ -73.891258495494171, 40.609482490374653 ], [ -73.89156146514442, 40.609263259068491 ], [ -73.891629907970028, 40.609216345417451 ], [ -73.891657963503732, 40.609194163234356 ], [ -73.891684900153351, 40.609171124547181 ], [ -73.891706232540727, 40.60914808415999 ], [ -73.891719708051312, 40.609131013044085 ], [ -73.891732068598998, 40.609112233593613 ], [ -73.89174330935441, 40.609091743796562 ], [ -73.89175455159679, 40.609070401323535 ], [ -73.891772557019365, 40.609025146416073 ], [ -73.891804083348191, 40.608936345162668 ], [ -73.891817590661717, 40.608899627421934 ], [ -73.891834463205882, 40.60886291561372 ], [ -73.891853569194851, 40.608830475237824 ], [ -73.891877173438942, 40.608787788478409 ], [ -73.891886164125765, 40.608773276082751 ], [ -73.891899636852756, 40.608757915065951 ], [ -73.891906372205796, 40.608751941042073 ], [ -73.891913104960608, 40.608746823455803 ], [ -73.891947883266326, 40.608725502138604 ], [ -73.89198854935492, 40.60870204947387 ], [ -73.892010698483034, 40.608693958431616 ], [ -73.892017989221458, 40.608690120967374 ], [ -73.89203313968595, 40.608677748564055 ], [ -73.892045489348661, 40.608664095677312 ], [ -73.892054482747227, 40.608647874986538 ], [ -73.892062353876668, 40.608630797634653 ], [ -73.892071373530271, 40.608598347812553 ], [ -73.892082698227881, 40.608526610302967 ], [ -73.892089471203263, 40.608495867485793 ], [ -73.89209177349133, 40.608458283730009 ], [ -73.892098560099058, 40.608419853188181 ], [ -73.892106461129828, 40.608385694863436 ], [ -73.892117722480819, 40.608352394216936 ], [ -73.892125595862538, 40.608335318786381 ], [ -73.892135713475952, 40.608316534421284 ], [ -73.892181774773718, 40.60824824621686 ], [ -73.892198634703647, 40.608218364716379 ], [ -73.892253736241017, 40.608103960314729 ], [ -73.892282988311251, 40.608034799831962 ], [ -73.892295369531993, 40.608001500303999 ], [ -73.892304387607552, 40.607969904978226 ], [ -73.892311160535598, 40.607939160306231 ], [ -73.892315690338904, 40.607910123650953 ], [ -73.892333911214237, 40.607732474306353 ], [ -73.89234472953855, 40.607625715091373 ], [ -73.892349787657295, 40.607616323735073 ], [ -73.892356525607454, 40.607608643242422 ], [ -73.892382341705726, 40.607583896810766 ], [ -73.892388522521642, 40.607573651066936 ], [ -73.89239362042477, 40.607540343772477 ], [ -73.892392556978265, 40.607504469649228 ], [ -73.892390348787501, 40.607483111728229 ], [ -73.892380345603129, 40.607431853658568 ], [ -73.89237702384753, 40.607407934483703 ], [ -73.892375938535025, 40.607384870252766 ], [ -73.892379331619978, 40.607366081394083 ], [ -73.892381588216736, 40.607356688325915 ], [ -73.892386082288112, 40.607349004805592 ], [ -73.892390576185335, 40.607342176806704 ], [ -73.892395069913036, 40.607336201570277 ], [ -73.892473646588243, 40.60726025416993 ], [ -73.892537625876642, 40.607199669433307 ], [ -73.892576906845918, 40.607164684949772 ], [ -73.892584762085889, 40.607158713774673 ], [ -73.892594857656547, 40.607152744613487 ], [ -73.89261840961214, 40.607143370646483 ], [ -73.892644197655642, 40.607136562574375 ], [ -73.892706978517012, 40.607123806898791 ], [ -73.892722676596989, 40.607119552171298 ], [ -73.892737253359755, 40.607115293798756 ], [ -73.892784352142584, 40.607098255839162 ], [ -73.892804538835321, 40.607089733290756 ], [ -73.892823609258599, 40.607079499570787 ], [ -73.892830339470081, 40.607074381845457 ], [ -73.892837074570124, 40.607068407764821 ], [ -73.892852790635359, 40.607052192371256 ], [ -73.892869630747583, 40.607034273340155 ], [ -73.892912313798661, 40.606975374104977 ], [ -73.892974100342471, 40.60688403604216 ], [ -73.892983083950668, 40.606872942881637 ], [ -73.892994310078734, 40.606861848129881 ], [ -73.893006655102141, 40.606850755259885 ], [ -73.893020121267583, 40.606840519038713 ], [ -73.893053774176792, 40.606820903698093 ], [ -73.893091908370337, 40.606803001812537 ], [ -73.893178257155924, 40.60676977019628 ], [ -73.893274696775691, 40.606734837783051 ], [ -73.893378980636541, 40.606699917182794 ], [ -73.893553908710416, 40.606642849706951 ], [ -73.893846572940873, 40.606546600478453 ], [ -73.894002430441247, 40.606498057925194 ], [ -73.894107828082937, 40.606467405182762 ], [ -73.894235654550926, 40.606428232532359 ], [ -73.894288352672902, 40.606412904727399 ], [ -73.894374683982619, 40.6063907756661 ], [ -73.894384213032225, 40.606388648396482 ], [ -73.894402705100177, 40.606388240342476 ], [ -73.894450890461243, 40.606392554116788 ], [ -73.89446658150068, 40.606392568558071 ], [ -73.894481151379452, 40.606391727363828 ], [ -73.894490682305829, 40.606389175924782 ], [ -73.894526005248082, 40.606375539386434 ], [ -73.894559651933761, 40.606360195771593 ], [ -73.894595546501989, 40.606341438483931 ], [ -73.894694257433997, 40.606286008479103 ], [ -73.89472678262409, 40.606270662782862 ], [ -73.894755941157243, 40.606257877877944 ], [ -73.894887147189124, 40.606206747691822 ], [ -73.895093502323817, 40.606116396518011 ], [ -73.895167523369068, 40.606083152129031 ], [ -73.895268414875346, 40.606035849247668 ], [ -73.895287529713684, 40.606026887316432 ], [ -73.895368284250964, 40.605986814890208 ], [ -73.895556720332834, 40.605887902352826 ], [ -73.895607193458432, 40.605863178570452 ], [ -73.895654294897184, 40.605841866509579 ], [ -73.895696910476943, 40.605824822356773 ], [ -73.895744005054411, 40.605808636025934 ], [ -73.895800626398454, 40.605792459168107 ], [ -73.895871821550188, 40.605772878950454 ], [ -73.896073629779266, 40.605723519868505 ], [ -73.896174537288502, 40.605695424048399 ], [ -73.896405512413381, 40.605626445899119 ], [ -73.896462694696211, 40.605610267465572 ], [ -73.896516510299094, 40.605596650609634 ], [ -73.896566959239166, 40.605585591820521 ], [ -73.896618528131356, 40.605575388620778 ], [ -73.896673458354428, 40.605566041188425 ], [ -73.896729505995637, 40.605558406618911 ], [ -73.896787793909681, 40.60555077044063 ], [ -73.896850564335381, 40.605543993787066 ], [ -73.896986190626464, 40.605532156801438 ], [ -73.897184575599965, 40.605519522181609 ], [ -73.89732692458783, 40.605508546344929 ], [ -73.897366936053118, 40.605504177471708 ], [ -73.897427803875132, 40.605497531403095 ], [ -73.897474886976283, 40.605489886692993 ], [ -73.897526454342852, 40.605480537604024 ], [ -73.89766629445748, 40.605447287578727 ], [ -73.897663667287958, 40.605468647359601 ], [ -73.897630872042157, 40.605735278633411 ], [ -73.897553451277517, 40.606323610024006 ], [ -73.897396246883275, 40.60702301315709 ], [ -73.897206470085479, 40.607592762248657 ], [ -73.897040200268592, 40.608023218772999 ], [ -73.896827745474013, 40.608602681507413 ], [ -73.896731366024952, 40.608954578624676 ], [ -73.896641399415074, 40.609322409903129 ], [ -73.896554006594343, 40.609726769427773 ], [ -73.896456275105848, 40.610417845411995 ], [ -73.896385678042492, 40.61109126762139 ], [ -73.896361789261803, 40.611446858969458 ] ] ], [ [ [ -73.89634630049143, 40.618592649648178 ], [ -73.89626134692719, 40.621560554682254 ], [ -73.896210421336264, 40.621524769821661 ], [ -73.896174586534173, 40.621501676891846 ], [ -73.896154426745667, 40.621489698834161 ], [ -73.896090582138996, 40.62145718451103 ], [ -73.896072664055367, 40.621446063069932 ], [ -73.896056986790654, 40.621434943656524 ], [ -73.895994299705322, 40.621379367065693 ], [ -73.895881241518069, 40.621275911850603 ], [ -73.895796169206164, 40.621198106251981 ], [ -73.895777145817434, 40.621176735829508 ], [ -73.895760365678782, 40.621154510164082 ], [ -73.895744712332672, 40.621128872554024 ], [ -73.895732425231856, 40.621101529720811 ], [ -73.895721259952438, 40.621072476863645 ], [ -73.895711221706151, 40.621039155708097 ], [ -73.895690071174087, 40.620945178992557 ], [ -73.895612201111689, 40.620564151272625 ], [ -73.895588836242354, 40.620450526737613 ], [ -73.89557435828911, 40.620390722618112 ], [ -73.895553164372188, 40.620323224738357 ], [ -73.895534086309851, 40.620266110069664 ], [ -73.895528619968886, 40.620249745110613 ], [ -73.895448256912829, 40.620028443030009 ], [ -73.895375707844678, 40.619829356513534 ], [ -73.895323239411098, 40.619691790259765 ], [ -73.895315433899654, 40.619665304227304 ], [ -73.895309872929474, 40.619637110204025 ], [ -73.895307678017218, 40.619607214568155 ], [ -73.895308847959299, 40.619575610961903 ], [ -73.895309990941897, 40.619561946588966 ], [ -73.895313375908188, 40.619547427903797 ], [ -73.895325758826857, 40.619514980848365 ], [ -73.895335886990466, 40.619488512100695 ], [ -73.89534265529231, 40.619462039450255 ], [ -73.895349466486479, 40.619408233244258 ], [ -73.895357491820135, 40.619294637281577 ], [ -73.89536317100665, 40.619245954969607 ], [ -73.895368837855798, 40.619206668656055 ], [ -73.895375611607292, 40.619175925680075 ], [ -73.895383504064739, 40.619147743845389 ], [ -73.89539362946978, 40.619122983371668 ], [ -73.895425110337442, 40.619062367531086 ], [ -73.895458827380864, 40.619006022959972 ], [ -73.895494779606963, 40.618953952583297 ], [ -73.895534088559472, 40.618905300812102 ], [ -73.89563291063061, 40.618790932880735 ], [ -73.895759803748604, 40.618645841221344 ], [ -73.895785636076582, 40.61861340549931 ], [ -73.895810354999483, 40.61857499282727 ], [ -73.895831714217223, 40.618535719821494 ], [ -73.895884557311433, 40.618434977079367 ], [ -73.895901415726172, 40.618405949748599 ], [ -73.895918269886295, 40.618380340731711 ], [ -73.896016008977995, 40.618240347171991 ], [ -73.896114882467728, 40.618091813145995 ], [ -73.896130612536339, 40.618067057681266 ], [ -73.896145229931832, 40.61803888196512 ], [ -73.896159852876281, 40.618005582243164 ], [ -73.89620260397642, 40.617904832055139 ], [ -73.896218349325068, 40.617873242543823 ], [ -73.896235204684714, 40.617845923357628 ], [ -73.896243066400885, 40.617835680778903 ], [ -73.896253169795514, 40.617825439305854 ], [ -73.896266639007663, 40.6178143480317 ], [ -73.896312646850319, 40.617781930433971 ], [ -73.896324994544315, 40.617770839980615 ], [ -73.896333980165082, 40.617759741967959 ], [ -73.896353083856837, 40.617729010073788 ], [ -73.896368824261629, 40.617697421457052 ], [ -73.896372182369063, 40.617688390650549 ], [ -73.89634630049143, 40.618592649648178 ] ] ] ] } },
{ "type": "Feature", "properties": { "Borough": "BK", "Block": 8470, "Lot": 1350, "CD": 318, "BCT2020": "3070602", "BCTCB2020": "30706021001", "CT2010": "706", "CB2010": "2001", "SchoolDist": "22", "Council": 46, "ZipCode": 11234, "FireComp": "E323", "PolicePrct": 63, "HealthCent": 35, "HealthArea": 8822, "Sanitboro": "3", "SanitDistr": "18", "SanitSub": "4C", "Address": "2333 BERGEN AVENUE", "ZoneDist1": "PARK", "ZoneDist2": null, "ZoneDist3": null, "ZoneDist4": null, "Overlay1": null, "Overlay2": null, "SPDist1": null, "SPDist2": null, "SPDist3": null, "LtdHeight": null, "SplitZone": "N", "BldgClass": "Y7", "LandUse": "07", "Easements": 0, "OwnerType": "C", "OwnerName": "NYC DEPARTMENT OF PARKS AND RECREATION", "LotArea": 3140349, "BldgArea": 7000, "ComArea": 7000, "ResArea": 0, "OfficeArea": 7000, "RetailArea": 0, "GarageArea": 0, "StrgeArea": 0, "FactryArea": 0, "OtherArea": 0, "AreaSource": "2", "NumBldgs": 4, "NumFloors": 0.0, "UnitsRes": 0, "UnitsTotal": 1, "LotFront": 578.42, "LotDepth": 158.25, "BldgFront": 0.0, "BldgDepth": 0.0, "Ext": "N", "ProxCode": "0", "IrrLotCode": "Y", "LotType": "5", "BsmtCode": "0", "AssessLand": 11355586.0, "AssessTot": 16634250.0, "ExemptTot": 16634250.0, "YearBuilt": 1930, "YearAlter1": 0, "YearAlter2": 0, "HistDist": null, "Landmark": null, "BuiltFAR": 0.0, "ResidFAR": 0.0, "CommFAR": 0.0, "FacilFAR": 0.0, "BoroCode": 3, "BBL": 3084701349.9999995, "CondoNo": 0, "Tract2010": "0706", "XCoord": 1012184, "YCoord": 162860, "ZoneMap": "23d", "ZMCode": null, "Sanborn": "315 064", "TaxMap": "32502", "EDesigNum": null, "APPBBL": 0.0, "APPDate": null, "PLUTOMapID": "1", "FIRM07_FLA": "1", "PFIRM15_FL": "1", "Version": "25v4", "DCPEdited": "t", "Latitude": 40.6136454, "Longitude": -73.8993877, "Notes": null, "Shape_Leng": 0.0, "Shape_Area": 3124911.3682300001 }, "geometry": { "type": "MultiPolygon", "coordinates": [ [ [ [ -73.897844690429764, 40.61699845156155 ], [ -73.897880465452928, 40.616096350426837 ], [ -73.897708138586637, 40.613814738424985 ], [ -73.897685243759128, 40.613076666694162 ], [ -73.897698382340309, 40.612345256718257 ], [ -73.897756577585994, 40.611197983244395 ], [ -73.897785333930614, 40.61080876504807 ], [ -73.897809376450624, 40.610588380472997 ], [ -73.897872755293221, 40.610142626894266 ], [ -73.897954731010415, 40.609760794364455 ], [ -73.898160957498732, 40.608923584292349 ], [ -73.898513337303768, 40.607922677675582 ], [ -73.898776673634799, 40.606996222988933 ], [ -73.898908766021137, 40.606471547369594 ], [ -73.899021232379425, 40.605861505601958 ], [ -73.899084646555352, 40.605433131364308 ], [ -73.899105609167322, 40.605435812421419 ], [ -73.899124738853828, 40.605437044353273 ], [ -73.899953977905653, 40.60597266137615 ], [ -73.900242420870839, 40.608305417028625 ], [ -73.900383059447748, 40.609442749020332 ], [ -73.90038283982075, 40.609442946353909 ], [ -73.90034132526884, 40.609473660382974 ], [ -73.900331223653183, 40.6094839031432 ], [ -73.900323361171843, 40.609494999690014 ], [ -73.900300888614737, 40.609533417989944 ], [ -73.900295265081127, 40.609546223927765 ], [ -73.900290763997532, 40.609559033519211 ], [ -73.900285109982519, 40.609591486987192 ], [ -73.900282813546141, 40.609628213623814 ], [ -73.900285021852142, 40.609650423310008 ], [ -73.900297277988244, 40.609699120582889 ], [ -73.900300607661549, 40.60972133216243 ], [ -73.900300573180715, 40.609744394416978 ], [ -73.900299412227852, 40.609770873261105 ], [ -73.900289195795452, 40.609857133305596 ], [ -73.900286904459691, 40.609890444299367 ], [ -73.900284627175168, 40.609914358366922 ], [ -73.900274452671326, 40.609973288592855 ], [ -73.900272168992814, 40.610001471981995 ], [ -73.900274387525286, 40.610016849464976 ], [ -73.900277728771329, 40.610030519555295 ], [ -73.900284434304936, 40.610043337050975 ], [ -73.900292263648183, 40.610054449079797 ], [ -73.900313528120947, 40.610074967048789 ], [ -73.900350468101351, 40.610105748336409 ], [ -73.900397489225711, 40.610140811376922 ], [ -73.900407561477905, 40.61015021522315 ], [ -73.90041651477685, 40.610159618179217 ], [ -73.900450075305997, 40.610202354481174 ], [ -73.900482804178353, 40.610249377115885 ], [ -73.900488703103434, 40.610297080638261 ], [ -73.900556678492393, 40.610356795155774 ], [ -73.900557438469335, 40.610357906337406 ], [ -73.900568619522701, 40.610375852628344 ], [ -73.900584256739847, 40.610412595653344 ], [ -73.900592078605968, 40.610427977065832 ], [ -73.900605497226934, 40.610449341859088 ], [ -73.900621157569645, 40.610469856670093 ], [ -73.900639055602113, 40.610492080864006 ], [ -73.900660320257685, 40.610513451528867 ], [ -73.900683824096689, 40.610535679568073 ], [ -73.900710689490296, 40.610558766118274 ], [ -73.900782336461859, 40.610615204319117 ], [ -73.901126032441468, 40.610877728275703 ], [ -73.901217832614293, 40.610948702684176 ], [ -73.901274927233203, 40.610994021060371 ], [ -73.901325302300208, 40.611035920573961 ], [ -73.901371195627604, 40.611076105332714 ], [ -73.901412606048211, 40.611115432453921 ], [ -73.901427154031182, 40.611131673189433 ], [ -73.90143945672375, 40.611149621278109 ], [ -73.901450635513385, 40.611169274842929 ], [ -73.901459569116966, 40.611190637437431 ], [ -73.901466262038653, 40.611213707309531 ], [ -73.901470707474161, 40.611238480854531 ], [ -73.901472911179766, 40.611264106154287 ], [ -73.90147287331591, 40.611289731369418 ], [ -73.901472821568461, 40.611324752589212 ], [ -73.901471676198142, 40.611340981672306 ], [ -73.901469424366979, 40.611348666550334 ], [ -73.901466052515985, 40.61135549678481 ], [ -73.901461560539346, 40.611361470617766 ], [ -73.9014531411961, 40.611368726115813 ], [ -73.901442482698087, 40.611375976007011 ], [ -73.901405469523212, 40.611393881703002 ], [ -73.901396495598718, 40.611399852516023 ], [ -73.901389760830625, 40.611405826175329 ], [ -73.901372919204391, 40.61142631116892 ], [ -73.901358311724792, 40.611451071006726 ], [ -73.901350437867592, 40.611469000827412 ], [ -73.901343684019778, 40.61148949357451 ], [ -73.901332391514487, 40.611545859117044 ], [ -73.901328989137141, 40.611574045157532 ], [ -73.901330072613689, 40.611599669495277 ], [ -73.901336762073157, 40.611623592215757 ], [ -73.901341228804441, 40.611634700357484 ], [ -73.901346816986745, 40.611644955781451 ], [ -73.90136359539143, 40.611667177055722 ], [ -73.90138261917798, 40.61168854657619 ], [ -73.90140500600954, 40.611707358779498 ], [ -73.90142851935569, 40.611723607304306 ], [ -73.901515866801503, 40.611775786445634 ], [ -73.90158081605037, 40.611815988317716 ], [ -73.901603214273791, 40.611827965602622 ], [ -73.901626739049803, 40.611836528121522 ], [ -73.901637943210943, 40.611839098775945 ], [ -73.901649148629019, 40.611840816670728 ], [ -73.901660354210634, 40.611841679962083 ], [ -73.901674926341983, 40.611841692458022 ], [ -73.901686136797551, 40.611839994707893 ], [ -73.90170183310866, 40.611835737916181 ], [ -73.90174669370812, 40.611817837930779 ], [ -73.901774733129969, 40.611805050290805 ], [ -73.901840908377849, 40.611773503181816 ], [ -73.901873432193582, 40.611759862915029 ], [ -73.901935115433204, 40.611733438595898 ], [ -73.901964271159898, 40.611724066591172 ], [ -73.901978845873415, 40.611720662485091 ], [ -73.901993419390635, 40.611718967495996 ], [ -73.902005749912433, 40.611718978034119 ], [ -73.902022120680769, 40.611722028598173 ], [ -73.902027773611678, 40.61173095491629 ], [ -73.902106500918492, 40.611802770196974 ], [ -73.902137844420224, 40.61182842311689 ], [ -73.902166953632545, 40.611851510234729 ], [ -73.902272197182867, 40.611927620108858 ], [ -73.902344975740604, 40.611978932601865 ], [ -73.902352814370389, 40.611984917807312 ], [ -73.90239536097414, 40.612014851278829 ], [ -73.902406557692032, 40.612022546784708 ], [ -73.902469258780414, 40.612067015565856 ], [ -73.902552785336994, 40.612125460253615 ], [ -73.89828668106847, 40.615000305406596 ], [ -73.898221218419181, 40.616635046389831 ], [ -73.898213060539348, 40.616780832519922 ], [ -73.898208920120069, 40.616854829942348 ], [ -73.898203166527921, 40.616957624612716 ], [ -73.898186185904891, 40.617261066815068 ], [ -73.898177692503026, 40.617412868977254 ], [ -73.901694561612658, 40.620582260827142 ], [ -73.900571984477949, 40.621317673309981 ], [ -73.899807842841653, 40.621818245607528 ], [ -73.899799369059068, 40.621819231515424 ], [ -73.899745560240618, 40.621820890938224 ], [ -73.899695117627331, 40.62181914039634 ], [ -73.899534838506554, 40.621805332870906 ], [ -73.899408187175041, 40.621791556540401 ], [ -73.899337578992458, 40.6217812430693 ], [ -73.899300591223536, 40.621778933173999 ], [ -73.899291059356671, 40.62178077631507 ], [ -73.899265820703434, 40.621791431599441 ], [ -73.899257970601354, 40.621793986667122 ], [ -73.899204139917344, 40.621809314825796 ], [ -73.899144707679127, 40.621822072475425 ], [ -73.899080791480316, 40.621835684347573 ], [ -73.899006788474736, 40.621847578101523 ], [ -73.898978757249168, 40.621851822823658 ], [ -73.898949607149405, 40.621854360029147 ], [ -73.898919339169623, 40.621855187960328 ], [ -73.898885707808986, 40.621856012918649 ], [ -73.898825179537312, 40.621853395744566 ], [ -73.898682828221126, 40.621844727768412 ], [ -73.898615570589556, 40.621842961816604 ], [ -73.898534854814969, 40.621845451570017 ], [ -73.89837902346585, 40.621854710546629 ], [ -73.898315121395697, 40.621858071398428 ], [ -73.898247861062131, 40.621858864513342 ], [ -73.898236652743009, 40.621858001810075 ], [ -73.898188452070229, 40.621856249837073 ], [ -73.898117838480189, 40.621851061375018 ], [ -73.898042743969143, 40.621842454082049 ], [ -73.897962052912519, 40.621829568841171 ], [ -73.897872399428763, 40.621813259923243 ], [ -73.897721108355512, 40.621784937940461 ], [ -73.897717053776915, 40.621784027853685 ], [ -73.897949930740026, 40.621392653030611 ], [ -73.89832836174844, 40.620756647658851 ], [ -73.899000484992072, 40.61962701523619 ], [ -73.899104110342577, 40.619452849508946 ], [ -73.897812269572682, 40.617423898674367 ], [ -73.897825246457842, 40.617343610861312 ], [ -73.897844690429764, 40.61699845156155 ] ] ] ] } },
{ "type": "Feature", "properties": { "Borough": "BK", "Block": 8470, "Lot": 1400, "CD": 318, "BCT2020": "3069602", "BCTCB2020": "30696023006", "CT2010": "696.02", "CB2010": "3008", "SchoolDist": "22", "Council": 46, "ZipCode": 11234, "FireComp": "E323", "PolicePrct": 63, "HealthCent": 35, "HealthArea": 8822, "Sanitboro": "3", "SanitDistr": "18", "SanitSub": "4C", "Address": "BERGEN AVENUE", "ZoneDist1": "PARK", "ZoneDist2": null, "ZoneDist3": null, "ZoneDist4": null, "Overlay1": null, "Overlay2": null, "SPDist1": null, "SPDist2": null, "SPDist3": null, "LtdHeight": null, "SplitZone": "N", "BldgClass": "Q0", "LandUse": "09", "Easements": 0, "OwnerType": "C", "OwnerName": "NYC DEPARTMENT OF PARKS AND RECREATION", "LotArea": 999900, "BldgArea": 0, "ComArea": 0, "ResArea": 0, "OfficeArea": 0, "RetailArea": 0, "GarageArea": 0, "StrgeArea": 0, "FactryArea": 0, "OtherArea": 0, "AreaSource": "7", "NumBldgs": 0, "NumFloors": 0.0, "UnitsRes": 0, "UnitsTotal": 0, "LotFront": 893.83, "LotDepth": 116.25, "BldgFront": 0.0, "BldgDepth": 0.0, "Ext": null, "ProxCode": "0", "IrrLotCode": "Y", "LotType": "5", "BsmtCode": "5", "AssessLand": 33342300.0, "AssessTot": 33342300.0, "ExemptTot": 33342300.0, "YearBuilt": 0, "YearAlter1": 0, "YearAlter2": 0, "HistDist": null, "Landmark": null, "BuiltFAR": 0.0, "ResidFAR": 0.0, "CommFAR": 0.0, "FacilFAR": 0.0, "BoroCode": 3, "BBL": 3084701400.0, "CondoNo": 0, "Tract2010": "069602", "XCoord": 1011629, "YCoord": 166068, "ZoneMap": "23d", "ZMCode": null, "Sanborn": "315 062", "TaxMap": "32502", "EDesigNum": null, "APPBBL": 0.0, "APPDate": null, "PLUTOMapID": "1", "FIRM07_FLA": "1", "PFIRM15_FL": "1", "Version": "25v4", "DCPEdited": "t", "Latitude": 40.6224524, "Longitude": -73.9013737, "Notes": null, "Shape_Leng": 0.0, "Shape_Area": 499551.87827099999 }, "geometry": { "type": "MultiPolygon", "coordinates": [ [ [ [ -73.900571984477949, 40.621317673309981 ], [ -73.901694561612658, 40.620582260827142 ], [ -73.90363068328044, 40.622335467825799 ], [ -73.902850379656996, 40.62335019746191 ], [ -73.902753431493906, 40.623476267472491 ], [ -73.902737325834806, 40.623462601626692 ], [ -73.902729488280755, 40.62345576093707 ], [ -73.902707084596528, 40.623444639490671 ], [ -73.902691389361564, 40.623446333536066 ], [ -73.902673446098134, 40.623450590394853 ], [ -73.902629705659152, 40.623464218595558 ], [ -73.902565768668381, 40.623490643194856 ], [ -73.902528757739162, 40.623504277157316 ], [ -73.902508567559281, 40.623510239440932 ], [ -73.902430078054735, 40.623523840786071 ], [ -73.90239419255397, 40.623532351657246 ], [ -73.902376251752671, 40.623534898350144 ], [ -73.902367284456716, 40.623534464796911 ], [ -73.902355800716549, 40.623530182019437 ], [ -73.902344322494145, 40.623522059523694 ], [ -73.902339285892282, 40.623516075793603 ], [ -73.902332573674798, 40.623507528591261 ], [ -73.902306847774568, 40.623468216141404 ], [ -73.902285589694799, 40.623440009101529 ], [ -73.902281114503722, 40.623434026682126 ], [ -73.902262097171416, 40.623406676146928 ], [ -73.902243088462754, 40.623374202529178 ], [ -73.902229681753468, 40.623342587364832 ], [ -73.902220760058725, 40.623311828782235 ], [ -73.902205164022078, 40.623244338688004 ], [ -73.902197359129858, 40.623215288499324 ], [ -73.902182853396937, 40.623169153301312 ], [ -73.902176147544793, 40.623155481336788 ], [ -73.902168317606083, 40.623143514851762 ], [ -73.902131387126786, 40.623100777079266 ], [ -73.902079899639887, 40.623046918986034 ], [ -73.902064229778986, 40.623029823634944 ], [ -73.902021710194433, 40.622976829612405 ], [ -73.901994844264522, 40.622950327763157 ], [ -73.901982530408375, 40.622939213876705 ], [ -73.901969089998417, 40.622930660901297 ], [ -73.901955649387759, 40.622923815370676 ], [ -73.901943326800506, 40.622917824473049 ], [ -73.901929878860059, 40.622914398253918 ], [ -73.90191643076497, 40.622911822952837 ], [ -73.901882803888611, 40.622910085911954 ], [ -73.90184244483855, 40.622910905980525 ], [ -73.901759488348716, 40.622913396919287 ], [ -73.901738186662783, 40.62291423419255 ], [ -73.901725857641765, 40.622913368109437 ], [ -73.901709045856464, 40.622910150561765 ], [ -73.901683279410292, 40.622898811693219 ], [ -73.901646321442968, 40.62287657227305 ], [ -73.901599280771904, 40.622847489227482 ], [ -73.901578559883959, 40.622835939403913 ], [ -73.9015690363358, 40.622832088749107 ], [ -73.901555590846527, 40.622828661569415 ], [ -73.901502911784547, 40.622822635060004 ], [ -73.901492824952641, 40.622820066192375 ], [ -73.9014838595443, 40.62281834845556 ], [ -73.901408786138362, 40.622796077134886 ], [ -73.901350522938756, 40.622776381265773 ], [ -73.901301225172517, 40.622758400526052 ], [ -73.901265379205313, 40.622741286781888 ], [ -73.901219453935852, 40.622716477543939 ], [ -73.901178015076979, 40.622690817635203 ], [ -73.901147778411797, 40.622670289449673 ], [ -73.901116425191375, 40.622647200086924 ], [ -73.901106349746826, 40.622637796316027 ], [ -73.901083966996438, 40.622613006399234 ], [ -73.901068571247791, 40.62260018138965 ], [ -73.90105709017449, 40.622594192964002 ], [ -73.901047005875554, 40.622590765862427 ], [ -73.901016751476803, 40.622583052953594 ], [ -73.901007786341253, 40.622579628654599 ], [ -73.900999948886309, 40.622575349806581 ], [ -73.900979790501736, 40.622560813315289 ], [ -73.900962999289035, 40.62254457060984 ], [ -73.900949572989077, 40.622527474366031 ], [ -73.900938953205412, 40.62250824718118 ], [ -73.900936161982955, 40.622499277361761 ], [ -73.900933963132303, 40.622471086526069 ], [ -73.900932295967962, 40.622461262240776 ], [ -73.900907179027371, 40.622390772177241 ], [ -73.900889305773802, 40.622348048706918 ], [ -73.900858021383755, 40.622278834741984 ], [ -73.900840138027306, 40.622242945215255 ], [ -73.900809385962773, 40.622192522872531 ], [ -73.900807715012022, 40.622185260542416 ], [ -73.900808846111417, 40.622178856993486 ], [ -73.900812223596574, 40.622169463909295 ], [ -73.900818967190929, 40.622157509932372 ], [ -73.900823458746345, 40.62215153437333 ], [ -73.90083019591728, 40.62214470799433 ], [ -73.900853770022493, 40.622121666036868 ], [ -73.900862751662359, 40.622113132395519 ], [ -73.90087286134488, 40.622098620200447 ], [ -73.900879611205511, 40.622083251504648 ], [ -73.900882996467743, 40.622067878980864 ], [ -73.900883007896866, 40.622060191266115 ], [ -73.900883019324752, 40.622052504387732 ], [ -73.900877459614151, 40.622021748683338 ], [ -73.900867419748664, 40.621988428819883 ], [ -73.900855141824138, 40.621953397902843 ], [ -73.9008316910829, 40.621892731267259 ], [ -73.900760217705113, 40.621711587557492 ], [ -73.900730059189698, 40.62163895704424 ], [ -73.900725585596049, 40.621631265447334 ], [ -73.900719991648174, 40.621623573800619 ], [ -73.900712155718438, 40.621616735650818 ], [ -73.900704318523239, 40.621610749421869 ], [ -73.900693674913057, 40.621606041283556 ], [ -73.900685832457327, 40.621604325292658 ], [ -73.900676303620855, 40.621604175653871 ], [ -73.900600040739477, 40.621627741911894 ], [ -73.900548448415918, 40.621646488365535 ], [ -73.900530506140768, 40.621650316208786 ], [ -73.900516493570123, 40.621650091556305 ], [ -73.900504729294198, 40.621645595848229 ], [ -73.900495774199641, 40.621637900354827 ], [ -73.90048010373512, 40.621622511309184 ], [ -73.900473945176898, 40.621617807962068 ], [ -73.90043978995034, 40.621595145498475 ], [ -73.900415893857385, 40.621582168120433 ], [ -73.900400570467156, 40.621584433082035 ], [ -73.90037925444085, 40.621595946700978 ], [ -73.900357938872872, 40.621607884313036 ], [ -73.900310808793662, 40.621640304382588 ], [ -73.900273782142079, 40.621662478177548 ], [ -73.900232271376225, 40.62168635893358 ], [ -73.900113354830751, 40.621747755563966 ], [ -73.900076337011811, 40.621763952452575 ], [ -73.900034838992696, 40.621778437226638 ], [ -73.89998661903536, 40.621790352238747 ], [ -73.899924946209637, 40.62180225733416 ], [ -73.899857670627682, 40.621812448386883 ], [ -73.899807842841653, 40.621818245607528 ], [ -73.900571984477949, 40.621317673309981 ] ] ] ] } },
{ "type": "Feature", "properties": { "Borough": "BK", "Block": 8455, "Lot": 1, "CD": 318, "BCT2020": "3070602", "BCTCB2020": "30706021001", "CT2010": "706", "CB2010": "2010", "SchoolDist": "22", "Council": 46, "ZipCode": 11234, "FireComp": "E323", "PolicePrct": 63, "HealthCent": 35, "HealthArea": 8822, "Sanitboro": "3", "SanitDistr": "18", "SanitSub": "4C", "Address": "2460 EAST 69 STREET", "ZoneDist1": "M1-1", "ZoneDist2": null, "ZoneDist3": null, "ZoneDist4": null, "Overlay1": null, "Overlay2": null, "SPDist1": null, "SPDist2": null, "SPDist3": null, "LtdHeight": null, "SplitZone": "N", "BldgClass": "G7", "LandUse": "10", "Easements": 0, "OwnerType": null, "OwnerName": "CORAL HEADQUARTERS L.L.C.", "LotArea": 76000, "BldgArea": 0, "ComArea": 0, "ResArea": 0, "OfficeArea": 0, "RetailArea": 0, "GarageArea": 0, "StrgeArea": 0, "FactryArea": 0, "OtherArea": 0, "AreaSource": "7", "NumBldgs": 0, "NumFloors": 0.0, "UnitsRes": 0, "UnitsTotal": 0, "LotFront": 380.0, "LotDepth": 200.0, "BldgFront": 0.0, "BldgDepth": 0.0, "Ext": null, "ProxCode": "0", "IrrLotCode": "N", "LotType": "3", "BsmtCode": "5", "AssessLand": 1232550.0, "AssessTot": 1232550.0, "ExemptTot": 0.0, "YearBuilt": 0, "YearAlter1": 0, "YearAlter2": 0, "HistDist": null, "Landmark": null, "BuiltFAR": 0.0, "ResidFAR": 0.0, "CommFAR": 1.0, "FacilFAR": 2.4, "BoroCode": 3, "BBL": 3084550000.9999995, "CondoNo": 0, "Tract2010": "0706", "XCoord": 1011160, "YCoord": 162615, "ZoneMap": "23d", "ZMCode": null, "Sanborn": "315 073", "TaxMap": "32502", "EDesigNum": null, "APPBBL": 0.0, "APPDate": null, "PLUTOMapID": "1", "FIRM07_FLA": "1", "PFIRM15_FL": "1", "Version": "25v4", "DCPEdited": null, "Latitude": 40.6129761, "Longitude": -73.9030769, "Notes": null, "Shape_Leng": 0.0, "Shape_Area": 75367.020751899996 }, "geometry": { "type": "MultiPolygon", "coordinates": [ [ [ [ -73.902908824569948, 40.612405958528257 ], [ -73.902917088545337, 40.612410767691273 ], [ -73.902918711620515, 40.612411618312123 ], [ -73.903789645957104, 40.613195791715462 ], [ -73.903789148072619, 40.613196111888918 ], [ -73.903239849017581, 40.613549388485552 ], [ -73.902361048972907, 40.612754248614145 ], [ -73.902908824569948, 40.612405958528257 ] ] ] ] } },
{ "type": "Feature", "properties": { "Borough": "BK", "Block": 8455, "Lot": 25, "CD": 318, "BCT2020": "3070602", "BCTCB2020": "30706021001", "CT2010": "706", "CB2010": "2010", "SchoolDist": "22", "Council": 46, "ZipCode": 11234, "FireComp": "E323", "PolicePrct": 63, "HealthCent": 35, "HealthArea": 8822, "Sanitboro": "3", "SanitDistr": "18", "SanitSub": "4C", "Address": "2402 EAST 69 STREET", "ZoneDist1": "M1-1", "ZoneDist2": null, "ZoneDist3": null, "ZoneDist4": null, "Overlay1": null, "Overlay2": null, "SPDist1": null, "SPDist2": null, "SPDist3": null, "LtdHeight": null, "SplitZone": "N", "BldgClass": "G1", "LandUse": "10", "Easements": 0, "OwnerType": null, "OwnerName": "PIZZIRUSSO BROS. REALTY LLC", "LotArea": 24000, "BldgArea": 2625, "ComArea": 2625, "ResArea": 0, "OfficeArea": 0, "RetailArea": 0, "GarageArea": 0, "StrgeArea": 0, "FactryArea": 2625, "OtherArea": 0, "AreaSource": "2", "NumBldgs": 1, "NumFloors": 1.0, "UnitsRes": 0, "UnitsTotal": 1, "LotFront": 120.0, "LotDepth": 200.0, "BldgFront": 38.0, "BldgDepth": 85.0, "Ext": "N", "ProxCode": "0", "IrrLotCode": "N", "LotType": "5", "BsmtCode": "0", "AssessLand": 270000.0, "AssessTot": 686250.0, "ExemptTot": 0.0, "YearBuilt": 1950, "YearAlter1": 0, "YearAlter2": 0, "HistDist": null, "Landmark": null, "BuiltFAR": 0.11, "ResidFAR": 0.0, "CommFAR": 1.0, "FacilFAR": 2.4, "BoroCode": 3, "BBL": 3084550025.0, "CondoNo": 0, "Tract2010": "0706", "XCoord": 1010998, "YCoord": 162806, "ZoneMap": "23d", "ZMCode": null, "Sanborn": "315 073", "TaxMap": "32502", "EDesigNum": null, "APPBBL": 0.0, "APPDate": null, "PLUTOMapID": "1", "FIRM07_FLA": "1", "PFIRM15_FL": "1", "Version": "25v4", "DCPEdited": null, "Latitude": 40.6135009, "Longitude": -73.9036596, "Notes": null, "Shape_Leng": 0.0, "Shape_Area": 24120.118534500001 }, "geometry": { "type": "MultiPolygon", "coordinates": [ [ [ [ -73.903789148072619, 40.613196111888918 ], [ -73.903789645957104, 40.613195791715462 ], [ -73.903802932105009, 40.613207801750512 ], [ -73.903821542459013, 40.613228110108047 ], [ -73.903865188586465, 40.613272562219294 ], [ -73.903913319206282, 40.613318728112525 ], [ -73.903998392167921, 40.613395673166259 ], [ -73.904067043853075, 40.613455460019402 ], [ -73.903522856870467, 40.61380544949121 ], [ -73.903239849017581, 40.613549388485552 ], [ -73.903789148072619, 40.613196111888918 ] ] ] ] } },
{ "type": "Feature", "properties": { "Borough": "BK", "Block": 8462, "Lot": 1, "CD": 318, "BCT2020": "3070601", "BCTCB2020": "30706011006", "CT2010": "706", "CB2010": "2003", "SchoolDist": "22", "Council": 46, "ZipCode": 11234, "FireComp": "E323", "PolicePrct": 63, "HealthCent": 35, "HealthArea": 8822, "Sanitboro": "3", "SanitDistr": "18", "SanitSub": "4C", "Address": "7506 AVENUE X", "ZoneDist1": "R3-1", "ZoneDist2": "R3-2", "ZoneDist3": null, "ZoneDist4": null, "Overlay1": null, "Overlay2": null, "SPDist1": null, "SPDist2": null, "SPDist3": null, "LtdHeight": null, "SplitZone": "Y", "BldgClass": "A5", "LandUse": "01", "Easements": 0, "OwnerType": null, "OwnerName": "COHEN LAWRENCE", "LotArea": 6726, "BldgArea": 2160, "ComArea": 0, "ResArea": 1440, "OfficeArea": 0, "RetailArea": 0, "GarageArea": 0, "StrgeArea": 0, "FactryArea": 0, "OtherArea": 0, "AreaSource": "2", "NumBldgs": 1, "NumFloors": 2.0, "UnitsRes": 1, "UnitsTotal": 1, "LotFront": 91.42, "LotDepth": 98.17, "BldgFront": 22.0, "BldgDepth": 40.0, "Ext": "G", "ProxCode": "2", "IrrLotCode": "N", "LotType": "3", "BsmtCode": "1", "AssessLand": 22500.0, "AssessTot": 94260.0, "ExemptTot": 1420.0, "YearBuilt": 1965, "YearAlter1": 0, "YearAlter2": 0, "HistDist": null, "Landmark": null, "BuiltFAR": 0.32, "ResidFAR": 0.75, "CommFAR": 0.0, "FacilFAR": 1.0, "BoroCode": 3, "BBL": 3084620001.0, "CondoNo": 0, "Tract2010": "0706", "XCoord": 1012381, "YCoord": 164015, "ZoneMap": "23d", "ZMCode": null, "Sanborn": "315 075", "TaxMap": "32502", "EDesigNum": null, "APPBBL": 3084620010.0, "APPDate": "08/17/1998", "PLUTOMapID": "1", "FIRM07_FLA": "1", "PFIRM15_FL": "1", "Version": "25v4", "DCPEdited": null, "Latitude": 40.616815, "Longitude": -73.8986733, "Notes": null, "Shape_Leng": 0.0, "Shape_Area": 5251.7847218999996 }, "geometry": { "type": "MultiPolygon", "coordinates": [ [ [ [ -73.898467104432385, 40.616673517582335 ], [ -73.898385348499389, 40.616670974990633 ], [ -73.898364911768326, 40.616684006386087 ], [ -73.898296399917811, 40.616727691110363 ], [ -73.898227872700815, 40.616771386571315 ], [ -73.898213060539348, 40.616780832519922 ], [ -73.898221218419181, 40.616635046389831 ], [ -73.898583152449319, 40.616646300210199 ], [ -73.89881826417691, 40.616858032907118 ], [ -73.898732627818461, 40.616912638664061 ], [ -73.898467104432385, 40.616673517582335 ] ] ] ] } },
{ "type": "Feature", "properties": { "Borough": "BK", "Block": 8462, "Lot": 103, "CD": 318, "BCT2020": "3070601", "BCTCB2020": "30706011006", "CT2010": "706", "CB2010": "2003", "SchoolDist": "22", "Council": 46, "ZipCode": 11234, "FireComp": "E323", "PolicePrct": 63, "HealthCent": 35, "HealthArea": 8822, "Sanitboro": "3", "SanitDistr": "18", "SanitSub": "4C", "Address": "7516 AVENUE X", "ZoneDist1": "R3-1", "ZoneDist2": "R3-2", "ZoneDist3": null, "ZoneDist4": null, "Overlay1": null, "Overlay2": null, "SPDist1": null, "SPDist2": null, "SPDist3": null, "LtdHeight": null, "SplitZone": "Y", "BldgClass": "A9", "LandUse": "01", "Easements": 0, "OwnerType": null, "OwnerName": "THE GOLDWYN FAMILY IRREVOCABLE TRUST", "LotArea": 3096, "BldgArea": 2703, "ComArea": 0, "ResArea": 1802, "OfficeArea": 0, "RetailArea": 0, "GarageArea": 0, "StrgeArea": 0, "FactryArea": 0, "OtherArea": 0, "AreaSource": "2", "NumBldgs": 1, "NumFloors": 2.0, "UnitsRes": 1, "UnitsTotal": 1, "LotFront": 24.0, "LotDepth": 129.0, "BldgFront": 16.0, "BldgDepth": 56.4, "Ext": "N", "ProxCode": "2", "IrrLotCode": "N", "LotType": "5", "BsmtCode": "1", "AssessLand": 16380.0, "AssessTot": 80760.0, "ExemptTot": 1420.0, "YearBuilt": 1998, "YearAlter1": 0, "YearAlter2": 0, "HistDist": null, "Landmark": null, "BuiltFAR": 0.87, "ResidFAR": 0.75, "CommFAR": 0.0, "FacilFAR": 1.0, "BoroCode": 3, "BBL": 3084620103.0, "CondoNo": 0, "Tract2010": "0706", "XCoord": 1012453, "YCoord": 164040, "ZoneMap": "23d", "ZMCode": null, "Sanborn": "315 075", "TaxMap": "32502", "EDesigNum": null, "APPBBL": 3084620010.0, "APPDate": "12/02/1999", "PLUTOMapID": "1", "FIRM07_FLA": "1", "PFIRM15_FL": "1", "Version": "25v4", "DCPEdited": null, "Latitude": 40.6168834, "Longitude": -73.8984139, "Notes": null, "Shape_Leng": 0.0, "Shape_Area": 3209.9176776999998 }, "geometry": { "type": "MultiPolygon", "coordinates": [ [ [ [ -73.898227872700815, 40.616771386571315 ], [ -73.898296399917811, 40.616727691110363 ], [ -73.898597467193071, 40.616998822414359 ], [ -73.898528939894845, 40.617042518053601 ], [ -73.898227872700815, 40.616771386571315 ] ] ] ] } },
{ "type": "Feature", "properties": { "Borough": "BK", "Block": 8462, "Lot": 104, "CD": 318, "BCT2020": "3070601", "BCTCB2020": "30706011006", "CT2010": "706", "CB2010": "2003", "SchoolDist": "22", "Council": 46, "ZipCode": 11234, "FireComp": "E323", "PolicePrct": 63, "HealthCent": 35, "HealthArea": 8822, "Sanitboro": "3", "SanitDistr": "18", "SanitSub": "4C", "Address": "7518 AVENUE X", "ZoneDist1": "R3-2", "ZoneDist2": "R3-1", "ZoneDist3": null, "ZoneDist4": null, "Overlay1": null, "Overlay2": null, "SPDist1": null, "SPDist2": null, "SPDist3": null, "LtdHeight": null, "SplitZone": "Y", "BldgClass": "A9", "LandUse": "01", "Easements": 0, "OwnerType": null, "OwnerName": "RAGUSA, JENNIFER B", "LotArea": 2896, "BldgArea": 2703, "ComArea": 0, "ResArea": 1802, "OfficeArea": 0, "RetailArea": 0, "GarageArea": 0, "StrgeArea": 0, "FactryArea": 0, "OtherArea": 0, "AreaSource": "2", "NumBldgs": 1, "NumFloors": 2.0, "UnitsRes": 1, "UnitsTotal": 1, "LotFront": 24.0, "LotDepth": 129.0, "BldgFront": 16.0, "BldgDepth": 56.4, "Ext": "N", "ProxCode": "2", "IrrLotCode": "N", "LotType": "5", "BsmtCode": "1", "AssessLand": 15780.0, "AssessTot": 78480.0, "ExemptTot": 0.0, "YearBuilt": 1998, "YearAlter1": 0, "YearAlter2": 0, "HistDist": null, "Landmark": null, "BuiltFAR": 0.93, "ResidFAR": 0.75, "CommFAR": 0.0, "FacilFAR": 1.0, "BoroCode": 3, "BBL": 3084620104.0, "CondoNo": 0, "Tract2010": "0706", "XCoord": 1012469, "YCoord": 164058, "ZoneMap": "23d", "ZMCode": null, "Sanborn": "315 075", "TaxMap": "32502", "EDesigNum": null, "APPBBL": 3084620010.0, "APPDate": "12/02/1999", "PLUTOMapID": "1", "FIRM07_FLA": "1", "PFIRM15_FL": "1", "Version": "25v4", "DCPEdited": null, "Latitude": 40.6169328, "Longitude": -73.8983562, "Notes": null, "Shape_Leng": 0.0, "Shape_Area": 2878.403066 }, "geometry": { "type": "MultiPolygon", "coordinates": [ [ [ [ -73.898208920120069, 40.616854829942348 ], [ -73.898213060539348, 40.616780832519922 ], [ -73.898227872700815, 40.616771386571315 ], [ -73.898528939894845, 40.617042518053601 ], [ -73.898463596823547, 40.617084183165467 ], [ -73.898208920120069, 40.616854829942348 ] ] ] ] } }
]
}
