{
"type": "FeatureCollection",
"name": "pluto_Fort_Wadsworth",
"crs": { "type": "name", "properties": { "name": "urn:ogc:def:crs:OGC:1.3:CRS84" } },
"features": [
{ "type": "Feature", "properties": { "Borough": "SI", "Block": 3074, "Lot": 1, "CD": 501, "BCT2020": "5000800", "BCTCB2020": "50008003009", "CT2010": "8", "CB2010": "3013", "SchoolDist": "31", "Council": 49, "ZipCode": 10305, "FireComp": "E152", "PolicePrct": 120, "HealthCent": 51, "HealthArea": 700, "Sanitboro": "5", "SanitDistr": "01", "SanitSub": "1C", "Address": "925 TOMPKINS AVENUE", "ZoneDist1": "R3A", "ZoneDist2": null, "ZoneDist3": null, "ZoneDist4": null, "Overlay1": null, "Overlay2": null, "SPDist1": null, "SPDist2": null, "SPDist3": null, "LtdHeight": null, "SplitZone": "N", "BldgClass": "B9", "LandUse": "01", "Easements": 0, "OwnerType": null, "OwnerName": "YAO, JIANCHAO", "LotArea": 3000, "BldgArea": 1462, "ComArea": 0, "ResArea": 1462, "OfficeArea": 0, "RetailArea": 0, "GarageArea": 0, "StrgeArea": 0, "FactryArea": 0, "OtherArea": 0, "AreaSource": "2", "NumBldgs": 2, "NumFloors": 2.0, "UnitsRes": 2, "UnitsTotal": 2, "LotFront": 25.0, "LotDepth": 120.0, "BldgFront": 17.0, "BldgDepth": 43.0, "Ext": "G", "ProxCode": "2", "IrrLotCode": "Y", "LotType": "5", "BsmtCode": "2", "AssessLand": 9420.0, "AssessTot": 47460.0, "ExemptTot": 0.0, "YearBuilt": 1965, "YearAlter1": 0, "YearAlter2": 0, "HistDist": null, "Landmark": null, "BuiltFAR": 0.49, "ResidFAR": 0.75, "CommFAR": 0.0, "FacilFAR": 1.0, "BoroCode": 5, "BBL": 5030740001.0, "CondoNo": 0, "Tract2010": "0008", "XCoord": 966224, "YCoord": 159462, "ZoneMap": "27c", "ZMCode": null, "Sanborn": "501 045", "TaxMap": "51301", "EDesigNum": null, "APPBBL": 0.0, "APPDate": null, "PLUTOMapID": "1", "FIRM07_FLA": null, "PFIRM15_FL": null, "Version": "25v4", "DCPEdited": null, "Latitude": 40.6043443, "Longitude": -74.0649168, "Notes": null, "Shape_Leng": 0.0, "Shape_Area": 3133.5205412 }, "geometry": { "type": "MultiPolygon", "coordinates": [ [ [ [ -74.064759937219478, 40.604462010043108 ], [ -74.06471013388655, 40.604399995692077 ], [ -74.065075773354664, 40.604228944474251 ], [ -74.065120426649926, 40.604293368608118 ], [ -74.064759937219478, 40.604462010043108 ] ] ] ] } },
{ "type": "Feature", "properties": { "Borough": "SI", "Block": 3074, "Lot": 10, "CD": 501, "BCT2020": "5000800", "BCTCB2020": "50008003009", "CT2010": "8", "CB2010": "3013", "SchoolDist": "31", "Council": 49, "ZipCode": 10305, "FireComp": "E152", "PolicePrct": 120, "HealthCent": 51, "HealthArea": 700, "Sanitboro": "5", "SanitDistr": "01", "SanitSub": "1C", "Address": "130 WADSWORTH AVENUE", "ZoneDist1": "R3A", "ZoneDist2": null, "ZoneDist3": null, "ZoneDist4": null, "Overlay1": null, "Overlay2": null, "SPDist1": null, "SPDist2": null, "SPDist3": null, "LtdHeight": null, "SplitZone": "N", "BldgClass": "A2", "LandUse": "01", "Easements": 0, "OwnerType": null, "OwnerName": "DREW, CHARLES H", "LotArea": 5000, "BldgArea": 900, "ComArea": 0, "ResArea": 900, "OfficeArea": 0, "RetailArea": 0, "GarageArea": 0, "StrgeArea": 0, "FactryArea": 0, "OtherArea": 0, "AreaSource": "2", "NumBldgs": 1, "NumFloors": 1.0, "UnitsRes": 1, "UnitsTotal": 1, "LotFront": 50.0, "LotDepth": 100.0, "BldgFront": 22.0, "BldgDepth": 45.0, "Ext": "G", "ProxCode": "1", "IrrLotCode": "N", "LotType": "5", "BsmtCode": "2", "AssessLand": 12720.0, "AssessTot": 31620.0, "ExemptTot": 0.0, "YearBuilt": 1920, "YearAlter1": 0, "YearAlter2": 0, "HistDist": null, "Landmark": null, "BuiltFAR": 0.18, "ResidFAR": 0.75, "CommFAR": 0.0, "FacilFAR": 1.0, "BoroCode": 5, "BBL": 5030740010.0, "CondoNo": 0, "Tract2010": "0008", "XCoord": 966318, "YCoord": 159564, "ZoneMap": "21d", "ZMCode": "Y", "Sanborn": "501 045", "TaxMap": "51301", "EDesigNum": null, "APPBBL": 0.0, "APPDate": null, "PLUTOMapID": "1", "FIRM07_FLA": null, "PFIRM15_FL": null, "Version": "25v4", "DCPEdited": null, "Latitude": 40.6046245, "Longitude": -74.0645785, "Notes": null, "Shape_Leng": 0.0, "Shape_Area": 5339.1753706999998 }, "geometry": { "type": "MultiPolygon", "coordinates": [ [ [ [ -74.064400051264826, 40.604545056261607 ], [ -74.064562147407401, 40.604469225360013 ], [ -74.064742616891508, 40.604693942674757 ], [ -74.064752218883498, 40.604705898021955 ], [ -74.0645901224933, 40.604781728354318 ], [ -74.064580520406921, 40.604769772072366 ], [ -74.064400051264826, 40.604545056261607 ] ] ] ] } },
{ "type": "Feature", "properties": { "Borough": "SI", "Block": 3074, "Lot": 13, "CD": 501, "BCT2020": "5000800", "BCTCB2020": "50008003009", "CT2010": "8", "CB2010": "3013", "SchoolDist": "31", "Council": 49, "ZipCode": 10305, "FireComp": "E152", "PolicePrct": 120, "HealthCent": 51, "HealthArea": 700, "Sanitboro": "5", "SanitDistr": "01", "SanitSub": "1C", "Address": "124 WADSWORTH AVENUE", "ZoneDist1": "R3A", "ZoneDist2": null, "ZoneDist3": null, "ZoneDist4": null, "Overlay1": null, "Overlay2": null, "SPDist1": null, "SPDist2": null, "SPDist3": null, "LtdHeight": null, "SplitZone": "N", "BldgClass": "A1", "LandUse": "01", "Easements": 0, "OwnerType": null, "OwnerName": "CHEN QIAN Y", "LotArea": 4250, "BldgArea": 1743, "ComArea": 0, "ResArea": 1743, "OfficeArea": 0, "RetailArea": 0, "GarageArea": 0, "StrgeArea": 0, "FactryArea": 0, "OtherArea": 0, "AreaSource": "2", "NumBldgs": 1, "NumFloors": 2.0, "UnitsRes": 1, "UnitsTotal": 1, "LotFront": 42.5, "LotDepth": 100.0, "BldgFront": 32.0, "BldgDepth": 27.17, "Ext": "G", "ProxCode": "1", "IrrLotCode": "N", "LotType": "5", "BsmtCode": "2", "AssessLand": 10560.0, "AssessTot": 47580.0, "ExemptTot": 0.0, "YearBuilt": 1940, "YearAlter1": 0, "YearAlter2": 0, "HistDist": null, "Landmark": null, "BuiltFAR": 0.41, "ResidFAR": 0.75, "CommFAR": 0.0, "FacilFAR": 1.0, "BoroCode": 5, "BBL": 5030740013.0, "CondoNo": 0, "Tract2010": "0008", "XCoord": 966358, "YCoord": 159589, "ZoneMap": "21d", "ZMCode": null, "Sanborn": "501 045", "TaxMap": "51301", "EDesigNum": null, "APPBBL": 0.0, "APPDate": null, "PLUTOMapID": "1", "FIRM07_FLA": null, "PFIRM15_FL": null, "Version": "25v4", "DCPEdited": null, "Latitude": 40.6046932, "Longitude": -74.0644345, "Notes": null, "Shape_Leng": 0.0, "Shape_Area": 4210.4375509000001 }, "geometry": { "type": "MultiPolygon", "coordinates": [ [ [ [ -74.064272222647631, 40.604604854826583 ], [ -74.064400051264826, 40.604545056261607 ], [ -74.064580520406921, 40.604769772072366 ], [ -74.0645901224933, 40.604781728354318 ], [ -74.06446229348434, 40.604841527965405 ], [ -74.064452692729432, 40.604829571755879 ], [ -74.064272222647631, 40.604604854826583 ] ] ] ] } },
{ "type": "Feature", "properties": { "Borough": "SI", "Block": 3074, "Lot": 15, "CD": 501, "BCT2020": "5000800", "BCTCB2020": "50008003009", "CT2010": "8", "CB2010": "3013", "SchoolDist": "31", "Council": 49, "ZipCode": 10305, "FireComp": "E152", "PolicePrct": 120, "HealthCent": 51, "HealthArea": 700, "Sanitboro": "5", "SanitDistr": "01", "SanitSub": "1C", "Address": "120 WADSWORTH AVENUE", "ZoneDist1": "R3A", "ZoneDist2": null, "ZoneDist3": null, "ZoneDist4": null, "Overlay1": null, "Overlay2": null, "SPDist1": null, "SPDist2": null, "SPDist3": null, "LtdHeight": null, "SplitZone": "N", "BldgClass": "A2", "LandUse": "01", "Easements": 0, "OwnerType": null, "OwnerName": "CHEN, WEI GUO", "LotArea": 4300, "BldgArea": 1020, "ComArea": 0, "ResArea": 1020, "OfficeArea": 0, "RetailArea": 0, "GarageArea": 0, "StrgeArea": 0, "FactryArea": 0, "OtherArea": 0, "AreaSource": "2", "NumBldgs": 1, "NumFloors": 1.5, "UnitsRes": 1, "UnitsTotal": 1, "LotFront": 43.0, "LotDepth": 100.0, "BldgFront": 24.0, "BldgDepth": 34.0, "Ext": "N", "ProxCode": "1", "IrrLotCode": "N", "LotType": "5", "BsmtCode": "2", "AssessLand": 11460.0, "AssessTot": 41100.0, "ExemptTot": 0.0, "YearBuilt": 1950, "YearAlter1": 0, "YearAlter2": 0, "HistDist": null, "Landmark": null, "BuiltFAR": 0.24, "ResidFAR": 0.75, "CommFAR": 0.0, "FacilFAR": 1.0, "BoroCode": 5, "BBL": 5030740015.0, "CondoNo": 0, "Tract2010": "0008", "XCoord": 966395, "YCoord": 159611, "ZoneMap": "21d", "ZMCode": null, "Sanborn": "501 045", "TaxMap": "51301", "EDesigNum": null, "APPBBL": 0.0, "APPDate": null, "PLUTOMapID": "1", "FIRM07_FLA": null, "PFIRM15_FL": null, "Version": "25v4", "DCPEdited": null, "Latitude": 40.6047536, "Longitude": -74.0643013, "Notes": null, "Shape_Leng": 0.0, "Shape_Area": 4361.0573857 }, "geometry": { "type": "MultiPolygon", "coordinates": [ [ [ [ -74.0641398220355, 40.604666792677925 ], [ -74.064272222647631, 40.604604854826583 ], [ -74.064452692729432, 40.604829571755879 ], [ -74.06446229348434, 40.604841527965405 ], [ -74.064329893785782, 40.604903465113132 ], [ -74.064320290632111, 40.604891509814109 ], [ -74.0641398220355, 40.604666792677925 ] ] ] ] } },
{ "type": "Feature", "properties": { "Borough": "SI", "Block": 3074, "Lot": 17, "CD": 501, "BCT2020": "5000800", "BCTCB2020": "50008003009", "CT2010": "8", "CB2010": "3013", "SchoolDist": "31", "Council": 49, "ZipCode": 10305, "FireComp": "E152", "PolicePrct": 120, "HealthCent": 51, "HealthArea": 700, "Sanitboro": "5", "SanitDistr": "01", "SanitSub": "1C", "Address": "118 WADSWORTH AVENUE", "ZoneDist1": "R3A", "ZoneDist2": null, "ZoneDist3": null, "ZoneDist4": null, "Overlay1": null, "Overlay2": null, "SPDist1": null, "SPDist2": null, "SPDist3": null, "LtdHeight": null, "SplitZone": "N", "BldgClass": "A2", "LandUse": "01", "Easements": 0, "OwnerType": null, "OwnerName": "ROSEMARY MARRONE PETRAGLIA, TRUSTEE", "LotArea": 4300, "BldgArea": 888, "ComArea": 0, "ResArea": 888, "OfficeArea": 0, "RetailArea": 0, "GarageArea": 0, "StrgeArea": 0, "FactryArea": 0, "OtherArea": 0, "AreaSource": "2", "NumBldgs": 1, "NumFloors": 1.0, "UnitsRes": 1, "UnitsTotal": 1, "LotFront": 43.0, "LotDepth": 100.0, "BldgFront": 24.0, "BldgDepth": 37.0, "Ext": "N", "ProxCode": "1", "IrrLotCode": "N", "LotType": "5", "BsmtCode": "2", "AssessLand": 11100.0, "AssessTot": 40380.0, "ExemptTot": 0.0, "YearBuilt": 1950, "YearAlter1": 0, "YearAlter2": 0, "HistDist": null, "Landmark": null, "BuiltFAR": 0.21, "ResidFAR": 0.75, "CommFAR": 0.0, "FacilFAR": 1.0, "BoroCode": 5, "BBL": 5030740017.0, "CondoNo": 0, "Tract2010": "0008", "XCoord": 966431, "YCoord": 159633, "ZoneMap": "21d", "ZMCode": null, "Sanborn": "501 045", "TaxMap": "51301", "EDesigNum": null, "APPBBL": 0.0, "APPDate": null, "PLUTOMapID": "1", "FIRM07_FLA": null, "PFIRM15_FL": null, "Version": "25v4", "DCPEdited": null, "Latitude": 40.6048141, "Longitude": -74.0641718, "Notes": null, "Shape_Leng": 0.0, "Shape_Area": 4317.6413751 }, "geometry": { "type": "MultiPolygon", "coordinates": [ [ [ [ -74.064008738136181, 40.604728113728811 ], [ -74.0641398220355, 40.604666792677925 ], [ -74.064320290632111, 40.604891509814109 ], [ -74.064329893785782, 40.604903465113132 ], [ -74.06419880959659, 40.604964786377735 ], [ -74.064189207554804, 40.604952830984772 ], [ -74.064008738136181, 40.604728113728811 ] ] ] ] } },
{ "type": "Feature", "properties": { "Borough": "SI", "Block": 3074, "Lot": 19, "CD": 501, "BCT2020": "5000800", "BCTCB2020": "50008003009", "CT2010": "8", "CB2010": "3013", "SchoolDist": "31", "Council": 49, "ZipCode": 10305, "FireComp": "E152", "PolicePrct": 120, "HealthCent": 51, "HealthArea": 700, "Sanitboro": "5", "SanitDistr": "01", "SanitSub": "1C", "Address": "116 WADSWORTH AVENUE", "ZoneDist1": "R3A", "ZoneDist2": null, "ZoneDist3": null, "ZoneDist4": null, "Overlay1": null, "Overlay2": null, "SPDist1": null, "SPDist2": null, "SPDist3": null, "LtdHeight": null, "SplitZone": "N", "BldgClass": "A2", "LandUse": "01", "Easements": 0, "OwnerType": null, "OwnerName": "DOUD, JAMAL", "LotArea": 4300, "BldgArea": 1020, "ComArea": 0, "ResArea": 1020, "OfficeArea": 0, "RetailArea": 0, "GarageArea": 0, "StrgeArea": 0, "FactryArea": 0, "OtherArea": 0, "AreaSource": "2", "NumBldgs": 2, "NumFloors": 1.5, "UnitsRes": 1, "UnitsTotal": 1, "LotFront": 43.0, "LotDepth": 100.0, "BldgFront": 24.0, "BldgDepth": 34.0, "Ext": "N", "ProxCode": "1", "IrrLotCode": "N", "LotType": "5", "BsmtCode": "2", "AssessLand": 11460.0, "AssessTot": 40440.0, "ExemptTot": 0.0, "YearBuilt": 1950, "YearAlter1": 0, "YearAlter2": 0, "HistDist": null, "Landmark": null, "BuiltFAR": 0.24, "ResidFAR": 0.75, "CommFAR": 0.0, "FacilFAR": 1.0, "BoroCode": 5, "BBL": 5030740019.0, "CondoNo": 0, "Tract2010": "0008", "XCoord": 966468, "YCoord": 159656, "ZoneMap": "21d", "ZMCode": null, "Sanborn": "501 045", "TaxMap": "51301", "EDesigNum": null, "APPBBL": 0.0, "APPDate": null, "PLUTOMapID": "1", "FIRM07_FLA": null, "PFIRM15_FL": null, "Version": "25v4", "DCPEdited": null, "Latitude": 40.6048773, "Longitude": -74.0640386, "Notes": null, "Shape_Leng": 0.0, "Shape_Area": 4408.0823917999996 }, "geometry": { "type": "MultiPolygon", "coordinates": [ [ [ [ -74.063874908051716, 40.604790719351811 ], [ -74.064008738136181, 40.604728113728811 ], [ -74.064189207554804, 40.604952830984772 ], [ -74.06419880959659, 40.604964786377735 ], [ -74.064064979215388, 40.605027391385242 ], [ -74.064055378396645, 40.605015436899293 ], [ -74.063874908051716, 40.604790719351811 ] ] ] ] } },
{ "type": "Feature", "properties": { "Borough": "SI", "Block": 3074, "Lot": 23, "CD": 501, "BCT2020": "5000800", "BCTCB2020": "50008003009", "CT2010": "8", "CB2010": "3013", "SchoolDist": "31", "Council": 49, "ZipCode": 10305, "FireComp": "E152", "PolicePrct": 120, "HealthCent": 51, "HealthArea": 700, "Sanitboro": "5", "SanitDistr": "01", "SanitSub": "1C", "Address": "100 WADSWORTH AVENUE", "ZoneDist1": "R3A", "ZoneDist2": null, "ZoneDist3": null, "ZoneDist4": null, "Overlay1": null, "Overlay2": null, "SPDist1": null, "SPDist2": null, "SPDist3": null, "LtdHeight": null, "SplitZone": "N", "BldgClass": "A2", "LandUse": "01", "Easements": 0, "OwnerType": null, "OwnerName": "BRYANT, LEE R", "LotArea": 4300, "BldgArea": 888, "ComArea": 0, "ResArea": 888, "OfficeArea": 0, "RetailArea": 0, "GarageArea": 0, "StrgeArea": 0, "FactryArea": 0, "OtherArea": 0, "AreaSource": "2", "NumBldgs": 1, "NumFloors": 1.0, "UnitsRes": 1, "UnitsTotal": 1, "LotFront": 43.0, "LotDepth": 100.0, "BldgFront": 24.0, "BldgDepth": 37.0, "Ext": "N", "ProxCode": "1", "IrrLotCode": "N", "LotType": "5", "BsmtCode": "2", "AssessLand": 11100.0, "AssessTot": 39720.0, "ExemptTot": 0.0, "YearBuilt": 1950, "YearAlter1": 0, "YearAlter2": 0, "HistDist": null, "Landmark": null, "BuiltFAR": 0.21, "ResidFAR": 0.75, "CommFAR": 0.0, "FacilFAR": 1.0, "BoroCode": 5, "BBL": 5030740023.0, "CondoNo": 0, "Tract2010": "0008", "XCoord": 966541, "YCoord": 159700, "ZoneMap": "21d", "ZMCode": null, "Sanborn": "501 045", "TaxMap": "51301", "EDesigNum": null, "APPBBL": 0.0, "APPDate": null, "PLUTOMapID": "1", "FIRM07_FLA": null, "PFIRM15_FL": null, "Version": "25v4", "DCPEdited": null, "Latitude": 40.6049982, "Longitude": -74.0637758, "Notes": null, "Shape_Leng": 0.0, "Shape_Area": 4428.1958900999998 }, "geometry": { "type": "MultiPolygon", "coordinates": [ [ [ [ -74.063612070407387, 40.604913673457823 ], [ -74.063746511575488, 40.604850783270493 ], [ -74.063926980553447, 40.605075500933516 ], [ -74.063936582454332, 40.605087456349573 ], [ -74.063802142198739, 40.605150347676862 ], [ -74.063792540312079, 40.605138391413291 ], [ -74.063612070407387, 40.604913673457823 ] ] ] ] } },
{ "type": "Feature", "properties": { "Borough": "SI", "Block": 3125, "Lot": 3, "CD": 595, "BCT2020": "5007400", "BCTCB2020": "50074003000", "CT2010": "74", "CB2010": "2016", "SchoolDist": "31", "Council": 50, "ZipCode": 10305, "FireComp": "E161", "PolicePrct": 122, "HealthCent": 51, "HealthArea": 910, "Sanitboro": "5", "SanitDistr": "02", "SanitSub": "1C", "Address": "FATHER CAPODANNO BL", "ZoneDist1": "PARK", "ZoneDist2": null, "ZoneDist3": null, "ZoneDist4": null, "Overlay1": null, "Overlay2": null, "SPDist1": null, "SPDist2": null, "SPDist3": null, "LtdHeight": null, "SplitZone": "N", "BldgClass": "Q1", "LandUse": "09", "Easements": 0, "OwnerType": "C", "OwnerName": "NYC DEPARTMENT OF PARKS AND RECREATION", "LotArea": 592333, "BldgArea": 20760, "ComArea": 20760, "ResArea": 0, "OfficeArea": 0, "RetailArea": 0, "GarageArea": 0, "StrgeArea": 0, "FactryArea": 0, "OtherArea": 20760, "AreaSource": "2", "NumBldgs": 7, "NumFloors": 2.0, "UnitsRes": 0, "UnitsTotal": 1, "LotFront": 720.08, "LotDepth": 310.0, "BldgFront": 60.0, "BldgDepth": 173.0, "Ext": "N", "ProxCode": "1", "IrrLotCode": "Y", "LotType": "3", "BsmtCode": "0", "AssessLand": 3870450.0, "AssessTot": 4629600.0, "ExemptTot": 4629600.0, "YearBuilt": 1931, "YearAlter1": 0, "YearAlter2": 0, "HistDist": null, "Landmark": null, "BuiltFAR": 0.04, "ResidFAR": 0.0, "CommFAR": 0.0, "FacilFAR": 0.0, "BoroCode": 5, "BBL": 5031250003.0, "CondoNo": 0, "Tract2010": "0074", "XCoord": 966640, "YCoord": 155061, "ZoneMap": "27c", "ZMCode": null, "Sanborn": "503 316", "TaxMap": "51301", "EDesigNum": null, "APPBBL": 0.0, "APPDate": null, "PLUTOMapID": "1", "FIRM07_FLA": "1", "PFIRM15_FL": "1", "Version": "25v4", "DCPEdited": "t", "Latitude": 40.5922653, "Longitude": -74.0634072, "Notes": null, "Shape_Leng": 0.0, "Shape_Area": 570339.19447700004 }, "geometry": { "type": "MultiPolygon", "coordinates": [ [ [ [ -74.060132479145338, 40.594353913232972 ], [ -74.060114845990682, 40.59434033806658 ], [ -74.062096081918668, 40.592937744694026 ], [ -74.063200763849977, 40.59201124856942 ], [ -74.064914415280114, 40.590484715739564 ], [ -74.065646714484615, 40.589738819585513 ], [ -74.066467882544458, 40.590314078208621 ], [ -74.064711985964806, 40.591750930081645 ], [ -74.064028187710022, 40.592275977772324 ], [ -74.063413880200613, 40.592703436662738 ], [ -74.063391715768716, 40.592719002655009 ], [ -74.063350741412762, 40.592749866319011 ], [ -74.063319040399406, 40.592775812507213 ], [ -74.063282378302247, 40.592808394691168 ], [ -74.063239984731439, 40.592850125648013 ], [ -74.063193717493547, 40.592901826660949 ], [ -74.063165538620837, 40.592937314650001 ], [ -74.063149624367099, 40.592960344295044 ], [ -74.063142629090805, 40.59297595060297 ], [ -74.06313301009115, 40.592995333327387 ], [ -74.06311149430914, 40.593032546596348 ], [ -74.063080418494934, 40.593076525295132 ], [ -74.063043495048632, 40.593119281630578 ], [ -74.063006393939759, 40.593155226492286 ], [ -74.062972219081331, 40.593183749458902 ], [ -74.061812917002328, 40.594068567559951 ], [ -74.061658415353122, 40.594163622248779 ], [ -74.06143533128234, 40.594300870354154 ], [ -74.060602105372809, 40.59481348688157 ], [ -74.060132479145338, 40.594353913232972 ] ] ] ] } },
{ "type": "Feature", "properties": { "Borough": "SI", "Block": 3128, "Lot": 1, "CD": 595, "BCT2020": "5001800", "BCTCB2020": "50018001005", "CT2010": "18", "CB2010": "1015", "SchoolDist": "31", "Council": 49, "ZipCode": 10305, "FireComp": "E152", "PolicePrct": 120, "HealthCent": 51, "HealthArea": 700, "Sanitboro": "5", "SanitDistr": "95", "SanitSub": null, "Address": "BAY STREET", "ZoneDist1": "R3-2", "ZoneDist2": null, "ZoneDist3": null, "ZoneDist4": null, "Overlay1": null, "Overlay2": null, "SPDist1": null, "SPDist2": null, "SPDist3": null, "LtdHeight": null, "SplitZone": "N", "BldgClass": "Y4", "LandUse": "08", "Easements": 2, "OwnerType": "X", "OwnerName": "US ARMY FT HAMILTON", "LotArea": 9045662, "BldgArea": 236591, "ComArea": 236591, "ResArea": 0, "OfficeArea": 0, "RetailArea": 0, "GarageArea": 0, "StrgeArea": 0, "FactryArea": 0, "OtherArea": 236591, "AreaSource": "2", "NumBldgs": 140, "NumFloors": 3.0, "UnitsRes": 0, "UnitsTotal": 1, "LotFront": 2644.0, "LotDepth": 3500.0, "BldgFront": 165.0, "BldgDepth": 283.0, "Ext": "E", "ProxCode": "1", "IrrLotCode": "Y", "LotType": "5", "BsmtCode": "0", "AssessLand": 43961850.0, "AssessTot": 54938700.0, "ExemptTot": 54938700.0, "YearBuilt": 1931, "YearAlter1": 0, "YearAlter2": 0, "HistDist": null, "Landmark": "INDIVIDUAL LANDMARK", "BuiltFAR": 0.03, "ResidFAR": 0.75, "CommFAR": 0.0, "FacilFAR": 1.0, "BoroCode": 5, "BBL": 5031280001.0, "CondoNo": 0, "Tract2010": "0018", "XCoord": 968164, "YCoord": 158035, "ZoneMap": "27c", "ZMCode": "Y", "Sanborn": "503 316", "TaxMap": "51301", "EDesigNum": null, "APPBBL": 0.0, "APPDate": null, "PLUTOMapID": "1", "FIRM07_FLA": "1", "PFIRM15_FL": "1", "Version": "25v4", "DCPEdited": null, "Latitude": 40.6004312, "Longitude": -74.0579269, "Notes": null, "Shape_Leng": 0.0, "Shape_Area": 10040775.801200001 }, "geometry": { "type": "MultiPolygon", "coordinates": [ [ [ [ -74.060114845990682, 40.59434033806658 ], [ -74.060132479145338, 40.594353913232972 ], [ -74.060602105372809, 40.59481348688157 ], [ -74.060537651126452, 40.594853140169825 ], [ -74.061633465722778, 40.596203285552022 ], [ -74.061523218609423, 40.596282200507929 ], [ -74.063656718446708, 40.598906133211798 ], [ -74.063475021223695, 40.598966209201301 ], [ -74.061062307743796, 40.599763906359769 ], [ -74.06116540056577, 40.59990914449812 ], [ -74.061337268432496, 40.600151273559092 ], [ -74.06141978568111, 40.600267522834869 ], [ -74.061965103612025, 40.601035751871983 ], [ -74.062045452409663, 40.601148943696252 ], [ -74.062542733366811, 40.601849480206312 ], [ -74.063229094744813, 40.60163072058355 ], [ -74.064623109183444, 40.60359207978928 ], [ -74.065075773354664, 40.604228944474251 ], [ -74.06471013388655, 40.604399995692077 ], [ -74.064562147407401, 40.604469225360013 ], [ -74.064400051264826, 40.604545056261607 ], [ -74.064272222647631, 40.604604854826583 ], [ -74.0641398220355, 40.604666792677925 ], [ -74.064008738136181, 40.604728113728811 ], [ -74.063874908051716, 40.604790719351811 ], [ -74.063746511575488, 40.604850783270493 ], [ -74.063612070407387, 40.604913673457823 ], [ -74.06348107167139, 40.604974954199477 ], [ -74.063330402950427, 40.605045436333619 ], [ -74.063252571842355, 40.605081845775537 ], [ -74.063175837741412, 40.60511774037812 ], [ -74.063095001877457, 40.605155554365659 ], [ -74.063019588095486, 40.605190832224778 ], [ -74.062941486076184, 40.605227366760452 ], [ -74.062865114270238, 40.60526309162654 ], [ -74.06278321047219, 40.605301406690764 ], [ -74.062640068138421, 40.605368364588621 ], [ -74.062483723947935, 40.605441499843387 ], [ -74.062320653477911, 40.605517780432976 ], [ -74.062180212339115, 40.605583475514528 ], [ -74.062103890519793, 40.605619176503723 ], [ -74.062023627510584, 40.605656721958333 ], [ -74.061941973020396, 40.605694916481568 ], [ -74.061790274708002, 40.605765876269153 ], [ -74.061635357796746, 40.605838341394339 ], [ -74.061560796227198, 40.605873218853155 ], [ -74.061486231178776, 40.605908097185299 ], [ -74.061322273843032, 40.605984791033507 ], [ -74.06111231543052, 40.606083000035767 ], [ -74.061004132337246, 40.606133603673001 ], [ -74.060866957835046, 40.606197769089967 ], [ -74.060557543534543, 40.606342496455703 ], [ -74.060326661642591, 40.606444007351918 ], [ -74.056793053828017, 40.607874829570285 ], [ -74.056792267149802, 40.607875167700413 ], [ -74.056664132961942, 40.607930079613013 ], [ -74.056649843210067, 40.60791527580691 ], [ -74.056626281167652, 40.607884537295895 ], [ -74.056612820137886, 40.607870023884097 ], [ -74.056585914811734, 40.607862348455392 ], [ -74.056565735419852, 40.607856378919017 ], [ -74.056563483867606, 40.607844422962991 ], [ -74.056581403763502, 40.607829039525747 ], [ -74.056599330488197, 40.607823051264369 ], [ -74.056602646613328, 40.607769236327805 ], [ -74.056589150984706, 40.607713722209766 ], [ -74.056572293209598, 40.607659065345835 ], [ -74.056554327468717, 40.607617219684627 ], [ -74.056532985028298, 40.607561709497034 ], [ -74.056513885166652, 40.607506197283065 ], [ -74.056499266666791, 40.607447268976586 ], [ -74.056473453567392, 40.607406281839012 ], [ -74.056436428127284, 40.607357613292145 ], [ -74.056397161570132, 40.607308090393261 ], [ -74.056359012272296, 40.607257713251308 ], [ -74.056323108210918, 40.607209043198466 ], [ -74.056277117137483, 40.607160379070237 ], [ -74.056224406353394, 40.607118551337301 ], [ -74.056169457559307, 40.607079288393749 ], [ -74.056129071582959, 40.607031473311203 ], [ -74.056085323853907, 40.606986223657522 ], [ -74.056039338107723, 40.60694353888065 ], [ -74.056032596185375, 40.606923896359866 ], [ -74.055922686374061, 40.606829993041643 ], [ -74.055761214429992, 40.606727571425679 ], [ -74.055746636769555, 40.606718181546739 ], [ -74.055669271649791, 40.60667722001056 ], [ -74.055630022481282, 40.606647343478059 ], [ -74.055525740395595, 40.606585039089538 ], [ -74.055512277745237, 40.606567962662986 ], [ -74.055501066919476, 40.606561987778868 ], [ -74.055446657560324, 40.606499660103019 ], [ -74.055404070588168, 40.606499680603854 ], [ -74.055365413655892, 40.606509950740076 ], [ -74.055316115832341, 40.606526203586931 ], [ -74.055295949646705, 40.606535609293068 ], [ -74.055162474701504, 40.606723501411018 ], [ -74.055097326715568, 40.606644756891299 ], [ -74.055042280719235, 40.606578220404899 ], [ -74.055050532078383, 40.606565623318424 ], [ -74.055104344038128, 40.606584387856429 ], [ -74.055172632003945, 40.606492104840655 ], [ -74.055158057092456, 40.606484425008745 ], [ -74.055162519528338, 40.606459652218675 ], [ -74.05516361763587, 40.606431464555854 ], [ -74.055164715235449, 40.606404129571949 ], [ -74.055154606183308, 40.606375949035851 ], [ -74.055143954966425, 40.606370827446383 ], [ -74.055127698220005, 40.606364001177326 ], [ -74.055105271684042, 40.606350346482877 ], [ -74.055063790564901, 40.606331574290913 ], [ -74.054994295782848, 40.606319650358174 ], [ -74.054922555305708, 40.606302600847194 ], [ -74.054850810465311, 40.606282989329387 ], [ -74.054783548797147, 40.60626081358452 ], [ -74.054778969223307, 40.606259943341087 ], [ -74.054610932016971, 40.606056828713797 ], [ -74.053785843789271, 40.605887257667959 ], [ -74.053785801341391, 40.605887160807669 ], [ -74.053772335739126, 40.605865814851484 ], [ -74.053748767287146, 40.605824397367869 ], [ -74.053737530016107, 40.605788100816184 ], [ -74.053721795670214, 40.605732586562041 ], [ -74.053707182236479, 40.605677929061976 ], [ -74.05369369012061, 40.605623269196677 ], [ -74.053680197231714, 40.605567753890718 ], [ -74.053657742536203, 40.60551822488911 ], [ -74.053631923669485, 40.605465277286271 ], [ -74.053617311465302, 40.605410617932733 ], [ -74.053606058960114, 40.605355101573743 ], [ -74.053603770446443, 40.60529616714976 ], [ -74.053607087333802, 40.605238936559729 ], [ -74.053629460401154, 40.605185114665694 ], [ -74.05366304017997, 40.605135556872781 ], [ -74.053710073944117, 40.605090264799401 ], [ -74.053744774739116, 40.605038999096124 ], [ -74.053757069275761, 40.604997137103403 ], [ -74.053771607216746, 40.604957839708874 ], [ -74.053786135130636, 40.604907437092095 ], [ -74.053793933187393, 40.604848497037743 ], [ -74.053796128772987, 40.604792976167751 ], [ -74.053787126164025, 40.60474514742814 ], [ -74.053778115396042, 40.604688776269747 ], [ -74.053766863403581, 40.604632407160892 ], [ -74.053754490998912, 40.604578601375948 ], [ -74.05373987899516, 40.604523940275499 ], [ -74.053723020931585, 40.604465011729793 ], [ -74.053710647747522, 40.604408642217358 ], [ -74.053683709092937, 40.604355697819855 ], [ -74.053648927078655, 40.604303610752439 ], [ -74.05362646752107, 40.604248954214277 ], [ -74.053606250384604, 40.604192589179306 ], [ -74.053601719365886, 40.604133653116129 ], [ -74.053587120292988, 40.604093513781521 ], [ -74.053561302193984, 40.604042276279252 ], [ -74.053553412407737, 40.603985051816792 ], [ -74.053529834910194, 40.603932957743012 ], [ -74.053519707773617, 40.603879149965493 ], [ -74.053518576959164, 40.603867193425138 ], [ -74.053514066344945, 40.603832175161152 ], [ -74.053511814791904, 40.603819364456228 ], [ -74.053497201944751, 40.603764702401655 ], [ -74.05349268851252, 40.603726268490199 ], [ -74.053491558386781, 40.603715165546873 ], [ -74.053490430831374, 40.60370577004921 ], [ -74.053489263209471, 40.603647687019155 ], [ -74.053471304878215, 40.603614382363062 ], [ -74.053464571916066, 40.603601575578445 ], [ -74.053456711715057, 40.603582785346191 ], [ -74.053440991745546, 40.603544356635048 ], [ -74.053431980178814, 40.60348627632299 ], [ -74.05341736354238, 40.603428201288601 ], [ -74.053399386778381, 40.603370127810635 ], [ -74.053387013807253, 40.603312050810977 ], [ -74.053374639075912, 40.603253116530972 ], [ -74.053358907099792, 40.60319931225451 ], [ -74.053347655864357, 40.603144651380163 ], [ -74.053337526998959, 40.603089991742216 ], [ -74.053318431331974, 40.60303618726136 ], [ -74.053298215239948, 40.602978967564219 ], [ -74.053288083303698, 40.602921743278429 ], [ -74.053276832701471, 40.602866228631456 ], [ -74.053257736318585, 40.602809862089799 ], [ -74.053240879789172, 40.602751787229373 ], [ -74.053222905924514, 40.602695420162263 ], [ -74.053209409828597, 40.602639051106308 ], [ -74.053201522285036, 40.6025826812132 ], [ -74.05319027128219, 40.602528020320371 ], [ -74.053179022033959, 40.602472504741165 ], [ -74.053168891373133, 40.60241527952158 ], [ -74.053148674117736, 40.602360622682149 ], [ -74.053132944418422, 40.60230767305508 ], [ -74.053121689452837, 40.602247885380486 ], [ -74.053103713831547, 40.602190665531531 ], [ -74.053089098970347, 40.602132589611685 ], [ -74.053073367487244, 40.602078784370612 ], [ -74.053054273419917, 40.602024980759332 ], [ -74.05303629667273, 40.601966052615801 ], [ -74.05301832187574, 40.601909686517232 ], [ -74.053000348567323, 40.601855027695812 ], [ -74.052990216525075, 40.601798657981249 ], [ -74.052981202209978, 40.601736307292271 ], [ -74.052973309962454, 40.601676520814053 ], [ -74.052972143106118, 40.60161587487957 ], [ -74.05297658062311, 40.601560352056616 ], [ -74.05298998489279, 40.601505679790279 ], [ -74.053005636320123, 40.601456985860018 ], [ -74.053013444799348, 40.601410859345009 ], [ -74.053015640772571, 40.601353627508978 ], [ -74.053022320154142, 40.601298958335846 ], [ -74.053048067292181, 40.601263926104622 ], [ -74.05308725299372, 40.60121607415843 ], [ -74.053116346535191, 40.601162250914619 ], [ -74.053147680471625, 40.601107568512688 ], [ -74.053166689508657, 40.601052893636414 ], [ -74.053191299137168, 40.600999069766907 ], [ -74.053212549334319, 40.600944393845424 ], [ -74.053227072616835, 40.600888865509674 ], [ -74.053247202363465, 40.600836752902289 ], [ -74.053274054126732, 40.600781221533062 ], [ -74.053293061498579, 40.600724837429489 ], [ -74.053305344238524, 40.600670164636568 ], [ -74.053316502918335, 40.600612076799109 ], [ -74.053320942916642, 40.600555700272565 ], [ -74.053296252242276, 40.600510440708689 ], [ -74.053249152461007, 40.600470316360344 ], [ -74.053216615524192, 40.600421644676032 ], [ -74.053172873947346, 40.600374686527481 ], [ -74.053125774462885, 40.600330290037348 ], [ -74.053073070654946, 40.600291024646218 ], [ -74.053020369176807, 40.600250048184385 ], [ -74.052964306032024, 40.600209927847111 ], [ -74.052906006896066, 40.600174935204265 ], [ -74.052847708744935, 40.600142503578169 ], [ -74.052788288635796, 40.600107511306469 ], [ -74.052727744160308, 40.600069954958009 ], [ -74.052661603161994, 40.600038381431688 ], [ -74.052595463138545, 40.600009368912382 ], [ -74.052536042500236, 40.599973521992219 ], [ -74.052476618822652, 40.599935113075773 ], [ -74.052411596842191, 40.599901829690189 ], [ -74.052347701224349, 40.599873669771945 ], [ -74.052316312796847, 40.599861727809206 ], [ -74.052254669460822, 40.599850650578929 ], [ -74.052246300933561, 40.59984138434757 ], [ -74.052425966536873, 40.599693718148984 ], [ -74.052469717383758, 40.599707909209435 ], [ -74.052511184051127, 40.599713013396617 ], [ -74.052554889102353, 40.599712993450481 ], [ -74.052587386904406, 40.599712978608366 ], [ -74.052615391852314, 40.599701008656382 ], [ -74.052633304436554, 40.599677938167439 ], [ -74.052636634192467, 40.599637790496175 ], [ -74.052623166192646, 40.599611316781292 ], [ -74.052610820311017, 40.59958740635917 ], [ -74.052619418244404, 40.59953472110854 ], [ -74.05297836562265, 40.599239703996716 ], [ -74.053113622868025, 40.599138740100315 ], [ -74.053338726250033, 40.598964387802184 ], [ -74.053452957361117, 40.598875500162357 ], [ -74.05359742471822, 40.598763538707338 ], [ -74.053718369426335, 40.598661838676641 ], [ -74.053760940278181, 40.598646443234543 ], [ -74.053828157007416, 40.59862249491249 ], [ -74.053877462242625, 40.598620764395356 ], [ -74.053935736196223, 40.598624152835427 ], [ -74.054005226228639, 40.598640349414588 ], [ -74.054073597980164, 40.598659962210256 ], [ -74.054145325205255, 40.598671032800169 ], [ -74.054175581693897, 40.59866845751656 ], [ -74.05424279818844, 40.598644508868198 ], [ -74.054302168909075, 40.598620564803674 ], [ -74.054361536350186, 40.598589786734614 ], [ -74.054416415201374, 40.598551322932096 ], [ -74.054471294682259, 40.598513713704918 ], [ -74.054528412941664, 40.598476104310762 ], [ -74.054584412961447, 40.598439349016566 ], [ -74.054641536184462, 40.598405155296597 ], [ -74.054696415417865, 40.598367545041029 ], [ -74.05475129528763, 40.598330789360823 ], [ -74.054802808086961, 40.598289765927269 ], [ -74.054858807102605, 40.598252156816663 ], [ -74.05490695867249, 40.598211132260154 ], [ -74.054948392894815, 40.598176093860673 ], [ -74.055002150088669, 40.598139336839104 ], [ -74.055050301999003, 40.598097461132369 ], [ -74.055101814544813, 40.598056437562107 ], [ -74.055156693233741, 40.598018826164754 ], [ -74.055208208158035, 40.597979510830662 ], [ -74.055259722316322, 40.597939339950038 ], [ -74.055308993879137, 40.597897462759676 ], [ -74.05536274903767, 40.597857289835261 ], [ -74.055409777441497, 40.597814560834465 ], [ -74.055456805574778, 40.597770120853468 ], [ -74.055504956434149, 40.59772909872023 ], [ -74.055556469514116, 40.597688074943555 ], [ -74.055603497462542, 40.597643634900457 ], [ -74.055655011124301, 40.597603463842098 ], [ -74.055711009083566, 40.597565854396315 ], [ -74.055767009220801, 40.597530805968326 ], [ -74.055812919702973, 40.597489783871325 ], [ -74.055862187354876, 40.597445344391261 ], [ -74.055913698570023, 40.597402610328963 ], [ -74.055962969328036, 40.597360733775275 ], [ -74.056006634512315, 40.597316294280098 ], [ -74.056055905862522, 40.597275271367849 ], [ -74.056104053519036, 40.597229977725952 ], [ -74.056152198198987, 40.597183830466641 ], [ -74.056196986826109, 40.597141100475753 ], [ -74.056248496495442, 40.597098366260887 ], [ -74.056293282854114, 40.597053075102778 ], [ -74.056338068387319, 40.597009488613821 ], [ -74.056386217099259, 40.596965904141037 ], [ -74.056434365710686, 40.596924880694374 ], [ -74.056478033321952, 40.596881296538442 ], [ -74.056527301755281, 40.596840272502718 ], [ -74.056575451428117, 40.596796686945218 ], [ -74.056623598356524, 40.596753953293025 ], [ -74.056672867845464, 40.596710369903427 ], [ -74.056726620132807, 40.596670197256437 ], [ -74.056778130196207, 40.596627461044434 ], [ -74.056826279421841, 40.596586439187575 ], [ -74.056872186538968, 40.596542854695223 ], [ -74.056924819733624, 40.596502682506198 ], [ -74.056974087986674, 40.596460804594429 ], [ -74.05701999492031, 40.596417219122166 ], [ -74.057061415776985, 40.59637192756999 ], [ -74.057088289500115, 40.596347998164212 ], [ -74.05714204270194, 40.596309534524856 ], [ -74.057191309947143, 40.596266801916869 ], [ -74.057233854877765, 40.596222364261472 ], [ -74.05727527583629, 40.596176218948607 ], [ -74.057325667066664, 40.596136902293281 ], [ -74.057372694941947, 40.596095025324352 ], [ -74.057417477557252, 40.596049730125365 ], [ -74.057465626447481, 40.596007854314948 ], [ -74.057511532640419, 40.595964267722387 ], [ -74.057560799869393, 40.595920682191597 ], [ -74.057606705576902, 40.595877951084482 ], [ -74.057655974148346, 40.595836071954849 ], [ -74.057707483711894, 40.595794191681279 ], [ -74.057751145976823, 40.595748897832237 ], [ -74.057795931257942, 40.595704460682484 ], [ -74.057841835191297, 40.595660020274856 ], [ -74.057887739805878, 40.595616437128491 ], [ -74.057929156623871, 40.595567727769449 ], [ -74.057968336969537, 40.595521584250541 ], [ -74.05801536400655, 40.595479706093819 ], [ -74.058063509422837, 40.595436118149671 ], [ -74.058112777383059, 40.595394239743129 ], [ -74.058163165940002, 40.595353216187561 ], [ -74.058203467117437, 40.595307068340098 ], [ -74.05825161108281, 40.595263483997179 ], [ -74.058296394959257, 40.595218188448257 ], [ -74.058336693551539, 40.595172043314811 ], [ -74.05838708105891, 40.595130165057753 ], [ -74.058435227933998, 40.595087432477435 ], [ -74.058481132225452, 40.595042991810239 ], [ -74.058527036743115, 40.595000262087019 ], [ -74.058570699427051, 40.59495667628979 ], [ -74.058618844852646, 40.594913943548427 ], [ -74.058661385158771, 40.594867797157036 ], [ -74.058707288403582, 40.594822503636323 ], [ -74.058757672817777, 40.594778914253411 ], [ -74.058808061722758, 40.59473789133245 ], [ -74.058853963112085, 40.594693450515535 ], [ -74.058895381820548, 40.594645597161183 ], [ -74.058943530915343, 40.594606279177135 ], [ -74.058992799216213, 40.594566108672858 ], [ -74.059037581326166, 40.594522523795504 ], [ -74.059082363267905, 40.594478938984281 ], [ -74.059130510324763, 40.594436204266927 ], [ -74.059179776535984, 40.594395179079982 ], [ -74.05922231578424, 40.59434988883833 ], [ -74.059268218182453, 40.594304594170431 ], [ -74.059316363896812, 40.594261860294893 ], [ -74.059361143210907, 40.594215711565717 ], [ -74.059399198400158, 40.594167005241673 ], [ -74.059442859213505, 40.594122565342531 ], [ -74.059487639865807, 40.594078127525343 ], [ -74.059538026273302, 40.594035392396982 ], [ -74.059579444083354, 40.593987537955734 ], [ -74.059591442520244, 40.593974417622896 ], [ -74.060114845990682, 40.59434033806658 ] ] ] ] } },
{ "type": "Feature", "properties": { "Borough": "SI", "Block": 3068, "Lot": 1, "CD": 501, "BCT2020": "5000600", "BCTCB2020": "50006002005", "CT2010": "6", "CB2010": "2009", "SchoolDist": "31", "Council": 49, "ZipCode": 10305, "FireComp": "E152", "PolicePrct": 120, "HealthCent": 51, "HealthArea": 700, "Sanitboro": "5", "SanitDistr": "01", "SanitSub": "1C", "Address": "BAY STREET", "ZoneDist1": "PARK", "ZoneDist2": null, "ZoneDist3": null, "ZoneDist4": null, "Overlay1": null, "Overlay2": null, "SPDist1": null, "SPDist2": null, "SPDist3": null, "LtdHeight": null, "SplitZone": "N", "BldgClass": "Q1", "LandUse": "09", "Easements": 0, "OwnerType": "C", "OwnerName": "NYC DEPARTMENT OF PARKS AND RECREATION", "LotArea": 560571, "BldgArea": 0, "ComArea": 0, "ResArea": 0, "OfficeArea": 0, "RetailArea": 0, "GarageArea": 0, "StrgeArea": 0, "FactryArea": 0, "OtherArea": 0, "AreaSource": "7", "NumBldgs": 0, "NumFloors": 0.0, "UnitsRes": 0, "UnitsTotal": 0, "LotFront": 387.83, "LotDepth": 1162.25, "BldgFront": 0.0, "BldgDepth": 0.0, "Ext": "N", "ProxCode": "0", "IrrLotCode": "Y", "LotType": "2", "BsmtCode": "0", "AssessLand": 1221795.0, "AssessTot": 1759950.0, "ExemptTot": 1759950.0, "YearBuilt": 0, "YearAlter1": 0, "YearAlter2": 0, "HistDist": null, "Landmark": null, "BuiltFAR": 0.0, "ResidFAR": 0.0, "CommFAR": 0.0, "FacilFAR": 0.0, "BoroCode": 5, "BBL": 5030680001.0, "CondoNo": 0, "Tract2010": "0006", "XCoord": 968047, "YCoord": 160741, "ZoneMap": "21d", "ZMCode": null, "Sanborn": "501 046", "TaxMap": "51301", "EDesigNum": null, "APPBBL": 0.0, "APPDate": null, "PLUTOMapID": "1", "FIRM07_FLA": "1", "PFIRM15_FL": "1", "Version": "25v4", "DCPEdited": "t", "Latitude": 40.6078584, "Longitude": -74.0583547, "Notes": null, "Shape_Leng": 0.0, "Shape_Area": 469174.12610200001 }, "geometry": { "type": "MultiPolygon", "coordinates": [ [ [ [ -74.056792267149802, 40.607875167700413 ], [ -74.056793053828017, 40.607874829570285 ], [ -74.060326661642591, 40.606444007351918 ], [ -74.061016560819368, 40.607377328257328 ], [ -74.060716556438479, 40.607501424638677 ], [ -74.06055196027647, 40.607569510529167 ], [ -74.060363727942175, 40.607647371202077 ], [ -74.060170002850853, 40.607727505511384 ], [ -74.059530313003009, 40.607992103940312 ], [ -74.058918253611651, 40.608245268886321 ], [ -74.057349457677375, 40.608893816361324 ], [ -74.057319862926889, 40.608905914237454 ], [ -74.05721688053795, 40.608948007425326 ], [ -74.057203235849542, 40.608922058993763 ], [ -74.057166206370766, 40.608871679728928 ], [ -74.057117975936237, 40.608828996504272 ], [ -74.057077588225781, 40.608781184439373 ], [ -74.057039438673712, 40.60873080845009 ], [ -74.05700689397672, 40.608679573230383 ], [ -74.056981072691883, 40.608628338272183 ], [ -74.056954125632473, 40.608571975416744 ], [ -74.056918226588905, 40.608531847972316 ], [ -74.056862184489759, 40.608527604494185 ], [ -74.056840876041278, 40.608511384860847 ], [ -74.056840855752696, 40.608487468907775 ], [ -74.056876700826763, 40.608462680557508 ], [ -74.056880047326331, 40.608444742308926 ], [ -74.056855368721202, 40.608419983847817 ], [ -74.056810530356884, 40.608409755361635 ], [ -74.056792592983328, 40.608404640280305 ], [ -74.056786972034857, 40.608384996416824 ], [ -74.056810486903856, 40.608358505884823 ], [ -74.056834015386187, 40.608350805619395 ], [ -74.056837363955751, 40.608335430254698 ], [ -74.056826111423504, 40.60828076882359 ], [ -74.056811494539673, 40.608224400768556 ], [ -74.056783435727851, 40.608177436195703 ], [ -74.056762090988386, 40.608121073208096 ], [ -74.056741874748738, 40.608068979072826 ], [ -74.056718291640806, 40.608013470860904 ], [ -74.056690225035226, 40.607957110333857 ], [ -74.056664132961942, 40.607930079613013 ], [ -74.056792267149802, 40.607875167700413 ] ] ] ] } },
{ "type": "Feature", "properties": { "Borough": "SI", "Block": 3081, "Lot": 55, "CD": 502, "BCT2020": "5002002", "BCTCB2020": "50020021000", "CT2010": "20.02", "CB2010": "1000", "SchoolDist": "31", "Council": 50, "ZipCode": 10305, "FireComp": "E152", "PolicePrct": 122, "HealthCent": 51, "HealthArea": 700, "Sanitboro": "5", "SanitDistr": "02", "SanitSub": "1C", "Address": "LILY POND AVENUE", "ZoneDist1": "R3-2", "ZoneDist2": null, "ZoneDist3": null, "ZoneDist4": null, "Overlay1": null, "Overlay2": null, "SPDist1": null, "SPDist2": null, "SPDist3": null, "LtdHeight": null, "SplitZone": "N", "BldgClass": "O2", "LandUse": "05", "Easements": 0, "OwnerType": "X", "OwnerName": "MTA - BRIDGES AND TUNNELS", "LotArea": 580470, "BldgArea": 27275, "ComArea": 27275, "ResArea": 0, "OfficeArea": 16275, "RetailArea": 0, "GarageArea": 11000, "StrgeArea": 0, "FactryArea": 0, "OtherArea": 0, "AreaSource": "2", "NumBldgs": 5, "NumFloors": 2.0, "UnitsRes": 0, "UnitsTotal": 1, "LotFront": 980.0, "LotDepth": 236.0, "BldgFront": 0.0, "BldgDepth": 0.0, "Ext": null, "ProxCode": "1", "IrrLotCode": "Y", "LotType": "5", "BsmtCode": "0", "AssessLand": 873450.0, "AssessTot": 1278000.0, "ExemptTot": 1278000.0, "YearBuilt": 1965, "YearAlter1": 0, "YearAlter2": 0, "HistDist": null, "Landmark": null, "BuiltFAR": 0.05, "ResidFAR": 0.75, "CommFAR": 0.0, "FacilFAR": 1.0, "BoroCode": 5, "BBL": 5030810055.0, "CondoNo": 0, "Tract2010": "002002", "XCoord": 966332, "YCoord": 158608, "ZoneMap": "27c", "ZMCode": "Y", "Sanborn": "504 462", "TaxMap": "51301", "EDesigNum": null, "APPBBL": 0.0, "APPDate": null, "PLUTOMapID": "1", "FIRM07_FLA": null, "PFIRM15_FL": null, "Version": "25v4", "DCPEdited": "t", "Latitude": 40.6020005, "Longitude": -74.0645256, "Notes": null, "Shape_Leng": 0.0, "Shape_Area": 903398.58279899997 }, "geometry": { "type": "MultiPolygon", "coordinates": [ [ [ [ -74.065717819570523, 40.605131696246374 ], [ -74.06568897991184, 40.605091183818416 ], [ -74.065579307769227, 40.604937121221162 ], [ -74.065436251073137, 40.604736160385016 ], [ -74.06542664031258, 40.604722662549541 ], [ -74.065380227630314, 40.60465746148428 ], [ -74.065341583645832, 40.604603175655093 ], [ -74.065333532332886, 40.604591865175102 ], [ -74.065246188505, 40.604474811882433 ], [ -74.065237580827755, 40.604462391356634 ], [ -74.065165191162151, 40.604357952036388 ], [ -74.065120426649926, 40.604293368608118 ], [ -74.065075773354664, 40.604228944474251 ], [ -74.064623109183444, 40.60359207978928 ], [ -74.063229094744813, 40.60163072058355 ], [ -74.062542733366811, 40.601849480206312 ], [ -74.062045452409663, 40.601148943696252 ], [ -74.061965103612025, 40.601035751871983 ], [ -74.062320891877206, 40.600938919322182 ], [ -74.062294469626735, 40.600899454759336 ], [ -74.062626640592711, 40.600763646934141 ], [ -74.062886214096466, 40.600796175462222 ], [ -74.06329500264269, 40.600628409278663 ], [ -74.063323540291265, 40.600616697613717 ], [ -74.063646908957523, 40.600483985896119 ], [ -74.063774965231602, 40.600431431698162 ], [ -74.063787019530167, 40.600426483800064 ], [ -74.064066197301415, 40.60031190760089 ], [ -74.064448016903384, 40.600155203497287 ], [ -74.064399443631714, 40.600085983286057 ], [ -74.064356560981594, 40.600024869100821 ], [ -74.064313027740866, 40.599962829464829 ], [ -74.064270142945261, 40.599901716085682 ], [ -74.064192086964169, 40.599790476844611 ], [ -74.064087276593014, 40.599641111661455 ], [ -74.064019342217875, 40.599544297442769 ], [ -74.063942525859119, 40.599434825946581 ], [ -74.063682254920607, 40.599063906671859 ], [ -74.063987544994333, 40.598964133314773 ], [ -74.06408018526065, 40.599096097333017 ], [ -74.064116237298322, 40.599147452045031 ], [ -74.064152288292448, 40.599198806747474 ], [ -74.064188339233738, 40.599250161354703 ], [ -74.064224390228816, 40.599301516034188 ], [ -74.064270583617514, 40.599367314806877 ], [ -74.064313056434401, 40.599427817774114 ], [ -74.06435553042634, 40.599488319888422 ], [ -74.064398004496084, 40.599548822906861 ], [ -74.064440478751735, 40.599609324987846 ], [ -74.064482954182424, 40.599669827973663 ], [ -74.064597670051739, 40.599833234427948 ], [ -74.06475814558334, 40.600061822747143 ], [ -74.064857790304018, 40.600203759074624 ], [ -74.064897648376714, 40.600260534250801 ], [ -74.064938561788551, 40.600318811881237 ], [ -74.064984364963365, 40.600384054066005 ], [ -74.065024633776559, 40.600441414345973 ], [ -74.065112285539371, 40.600566266179712 ], [ -74.065150603604039, 40.600620845855097 ], [ -74.065193904894997, 40.600682525056925 ], [ -74.065281888572116, 40.600807850346015 ], [ -74.065384553665751, 40.600954085369423 ], [ -74.065462037764888, 40.600966410006457 ], [ -74.065715861594583, 40.601006781529485 ], [ -74.066016344234654, 40.6010545732005 ], [ -74.066161166128481, 40.601077607298492 ], [ -74.06594950162723, 40.60135322444745 ], [ -74.065877699827354, 40.601322921621723 ], [ -74.065633401888064, 40.601630746880936 ], [ -74.065591002520549, 40.601691287867681 ], [ -74.065569122134974, 40.601725731821439 ], [ -74.065549018801221, 40.601758948197791 ], [ -74.065534188585303, 40.60178879904354 ], [ -74.065511274662242, 40.601839236812488 ], [ -74.065494430557649, 40.601882981965694 ], [ -74.065479608338208, 40.601921066264467 ], [ -74.065472209897393, 40.601952457263785 ], [ -74.065456489959203, 40.60202464484761 ], [ -74.065402848611498, 40.602003229384067 ], [ -74.065412687699336, 40.602129890258517 ], [ -74.065431269233045, 40.602234333862214 ], [ -74.065617349846008, 40.603007551620529 ], [ -74.065801315932717, 40.603837076185499 ], [ -74.06576943369096, 40.603845159545308 ], [ -74.065872424163246, 40.60425280264446 ], [ -74.065983620654606, 40.604692913724975 ], [ -74.066090506142046, 40.604854258266855 ], [ -74.06611579157078, 40.60484287824702 ], [ -74.066384201860117, 40.604603841555928 ], [ -74.066582439512715, 40.604651177337217 ], [ -74.066668888543404, 40.604454361550843 ], [ -74.06675204996354, 40.604449404592856 ], [ -74.066835128877344, 40.604451759889898 ], [ -74.066887712598316, 40.604454132853753 ], [ -74.066941537687057, 40.604459583061434 ], [ -74.06712553718684, 40.604506116595566 ], [ -74.067022904523739, 40.604757076915121 ], [ -74.06670943791039, 40.604679173904735 ], [ -74.066568673855528, 40.604740656588611 ], [ -74.066135579269755, 40.604933243214731 ], [ -74.066198536735627, 40.605019966837695 ], [ -74.06607519720346, 40.605074812816603 ], [ -74.065914739258986, 40.605146163079972 ], [ -74.065860763297948, 40.605071811797949 ], [ -74.065855948190702, 40.605073829038936 ], [ -74.065717819570523, 40.605131696246374 ] ] ] ] } },
{ "type": "Feature", "properties": { "Borough": "SI", "Block": 3074, "Lot": 8, "CD": 501, "BCT2020": "5000800", "BCTCB2020": "50008003009", "CT2010": "8", "CB2010": "3013", "SchoolDist": "31", "Council": 49, "ZipCode": 10305, "FireComp": "E152", "PolicePrct": 120, "HealthCent": 51, "HealthArea": 700, "Sanitboro": "5", "SanitDistr": "01", "SanitSub": "1C", "Address": "136 WADSWORTH AVENUE", "ZoneDist1": "R3A", "ZoneDist2": null, "ZoneDist3": null, "ZoneDist4": null, "Overlay1": null, "Overlay2": null, "SPDist1": null, "SPDist2": null, "SPDist3": null, "LtdHeight": null, "SplitZone": "N", "BldgClass": "A2", "LandUse": "01", "Easements": 0, "OwnerType": null, "OwnerName": "SCAROLA, GERALD", "LotArea": 5000, "BldgArea": 900, "ComArea": 0, "ResArea": 900, "OfficeArea": 0, "RetailArea": 0, "GarageArea": 0, "StrgeArea": 0, "FactryArea": 0, "OtherArea": 0, "AreaSource": "2", "NumBldgs": 2, "NumFloors": 1.0, "UnitsRes": 1, "UnitsTotal": 1, "LotFront": 50.0, "LotDepth": 100.0, "BldgFront": 20.0, "BldgDepth": 45.0, "Ext": "G", "ProxCode": "1", "IrrLotCode": "N", "LotType": "5", "BsmtCode": "2", "AssessLand": 12900.0, "AssessTot": 32880.0, "ExemptTot": 1420.0, "YearBuilt": 1920, "YearAlter1": 0, "YearAlter2": 0, "HistDist": null, "Landmark": null, "BuiltFAR": 0.18, "ResidFAR": 0.75, "CommFAR": 0.0, "FacilFAR": 1.0, "BoroCode": 5, "BBL": 5030740008.0, "CondoNo": 0, "Tract2010": "0008", "XCoord": 966275, "YCoord": 159538, "ZoneMap": "21d", "ZMCode": "Y", "Sanborn": "501 045", "TaxMap": "51301", "EDesigNum": null, "APPBBL": 0.0, "APPDate": null, "PLUTOMapID": "1", "FIRM07_FLA": null, "PFIRM15_FL": null, "Version": "25v4", "DCPEdited": null, "Latitude": 40.604553, "Longitude": -74.0647333, "Notes": null, "Shape_Leng": 0.0, "Shape_Area": 4874.4422453999996 }, "geometry": { "type": "MultiPolygon", "coordinates": [ [ [ [ -74.064562147407401, 40.604469225360013 ], [ -74.06471013388655, 40.604399995692077 ], [ -74.064759937219478, 40.604462010043108 ], [ -74.064809864831176, 40.604524178240482 ], [ -74.064890603680567, 40.60462471193869 ], [ -74.064900205690805, 40.604636667274917 ], [ -74.064752218883498, 40.604705898021955 ], [ -74.064742616891508, 40.604693942674757 ], [ -74.064562147407401, 40.604469225360013 ] ] ] ] } },
{ "type": "Feature", "properties": { "Borough": "SI", "Block": 3074, "Lot": 21, "CD": 501, "BCT2020": "5000800", "BCTCB2020": "50008003009", "CT2010": "8", "CB2010": "3013", "SchoolDist": "31", "Council": 49, "ZipCode": 10305, "FireComp": "E152", "PolicePrct": 120, "HealthCent": 51, "HealthArea": 700, "Sanitboro": "5", "SanitDistr": "01", "SanitSub": "1C", "Address": "108 WADSWORTH AVENUE", "ZoneDist1": "R3A", "ZoneDist2": null, "ZoneDist3": null, "ZoneDist4": null, "Overlay1": null, "Overlay2": null, "SPDist1": null, "SPDist2": null, "SPDist3": null, "LtdHeight": null, "SplitZone": "N", "BldgClass": "A2", "LandUse": "01", "Easements": 0, "OwnerType": null, "OwnerName": "PARISI ANTHONY", "LotArea": 4300, "BldgArea": 888, "ComArea": 0, "ResArea": 888, "OfficeArea": 0, "RetailArea": 0, "GarageArea": 0, "StrgeArea": 0, "FactryArea": 0, "OtherArea": 0, "AreaSource": "2", "NumBldgs": 2, "NumFloors": 1.0, "UnitsRes": 1, "UnitsTotal": 1, "LotFront": 43.0, "LotDepth": 100.0, "BldgFront": 24.0, "BldgDepth": 37.0, "Ext": "G", "ProxCode": "1", "IrrLotCode": "N", "LotType": "5", "BsmtCode": "2", "AssessLand": 11100.0, "AssessTot": 41160.0, "ExemptTot": 1420.0, "YearBuilt": 1950, "YearAlter1": 0, "YearAlter2": 0, "HistDist": null, "Landmark": null, "BuiltFAR": 0.21, "ResidFAR": 0.75, "CommFAR": 0.0, "FacilFAR": 1.0, "BoroCode": 5, "BBL": 5030740021.0, "CondoNo": 0, "Tract2010": "0008", "XCoord": 966504, "YCoord": 159678, "ZoneMap": "21d", "ZMCode": null, "Sanborn": "501 045", "TaxMap": "51301", "EDesigNum": null, "APPBBL": 0.0, "APPDate": null, "PLUTOMapID": "1", "FIRM07_FLA": null, "PFIRM15_FL": null, "Version": "25v4", "DCPEdited": null, "Latitude": 40.6049377, "Longitude": -74.063909, "Notes": null, "Shape_Leng": 0.0, "Shape_Area": 4229.1396567000002 }, "geometry": { "type": "MultiPolygon", "coordinates": [ [ [ [ -74.063746511575488, 40.604850783270493 ], [ -74.063874908051716, 40.604790719351811 ], [ -74.064055378396645, 40.605015436899293 ], [ -74.064064979215388, 40.605027391385242 ], [ -74.063936582454332, 40.605087456349573 ], [ -74.063926980553447, 40.605075500933516 ], [ -74.063746511575488, 40.604850783270493 ] ] ] ] } },
{ "type": "Feature", "properties": { "Borough": "SI", "Block": 3074, "Lot": 25, "CD": 501, "BCT2020": "5000800", "BCTCB2020": "50008003009", "CT2010": "8", "CB2010": "3013", "SchoolDist": "31", "Council": 49, "ZipCode": 10305, "FireComp": "E152", "PolicePrct": 120, "HealthCent": 51, "HealthArea": 700, "Sanitboro": "5", "SanitDistr": "01", "SanitSub": "1C", "Address": "98 WADSWORTH AVENUE", "ZoneDist1": "R3A", "ZoneDist2": null, "ZoneDist3": null, "ZoneDist4": null, "Overlay1": null, "Overlay2": null, "SPDist1": null, "SPDist2": null, "SPDist3": null, "LtdHeight": null, "SplitZone": "N", "BldgClass": "A2", "LandUse": "01", "Easements": 0, "OwnerType": null, "OwnerName": "VAN PELT, MAUREEN B", "LotArea": 4242, "BldgArea": 888, "ComArea": 0, "ResArea": 888, "OfficeArea": 0, "RetailArea": 0, "GarageArea": 0, "StrgeArea": 0, "FactryArea": 0, "OtherArea": 0, "AreaSource": "2", "NumBldgs": 1, "NumFloors": 1.0, "UnitsRes": 1, "UnitsTotal": 1, "LotFront": 42.42, "LotDepth": 100.0, "BldgFront": 24.0, "BldgDepth": 37.0, "Ext": "N", "ProxCode": "1", "IrrLotCode": "N", "LotType": "5", "BsmtCode": "2", "AssessLand": 11040.0, "AssessTot": 40380.0, "ExemptTot": 0.0, "YearBuilt": 1950, "YearAlter1": 0, "YearAlter2": 0, "HistDist": null, "Landmark": null, "BuiltFAR": 0.21, "ResidFAR": 0.75, "CommFAR": 0.0, "FacilFAR": 1.0, "BoroCode": 5, "BBL": 5030740025.0, "CondoNo": 0, "Tract2010": "0008", "XCoord": 966578, "YCoord": 159723, "ZoneMap": "21d", "ZMCode": null, "Sanborn": "501 045", "TaxMap": "51301", "EDesigNum": null, "APPBBL": 0.0, "APPDate": null, "PLUTOMapID": "1", "FIRM07_FLA": null, "PFIRM15_FL": null, "Version": "25v4", "DCPEdited": null, "Latitude": 40.6050614, "Longitude": -74.0636426, "Notes": null, "Shape_Leng": 0.0, "Shape_Area": 4314.8701713 }, "geometry": { "type": "MultiPolygon", "coordinates": [ [ [ [ -74.06348107167139, 40.604974954199477 ], [ -74.063612070407387, 40.604913673457823 ], [ -74.063792540312079, 40.605138391413291 ], [ -74.063802142198739, 40.605150347676862 ], [ -74.063671140866859, 40.605211628719729 ], [ -74.063661538884844, 40.605199672361607 ], [ -74.06348107167139, 40.604974954199477 ] ] ] ] } },
{ "type": "Feature", "properties": { "Borough": "SI", "Block": 3074, "Lot": 40, "CD": 501, "BCT2020": "5000800", "BCTCB2020": "50008003009", "CT2010": "8", "CB2010": "3013", "SchoolDist": "31", "Council": 49, "ZipCode": 10305, "FireComp": "E152", "PolicePrct": 120, "HealthCent": 51, "HealthArea": 700, "Sanitboro": "5", "SanitDistr": "01", "SanitSub": "1C", "Address": "84 WADSWORTH AVENUE", "ZoneDist1": "R3A", "ZoneDist2": null, "ZoneDist3": null, "ZoneDist4": null, "Overlay1": null, "Overlay2": null, "SPDist1": null, "SPDist2": null, "SPDist3": null, "LtdHeight": null, "SplitZone": "N", "BldgClass": "A1", "LandUse": "01", "Easements": 0, "OwnerType": null, "OwnerName": "JAMES ROMEO", "LotArea": 5000, "BldgArea": 1200, "ComArea": 0, "ResArea": 1200, "OfficeArea": 0, "RetailArea": 0, "GarageArea": 0, "StrgeArea": 0, "FactryArea": 0, "OtherArea": 0, "AreaSource": "2", "NumBldgs": 2, "NumFloors": 2.5, "UnitsRes": 1, "UnitsTotal": 1, "LotFront": 50.0, "LotDepth": 100.0, "BldgFront": 16.0, "BldgDepth": 34.0, "Ext": "G", "ProxCode": "1", "IrrLotCode": "N", "LotType": "5", "BsmtCode": "2", "AssessLand": 16260.0, "AssessTot": 39600.0, "ExemptTot": 1420.0, "YearBuilt": 1910, "YearAlter1": 0, "YearAlter2": 0, "HistDist": null, "Landmark": null, "BuiltFAR": 0.24, "ResidFAR": 0.75, "CommFAR": 0.0, "FacilFAR": 1.0, "BoroCode": 5, "BBL": 5030740040.0, "CondoNo": 0, "Tract2010": "0008", "XCoord": 966617, "YCoord": 159747, "ZoneMap": "21d", "ZMCode": null, "Sanborn": "501 045", "TaxMap": "51301", "EDesigNum": null, "APPBBL": 0.0, "APPDate": null, "PLUTOMapID": "1", "FIRM07_FLA": null, "PFIRM15_FL": null, "Version": "25v4", "DCPEdited": null, "Latitude": 40.6051274, "Longitude": -74.0635022, "Notes": null, "Shape_Leng": 0.0, "Shape_Area": 4962.7006284999998 }, "geometry": { "type": "MultiPolygon", "coordinates": [ [ [ [ -74.063330402950427, 40.605045436333619 ], [ -74.06348107167139, 40.604974954199477 ], [ -74.063661538884844, 40.605199672361607 ], [ -74.063671140866859, 40.605211628719729 ], [ -74.063520471701935, 40.605282110179687 ], [ -74.063510869846652, 40.60527015380903 ], [ -74.063330402950427, 40.605045436333619 ] ] ] ] } },
{ "type": "Feature", "properties": { "Borough": "SI", "Block": 3125, "Lot": 2, "CD": 502, "BCT2020": "5007400", "BCTCB2020": "50074000001", "CT2010": "74", "CB2010": "0001", "SchoolDist": null, "Council": 50, "ZipCode": 0, "FireComp": null, "PolicePrct": 0, "HealthCent": 0, "HealthArea": 0, "Sanitboro": null, "SanitDistr": null, "SanitSub": null, "Address": "FATHER CAPODANNO BL", "ZoneDist1": "PARK", "ZoneDist2": null, "ZoneDist3": null, "ZoneDist4": null, "Overlay1": null, "Overlay2": null, "SPDist1": null, "SPDist2": null, "SPDist3": null, "LtdHeight": null, "SplitZone": "N", "BldgClass": "Q4", "LandUse": "09", "Easements": 0, "OwnerType": "C", "OwnerName": "NYC DEPARTMENT OF PARKS AND RECREATION", "LotArea": 3977557, "BldgArea": 5000, "ComArea": 5000, "ResArea": 0, "OfficeArea": 0, "RetailArea": 0, "GarageArea": 0, "StrgeArea": 0, "FactryArea": 0, "OtherArea": 5000, "AreaSource": "2", "NumBldgs": 1, "NumFloors": 1.0, "UnitsRes": 0, "UnitsTotal": 1, "LotFront": 2287.0, "LotDepth": 1706.0, "BldgFront": 50.0, "BldgDepth": 100.0, "Ext": "N", "ProxCode": "1", "IrrLotCode": "Y", "LotType": "5", "BsmtCode": "0", "AssessLand": 4649400.0, "AssessTot": 5624550.0, "ExemptTot": 5624550.0, "YearBuilt": 1939, "YearAlter1": 0, "YearAlter2": 0, "HistDist": null, "Landmark": null, "BuiltFAR": 0.0, "ResidFAR": 0.0, "CommFAR": 0.0, "FacilFAR": 0.0, "BoroCode": 5, "BBL": 5031250002.0, "CondoNo": 0, "Tract2010": "0074", "XCoord": 967396, "YCoord": 154367, "ZoneMap": "27c", "ZMCode": null, "Sanborn": "503 316", "TaxMap": "51301", "EDesigNum": null, "APPBBL": 0.0, "APPDate": null, "PLUTOMapID": "1", "FIRM07_FLA": "1", "PFIRM15_FL": "1", "Version": "25v4", "DCPEdited": "t", "Latitude": 40.5903619, "Longitude": -74.0606834, "Notes": null, "Shape_Leng": 0.0, "Shape_Area": 618496.32487100002 }, "geometry": { "type": "MultiPolygon", "coordinates": [ [ [ [ -74.065085964750097, 40.589085956849011 ], [ -74.065794041974044, 40.589601937029023 ], [ -74.065646714484615, 40.589738819585513 ], [ -74.064914415280114, 40.590484715739564 ], [ -74.063200763849977, 40.59201124856942 ], [ -74.062096081918668, 40.592937744694026 ], [ -74.060114845990682, 40.59434033806658 ], [ -74.059591442520244, 40.593974417622896 ], [ -74.059620862909014, 40.593942246302603 ], [ -74.059656675553583, 40.593893540133401 ], [ -74.059667854334236, 40.593862785110773 ], [ -74.059668922818418, 40.593806409204937 ], [ -74.059658807036428, 40.593770539446609 ], [ -74.059654308334075, 40.593751750552762 ], [ -74.059632987847294, 40.593717594887387 ], [ -74.059632969605261, 40.593697096305263 ], [ -74.05964976694338, 40.593685126921606 ], [ -74.059677777674437, 40.593682550343303 ], [ -74.059705226491758, 40.593679121371096 ], [ -74.059439921157235, 40.593336737957941 ], [ -74.059455598110162, 40.593325625540061 ], [ -74.059474645119053, 40.593324761091608 ], [ -74.059486974860846, 40.593329026729172 ], [ -74.059493705807796, 40.593336710158376 ], [ -74.059747243507729, 40.593675682067698 ], [ -74.059774134994939, 40.593673959814666 ], [ -74.059815584753565, 40.593663688557932 ], [ -74.059879429061624, 40.59363632085261 ], [ -74.059944396495069, 40.593609809889415 ], [ -74.060005999072018, 40.593579026709804 ], [ -74.060067598739849, 40.593549099105005 ], [ -74.060130318019134, 40.593517461592818 ], [ -74.060186312777461, 40.59348155822881 ], [ -74.060241184848863, 40.593443945299704 ], [ -74.060298297724458, 40.593408895899167 ], [ -74.060311737091794, 40.593400347342445 ], [ -74.060352050557555, 40.593372137185838 ], [ -74.060411407470454, 40.593337940233994 ], [ -74.060459550988867, 40.593294352193112 ], [ -74.060512177164426, 40.593254180101034 ], [ -74.060563685264512, 40.593214861420684 ], [ -74.060611835887187, 40.593180669342928 ], [ -74.060666706698271, 40.593142203446995 ], [ -74.060717091987087, 40.593101176082612 ], [ -74.060770841588521, 40.593062711648237 ], [ -74.060824593540431, 40.593024245347081 ], [ -74.060880583545583, 40.59298663243888 ], [ -74.060926483909739, 40.592943899988398 ], [ -74.060966795288806, 40.592913984007673 ], [ -74.061019422732855, 40.592874663606338 ], [ -74.061069808811283, 40.592833637005249 ], [ -74.061119078422337, 40.592797735833514 ], [ -74.061168342521952, 40.592755855182041 ], [ -74.061216486261813, 40.592714829708065 ], [ -74.061267992751254, 40.592674657025583 ], [ -74.06131725677831, 40.592632778065962 ], [ -74.061367642849078, 40.592593459619408 ], [ -74.061418026512214, 40.592551579182469 ], [ -74.061465049297666, 40.592509697758558 ], [ -74.061515435611952, 40.59246952556235 ], [ -74.061562454720217, 40.592425084808504 ], [ -74.061606113741121, 40.592381498679565 ], [ -74.061654256577697, 40.592338764734869 ], [ -74.061704641863216, 40.592297738772558 ], [ -74.061760632338149, 40.59226183279624 ], [ -74.061804299423784, 40.592225935255179 ], [ -74.061846835141296, 40.592178932144613 ], [ -74.061893856190522, 40.592137054225518 ], [ -74.061940321132553, 40.592096883030322 ], [ -74.061987897737012, 40.592051586275531 ], [ -74.062038281810814, 40.592009706483061 ], [ -74.062087545170215, 40.591966972586533 ], [ -74.062135684192242, 40.591923382078996 ], [ -74.062174858703884, 40.591876382418128 ], [ -74.062218516970361, 40.591832797893595 ], [ -74.062259943703637, 40.591796899548527 ], [ -74.062304718619615, 40.591752459783542 ], [ -74.062347253987369, 40.591704603639656 ], [ -74.062392031879952, 40.591661014844654 ], [ -74.062426734165328, 40.591625978284931 ], [ -74.062473754460413, 40.591584098284024 ], [ -74.06251517024306, 40.591537951054185 ], [ -74.06255210054978, 40.591489243274751 ], [ -74.062598000022007, 40.591446510147563 ], [ -74.062643899843522, 40.591402922399993 ], [ -74.062685313390773, 40.591355919584629 ], [ -74.062727849032044, 40.591308917983682 ], [ -74.062772626413732, 40.591265331632265 ], [ -74.062815161233459, 40.591220036526721 ], [ -74.062852091145004, 40.591171329570372 ], [ -74.062900230711108, 40.591126888567295 ], [ -74.063056915047682, 40.590932905976707 ], [ -74.063079300352342, 40.590906416478532 ], [ -74.063122954575633, 40.590861119724146 ], [ -74.063169973494382, 40.590817532903841 ], [ -74.063218112191095, 40.590773943693492 ], [ -74.063258403492611, 40.590725233918569 ], [ -74.063304301474986, 40.590680793976027 ], [ -74.063350197486969, 40.590635496736468 ], [ -74.06339272919854, 40.590587639363775 ], [ -74.06343302459473, 40.590542347017106 ], [ -74.06347667873942, 40.590496199035989 ], [ -74.063521455087454, 40.59045261155061 ], [ -74.063565109509568, 40.59040560809585 ], [ -74.063609885741769, 40.590362023252027 ], [ -74.063654659477294, 40.590315871906448 ], [ -74.063701678061037, 40.590271429425968 ], [ -74.06374869456134, 40.590226133244258 ], [ -74.063795712230274, 40.590183398928644 ], [ -74.063849456477044, 40.590142369229525 ], [ -74.063900960217211, 40.590103049036898 ], [ -74.063946856244584, 40.590058607078291 ], [ -74.063994994704245, 40.590015872140725 ], [ -74.064039771599369, 40.589972284449985 ], [ -74.064082303919989, 40.589926136023223 ], [ -74.064121475891127, 40.589879134766917 ], [ -74.064162888553838, 40.589832133249665 ], [ -74.064211027250607, 40.589791106507299 ], [ -74.064255801829404, 40.58974666588567 ], [ -74.064293852003061, 40.589697956992623 ], [ -74.064336383973639, 40.589651808470222 ], [ -74.064381160790575, 40.589607366961275 ], [ -74.064427055336367, 40.589562070121723 ], [ -74.064469587127633, 40.589515920629132 ], [ -74.064513239887063, 40.589469771411885 ], [ -74.064556893794844, 40.58942362393352 ], [ -74.064597181274806, 40.589374058157659 ], [ -74.064638592192125, 40.589327057388019 ], [ -74.064681126818485, 40.58928176241708 ], [ -74.064720294752334, 40.589233907271776 ], [ -74.064757223003213, 40.589186053456203 ], [ -74.064796393239547, 40.589138197445408 ], [ -74.064828836864336, 40.589088638682796 ], [ -74.064862402554283, 40.589039076601473 ], [ -74.064893725826821, 40.5889878102494 ], [ -74.064911220414999, 40.588958609916787 ], [ -74.065085964750097, 40.589085956849011 ] ] ] ] } }
]
}
