{
"type": "FeatureCollection",
"name": "pluto_Spring_Creek_Park",
"crs": { "type": "name", "properties": { "name": "urn:ogc:def:crs:OGC:1.3:CRS84" } },
"features": [
{ "type": "Feature", "properties": { "Borough": "QN", "Block": 14140, "Lot": 100, "CD": 410, "BCT2020": "4089202", "BCTCB2020": "40892021001", "CT2010": "892", "CB2010": "2013", "SchoolDist": "27", "Council": 32, "ZipCode": 11414, "FireComp": "L173", "PolicePrct": 106, "HealthCent": 45, "HealthArea": 3611, "Sanitboro": "4", "SanitDistr": "10", "SanitSub": "4C", "Address": "83 STREET", "ZoneDist1": "PARK", "ZoneDist2": null, "ZoneDist3": null, "ZoneDist4": null, "Overlay1": null, "Overlay2": null, "SPDist1": null, "SPDist2": null, "SPDist3": null, "LtdHeight": null, "SplitZone": "N", "BldgClass": "Q0", "LandUse": "09", "Easements": 0, "OwnerType": "X", "OwnerName": "NATIONAL PARK SERVICE", "LotArea": 4530240, "BldgArea": 0, "ComArea": 0, "ResArea": 0, "OfficeArea": 0, "RetailArea": 0, "GarageArea": 0, "StrgeArea": 0, "FactryArea": 0, "OtherArea": 0, "AreaSource": "7", "NumBldgs": 0, "NumFloors": 0.0, "UnitsRes": 0, "UnitsTotal": 0, "LotFront": 999.0, "LotDepth": 999.0, "BldgFront": 0.0, "BldgDepth": 0.0, "Ext": null, "ProxCode": "0", "IrrLotCode": "Y", "LotType": "5", "BsmtCode": "5", "AssessLand": 128817000.0, "AssessTot": 128817000.0, "ExemptTot": 128817000.0, "YearBuilt": 0, "YearAlter1": 0, "YearAlter2": 0, "HistDist": null, "Landmark": null, "BuiltFAR": 0.0, "ResidFAR": 0.0, "CommFAR": 0.0, "FacilFAR": 0.0, "BoroCode": 4, "BBL": 4141400100.0000005, "CondoNo": 0, "Tract2010": "0892", "XCoord": 1024820, "YCoord": 177400, "ZoneMap": "18b", "ZMCode": null, "Sanborn": "418 063", "TaxMap": "45803", "EDesigNum": null, "APPBBL": 0.0, "APPDate": null, "PLUTOMapID": "1", "FIRM07_FLA": "1", "PFIRM15_FL": "1", "Version": "25v4", "DCPEdited": null, "Latitude": 40.6535057, "Longitude": -73.8537881, "Notes": null, "Shape_Leng": 0.0, "Shape_Area": 4101315.3239600002 }, "geometry": { "type": "MultiPolygon", "coordinates": [ [ [ [ -73.85331757591085, 40.653700760591782 ], [ -73.848547860795151, 40.654320232852598 ], [ -73.847818813036127, 40.651389388110793 ], [ -73.849251583819509, 40.651198432993851 ], [ -73.849282798832775, 40.651230814526158 ], [ -73.849296170134664, 40.651268413426536 ], [ -73.849315206625846, 40.651281251864532 ], [ -73.849334244224494, 40.651294089381992 ], [ -73.84934202626242, 40.651323994071859 ], [ -73.849347580940346, 40.651347063649041 ], [ -73.849354255643689, 40.651370988373351 ], [ -73.849360935414907, 40.651393207503411 ], [ -73.849397851496093, 40.651434255580256 ], [ -73.849443779904519, 40.651457377163936 ], [ -73.849489670989669, 40.651497583296681 ], [ -73.849534478616832, 40.651520704211499 ], [ -73.849577076833327, 40.651528446881024 ], [ -73.849637642014315, 40.651526817906344 ], [ -73.849706055705781, 40.651525199171409 ], [ -73.849737451999047, 40.651527802205607 ], [ -73.849808120150499, 40.651521062363543 ], [ -73.849873200717994, 40.65150577294979 ], [ -73.849886671086026, 40.651500662962128 ], [ -73.849907995504537, 40.651493004041576 ], [ -73.849977561247101, 40.651478576786126 ], [ -73.85004488440606, 40.651462861524436 ], [ -73.850114469432796, 40.651440316900995 ], [ -73.850127392284151, 40.651428373981645 ], [ -73.850142571864708, 40.651411311932094 ], [ -73.850147082648533, 40.651400214390904 ], [ -73.850168416713174, 40.651388283359516 ], [ -73.850237417673242, 40.651375133887022 ], [ -73.850310909083618, 40.651359429274045 ], [ -73.85035807412892, 40.6513321563692 ], [ -73.850414230645939, 40.651295501008612 ], [ -73.850468144898883, 40.651257989022916 ], [ -73.850490640327237, 40.651228974828584 ], [ -73.850512046334046, 40.651185441906463 ], [ -73.85051655129736, 40.651176906382233 ], [ -73.850538560450445, 40.651141937965058 ], [ -73.850540186667786, 40.651139354030548 ], [ -73.850544718538259, 40.651118859592145 ], [ -73.850569423739955, 40.651103517239044 ], [ -73.850632794963673, 40.65110103679315 ], [ -73.850654701955349, 40.65108398242193 ], [ -73.850665993700488, 40.651048976033636 ], [ -73.850671644854771, 40.651030191323713 ], [ -73.850673926011424, 40.651013112349268 ], [ -73.850671359729091, 40.651009185973521 ], [ -73.850763795017158, 40.650996864862293 ], [ -73.850808512393726, 40.651009017016882 ], [ -73.850874619586605, 40.651035580794954 ], [ -73.850926161008601, 40.651057001718129 ], [ -73.85099906190483, 40.651054532518948 ], [ -73.851064141854806, 40.651039242347196 ], [ -73.851109018274613, 40.651031612822344 ], [ -73.85114154869008, 40.651028240273448 ], [ -73.851174078410693, 40.651025719552671 ], [ -73.851195385373302, 40.65102574715992 ], [ -73.851249213734022, 40.651027524245436 ], [ -73.85131874131072, 40.651029322548638 ], [ -73.851368086471339, 40.651029386416646 ], [ -73.851409592985647, 40.651023461611921 ], [ -73.851466834566352, 40.651003037157977 ], [ -73.851496006399259, 40.65099624177121 ], [ -73.851543147076029, 40.650980073532146 ], [ -73.851575718077555, 40.650957905259212 ], [ -73.851600455921059, 40.650928898263714 ], [ -73.851606096782334, 40.650913530050055 ], [ -73.851616106024878, 40.650883256045731 ], [ -73.851806980613674, 40.650857813401501 ], [ -73.852173252961236, 40.650808985639515 ], [ -73.853543007339894, 40.650626365322168 ], [ -73.853572667830022, 40.650631619332685 ], [ -73.853644402325614, 40.650649646384153 ], [ -73.853713905098758, 40.650662548393981 ], [ -73.853786786060709, 40.650669475229215 ], [ -73.853824916398381, 40.650669523765679 ], [ -73.85388324485929, 40.650663618557481 ], [ -73.85395500753512, 40.650668834666334 ], [ -73.854015557966491, 40.650674036480495 ], [ -73.854045819662332, 40.650681761729146 ], [ -73.854069301556251, 40.650713395246662 ], [ -73.854126487866296, 40.650717739048034 ], [ -73.854198276656291, 40.650710997095814 ], [ -73.854207232182816, 40.650717841574732 ], [ -73.854209419040856, 40.650743470437426 ], [ -73.854235196654642, 40.650752043623648 ], [ -73.854301314174165, 40.650774336130667 ], [ -73.854344968112642, 40.650811973690082 ], [ -73.854415589515185, 40.650826584050506 ], [ -73.854488474457455, 40.650831801248614 ], [ -73.854562479490184, 40.650837874418706 ], [ -73.85463536511493, 40.650842236088415 ], [ -73.854708249327018, 40.650848308666141 ], [ -73.854775510380563, 40.650860351677593 ], [ -73.854812476754446, 40.650879191308078 ], [ -73.854838219817466, 40.650903138895707 ], [ -73.85487069792714, 40.650923680273571 ], [ -73.854920026287232, 40.650931429384848 ], [ -73.854981717211089, 40.65092723882033 ], [ -73.855038903207713, 40.650930725812216 ], [ -73.855075896896466, 40.65093760652907 ], [ -73.855098273376967, 40.650962403488293 ], [ -73.855127362963657, 40.650994899381182 ], [ -73.85516099609805, 40.650999213874925 ], [ -73.85523278138092, 40.650994178630469 ], [ -73.855305680754029, 40.650993416818274 ], [ -73.85537517124223, 40.651012294475571 ], [ -73.855441282100799, 40.65103800379211 ], [ -73.85550290090535, 40.651067120293384 ], [ -73.855569018517102, 40.651090267504451 ], [ -73.855630670711619, 40.651104011321657 ], [ -73.855677781173057, 40.651099799378095 ], [ -73.85574956161544, 40.65109647475952 ], [ -73.855821319930655, 40.651105105415603 ], [ -73.855867273594498, 40.651117974715035 ], [ -73.855899765689315, 40.651131680868815 ], [ -73.855930017300579, 40.651145387800838 ], [ -73.855977046483389, 40.651178757817959 ], [ -73.855991569430969, 40.651204400273066 ], [ -73.855972389709905, 40.651257334743079 ], [ -73.855976821388992, 40.651282963622947 ], [ -73.856001414822728, 40.651318871129114 ], [ -73.856036157158769, 40.651330872624797 ], [ -73.856107905971754, 40.651342920480445 ], [ -73.85618079702985, 40.651345573820961 ], [ -73.85624481950326, 40.651350088183975 ], [ -73.856354881349745, 40.651496781592591 ], [ -73.856351996861079, 40.651525161288795 ], [ -73.856345149115086, 40.651579818600112 ], [ -73.856324863324389, 40.651625918633741 ], [ -73.856320313056543, 40.651655808336749 ], [ -73.856339264513409, 40.651708788805152 ], [ -73.856368312132957, 40.651760075375286 ], [ -73.856386139747144, 40.651813909028107 ], [ -73.856392768554613, 40.651860896404152 ], [ -73.85639387285697, 40.651868585492252 ], [ -73.856399361207721, 40.65192411282711 ], [ -73.856400361860466, 40.651980488312375 ], [ -73.856390150306765, 40.652035141500157 ], [ -73.856378871118238, 40.652065023626349 ], [ -73.856374263802891, 40.652121393018149 ], [ -73.856379836329737, 40.652136774480766 ], [ -73.856389337078554, 40.652153015537117 ], [ -73.856444823407244, 40.652165042843983 ], [ -73.856516583483923, 40.652172818466987 ], [ -73.85653002579329, 40.652180522966717 ], [ -73.856552347513187, 40.652230092808445 ], [ -73.856557881966737, 40.652264266266577 ], [ -73.856565649554696, 40.652303567345349 ], [ -73.856580108194166, 40.652358251271302 ], [ -73.856580045724797, 40.652387291987722 ], [ -73.856587796803879, 40.652434280832992 ], [ -73.856602257165761, 40.652489820277118 ], [ -73.856612233485208, 40.652544498602602 ], [ -73.856599829295234, 40.652575232186024 ], [ -73.856589688841908, 40.652597426288466 ], [ -73.856603064527761, 40.652635027007925 ], [ -73.856605239624372, 40.652666632471671 ], [ -73.856632097540114, 40.652694001194618 ], [ -73.856692591378135, 40.652726534122046 ], [ -73.856735158161698, 40.652749647670134 ], [ -73.85677211082816, 40.652776174353342 ], [ -73.856819182404323, 40.652791608457882 ], [ -73.856886424424076, 40.652813044430822 ], [ -73.856935761116006, 40.652818232569174 ], [ -73.857008668587099, 40.652814050368804 ], [ -73.857081563111763, 40.652815852137884 ], [ -73.857154456546454, 40.652817651099134 ], [ -73.857215033101397, 40.652810038716993 ], [ -73.857289058970167, 40.652807567848491 ], [ -73.857339728699131, 40.652809412361428 ], [ -73.859037068154436, 40.655071671364098 ], [ -73.85737405629493, 40.656220778240417 ], [ -73.85549500936456, 40.65761547561609 ], [ -73.854745273336889, 40.658202193838143 ], [ -73.854514553183662, 40.658383906237596 ], [ -73.854479085871489, 40.658379021098192 ], [ -73.85331757591085, 40.653700760591782 ] ] ] ] } },
{ "type": "Feature", "properties": { "Borough": "QN", "Block": 14213, "Lot": 100, "CD": 484, "BCT2020": "4089202", "BCTCB2020": "40892021009", "CT2010": "892", "CB2010": "2023", "SchoolDist": "27", "Council": 32, "ZipCode": 11414, "FireComp": "L173", "PolicePrct": 106, "HealthCent": 45, "HealthArea": 3611, "Sanitboro": null, "SanitDistr": null, "SanitSub": null, "Address": "CROSS BAY BOULEVARD", "ZoneDist1": "C3", "ZoneDist2": null, "ZoneDist3": null, "ZoneDist4": null, "Overlay1": null, "Overlay2": null, "SPDist1": null, "SPDist2": null, "SPDist3": null, "LtdHeight": null, "SplitZone": "N", "BldgClass": "Q1", "LandUse": "09", "Easements": 0, "OwnerType": "X", "OwnerName": "NATIONAL PARK SERVICE", "LotArea": 111470, "BldgArea": 0, "ComArea": 0, "ResArea": 0, "OfficeArea": 0, "RetailArea": 0, "GarageArea": 0, "StrgeArea": 0, "FactryArea": 0, "OtherArea": 0, "AreaSource": "7", "NumBldgs": 0, "NumFloors": 0.0, "UnitsRes": 0, "UnitsTotal": 0, "LotFront": 84.0, "LotDepth": 1327.0, "BldgFront": 0.0, "BldgDepth": 0.0, "Ext": "N", "ProxCode": "0", "IrrLotCode": "N", "LotType": "2", "BsmtCode": "0", "AssessLand": 607950.0, "AssessTot": 607950.0, "ExemptTot": 607950.0, "YearBuilt": 0, "YearAlter1": 0, "YearAlter2": 0, "HistDist": null, "Landmark": null, "BuiltFAR": 0.0, "ResidFAR": 0.75, "CommFAR": 0.5, "FacilFAR": 1.0, "BoroCode": 4, "BBL": 4142130100.0, "CondoNo": 0, "Tract2010": "0892", "XCoord": 1029625, "YCoord": 175135, "ZoneMap": "24a", "ZMCode": "Y", "Sanborn": "418 063", "TaxMap": "45805", "EDesigNum": null, "APPBBL": 0.0, "APPDate": null, "PLUTOMapID": "1", "FIRM07_FLA": "1", "PFIRM15_FL": "1", "Version": "25v4", "DCPEdited": null, "Latitude": 40.6472655, "Longitude": -73.8364865, "Notes": null, "Shape_Leng": 0.0, "Shape_Area": 102776.750854 }, "geometry": { "type": "MultiPolygon", "coordinates": [ [ [ [ -73.836195643395385, 40.64547620346525 ], [ -73.837095145294739, 40.649032568817368 ], [ -73.836798477777847, 40.64907620000681 ], [ -73.836795877106539, 40.649070665299732 ], [ -73.836782792438839, 40.649004907304473 ], [ -73.836727192676477, 40.64872548636648 ], [ -73.836719379834747, 40.648710100668701 ], [ -73.836708281958906, 40.648663106684872 ], [ -73.836682674971826, 40.648587050328445 ], [ -73.836669350740806, 40.648532364538859 ], [ -73.83659949329045, 40.648208541380185 ], [ -73.836521760018371, 40.647895805875159 ], [ -73.83640625931136, 40.647436105033918 ], [ -73.836404071015423, 40.647413892450423 ], [ -73.836308564830659, 40.64703194820315 ], [ -73.836291899740019, 40.646968716120526 ], [ -73.836274140066436, 40.646894378199384 ], [ -73.836185307283813, 40.64653636024984 ], [ -73.836052036039305, 40.646008300449175 ], [ -73.83596653129473, 40.645665658878279 ], [ -73.835924864384793, 40.645508862330175 ], [ -73.835925452128322, 40.645498185650482 ], [ -73.836146428541213, 40.645472875997733 ], [ -73.836169980745225, 40.645471201314891 ], [ -73.836194001271807, 40.645469711351375 ], [ -73.836195643395385, 40.64547620346525 ] ] ] ] } },
{ "type": "Feature", "properties": { "Borough": "QN", "Block": 14140, "Lot": 1, "CD": 410, "BCT2020": "4089202", "BCTCB2020": "40892021001", "CT2010": "892", "CB2010": "2013", "SchoolDist": "27", "Council": 32, "ZipCode": 11414, "FireComp": "L173", "PolicePrct": 106, "HealthCent": 45, "HealthArea": 3611, "Sanitboro": "4", "SanitDistr": "10", "SanitSub": "4C", "Address": "CROSS BAY BOULEVARD", "ZoneDist1": "PARK", "ZoneDist2": null, "ZoneDist3": null, "ZoneDist4": null, "Overlay1": null, "Overlay2": null, "SPDist1": null, "SPDist2": null, "SPDist3": null, "LtdHeight": null, "SplitZone": "N", "BldgClass": "Q0", "LandUse": "09", "Easements": 0, "OwnerType": "X", "OwnerName": "UNITED STATES OF AMERICA", "LotArea": 11600000, "BldgArea": 0, "ComArea": 0, "ResArea": 0, "OfficeArea": 0, "RetailArea": 0, "GarageArea": 0, "StrgeArea": 0, "FactryArea": 0, "OtherArea": 0, "AreaSource": "7", "NumBldgs": 0, "NumFloors": 0.0, "UnitsRes": 0, "UnitsTotal": 0, "LotFront": 999.0, "LotDepth": 999.0, "BldgFront": 0.0, "BldgDepth": 0.0, "Ext": null, "ProxCode": "0", "IrrLotCode": "Y", "LotType": "5", "BsmtCode": "5", "AssessLand": 279490050.0, "AssessTot": 279490050.0, "ExemptTot": 279490050.0, "YearBuilt": 0, "YearAlter1": 0, "YearAlter2": 0, "HistDist": null, "Landmark": null, "BuiltFAR": 0.0, "ResidFAR": 0.0, "CommFAR": 0.0, "FacilFAR": 0.0, "BoroCode": 4, "BBL": 4141400001.0, "CondoNo": 0, "Tract2010": "0892", "XCoord": 1026114, "YCoord": 175148, "ZoneMap": "24a", "ZMCode": "Y", "Sanborn": "418 063", "TaxMap": "45803", "EDesigNum": null, "APPBBL": 0.0, "APPDate": null, "PLUTOMapID": "1", "FIRM07_FLA": "1", "PFIRM15_FL": "1", "Version": "25v4", "DCPEdited": null, "Latitude": 40.6473185, "Longitude": -73.8491386, "Notes": null, "Shape_Leng": 0.0, "Shape_Area": 6857029.6403500009 }, "geometry": { "type": "MultiPolygon", "coordinates": [ [ [ [ -73.847281430658768, 40.649228889644661 ], [ -73.847052426842666, 40.648308158117395 ], [ -73.846970182372459, 40.647977482695218 ], [ -73.846892434880132, 40.647664877661335 ], [ -73.84645394826687, 40.647724137992356 ], [ -73.841465067490049, 40.648398241163179 ], [ -73.840834887777135, 40.648483375446752 ], [ -73.840150003613701, 40.648575895418091 ], [ -73.83998108727711, 40.648598714317103 ], [ -73.837570740287077, 40.648924285897877 ], [ -73.836693508393139, 40.645409354621144 ], [ -73.836728343432071, 40.645404016360757 ], [ -73.837498295481339, 40.645286020013266 ], [ -73.837534043140678, 40.645284369501219 ], [ -73.837606944693022, 40.64528020052088 ], [ -73.837679842714152, 40.645276034167161 ], [ -73.837751614082364, 40.64527528189808 ], [ -73.837775161912646, 40.645275315160504 ], [ -73.837826745623545, 40.645275388008109 ], [ -73.837898526395989, 40.64527121818184 ], [ -73.837970308662804, 40.645264485433451 ], [ -73.838003962064292, 40.64526026358714 ], [ -73.83804210065037, 40.645255191616123 ], [ -73.838072374629988, 40.645256088901618 ], [ -73.838113867735288, 40.645256147393667 ], [ -73.83814395509647, 40.645256189797877 ], [ -73.838188999255507, 40.645256253267057 ], [ -73.838261891349973, 40.645255501338383 ], [ -73.838335897873733, 40.645257311970049 ], [ -73.83841102645988, 40.645259127814434 ], [ -73.83848615908191, 40.645259233495224 ], [ -73.838559052039386, 40.645257625858648 ], [ -73.838633075449039, 40.645253460566479 ], [ -73.838709331850183, 40.645251858480279 ], [ -73.838781108164298, 40.645248544454113 ], [ -73.838855127430392, 40.64524608461538 ], [ -73.838930275440447, 40.645239357746739 ], [ -73.839002051630601, 40.645236039984589 ], [ -73.83907496721308, 40.645225039737923 ], [ -73.839146757798687, 40.645215744309212 ], [ -73.839219654807351, 40.645212428901139 ], [ -73.839290313464346, 40.645208258391989 ], [ -73.839360989537468, 40.645196397470713 ], [ -73.839431672847567, 40.645181976397097 ], [ -73.839503463088022, 40.645171826144697 ], [ -73.839574140176225, 40.645159967770475 ], [ -73.839644822303924, 40.645145546480535 ], [ -73.839693058422412, 40.645137925180606 ], [ -73.839762627855237, 40.645120084870342 ], [ -73.839803016289522, 40.645112454415433 ], [ -73.839875904947149, 40.645112556058656 ], [ -73.839929737279746, 40.64511006822017 ], [ -73.839955567067364, 40.645094730539981 ], [ -73.839950027357489, 40.645066534748388 ], [ -73.839948957497924, 40.645044323787062 ], [ -73.839965808257247, 40.645032390150092 ], [ -73.840014086553154, 40.645007686902787 ], [ -73.840081419212709, 40.644987280320898 ], [ -73.840150983077919, 40.644971149804491 ], [ -73.840212705164504, 40.64495159002135 ], [ -73.840278923937703, 40.64492776521687 ], [ -73.840347373092058, 40.644909066554291 ], [ -73.840397885672559, 40.644887784566841 ], [ -73.840409117544468, 40.64488011337815 ], [ -73.840388985499629, 40.644858730530594 ], [ -73.840375868754151, 40.644845023814113 ], [ -73.840441421534564, 40.644834976664107 ], [ -73.840501947555012, 40.644825696196136 ], [ -73.84054266233565, 40.644838016802396 ], [ -73.840609908730755, 40.644853057905031 ], [ -73.84068389744553, 40.644861701959179 ], [ -73.840756773857919, 40.644867783385607 ], [ -73.840828527237392, 40.644873861367927 ], [ -73.840904773231941, 40.644877382650897 ], [ -73.840976522563167, 40.644885168898902 ], [ -73.841050522632813, 40.644889544251321 ], [ -73.84112453420974, 40.644889646657674 ], [ -73.841201905983823, 40.644890607341715 ], [ -73.841275917452194, 40.644890709650483 ], [ -73.841351054665125, 40.644888249751098 ], [ -73.841425076283173, 40.644884082577754 ], [ -73.841497966728781, 40.644883327758826 ], [ -73.841571989155, 40.644878304971321 ], [ -73.841638160004365, 40.64487498059264 ], [ -73.841711057225496, 40.644870809927156 ], [ -73.841783960198384, 40.644865785544134 ], [ -73.841857989870647, 40.644858199785808 ], [ -73.841930902550374, 40.644848050402196 ], [ -73.842003808211672, 40.644841316683582 ], [ -73.84207671194396, 40.644835438435585 ], [ -73.842151859983446, 40.64482785494738 ], [ -73.842223648899903, 40.644819411276018 ], [ -73.842297680487576, 40.64481097239581 ], [ -73.842369467063236, 40.644802528630272 ], [ -73.842440144176592, 40.644789812138768 ], [ -73.842510822358832, 40.644777096526738 ], [ -73.84258149417164, 40.644766090897569 ], [ -73.842646563763438, 40.644753367514539 ], [ -73.842710544823177, 40.644726976286307 ], [ -73.84278346327396, 40.644714262653551 ], [ -73.842855253998025, 40.644704965747735 ], [ -73.842928157105604, 40.644698231439996 ], [ -73.842998833083783, 40.644686371044678 ], [ -73.843068394033622, 40.64467109152001 ], [ -73.84314131666909, 40.644657523987 ], [ -73.843210296899414, 40.644650358223707 ], [ -73.843284885540214, 40.644643198230639 ], [ -73.843358901657254, 40.644640737246611 ], [ -73.843391420122728, 40.644640781594234 ], [ -73.843431790903097, 40.644640836637798 ], [ -73.843504679052913, 40.644640935981307 ], [ -73.8435786922484, 40.644640183968043 ], [ -73.843652704346212, 40.644639431069329 ], [ -73.843725611718583, 40.644631841662736 ], [ -73.843798515756475, 40.644625106804739 ], [ -73.843871413883335, 40.644620936611915 ], [ -73.843945456249344, 40.644608224608369 ], [ -73.844016126862059, 40.644598070019292 ], [ -73.84408682009898, 40.644577665743661 ], [ -73.844154694587075, 40.644564519311764 ], [ -73.844232659208473, 40.644551384769279 ], [ -73.844303335698839, 40.644538668052697 ], [ -73.844376248753548, 40.644528518040254 ], [ -73.844450282632934, 40.644518369582165 ], [ -73.844524314503815, 40.644509072912726 ], [ -73.844597211571084, 40.644505755017747 ], [ -73.844671233457305, 40.644500729399255 ], [ -73.844745255217873, 40.644495706409487 ], [ -73.84481817345781, 40.644483845167663 ], [ -73.844893313941384, 40.644479676437179 ], [ -73.844965098276845, 40.644472939327791 ], [ -73.845039125940133, 40.644465352441465 ], [ -73.84511091817896, 40.644455199529752 ], [ -73.845186058616306, 40.644451028767797 ], [ -73.845260078411911, 40.644446859207129 ], [ -73.845332971523021, 40.644445248199006 ], [ -73.84540698723508, 40.644442785898029 ], [ -73.845482132916061, 40.644436906669938 ], [ -73.845555027875534, 40.644434443684567 ], [ -73.84562904961227, 40.644429417449572 ], [ -73.845703062553341, 40.644428662312777 ], [ -73.845773731494461, 40.644418509318513 ], [ -73.845839947752296, 40.644394681311702 ], [ -73.845882573023488, 40.644389611926954 ], [ -73.845918475728098, 40.644381117786537 ], [ -73.845963394508942, 40.644352992651733 ], [ -73.846028492638396, 40.644327453920575 ], [ -73.846098054492842, 40.644311318049041 ], [ -73.846165380647136, 40.644292617100568 ], [ -73.84622482998563, 40.644285009001209 ], [ -73.84629884396162, 40.644284256160468 ], [ -73.846357061128884, 40.644285675819859 ], [ -73.846372848530251, 40.644286060782932 ], [ -73.846447961267501, 40.644293849873463 ], [ -73.846512999417399, 40.644294789573877 ], [ -73.846584799104576, 40.644281220198131 ], [ -73.846659951901273, 40.64427107081049 ], [ -73.846732848600368, 40.644267752481923 ], [ -73.846806864518726, 40.644266142959829 ], [ -73.846883118389655, 40.644264534532432 ], [ -73.846956021060166, 40.644258654111411 ], [ -73.847028929485319, 40.644250210690366 ], [ -73.847101828966288, 40.64424518201303 ], [ -73.847174726825173, 40.644241862485899 ], [ -73.847247631403178, 40.644235126363256 ], [ -73.847322774625525, 40.644230099610212 ], [ -73.847394543547921, 40.644229343162138 ], [ -73.847467422584756, 40.644233710220128 ], [ -73.847543665146361, 40.644238081697125 ], [ -73.847616547008315, 40.644240739548223 ], [ -73.847689433875559, 40.644241689917649 ], [ -73.8477634302388, 40.644248622906588 ], [ -73.847839659932944, 40.644258120010704 ], [ -73.847913648183095, 40.644267614013394 ], [ -73.8479854034087, 40.644272832933844 ], [ -73.848060534308175, 40.644273786038376 ], [ -73.848134548633581, 40.644271321059122 ], [ -73.848207458866497, 40.644262023298147 ], [ -73.848279239483176, 40.644256137795161 ], [ -73.848355506529558, 40.644250259091748 ], [ -73.848430642754565, 40.644247797161164 ], [ -73.84850353546139, 40.644246185064738 ], [ -73.848577561852153, 40.644239449579089 ], [ -73.848651575278794, 40.644237838865244 ], [ -73.848725586144525, 40.644237936380108 ], [ -73.84879734223955, 40.644242300279551 ], [ -73.848870217506814, 40.644248376479503 ], [ -73.848944203120865, 40.644259578177646 ], [ -73.849013689983863, 40.644276752345299 ], [ -73.849084298229911, 40.64429307435045 ], [ -73.849153780089551, 40.644311957626471 ], [ -73.849223263814778, 40.644329984505873 ], [ -73.849292743820754, 40.6443497222958 ], [ -73.849359979152283, 40.644370309940733 ], [ -73.849432826512512, 40.64438834378317 ], [ -73.849503437397004, 40.644404664612452 ], [ -73.849569539452489, 40.644430376323278 ], [ -73.84963676531946, 40.644455235872066 ], [ -73.849706252454325, 40.644472409620541 ], [ -73.84977685349206, 40.644492146826536 ], [ -73.849848588056005, 40.644506760634961 ], [ -73.849919196035955, 40.644523936640063 ], [ -73.84999091913275, 40.64454367693844 ], [ -73.850055898034228, 40.644571094343561 ], [ -73.850118633092009, 40.64459851062351 ], [ -73.85018361292137, 40.644625073358164 ], [ -73.850249714639858, 40.644651637518855 ], [ -73.850313570595077, 40.644679054149705 ], [ -73.8503774260071, 40.644707323586978 ], [ -73.850421103599061, 40.644732152912667 ], [ -73.850463616319956, 40.644776624530714 ], [ -73.850517357287089, 40.644815131312228 ], [ -73.850548700289565, 40.644839089012322 ], [ -73.850606930573733, 40.644875893315593 ], [ -73.850667412790557, 40.644907574760168 ], [ -73.850727887805363, 40.64494352999796 ], [ -73.850789493893899, 40.64497435915969 ], [ -73.850843236723335, 40.645011157511739 ], [ -73.850896976886546, 40.645049665033177 ], [ -73.850954090619751, 40.64508475859369 ], [ -73.85101232083133, 40.64512070984712 ], [ -73.851068301979282, 40.645160073874045 ], [ -73.851123162444381, 40.645199436504328 ], [ -73.851178019161893, 40.645240507298972 ], [ -73.851231758608648, 40.645279013741295 ], [ -73.851288861979043, 40.645318379114762 ], [ -73.851325800756058, 40.64534832144124 ], [ -73.851371702793685, 40.645381694592992 ], [ -73.851410849291469, 40.645427868940892 ], [ -73.851464587123843, 40.645467228029901 ], [ -73.851507118926463, 40.64550315972734 ], [ -73.851546257979024, 40.645552752333678 ], [ -73.851589889039019, 40.645598932416434 ], [ -73.851636891345478, 40.645641701116674 ], [ -73.851693997163693, 40.645680212609321 ], [ -73.851747739568012, 40.64571871881131 ], [ -73.851796988472557, 40.645759782067465 ], [ -73.851847362509076, 40.645799993074789 ], [ -73.851895485087027, 40.645843615955641 ], [ -73.851941363096316, 40.645888092279023 ], [ -73.851980541416495, 40.645919747315219 ], [ -73.852030908106741, 40.645963373032266 ], [ -73.852077913946133, 40.64600528695513 ], [ -73.852118176377203, 40.646054026209463 ], [ -73.852150619096463, 40.646089088233907 ], [ -73.852199871622233, 40.646129297639362 ], [ -73.852240136217048, 40.646177183173933 ], [ -73.852283773844675, 40.646220799198879 ], [ -73.85232179649833, 40.646267827221436 ], [ -73.852359817313541, 40.646315708990073 ], [ -73.852396715415267, 40.646364443819309 ], [ -73.852429160320938, 40.646398652087377 ], [ -73.852451545630757, 40.646418327432997 ], [ -73.852478374767244, 40.646456798707412 ], [ -73.8525085392275, 40.646508085970041 ], [ -73.85253645897933, 40.64656022669876 ], [ -73.852568868850724, 40.646609809470363 ], [ -73.852596788808285, 40.646661947423631 ], [ -73.852619098629219, 40.646715789292053 ], [ -73.852639164630546, 40.646769627272725 ], [ -73.852659273287912, 40.646804672402524 ], [ -73.852679341122453, 40.646857657620494 ], [ -73.852697719178266, 40.646914056386322 ], [ -73.85271049839821, 40.646967028649954 ], [ -73.852717105948898, 40.64702170303373 ], [ -73.852715860645986, 40.647078077463775 ], [ -73.852705646151691, 40.647133582277142 ], [ -73.852694874906291, 40.647187381610365 ], [ -73.852694183894386, 40.647245464108984 ], [ -73.852696302129729, 40.647301842015345 ], [ -73.852696275713356, 40.647313799928796 ], [ -73.852695058697861, 40.647357359169149 ], [ -73.852692695572188, 40.647412876644111 ], [ -73.85268359449833, 40.647470094673452 ], [ -73.852665531342055, 40.647524736570425 ], [ -73.852642986464815, 40.647577667114113 ], [ -73.852620441444017, 40.647630595895215 ], [ -73.852588929007311, 40.647681804799042 ], [ -73.852572055284412, 40.647704845437978 ], [ -73.852551812717763, 40.647731298305651 ], [ -73.852510214148623, 40.647778223083662 ], [ -73.852468619715509, 40.647824295091873 ], [ -73.852429269231919, 40.647870368211862 ], [ -73.852384312460714, 40.647914726671182 ], [ -73.852353920611819, 40.647965937869962 ], [ -73.852322409703021, 40.648016293024043 ], [ -73.852298738491029, 40.648070928569503 ], [ -73.85227955795375, 40.648123860688422 ], [ -73.852253649535953, 40.648175933146739 ], [ -73.852236745288096, 40.648212638999979 ], [ -73.852215878146438, 40.648267917475714 ], [ -73.8521860655529, 40.648309947724719 ], [ -73.85215905065985, 40.648356036542715 ], [ -73.852156792285029, 40.648362012149164 ], [ -73.852119680183449, 40.648409797240369 ], [ -73.852097131469108, 40.648463582266871 ], [ -73.852082453346171, 40.648508834194637 ], [ -73.852065511019859, 40.64856262283714 ], [ -73.852063257243472, 40.648568598446246 ], [ -73.852046330042484, 40.648615556670684 ], [ -73.852020425048977, 40.648665918123363 ], [ -73.851987792337653, 40.648715418057414 ], [ -73.851963069963617, 40.648738447569656 ], [ -73.851954080907149, 40.648746977372127 ], [ -73.851943964826773, 40.648757215839879 ], [ -73.851904656542757, 40.648782790248958 ], [ -73.851870976087497, 40.648799828757461 ], [ -73.851851887476499, 40.648810052046201 ], [ -73.851836162315905, 40.64882199246636 ], [ -73.851804769006975, 40.648818533565787 ], [ -73.851794678267467, 40.648816812267299 ], [ -73.851776723450044, 40.648822769449794 ], [ -73.851754282566887, 40.648827867159028 ], [ -73.851748654524641, 40.648838107722234 ], [ -73.851746347816402, 40.648866291874285 ], [ -73.85172606157262, 40.648911537435744 ], [ -73.851697945793347, 40.648947375975304 ], [ -73.851673227037537, 40.648968695310785 ], [ -73.851658576498011, 40.649000281914262 ], [ -73.851630495955376, 40.649020745897509 ], [ -73.8516113818348, 40.649042929820212 ], [ -73.851588900142858, 40.649066816661616 ], [ -73.851586623781515, 40.64908133278626 ], [ -73.851591078341272, 40.649095860285314 ], [ -73.851571987004021, 40.649107793642798 ], [ -73.851555173421076, 40.649103500757434 ], [ -73.851542854471504, 40.649096225718672 ], [ -73.851533873465513, 40.64910005842529 ], [ -73.851521514841579, 40.649111144958788 ], [ -73.85150915078863, 40.649123088759204 ], [ -73.851501295502075, 40.649125211879777 ], [ -73.851456490956679, 40.649101666645109 ], [ -73.851437418518273, 40.649105056773884 ], [ -73.851398117963043, 40.649128068142169 ], [ -73.851385753886603, 40.649140011930612 ], [ -73.85137676038326, 40.649149395444418 ], [ -73.851387920574894, 40.64917418129658 ], [ -73.851372210486659, 40.649179284043946 ], [ -73.851337438834278, 40.649181801916427 ], [ -73.851327385443696, 40.649163852361816 ], [ -73.851325211167079, 40.649133099540798 ], [ -73.851324132251264, 40.649114307086798 ], [ -73.851308474989608, 40.649094641077092 ], [ -73.851295040019863, 40.649085228613217 ], [ -73.851247958189077, 40.64907662533335 ], [ -73.851216562987972, 40.649074023545282 ], [ -73.851187359050883, 40.649094484208689 ], [ -73.851195714969322, 40.649119691528426 ], [ -73.851188402918183, 40.649129504966183 ], [ -73.851126726063782, 40.64912857127203 ], [ -73.851107109402179, 40.649124701526283 ], [ -73.851061698294146, 40.649120800171062 ], [ -73.851019112890611, 40.649107933228855 ], [ -73.85101125472508, 40.649111337834704 ], [ -73.850999987096031, 40.649135239191828 ], [ -73.850957331053678, 40.649153976741914 ], [ -73.850941616609106, 40.649159934024894 ], [ -73.85090571267439, 40.649167575968342 ], [ -73.85089779076317, 40.649200023131762 ], [ -73.850898877198034, 40.649215399963623 ], [ -73.850915605530886, 40.649257275032546 ], [ -73.850932306053309, 40.649311108093016 ], [ -73.850934424776483, 40.649366632258108 ], [ -73.850927596126255, 40.649411894223256 ], [ -73.850911774664155, 40.649465686824996 ], [ -73.850903883979967, 40.649483613122328 ], [ -73.850884530349063, 40.649487432312277 ], [ -73.850862333229529, 40.649509183427035 ], [ -73.850830916820144, 40.649515976659337 ], [ -73.850827504166432, 40.649537326160896 ], [ -73.85080950320426, 40.649563782550175 ], [ -73.850806050410313, 40.649603067619097 ], [ -73.850804890152347, 40.649620150815103 ], [ -73.850795816733111, 40.649666262613771 ], [ -73.850792328705239, 40.649721778659213 ], [ -73.850791155173908, 40.649744839345374 ], [ -73.850770124389555, 40.649745665701275 ], [ -73.850772042375525, 40.649766166690512 ], [ -73.850786597918884, 40.649777292628123 ], [ -73.850782046818026, 40.649805472002527 ], [ -73.850706358599993, 40.649801958007274 ], [ -73.850682254587198, 40.64979765459649 ], [ -73.850660960199093, 40.64979164747816 ], [ -73.850610489384366, 40.649794145637038 ], [ -73.8505969965627, 40.649809503507761 ], [ -73.850581179674094, 40.649861584191719 ], [ -73.850585567077076, 40.649906007047122 ], [ -73.850600110750008, 40.649921401386841 ], [ -73.850588861864225, 40.649936762257774 ], [ -73.850576482685923, 40.649956390887539 ], [ -73.85057523693439, 40.650011056164871 ], [ -73.850587448196862, 40.650067446222359 ], [ -73.850594053217236, 40.650122120790641 ], [ -73.850606276703189, 40.650172531428474 ], [ -73.850607274349258, 40.650228054221472 ], [ -73.850602664908351, 40.65028271411694 ], [ -73.850586843371161, 40.65033736034794 ], [ -73.850576721810185, 40.65034930336774 ], [ -73.850555395918036, 40.650357817929283 ], [ -73.850538561412591, 40.650363776376103 ], [ -73.850527336232673, 40.650368032922117 ], [ -73.850520576957436, 40.650381689511228 ], [ -73.850498177588676, 40.650367994970658 ], [ -73.850470213671741, 40.650335498529451 ], [ -73.850427698502159, 40.650291027782266 ], [ -73.850396339066705, 40.650272194963456 ], [ -73.850377270177262, 40.650273879320636 ], [ -73.850377235677684, 40.650289253775377 ], [ -73.850421994192644, 40.650334582062854 ], [ -73.850436497572815, 40.650367914666624 ], [ -73.850436376874498, 40.650421724044982 ], [ -73.850445274892223, 40.650455047591322 ], [ -73.85042279695233, 40.650476374091973 ], [ -73.85039809528088, 40.650489154545731 ], [ -73.850370012519633, 40.650509616458912 ], [ -73.850338590938648, 40.650518971507083 ], [ -73.850315011990091, 40.650530899643691 ], [ -73.850269021829021, 40.650535965451162 ], [ -73.850242091749422, 40.650542762529881 ], [ -73.850218500445052, 40.650560669226834 ], [ -73.850197111825182, 40.650596515246761 ], [ -73.850174046221099, 40.650629371200907 ], [ -73.850155484035781, 40.650655399829709 ], [ -73.850110560861111, 40.650684380259108 ], [ -73.850061156414014, 40.650710794537922 ], [ -73.850049934984909, 40.65071334368524 ], [ -73.850037580474051, 40.650721869864448 ], [ -73.850020722777813, 40.650738077033985 ], [ -73.849970194288431, 40.650765341727961 ], [ -73.849915162655421, 40.650800292741664 ], [ -73.84985453203214, 40.650831816259007 ], [ -73.84978830999286, 40.650856501159815 ], [ -73.849728817424477, 40.650880340146195 ], [ -73.84969265229941, 40.65087858454536 ], [ -73.849686176038645, 40.650891386855506 ], [ -73.849688365129467, 40.650915306612447 ], [ -73.849683861890355, 40.650922989348516 ], [ -73.849610972271421, 40.650919477376164 ], [ -73.849571708565591, 40.650925402629298 ], [ -73.84954589838209, 40.650933056531827 ], [ -73.849520096730004, 40.650936440205811 ], [ -73.849492613213471, 40.650938966235167 ], [ -73.849468513321668, 40.650933808898074 ], [ -73.849452828455441, 40.650926956986979 ], [ -73.849425908497864, 40.650928629975525 ], [ -73.849371424818912, 40.650969985043297 ], [ -73.849345041140609, 40.650982336142611 ], [ -73.849328203346474, 40.650989146328719 ], [ -73.849302364874404, 40.651008759004341 ], [ -73.849257456535497, 40.651030907765438 ], [ -73.849223699773702, 40.651080404513522 ], [ -73.849214673239146, 40.651105164152753 ], [ -73.849205646326567, 40.651129068272056 ], [ -73.849216773207857, 40.6511683751066 ], [ -73.849239159898914, 40.651187193791174 ], [ -73.849251470177961, 40.651198315133833 ], [ -73.849251583819509, 40.651198432993851 ], [ -73.847818813036127, 40.651389388110793 ], [ -73.847281430658768, 40.649228889644661 ] ] ], [ [ [ -73.859355839280468, 40.652606491612033 ], [ -73.860501667610961, 40.654133559978483 ], [ -73.860020113039383, 40.654442012669065 ], [ -73.859866422797026, 40.654540454189323 ], [ -73.859844753727003, 40.654515615029894 ], [ -73.859819019355712, 40.654486540998022 ], [ -73.859793334709437, 40.65443440750439 ], [ -73.859769893820612, 40.654381420389768 ], [ -73.859749816883266, 40.654328438297938 ], [ -73.85973310557587, 40.654274606550985 ], [ -73.859725370659916, 40.65421993116685 ], [ -73.859722102006032, 40.654174654624839 ], [ -73.859717731014641, 40.654119983346789 ], [ -73.859699885715713, 40.654072984319072 ], [ -73.859694512826437, 40.654067582114209 ], [ -73.85967862151135, 40.654051604339337 ], [ -73.859619244732983, 40.654020782716998 ], [ -73.859578917350632, 40.653998523982096 ], [ -73.859531901171962, 40.653956613084105 ], [ -73.859482640252736, 40.653915553181939 ], [ -73.859442350790431, 40.653875359757699 ], [ -73.8594255799336, 40.653850566919552 ], [ -73.859416715903151, 40.653799306682977 ], [ -73.859417863811217, 40.653786496472264 ], [ -73.859422438163023, 40.653744647828873 ], [ -73.859415809932116, 40.653696807801794 ], [ -73.859395724479967, 40.653648094024135 ], [ -73.859371127254349, 40.653612190933593 ], [ -73.85933309365268, 40.653566018042 ], [ -73.859316385881755, 40.65351133255524 ], [ -73.85928059786238, 40.653463455958992 ], [ -73.859263826463206, 40.653439518530938 ], [ -73.859233643561836, 40.653392504307376 ], [ -73.85923366881137, 40.653380545479791 ], [ -73.859260695785267, 40.653328474614135 ], [ -73.85925962057172, 40.653306265614539 ], [ -73.859223800235952, 40.653273764370731 ], [ -73.859185733246676, 40.653242966882139 ], [ -73.859163400208203, 40.653197668699079 ], [ -73.859126454171019, 40.653166873401389 ], [ -73.85907382480751, 40.653128373819442 ], [ -73.859040250540687, 40.653095018918911 ], [ -73.859031364134751, 40.653054008363931 ], [ -73.859020251026138, 40.653005307285213 ], [ -73.859018237354263, 40.652999205665289 ], [ -73.859018176642195, 40.652926722917051 ], [ -73.859018261534047, 40.652886577050523 ], [ -73.859017233965588, 40.652841306744513 ], [ -73.859010650786274, 40.652772965663942 ], [ -73.858997322477464, 40.65271059472613 ], [ -73.858990205100241, 40.652694005437645 ], [ -73.85897165662972, 40.652650772434377 ], [ -73.858938090477466, 40.652613148115933 ], [ -73.858898956252233, 40.652556725900425 ], [ -73.858852023985321, 40.652476378043268 ], [ -73.858807348262857, 40.65238919991581 ], [ -73.858761520811967, 40.652316539328069 ], [ -73.858717947486809, 40.652238754822207 ], [ -73.858677721657031, 40.652168665806464 ], [ -73.858634124867734, 40.652101987339393 ], [ -73.858615191406216, 40.6520396104561 ], [ -73.858598541479168, 40.651957590568429 ], [ -73.858572927007458, 40.651873852364709 ], [ -73.858543947714068, 40.651788401648453 ], [ -73.858519424741232, 40.651717476394523 ], [ -73.8584848031213, 40.651649953488189 ], [ -73.858451223237878, 40.651619163034056 ], [ -73.85837836989549, 40.651598572972986 ], [ -73.858315579373837, 40.651592516934059 ], [ -73.858242756367147, 40.651558259686475 ], [ -73.858184517139335, 40.651521461041014 ], [ -73.858141994870806, 40.651476990474983 ], [ -73.858116298873654, 40.65143083424514 ], [ -73.858078317075112, 40.65136074778372 ], [ -73.858016690816328, 40.651335045530516 ], [ -73.857978620025037, 40.651306812259534 ], [ -73.857971941626275, 40.651283741798309 ], [ -73.858000128398217, 40.651212881600863 ], [ -73.857872455393391, 40.651129870593365 ], [ -73.857810813032216, 40.65111185508011 ], [ -73.857744776516427, 40.651050275153878 ], [ -73.857678818020304, 40.650952819537878 ], [ -73.857612894270858, 40.650839132154978 ], [ -73.857531344839899, 40.650689555874955 ], [ -73.857498963397802, 40.650622890038797 ], [ -73.857486720606104, 40.650580168665797 ], [ -73.857449942976018, 40.650471643935724 ], [ -73.857396371871417, 40.650350286720958 ], [ -73.857352861609542, 40.650244317393167 ], [ -73.857337134686759, 40.650256254963629 ], [ -73.857291062867304, 40.650299761099035 ], [ -73.857276456135708, 40.650312553731503 ], [ -73.85725961931432, 40.650319366836527 ], [ -73.857231555185379, 40.650332145412982 ], [ -73.857178354397831, 40.650362179132465 ], [ -73.857177691841628, 40.650347453941833 ], [ -73.857174373250402, 40.650326948562075 ], [ -73.857160946501466, 40.65031155644634 ], [ -73.8571644303629, 40.650256040297783 ], [ -73.857171277919306, 40.650200530926178 ], [ -73.857183732050487, 40.650145025011895 ], [ -73.857192768779839, 40.650115140849309 ], [ -73.857213070593659, 40.650060500209428 ], [ -73.857231131193643, 40.650006709536541 ], [ -73.857243586443161, 40.649951205373824 ], [ -73.857245950011375, 40.649894832308185 ], [ -73.857240461851219, 40.649838452161312 ], [ -73.857241680083305, 40.649794038291745 ], [ -73.857242732309928, 40.649790064940966 ], [ -73.859355839280468, 40.652606491612033 ] ] ], [ [ [ -73.859037068154436, 40.655071671364098 ], [ -73.857339728699131, 40.652809412361428 ], [ -73.857361950464821, 40.652810221272745 ], [ -73.857407923979309, 40.652814546751692 ], [ -73.857472996869276, 40.652802671425349 ], [ -73.857541449275232, 40.652783966143545 ], [ -73.85761102070316, 40.652766112287239 ], [ -73.857679482258277, 40.652743136702526 ], [ -73.857710895658798, 40.652737621193261 ], [ -73.857736625593247, 40.652767977137756 ], [ -73.857759025429147, 40.652782525696068 ], [ -73.857812794781097, 40.65281163306679 ], [ -73.857859866730919, 40.652827067666792 ], [ -73.857905809953024, 40.652845060127575 ], [ -73.857947294454846, 40.652850238116791 ], [ -73.85800668408254, 40.652874227517415 ], [ -73.858052649194946, 40.652881972042316 ], [ -73.858077298170727, 40.652893104923898 ], [ -73.858106387134242, 40.652926453729599 ], [ -73.858144415891971, 40.652974333546133 ], [ -73.858174669301135, 40.652987184366594 ], [ -73.858245295770388, 40.653000937773292 ], [ -73.858314792808144, 40.653018106382213 ], [ -73.858328217343811, 40.653034352032499 ], [ -73.858338200715849, 40.653086466498955 ], [ -73.858354908070851, 40.653140300209813 ], [ -73.858377282156411, 40.653167661234534 ], [ -73.858415327082199, 40.653206998593156 ], [ -73.85846795551636, 40.653246354830074 ], [ -73.858507111533939, 40.653292527553312 ], [ -73.858510364821015, 40.653344636388084 ], [ -73.858508005224039, 40.653400153105032 ], [ -73.85849779578291, 40.653453951872997 ], [ -73.858488765225871, 40.653482129614396 ], [ -73.858484186796332, 40.653525683817485 ], [ -73.858497612682839, 40.653540222092403 ], [ -73.858521071601544, 40.653584667190998 ], [ -73.858519861401689, 40.653625665346269 ], [ -73.858515315605686, 40.653653846857232 ], [ -73.858532069160972, 40.653687180355014 ], [ -73.858576834282772, 40.653732505361091 ], [ -73.858599166387791, 40.653778657417568 ], [ -73.858602516990487, 40.653785495568513 ], [ -73.858624861918599, 40.653825669042746 ], [ -73.858647242987587, 40.653848757949106 ], [ -73.858685302834104, 40.653882971238254 ], [ -73.858714425117768, 40.653900943595936 ], [ -73.85871775281386, 40.653918029619277 ], [ -73.858722121160213, 40.65397355636911 ], [ -73.858732119944051, 40.654017986705632 ], [ -73.858747784172976, 40.654035940658908 ], [ -73.858775755480309, 40.654067580559072 ], [ -73.858782435643576, 40.654090650967511 ], [ -73.858791291879044, 40.654145328715913 ], [ -73.858817031104195, 40.654171837350113 ], [ -73.858842795550117, 40.654186391669938 ], [ -73.858906667285183, 40.654212948063474 ], [ -73.858930179723956, 40.654231768908247 ], [ -73.858978316619755, 40.654273682263621 ], [ -73.859024261135218, 40.654291676115598 ], [ -73.859076923281648, 40.654315657535363 ], [ -73.859097050937777, 40.654343867497943 ], [ -73.859109330353164, 40.654371216910711 ], [ -73.859114911420178, 40.654384035370619 ], [ -73.859143988311956, 40.654422506964288 ], [ -73.859170840758566, 40.654453290712389 ], [ -73.859182008342998, 40.654476366682346 ], [ -73.859194228991825, 40.65453104843786 ], [ -73.85920981409312, 40.654586588078956 ], [ -73.859218667735874, 40.654642118461517 ], [ -73.859230965402787, 40.654660924660156 ], [ -73.859247733384251, 40.654686569442113 ], [ -73.859266752228137, 40.654709655024476 ], [ -73.859278976592876, 40.654762629418101 ], [ -73.85928670760245, 40.654819013018006 ], [ -73.859304561117995, 40.654862595646748 ], [ -73.859320249089436, 40.654890288625225 ], [ -73.859037068154436, 40.655071671364098 ] ] ], [ [ [ -73.85624481950326, 40.651350088183975 ], [ -73.856254803528572, 40.651350792222736 ], [ -73.856288422188896, 40.651361938557379 ], [ -73.856345544789178, 40.651396175650341 ], [ -73.856356703523005, 40.651422668448738 ], [ -73.85635772621815, 40.651468792377351 ], [ -73.856354881349745, 40.651496781592591 ], [ -73.85624481950326, 40.651350088183975 ] ] ], [ [ [ -73.852173252961236, 40.650808985639515 ], [ -73.851806980613674, 40.650857813401501 ], [ -73.851616106024878, 40.650883256045731 ], [ -73.851618516959221, 40.650875963906074 ], [ -73.851625288271919, 40.650856325160383 ], [ -73.851665755931563, 40.650814523167263 ], [ -73.851727502037065, 40.650785562094704 ], [ -73.851776874400016, 40.650772814200018 ], [ -73.851797071143437, 40.650768568189164 ], [ -73.851863288439461, 40.65074559316411 ], [ -73.851870973563678, 40.650743014265089 ], [ -73.851931749904594, 40.65072261915401 ], [ -73.851999088476546, 40.650700497418377 ], [ -73.852068668534301, 40.650677951608117 ], [ -73.852097880103713, 40.650653645499581 ], [ -73.852140596022906, 40.650609284277564 ], [ -73.852194508751367, 40.650571771480358 ], [ -73.85223381298421, 40.650547905165098 ], [ -73.852302265757871, 40.6505292012409 ], [ -73.852371834450722, 40.650512206987386 ], [ -73.852435791398051, 40.650496915516605 ], [ -73.852495303556111, 40.650463678166197 ], [ -73.852560347272231, 40.650463761684108 ], [ -73.852634349942662, 40.650470690691634 ], [ -73.852707243004204, 40.650472492476048 ], [ -73.85278237098548, 40.650476860874697 ], [ -73.852851886611859, 40.650483782234105 ], [ -73.852923623732863, 40.650500957817414 ], [ -73.852994245279461, 40.65051471453765 ], [ -73.853034601579253, 40.650522452974492 ], [ -73.853068231789706, 40.650528474514203 ], [ -73.853143337440486, 40.650543519154027 ], [ -73.853211723198584, 40.650555137763497 ], [ -73.853284583988909, 40.650570605360258 ], [ -73.853356320216321, 40.650587780757071 ], [ -73.853426939286948, 40.6506032454012 ], [ -73.853499801281288, 40.650618712026585 ], [ -73.853543007339894, 40.650626365322168 ], [ -73.852173252961236, 40.650808985639515 ] ] ], [ [ [ -73.850671359729091, 40.651009185973521 ], [ -73.850669455515728, 40.651006272506216 ], [ -73.850690805756244, 40.650987510130975 ], [ -73.850739023208774, 40.650990132918167 ], [ -73.850763795017158, 40.650996864862293 ], [ -73.850671359729091, 40.651009185973521 ] ] ] ] } }
]
}
