{
"type": "FeatureCollection",
"name": "pluto_Canarsie_Park_&_Pier",
"crs": { "type": "name", "properties": { "name": "urn:ogc:def:crs:OGC:1.3:CRS84" } },
"features": [
{ "type": "Feature", "properties": { "Borough": "BK", "Block": 8012, "Lot": 1, "CD": 318, "BCT2020": "3099800", "BCTCB2020": "30998002005", "CT2010": "998", "CB2010": "2005", "SchoolDist": "18", "Council": 46, "ZipCode": 11236, "FireComp": "L170", "PolicePrct": 69, "HealthCent": 33, "HealthArea": 7520, "Sanitboro": "3", "SanitDistr": "18", "SanitSub": "3C", "Address": "1440 PAERDEGAT AVENUE N", "ZoneDist1": "PARK", "ZoneDist2": null, "ZoneDist3": null, "ZoneDist4": null, "Overlay1": null, "Overlay2": null, "SPDist1": null, "SPDist2": null, "SPDist3": null, "LtdHeight": null, "SplitZone": "N", "BldgClass": "P9", "LandUse": "08", "Easements": 0, "OwnerType": "C", "OwnerName": "NYC DEPARTMENT OF PARKS AND RECREATION", "LotArea": 2085000, "BldgArea": 4608, "ComArea": 4608, "ResArea": 0, "OfficeArea": 0, "RetailArea": 0, "GarageArea": 0, "StrgeArea": 0, "FactryArea": 0, "OtherArea": 4608, "AreaSource": "2", "NumBldgs": 17, "NumFloors": 2.0, "UnitsRes": 0, "UnitsTotal": 1, "LotFront": 529.0, "LotDepth": 408.42, "BldgFront": 64.0, "BldgDepth": 36.0, "Ext": "N", "ProxCode": "0", "IrrLotCode": "Y", "LotType": "5", "BsmtCode": "0", "AssessLand": 10770750.0, "AssessTot": 16495650.0, "ExemptTot": 16495650.0, "YearBuilt": 1986, "YearAlter1": 0, "YearAlter2": 0, "HistDist": null, "Landmark": null, "BuiltFAR": 0.0, "ResidFAR": 0.0, "CommFAR": 0.0, "FacilFAR": 0.0, "BoroCode": 3, "BBL": 3080120001.0, "CondoNo": 0, "Tract2010": "0998", "XCoord": 1009913, "YCoord": 168238, "ZoneMap": "23c", "ZMCode": "Y", "Sanborn": "317 073", "TaxMap": "32402", "EDesigNum": null, "APPBBL": 0.0, "APPDate": null, "PLUTOMapID": "1", "FIRM07_FLA": "1", "PFIRM15_FL": "1", "Version": "25v4", "DCPEdited": "t", "Latitude": 40.6284138, "Longitude": -73.9075469, "Notes": null, "Shape_Leng": 0.0, "Shape_Area": 1763292.0454800001 }, "geometry": { "type": "MultiPolygon", "coordinates": [ [ [ [ -73.913317597091734, 40.631860222676998 ], [ -73.900571708314772, 40.626107889189534 ], [ -73.90129363273941, 40.625161521897716 ], [ -73.901323434362425, 40.62517313011314 ], [ -73.901379463760705, 40.62518940834439 ], [ -73.901423161494762, 40.625203964992252 ], [ -73.901448932833631, 40.625213384060174 ], [ -73.901479180897766, 40.625226223527129 ], [ -73.901497107152892, 40.62523392572443 ], [ -73.901523992674029, 40.625246762293237 ], [ -73.901538555334355, 40.625253606158722 ], [ -73.901548637540984, 40.625258740574893 ], [ -73.901555357294626, 40.62526387118303 ], [ -73.901572150538499, 40.625278406438248 ], [ -73.901605747138717, 40.625302352192847 ], [ -73.901860057329429, 40.625417027856059 ], [ -73.901877981266239, 40.625424729991693 ], [ -73.901911590507183, 40.625440134264259 ], [ -73.901964279212805, 40.625441032067847 ], [ -73.902027017710438, 40.625468419161386 ], [ -73.902042699522653, 40.625476120276289 ], [ -73.902136807881206, 40.625517199418375 ], [ -73.902130070456437, 40.62552488055529 ], [ -73.902381017461678, 40.625640407629071 ], [ -73.902389979414679, 40.625644684658702 ], [ -73.902400062993934, 40.625648965321204 ], [ -73.902682934468899, 40.625782027697859 ], [ -73.902739503262652, 40.625812397047412 ], [ -73.902775353856299, 40.625827802966818 ], [ -73.902817931703183, 40.625844067250711 ], [ -73.902921006987754, 40.625885154264878 ], [ -73.902984866609671, 40.625912542702338 ], [ -73.903074493211051, 40.625954472802675 ], [ -73.903143946491483, 40.625988697158988 ], [ -73.903158511785406, 40.625995541658163 ], [ -73.903238049939091, 40.626034047471997 ], [ -73.903320950726823, 40.626074263425636 ], [ -73.903417294088996, 40.626122177439797 ], [ -73.903494029164051, 40.626160678958904 ], [ -73.903511949611783, 40.626172651076061 ], [ -73.903556199989893, 40.626194043256426 ], [ -73.903622302351422, 40.626221430463595 ], [ -73.903685047088246, 40.62624539917423 ], [ -73.903695133283975, 40.626248825960012 ], [ -73.903706339938637, 40.626251398249352 ], [ -73.903735483255005, 40.626254837514431 ], [ -73.90375341738438, 40.626255708001821 ], [ -73.903758159307117, 40.626255511192426 ], [ -73.903793778458223, 40.626254032744392 ], [ -73.903812834341537, 40.626254902405627 ], [ -73.903854307088011, 40.626260062017742 ], [ -73.903894652150782, 40.626269492749152 ], [ -73.903929390185965, 40.626280627051138 ], [ -73.903960760744297, 40.626293464126093 ], [ -73.903996608187214, 40.626311432457491 ], [ -73.904019014274553, 40.626321701810184 ], [ -73.904053743645449, 40.626338812830497 ], [ -73.904094632411926, 40.62635977506924 ], [ -73.904101912205533, 40.626364478235203 ], [ -73.904107509397861, 40.626370462355773 ], [ -73.90412402121747, 40.626386491943883 ], [ -73.904128777779079, 40.626392688780335 ], [ -73.904137730117569, 40.626403799623546 ], [ -73.904145564914771, 40.62641213507203 ], [ -73.904155645834038, 40.626419189200114 ], [ -73.904179173643271, 40.626428604857573 ], [ -73.904194863253267, 40.626432890045081 ], [ -73.904231844771772, 40.626441461408305 ], [ -73.904248654936779, 40.626445744844887 ], [ -73.904321486408804, 40.626471430826477 ], [ -73.904408883557679, 40.626504817458461 ], [ -73.904486185842146, 40.626540754902017 ], [ -73.904534363276213, 40.626560442615052 ], [ -73.904548928854766, 40.62656643141635 ], [ -73.904604948014253, 40.626589540345165 ], [ -73.904656490359017, 40.626608376123059 ], [ -73.904674416144459, 40.626616078742565 ], [ -73.904686739645712, 40.626622922186748 ], [ -73.904696818638044, 40.626630617361911 ], [ -73.904719211524139, 40.626649427966591 ], [ -73.904741610389948, 40.626665674856191 ], [ -73.904750571409451, 40.626670807137664 ], [ -73.904758413210004, 40.626675085729495 ], [ -73.904843565127791, 40.626709321168526 ], [ -73.905025077213267, 40.626781221378515 ], [ -73.90503964167111, 40.626787213798174 ], [ -73.905111351052199, 40.62681545846754 ], [ -73.905202101878416, 40.626853971271856 ], [ -73.905307417305366, 40.626900183749292 ], [ -73.905346630391747, 40.626918152679806 ], [ -73.905370156003286, 40.626930132812767 ], [ -73.905418319330039, 40.626960067060914 ], [ -73.905425036035737, 40.626966051119808 ], [ -73.905431755051424, 40.626971181499236 ], [ -73.905439596927522, 40.626976313725393 ], [ -73.905446317158734, 40.626980588667593 ], [ -73.90545415662065, 40.626985721727088 ], [ -73.905461998504038, 40.626989998514311 ], [ -73.905469840387767, 40.62699427697499 ], [ -73.905478802834438, 40.626997699163432 ], [ -73.905486644720924, 40.627001975865205 ], [ -73.905495608265866, 40.627005398974639 ], [ -73.905503451362407, 40.627008824673162 ], [ -73.905515778049946, 40.627012679148656 ], [ -73.905526984298803, 40.627016530858448 ], [ -73.905537068399283, 40.627019955723924 ], [ -73.905551635378046, 40.627024238043397 ], [ -73.905562844654412, 40.627025955552426 ], [ -73.905574052116094, 40.627028100820759 ], [ -73.905589184266702, 40.627029821556654 ], [ -73.905604877138799, 40.627031114992732 ], [ -73.905620009291937, 40.627031982044926 ], [ -73.905635146172031, 40.62703113989955 ], [ -73.905649155353032, 40.62703371430468 ], [ -73.905659241769939, 40.627036285480372 ], [ -73.905669328188921, 40.627038855736394 ], [ -73.905679413508111, 40.627042281510477 ], [ -73.905689498720989, 40.627045705443365 ], [ -73.905699580308095, 40.627049985812342 ], [ -73.905708545079307, 40.627053407986061 ], [ -73.905717508639043, 40.627057687350565 ], [ -73.905726469895995, 40.627062819639541 ], [ -73.90573543224879, 40.627067099002957 ], [ -73.905744392190826, 40.627072231289453 ], [ -73.905752232899104, 40.627077360731619 ], [ -73.905760072394798, 40.627083347533606 ], [ -73.905767913103006, 40.627088478814876 ], [ -73.905775751506198, 40.627094463858441 ], [ -73.905817191242363, 40.627122685892125 ], [ -73.905859753875561, 40.627150052476217 ], [ -73.905903439402607, 40.627175712606373 ], [ -73.905947124959454, 40.627201375396389 ], [ -73.905993056164021, 40.627225329053076 ], [ -73.906038989922422, 40.62724757349396 ], [ -73.906099502908319, 40.627264708610305 ], [ -73.906158898987456, 40.62728013090365 ], [ -73.906219416743838, 40.627294699398625 ], [ -73.906238454827971, 40.627309236806433 ], [ -73.906257494239384, 40.627323773208268 ], [ -73.906277650484341, 40.627338310519519 ], [ -73.906297813865834, 40.627351137795984 ], [ -73.906319095283351, 40.62736396958001 ], [ -73.906340379231139, 40.627375944084584 ], [ -73.906362783525353, 40.627387922092602 ], [ -73.906385190347322, 40.627399042905836 ], [ -73.906408718715667, 40.627409312706682 ], [ -73.906433362859175, 40.627422998215017 ], [ -73.906458008095768, 40.627435833637314 ], [ -73.906483777525281, 40.627447809931731 ], [ -73.90650954564012, 40.627459790738641 ], [ -73.9065364355301, 40.627470915092559 ], [ -73.906563326508845, 40.627481189441831 ], [ -73.9065913392608, 40.627490606500785 ], [ -73.906622157970943, 40.627499173914138 ], [ -73.90663056500108, 40.627500035359169 ], [ -73.90663897022597, 40.62750132363994 ], [ -73.906647376661823, 40.627502611002292 ], [ -73.906655222878697, 40.627504753427871 ], [ -73.906663067890179, 40.627506895853251 ], [ -73.906670911210725, 40.627509462354276 ], [ -73.90668099533309, 40.627512888039185 ], [ -73.906694440857635, 40.627518876660133 ], [ -73.906704522103496, 40.627524439218064 ], [ -73.906713484599209, 40.627529569590514 ], [ -73.906719083914766, 40.62753427214308 ], [ -73.906725242846917, 40.627538549232732 ], [ -73.906733081292543, 40.627545388725203 ], [ -73.906739798079442, 40.627552225549998 ], [ -73.906745953429265, 40.627559065430766 ], [ -73.906750429405065, 40.627565047672235 ], [ -73.906793005744277, 40.627583873357352 ], [ -73.906837821914522, 40.627602703607558 ], [ -73.906881520045573, 40.62761982197415 ], [ -73.906927462718571, 40.627636086625699 ], [ -73.906973406603313, 40.627651500258096 ], [ -73.906989100242214, 40.627652366665131 ], [ -73.907003671134689, 40.627654086759378 ], [ -73.907018244337948, 40.627655805933529 ], [ -73.907033934387002, 40.627658381532179 ], [ -73.907048505296572, 40.627660957141785 ], [ -73.907063076102901, 40.627663529989192 ], [ -73.907077645716456, 40.627666959273633 ], [ -73.90709221533524, 40.62767038587841 ], [ -73.907106782661955, 40.627674670594615 ], [ -73.907120229429935, 40.627678950886036 ], [ -73.907134796668572, 40.627684089361928 ], [ -73.907148242359881, 40.627689224166424 ], [ -73.907161687941596, 40.627694358970544 ], [ -73.907170654059385, 40.627696930026566 ], [ -73.907180739428711, 40.627699500148772 ], [ -73.907189705550493, 40.627702069364425 ], [ -73.907198669384186, 40.62770549409727 ], [ -73.907208753566238, 40.627708918815678 ], [ -73.907217718501983, 40.627712341790186 ], [ -73.907225558275897, 40.627716620212588 ], [ -73.907234523213646, 40.627720043102023 ], [ -73.907243486960553, 40.627724322432222 ], [ -73.907251326649941, 40.627729452690843 ], [ -73.907259168737625, 40.627733729271306 ], [ -73.907267009634836, 40.627738862291409 ], [ -73.907274849327621, 40.627743992632169 ], [ -73.907281568672474, 40.627749123739399 ], [ -73.907289409576933, 40.627754254080131 ], [ -73.907296127627902, 40.62776023803 ], [ -73.907302845681812, 40.627766221978135 ], [ -73.907308443275483, 40.627772206861884 ], [ -73.907315161328683, 40.627778191730719 ], [ -73.907320757739967, 40.627785028534682 ], [ -73.907326353034065, 40.627791011575503 ], [ -73.907330828987583, 40.627797849231435 ], [ -73.907336425400118, 40.627804688712459 ], [ -73.907340900147474, 40.627811525446916 ], [ -73.907344253231955, 40.627818361273732 ], [ -73.90734872679478, 40.627826052690295 ], [ -73.907352079880752, 40.627832888518178 ], [ -73.907367764112621, 40.627842296265683 ], [ -73.907383444835816, 40.627851704090638 ], [ -73.907400249512136, 40.627860259977645 ], [ -73.907417053098087, 40.627868814942538 ], [ -73.907433860177463, 40.627876516226934 ], [ -73.907450664845427, 40.627884217506917 ], [ -73.90746859357975, 40.627891065091639 ], [ -73.907486522427575, 40.627897912756126 ], [ -73.907504452356406, 40.627903904816463 ], [ -73.907523501536005, 40.627909899615318 ], [ -73.907541430347607, 40.627915039829674 ], [ -73.907766640133786, 40.628009178631892 ], [ -73.907789040196491, 40.628025426680011 ], [ -73.907812560816723, 40.628040819268364 ], [ -73.907836082547206, 40.628056211852758 ], [ -73.907861847708062, 40.628070754311445 ], [ -73.907886493488775, 40.628084441264427 ], [ -73.907913381495874, 40.628097276334159 ], [ -73.907939148943797, 40.628110106900223 ], [ -73.907967160998936, 40.628121234579112 ], [ -73.907995171857493, 40.628132362250192 ], [ -73.908023185004765, 40.628142633560223 ], [ -73.908051199447868, 40.628152050179779 ], [ -73.908061284975048, 40.628156331263988 ], [ -73.908070247629695, 40.628160607766951 ], [ -73.908079210359929, 40.628164034271457 ], [ -73.908089294688168, 40.628168311671857 ], [ -73.908099381402209, 40.628171735476236 ], [ -73.908109466879026, 40.628174305516787 ], [ -73.908119552383781, 40.628177731912501 ], [ -73.908129637862146, 40.628180302035069 ], [ -73.90813972465898, 40.628182872072706 ], [ -73.908150934197693, 40.628184588410271 ], [ -73.908161020850386, 40.628186306606636 ], [ -73.908172229180138, 40.628188024697586 ], [ -73.908182315949233, 40.628189740215653 ], [ -73.908193526664277, 40.628190602869225 ], [ -73.908203614500138, 40.628191464624301 ], [ -73.908218182011751, 40.628195749281815 ], [ -73.908231631262638, 40.628200028442251 ], [ -73.908245077105406, 40.628204311278779 ], [ -73.908257403617526, 40.628209446899191 ], [ -73.908270848216077, 40.628215435334262 ], [ -73.908283171250517, 40.628221424628613 ], [ -73.908295496594235, 40.628227413922168 ], [ -73.908307820732063, 40.628233402294669 ], [ -73.908320142490737, 40.628240245262212 ], [ -73.908331343893764, 40.628247088254369 ], [ -73.908342542810061, 40.62825478316654 ], [ -73.908352623675142, 40.628262479860723 ], [ -73.908363823802929, 40.628270175608094 ], [ -73.908373901195233, 40.62827872505833 ], [ -73.908383273509415, 40.62829111742542 ], [ -73.908384241609525, 40.628300513277459 ], [ -73.908385634006223, 40.628307348428621 ], [ -73.908389126415273, 40.628315253276277 ], [ -73.908393461557523, 40.628322304197326 ], [ -73.908398685063091, 40.628328856956578 ], [ -73.90840614869002, 40.628335124210203 ], [ -73.908413054849504, 40.628340257325242 ], [ -73.908419777093087, 40.628344106091447 ], [ -73.908427619402445, 40.628347527992339 ], [ -73.908437145012712, 40.628350738737105 ], [ -73.908444990765332, 40.62835245419938 ], [ -73.90845395636812, 40.628353741875713 ], [ -73.90846516799219, 40.628353965164941 ], [ -73.908476379400284, 40.628353546351448 ], [ -73.908486471986947, 40.628351847965789 ], [ -73.908497407125424, 40.628348546380657 ], [ -73.908506660358412, 40.628345241612571 ], [ -73.90851395269425, 40.628341190610222 ], [ -73.908521807828549, 40.628336072037158 ], [ -73.908543100573212, 40.628342068455957 ], [ -73.908563268243853, 40.628350625097355 ], [ -73.908582315340297, 40.628359182599823 ], [ -73.908600241975748, 40.62836773828478 ], [ -73.908619288020134, 40.628377150379805 ], [ -73.908636089437891, 40.628387414361804 ], [ -73.908654012650175, 40.628397677479633 ], [ -73.908670814117642, 40.628408794217222 ], [ -73.908687615588178, 40.628419912792545 ], [ -73.908741399138265, 40.628441308717271 ], [ -73.908795180384203, 40.628464413732871 ], [ -73.908847838932942, 40.628488371592894 ], [ -73.908899375697473, 40.628514039494483 ], [ -73.908907773034414, 40.628521305285524 ], [ -73.908920092614551, 40.628530710146443 ], [ -73.908929612689946, 40.628537123147993 ], [ -73.908939694792721, 40.628543110592233 ], [ -73.908949778172115, 40.628548245277265 ], [ -73.908960980124007, 40.628553806768231 ], [ -73.908972185665647, 40.628558510899829 ], [ -73.908980029083025, 40.628561080004424 ], [ -73.908987872653427, 40.628564503708155 ], [ -73.90899571728103, 40.62856707189254 ], [ -73.909003561868758, 40.628568786395604 ], [ -73.909011406496674, 40.628571356419116 ], [ -73.909019252291216, 40.628573070922094 ], [ -73.90902821856092, 40.628574784556811 ], [ -73.909039986737639, 40.628576931687633 ], [ -73.909056802343173, 40.628578651544942 ], [ -73.909069692048149, 40.628579944961153 ], [ -73.909078661855531, 40.62857995207218 ], [ -73.910041060271766, 40.629044518687877 ], [ -73.910062352225609, 40.629051369423273 ], [ -73.910083643143267, 40.62905907299826 ], [ -73.910104931596194, 40.629067632004492 ], [ -73.910126223677096, 40.629076190088199 ], [ -73.910146391771207, 40.629084747287379 ], [ -73.910165435772228, 40.629095011046388 ], [ -73.910185601576401, 40.629105275595627 ], [ -73.910204648001013, 40.629115542026526 ], [ -73.910222570388299, 40.629126658577235 ], [ -73.910240492887155, 40.629137779641937 ], [ -73.910258415346462, 40.62914974978267 ], [ -73.910502674979554, 40.629255002383708 ], [ -73.910646905258858, 40.629318249648975 ], [ -73.910963182202977, 40.629456941961649 ], [ -73.911207472619424, 40.629543401926597 ], [ -73.911239965565272, 40.629557095153466 ], [ -73.911272459697415, 40.629571640293634 ], [ -73.911303829840222, 40.629586185392974 ], [ -73.911335200139362, 40.629602438847641 ], [ -73.911365447622785, 40.629619545020212 ], [ -73.911395696221064, 40.629636651269387 ], [ -73.911425941957631, 40.62965418518629 ], [ -73.9114343527296, 40.629652482481482 ], [ -73.911443605355188, 40.629650568848135 ], [ -73.91145509896127, 40.629648654181267 ], [ -73.911464068947538, 40.629647808346945 ], [ -73.911475561207098, 40.629647817218022 ], [ -73.911485369183225, 40.629648677547287 ], [ -73.911493776548468, 40.62964953863635 ], [ -73.911502183344197, 40.629650827483481 ], [ -73.911510588478279, 40.629652541327495 ], [ -73.911518433331238, 40.629655110259456 ], [ -73.911526278183061, 40.629657679190892 ], [ -73.911535803278227, 40.629661530856239 ], [ -73.911546165832803, 40.629666663687622 ], [ -73.91155484719792, 40.62967222214305 ], [ -73.911562313041742, 40.629678065030873 ], [ -73.911570524941013, 40.629685472706818 ], [ -73.911578361865736, 40.629694021066697 ], [ -73.911584514227926, 40.629703635308644 ], [ -73.911655662676168, 40.629735934107686 ], [ -73.911724009573035, 40.629768444124366 ], [ -73.911790110872502, 40.62980266332962 ], [ -73.911817001375027, 40.629813787447802 ], [ -73.911841649848952, 40.629826619872702 ], [ -73.911867418719098, 40.629839449555334 ], [ -73.911892064874792, 40.629853136566979 ], [ -73.911915590518944, 40.629867675470592 ], [ -73.91193799334512, 40.629883067189105 ], [ -73.911960393874395, 40.629898458983909 ], [ -73.91198279559265, 40.62991470529083 ], [ -73.912002952899371, 40.629931804554438 ], [ -73.912037702087105, 40.629936954208461 ], [ -73.912071326028325, 40.629942962191762 ], [ -73.912104948829395, 40.629950673003528 ], [ -73.912137453666077, 40.629958385626836 ], [ -73.912171073128405, 40.629967807374477 ], [ -73.912203573206682, 40.629977227333946 ], [ -73.912234952987873, 40.629987502867749 ], [ -73.912266329218838, 40.629999483072254 ], [ -73.912297704356874, 40.630011466863962 ], [ -73.912327957890639, 40.630024301630066 ], [ -73.912366788553513, 40.630040057029348 ], [ -73.912399671386581, 40.630053399098522 ], [ -73.912470262229675, 40.630083348425764 ], [ -73.912539730374107, 40.630115859732548 ], [ -73.91260807354324, 40.630150077498428 ], [ -73.912697717293781, 40.630186019718685 ], [ -73.912786235991717, 40.630223669293066 ], [ -73.912873634360309, 40.630263028068008 ], [ -73.912939739083527, 40.630295535655414 ], [ -73.913008088105897, 40.630325483869314 ], [ -73.913077561238154, 40.630353722774359 ], [ -73.913148159364283, 40.63037940228795 ], [ -73.91321988036816, 40.630404228092132 ], [ -73.91327814140331, 40.630432457470896 ], [ -73.913339767410122, 40.630459838361375 ], [ -73.913401397004179, 40.630485510103938 ], [ -73.913464149258658, 40.630509474383267 ], [ -73.913627729728219, 40.630590741580818 ], [ -73.913792431210624, 40.630672010307201 ], [ -73.913886549599013, 40.630715644517579 ], [ -73.914044532737634, 40.630791782999552 ], [ -73.91409672500852, 40.630812931679969 ], [ -73.914264161819958, 40.630880778161576 ], [ -73.914324672526575, 40.630904740293609 ], [ -73.914483794658921, 40.630967214544377 ], [ -73.91460488693221, 40.631026362086793 ], [ -73.913317597091734, 40.631860222676998 ] ] ] ] } },
{ "type": "Feature", "properties": { "Borough": "BK", "Block": 8312, "Lot": 1, "CD": 318, "BCT2020": "3102802", "BCTCB2020": "31028021000", "CT2010": "1028", "CB2010": "1000", "SchoolDist": "18", "Council": 46, "ZipCode": 11236, "FireComp": "L170", "PolicePrct": 69, "HealthCent": 33, "HealthArea": 7520, "Sanitboro": "3", "SanitDistr": "18", "SanitSub": "3C", "Address": "9006 SEAVIEW AVENUE", "ZoneDist1": "PARK", "ZoneDist2": null, "ZoneDist3": null, "ZoneDist4": null, "Overlay1": null, "Overlay2": null, "SPDist1": null, "SPDist2": null, "SPDist3": null, "LtdHeight": null, "SplitZone": "N", "BldgClass": "Q1", "LandUse": "09", "Easements": 0, "OwnerType": "C", "OwnerName": "NYC DEPARTMENT OF PARKS AND RECREATION", "LotArea": 4810000, "BldgArea": 6000, "ComArea": 6000, "ResArea": 0, "OfficeArea": 0, "RetailArea": 6000, "GarageArea": 0, "StrgeArea": 0, "FactryArea": 0, "OtherArea": 0, "AreaSource": "2", "NumBldgs": 2, "NumFloors": 1.0, "UnitsRes": 0, "UnitsTotal": 0, "LotFront": 3443.0, "LotDepth": 1388.0, "BldgFront": 88.33, "BldgDepth": 62.83, "Ext": "N", "ProxCode": "0", "IrrLotCode": "Y", "LotType": "1", "BsmtCode": "0", "AssessLand": 44520396.0, "AssessTot": 64291500.0, "ExemptTot": 64291500.0, "YearBuilt": 1950, "YearAlter1": 0, "YearAlter2": 0, "HistDist": null, "Landmark": null, "BuiltFAR": 0.0, "ResidFAR": 0.0, "CommFAR": 0.0, "FacilFAR": 0.0, "BoroCode": 3, "BBL": 3083120001.0, "CondoNo": 0, "Tract2010": "1028", "XCoord": 1013158, "YCoord": 167798, "ZoneMap": "23c", "ZMCode": "Y", "Sanborn": "317 094", "TaxMap": "32407", "EDesigNum": null, "APPBBL": 0.0, "APPDate": null, "PLUTOMapID": "1", "FIRM07_FLA": "1", "PFIRM15_FL": "1", "Version": "25v4", "DCPEdited": "t", "Latitude": 40.6271961, "Longitude": -73.8958584, "Notes": null, "Shape_Leng": 0.0, "Shape_Area": 3978965.2984600002 }, "geometry": { "type": "MultiPolygon", "coordinates": [ [ [ [ -73.896989246446864, 40.623228369607467 ], [ -73.897545878731549, 40.623476018685551 ], [ -73.89757836188538, 40.623493131422755 ], [ -73.897619807726599, 40.623513667874512 ], [ -73.897673575911526, 40.623540194747527 ], [ -73.897729590050886, 40.623564160715901 ], [ -73.897816965802107, 40.623606093764728 ], [ -73.897911069123055, 40.623645469014953 ], [ -73.898047745174296, 40.623704527806495 ], [ -73.898145200514207, 40.623752448168574 ], [ -73.898233701075952, 40.6237918172598 ], [ -73.898247145187554, 40.623796954111761 ], [ -73.898384939820986, 40.623856014330549 ], [ -73.898554103122905, 40.623928767538231 ], [ -73.898705344991797, 40.62399210866694 ], [ -73.898822977725942, 40.624042607309114 ], [ -73.898898033556009, 40.624077694704489 ], [ -73.898967481167873, 40.624114482714809 ], [ -73.89909069701595, 40.624177799484066 ], [ -73.899119824773976, 40.624191492353937 ], [ -73.899192642881559, 40.624223160942734 ], [ -73.899306907620883, 40.624277072771562 ], [ -73.899407733467626, 40.624321578455373 ], [ -73.899487267577186, 40.624360085032613 ], [ -73.899565687733883, 40.624395173097732 ], [ -73.899695113180414, 40.624456763031098 ], [ -73.899702355370636, 40.624460209350268 ], [ -73.899867040066724, 40.624531248420105 ], [ -73.900040683039677, 40.624609130024012 ], [ -73.900120220344618, 40.624646781564003 ], [ -73.900221048574707, 40.624690429255523 ], [ -73.90029722999806, 40.62472295383089 ], [ -73.90040366538507, 40.624765756989468 ], [ -73.900467521742087, 40.624793998669396 ], [ -73.900645646267719, 40.62487529796384 ], [ -73.900764397409105, 40.624928360299684 ], [ -73.900866344352565, 40.624973718512102 ], [ -73.900950362809354, 40.625013936229038 ], [ -73.901032145617734, 40.625050734472886 ], [ -73.901121770013262, 40.625090104140803 ], [ -73.901225959481337, 40.625135463964668 ], [ -73.90126629464055, 40.625150873214366 ], [ -73.90129363273941, 40.625161521897716 ], [ -73.900571708314772, 40.626107889189534 ], [ -73.899978008679469, 40.626886140279851 ], [ -73.892715996759279, 40.631655980918651 ], [ -73.891028414859605, 40.63081708639195 ], [ -73.89240719130477, 40.629130409562087 ], [ -73.892214169385142, 40.628508753186537 ], [ -73.890055492694486, 40.628817645230036 ], [ -73.889453409595063, 40.629166438524585 ], [ -73.889328411282492, 40.629107407840841 ], [ -73.88927133233824, 40.629171316691952 ], [ -73.889074283183689, 40.629069646799564 ], [ -73.895749246823215, 40.625067039992963 ], [ -73.896989246446864, 40.623228369607467 ] ] ] ] } },
{ "type": "Feature", "properties": { "Borough": "BK", "Block": 8326, "Lot": 13, "CD": 318, "BCT2020": "3102801", "BCTCB2020": "31028011007", "CT2010": "1028", "CB2010": "1002", "SchoolDist": "18", "Council": 46, "ZipCode": 11236, "FireComp": "L170", "PolicePrct": 69, "HealthCent": 33, "HealthArea": 7520, "Sanitboro": "3", "SanitDistr": "18", "SanitSub": "3E", "Address": "2196 CANARSIE ROAD", "ZoneDist1": "R5", "ZoneDist2": null, "ZoneDist3": null, "ZoneDist4": null, "Overlay1": null, "Overlay2": null, "SPDist1": null, "SPDist2": null, "SPDist3": null, "LtdHeight": null, "SplitZone": "N", "BldgClass": "C0", "LandUse": "02", "Easements": 0, "OwnerType": null, "OwnerName": "SMITH CLOVER J", "LotArea": 1992, "BldgArea": 2507, "ComArea": 0, "ResArea": 2507, "OfficeArea": 0, "RetailArea": 0, "GarageArea": 0, "StrgeArea": 0, "FactryArea": 0, "OtherArea": 0, "AreaSource": "2", "NumBldgs": 1, "NumFloors": 3.0, "UnitsRes": 3, "UnitsTotal": 3, "LotFront": 19.92, "LotDepth": 100.0, "BldgFront": 19.83, "BldgDepth": 51.5, "Ext": "N", "ProxCode": "3", "IrrLotCode": "N", "LotType": "5", "BsmtCode": "2", "AssessLand": 10020.0, "AssessTot": 54240.0, "ExemptTot": 1420.0, "YearBuilt": 1960, "YearAlter1": 0, "YearAlter2": 0, "HistDist": null, "Landmark": null, "BuiltFAR": 1.26, "ResidFAR": 1.5, "CommFAR": 0.0, "FacilFAR": 2.0, "BoroCode": 3, "BBL": 3083260013.0, "CondoNo": 0, "Tract2010": "1028", "XCoord": 1015314, "YCoord": 168861, "ZoneMap": "23c", "ZMCode": null, "Sanborn": "317 095", "TaxMap": "32407", "EDesigNum": null, "APPBBL": 0.0, "APPDate": null, "PLUTOMapID": "1", "FIRM07_FLA": null, "PFIRM15_FL": "1", "Version": "25v4", "DCPEdited": null, "Latitude": 40.6301065, "Longitude": -73.8880865, "Notes": null, "Shape_Leng": 0.0, "Shape_Area": 1914.5088492 }, "geometry": { "type": "MultiPolygon", "coordinates": [ [ [ [ -73.888016500577749, 40.63023887195768 ], [ -73.887959418925149, 40.630210929836913 ], [ -73.888154968800308, 40.629974992784746 ], [ -73.888212050334758, 40.630002934809205 ], [ -73.888016500577749, 40.63023887195768 ] ] ] ] } },
{ "type": "Feature", "properties": { "Borough": "BK", "Block": 8329, "Lot": 200, "CD": 318, "BCT2020": "3103402", "BCTCB2020": "31034021000", "CT2010": "1034", "CB2010": "1000", "SchoolDist": "18", "Council": 46, "ZipCode": 11236, "FireComp": "L170", "PolicePrct": 69, "HealthCent": 33, "HealthArea": 7520, "Sanitboro": "3", "SanitDistr": "18", "SanitSub": "1D", "Address": "SEAVIEW AVENUE", "ZoneDist1": "PARK", "ZoneDist2": null, "ZoneDist3": null, "ZoneDist4": null, "Overlay1": null, "Overlay2": null, "SPDist1": null, "SPDist2": null, "SPDist3": null, "LtdHeight": null, "SplitZone": "N", "BldgClass": "Q1", "LandUse": "09", "Easements": 0, "OwnerType": "C", "OwnerName": "NYC DEPARTMENT OF PARKS AND RECREATION", "LotArea": 1748980, "BldgArea": 1748980, "ComArea": 1748980, "ResArea": 0, "OfficeArea": 0, "RetailArea": 0, "GarageArea": 0, "StrgeArea": 0, "FactryArea": 0, "OtherArea": 1748980, "AreaSource": "2", "NumBldgs": 1, "NumFloors": 0.0, "UnitsRes": 0, "UnitsTotal": 0, "LotFront": 122.25, "LotDepth": 189.83, "BldgFront": 0.0, "BldgDepth": 0.0, "Ext": "N", "ProxCode": "0", "IrrLotCode": "Y", "LotType": "5", "BsmtCode": "0", "AssessLand": 15995700.0, "AssessTot": 15995700.0, "ExemptTot": 15995700.0, "YearBuilt": 1931, "YearAlter1": 0, "YearAlter2": 0, "HistDist": null, "Landmark": null, "BuiltFAR": 1.0, "ResidFAR": 0.0, "CommFAR": 0.0, "FacilFAR": 0.0, "BoroCode": 3, "BBL": 3083290200.0, "CondoNo": 0, "Tract2010": "1034", "XCoord": 1016929, "YCoord": 171232, "ZoneMap": "23c", "ZMCode": null, "Sanborn": "317 098", "TaxMap": "32407", "EDesigNum": null, "APPBBL": 0.0, "APPDate": null, "PLUTOMapID": "1", "FIRM07_FLA": "1", "PFIRM15_FL": "1", "Version": "25v4", "DCPEdited": "t", "Latitude": 40.6366085, "Longitude": -73.8822567, "Notes": null, "Shape_Leng": 0.0, "Shape_Area": 1693845.7759 }, "geometry": { "type": "MultiPolygon", "coordinates": [ [ [ [ -73.885639739111312, 40.636178306140422 ], [ -73.880644483256958, 40.639408905923581 ], [ -73.880634876921391, 40.639393169715909 ], [ -73.880611408592301, 40.639347873541382 ], [ -73.880583466868515, 40.639297450550551 ], [ -73.880560015893863, 40.639244466670604 ], [ -73.880541051923814, 40.639189782773869 ], [ -73.880527693214006, 40.639135955710294 ], [ -73.880195177469474, 40.638855445246648 ], [ -73.880120167181715, 40.638791305016881 ], [ -73.880100029628224, 40.638765659719191 ], [ -73.880068725298543, 40.638715230408813 ], [ -73.879535592506429, 40.638231433211111 ], [ -73.87951008047375, 40.638233755893303 ], [ -73.879440536568751, 40.638247348182055 ], [ -73.879378331658913, 40.638265139318953 ], [ -73.879455987426155, 40.638110397491694 ], [ -73.879644332291804, 40.637748799250105 ], [ -73.879838342201126, 40.637381925084952 ], [ -73.879995211213895, 40.637096214116276 ], [ -73.880173433549842, 40.636792035832883 ], [ -73.880354604389069, 40.636498612568261 ], [ -73.880551445970454, 40.636203066520004 ], [ -73.880759673238131, 40.635908596462777 ], [ -73.880993050993411, 40.635586202631934 ], [ -73.88122616298034, 40.635287021617494 ], [ -73.881616238434162, 40.634831732427443 ], [ -73.882021837560259, 40.634386915516394 ], [ -73.882384841467911, 40.63402295354868 ], [ -73.882800367563249, 40.633632846047327 ], [ -73.885639739111312, 40.636178306140422 ] ] ] ] } },
{ "type": "Feature", "properties": { "Borough": "BK", "Block": 8326, "Lot": 12, "CD": 318, "BCT2020": "3102801", "BCTCB2020": "31028011007", "CT2010": "1028", "CB2010": "1002", "SchoolDist": "18", "Council": 46, "ZipCode": 11236, "FireComp": "L170", "PolicePrct": 69, "HealthCent": 33, "HealthArea": 7520, "Sanitboro": "3", "SanitDistr": "18", "SanitSub": "3E", "Address": "2194 CANARSIE ROAD", "ZoneDist1": "R5", "ZoneDist2": null, "ZoneDist3": null, "ZoneDist4": null, "Overlay1": null, "Overlay2": null, "SPDist1": null, "SPDist2": null, "SPDist3": null, "LtdHeight": null, "SplitZone": "N", "BldgClass": "C0", "LandUse": "02", "Easements": 0, "OwnerType": null, "OwnerName": "RODGERS, SARA", "LotArea": 1900, "BldgArea": 2507, "ComArea": 0, "ResArea": 2507, "OfficeArea": 0, "RetailArea": 0, "GarageArea": 0, "StrgeArea": 0, "FactryArea": 0, "OtherArea": 0, "AreaSource": "2", "NumBldgs": 1, "NumFloors": 3.0, "UnitsRes": 3, "UnitsTotal": 3, "LotFront": 19.92, "LotDepth": 100.0, "BldgFront": 19.83, "BldgDepth": 51.5, "Ext": "N", "ProxCode": "3", "IrrLotCode": "Y", "LotType": "5", "BsmtCode": "2", "AssessLand": 9540.0, "AssessTot": 56280.0, "ExemptTot": 0.0, "YearBuilt": 1960, "YearAlter1": 0, "YearAlter2": 0, "HistDist": null, "Landmark": null, "BuiltFAR": 1.32, "ResidFAR": 1.5, "CommFAR": 0.0, "FacilFAR": 2.0, "BoroCode": 3, "BBL": 3083260012.0, "CondoNo": 0, "Tract2010": "1028", "XCoord": 1015297, "YCoord": 168871, "ZoneMap": "23c", "ZMCode": null, "Sanborn": "317 095", "TaxMap": "32407", "EDesigNum": null, "APPBBL": 0.0, "APPDate": null, "PLUTOMapID": "1", "FIRM07_FLA": null, "PFIRM15_FL": "1", "Version": "25v4", "DCPEdited": null, "Latitude": 40.630134, "Longitude": -73.8881477, "Notes": null, "Shape_Leng": 0.0, "Shape_Area": 2084.9215605 }, "geometry": { "type": "MultiPolygon", "coordinates": [ [ [ [ -73.888212050334758, 40.630002934809205 ], [ -73.888274212698946, 40.630033363564635 ], [ -73.888078664171928, 40.630269300819108 ], [ -73.888016500577749, 40.63023887195768 ], [ -73.888212050334758, 40.630002934809205 ] ] ] ] } },
{ "type": "Feature", "properties": { "Borough": "BK", "Block": 8326, "Lot": 14, "CD": 318, "BCT2020": "3102801", "BCTCB2020": "31028011007", "CT2010": "1028", "CB2010": "1002", "SchoolDist": "18", "Council": 46, "ZipCode": 11236, "FireComp": "L170", "PolicePrct": 69, "HealthCent": 33, "HealthArea": 7520, "Sanitboro": "3", "SanitDistr": "18", "SanitSub": "3E", "Address": "2198 CANARSIE ROAD", "ZoneDist1": "R5", "ZoneDist2": null, "ZoneDist3": null, "ZoneDist4": null, "Overlay1": null, "Overlay2": null, "SPDist1": null, "SPDist2": null, "SPDist3": null, "LtdHeight": null, "SplitZone": "N", "BldgClass": "C0", "LandUse": "02", "Easements": 0, "OwnerType": null, "OwnerName": "SHIELDS, CYNTHIA", "LotArea": 3042, "BldgArea": 2907, "ComArea": 0, "ResArea": 2907, "OfficeArea": 0, "RetailArea": 0, "GarageArea": 0, "StrgeArea": 0, "FactryArea": 0, "OtherArea": 0, "AreaSource": "2", "NumBldgs": 2, "NumFloors": 3.0, "UnitsRes": 3, "UnitsTotal": 3, "LotFront": 30.42, "LotDepth": 100.0, "BldgFront": 20.33, "BldgDepth": 62.0, "Ext": "N", "ProxCode": "2", "IrrLotCode": "N", "LotType": "5", "BsmtCode": "2", "AssessLand": 15360.0, "AssessTot": 63000.0, "ExemptTot": 1420.0, "YearBuilt": 1960, "YearAlter1": 0, "YearAlter2": 0, "HistDist": null, "Landmark": null, "BuiltFAR": 0.96, "ResidFAR": 1.5, "CommFAR": 0.0, "FacilFAR": 2.0, "BoroCode": 3, "BBL": 3083260014.0, "CondoNo": 0, "Tract2010": "1028", "XCoord": 1015336, "YCoord": 168847, "ZoneMap": "23c", "ZMCode": null, "Sanborn": "317 095", "TaxMap": "32407", "EDesigNum": null, "APPBBL": 0.0, "APPDate": null, "PLUTOMapID": "1", "FIRM07_FLA": null, "PFIRM15_FL": "1", "Version": "25v4", "DCPEdited": null, "Latitude": 40.630068, "Longitude": -73.8880073, "Notes": null, "Shape_Leng": 0.0, "Shape_Area": 3391.0667821000002 }, "geometry": { "type": "MultiPolygon", "coordinates": [ [ [ [ -73.888053861913136, 40.629925501649069 ], [ -73.888154968800308, 40.629974992784746 ], [ -73.887959418925149, 40.630210929836913 ], [ -73.887858312923356, 40.630161438531715 ], [ -73.888053861913136, 40.629925501649069 ] ] ] ] } },
{ "type": "Feature", "properties": { "Borough": "BK", "Block": 8334, "Lot": 50, "CD": 356, "BCT2020": "3102802", "BCTCB2020": "31028021003", "CT2010": "1028", "CB2010": "1007", "SchoolDist": "18", "Council": 46, "ZipCode": 11234, "FireComp": "L170", "PolicePrct": 69, "HealthCent": 33, "HealthArea": 7520, "Sanitboro": "3", "SanitDistr": "56", "SanitSub": null, "Address": "2200 ROCKAWAY PARKWAY", "ZoneDist1": "PARK", "ZoneDist2": null, "ZoneDist3": null, "ZoneDist4": null, "Overlay1": null, "Overlay2": null, "SPDist1": null, "SPDist2": null, "SPDist3": null, "LtdHeight": null, "SplitZone": "N", "BldgClass": "Q1", "LandUse": "09", "Easements": 0, "OwnerType": "M", "OwnerName": "NATIONAL PARK SERVICE", "LotArea": 7900000, "BldgArea": 6000, "ComArea": 6000, "ResArea": 0, "OfficeArea": 0, "RetailArea": 6000, "GarageArea": 0, "StrgeArea": 0, "FactryArea": 0, "OtherArea": 0, "AreaSource": "2", "NumBldgs": 1, "NumFloors": 0.0, "UnitsRes": 0, "UnitsTotal": 1, "LotFront": 4644.0, "LotDepth": 1794.0, "BldgFront": 0.0, "BldgDepth": 0.0, "Ext": "N", "ProxCode": "0", "IrrLotCode": "Y", "LotType": "5", "BsmtCode": "0", "AssessLand": 12798000.0, "AssessTot": 16380900.0, "ExemptTot": 16380900.0, "YearBuilt": 0, "YearAlter1": 0, "YearAlter2": 0, "HistDist": null, "Landmark": null, "BuiltFAR": 0.0, "ResidFAR": 0.0, "CommFAR": 0.0, "FacilFAR": 0.0, "BoroCode": 3, "BBL": 3083340050.0, "CondoNo": 0, "Tract2010": "1028", "XCoord": 1016319, "YCoord": 168559, "ZoneMap": "23c", "ZMCode": "Y", "Sanborn": "317 099", "TaxMap": "32407", "EDesigNum": null, "APPBBL": 0.0, "APPDate": null, "PLUTOMapID": "1", "FIRM07_FLA": "1", "PFIRM15_FL": "1", "Version": "25v4", "DCPEdited": null, "Latitude": 40.629274, "Longitude": -73.8844672, "Notes": null, "Shape_Leng": 0.0, "Shape_Area": 2955943.5389 }, "geometry": { "type": "MultiPolygon", "coordinates": [ [ [ [ -73.894647797083664, 40.624224954938498 ], [ -73.88197080799516, 40.63240259129919 ], [ -73.882235602743776, 40.632639996962055 ], [ -73.881822398210602, 40.63302765181821 ], [ -73.881179593505976, 40.633690829921605 ], [ -73.880662248731213, 40.634295721866138 ], [ -73.880244204362597, 40.634821628940365 ], [ -73.879897608682882, 40.635292237216078 ], [ -73.879560334590693, 40.635815258956463 ], [ -73.879273111245354, 40.636302018084379 ], [ -73.879006181239561, 40.636786403316208 ], [ -73.878723938771685, 40.637374225139048 ], [ -73.878595303570592, 40.637642129417607 ], [ -73.878539605187157, 40.637758127549603 ], [ -73.878491468624773, 40.637715414220281 ], [ -73.878509826584789, 40.637664684155652 ], [ -73.878524488382865, 40.637618575136791 ], [ -73.878521203467628, 40.637575010001662 ], [ -73.878497726715793, 40.637537402011631 ], [ -73.87845969140426, 40.637488675164867 ], [ -73.878420521053712, 40.637448487662688 ], [ -73.878376859277566, 40.637412565707848 ], [ -73.878343293321777, 40.637372384115714 ], [ -73.878316452575945, 40.637334775199996 ], [ -73.878269439143651, 40.637292014693926 ], [ -73.878223545522744, 40.637248405191343 ], [ -73.87816755308684, 40.637210762631383 ], [ -73.878116047505884, 40.637171415608414 ], [ -73.878065666817946, 40.63713036332009 ], [ -73.878010792411786, 40.637093576469994 ], [ -73.87795816447877, 40.637055937382684 ], [ -73.877922338962605, 40.637026002938121 ], [ -73.877893265906863, 40.636982411273578 ], [ -73.877868635398258, 40.636961884715156 ], [ -73.877839571796699, 40.63691316728962 ], [ -73.877797049721778, 40.636867851082293 ], [ -73.877747786196778, 40.636827652599855 ], [ -73.877706382071096, 40.636783192232166 ], [ -73.877678402873158, 40.636754975269618 ], [ -73.877640328121316, 40.636730164179802 ], [ -73.877631347815665, 40.636735280365031 ], [ -73.877648087125138, 40.636778004351847 ], [ -73.877662608273965, 40.636808770778302 ], [ -73.877655863758079, 40.636818158664575 ], [ -73.877623354143807, 40.636814708372398 ], [ -73.877577465260941, 40.636770242256503 ], [ -73.877532695835157, 40.636725779992915 ], [ -73.87749687503316, 40.636694137224346 ], [ -73.87744872553229, 40.636659063718582 ], [ -73.877403949152765, 40.636619725398788 ], [ -73.877377133167471, 40.636568448211428 ], [ -73.877349194941218, 40.636518022659921 ], [ -73.877325747618045, 40.636465039860568 ], [ -73.877301174532548, 40.636412910534538 ], [ -73.877276608146587, 40.636359071006098 ], [ -73.877256524199609, 40.636305237270562 ], [ -73.877227467621651, 40.636253103050791 ], [ -73.877205142182177, 40.636200121507443 ], [ -73.877196221334273, 40.636173632169225 ], [ -73.877168250840569, 40.636140290251802 ], [ -73.877097646187281, 40.636122276362038 ], [ -73.877046111778256, 40.636100013456172 ], [ -73.877034952851744, 40.636071814434104 ], [ -73.87702496106057, 40.636017137702616 ], [ -73.877017214467358, 40.635961607939706 ], [ -73.877012751728799, 40.63594964696059 ], [ -73.876969093633051, 40.635912017024218 ], [ -73.87702971014366, 40.635874496152049 ], [ -73.877060073303866, 40.635824991085379 ], [ -73.877097163232364, 40.635776342458364 ], [ -73.877133129732428, 40.635728549056303 ], [ -73.877164612505652, 40.635680749004443 ], [ -73.877200582050492, 40.635631247222946 ], [ -73.877229831529959, 40.635579172683734 ], [ -73.877254592571077, 40.635527096016311 ], [ -73.877272631882605, 40.635473303960104 ], [ -73.877309723030123, 40.635423802421457 ], [ -73.877338949378839, 40.635382833026824 ], [ -73.877356942661066, 40.635354664262017 ], [ -73.877397385640933, 40.635311147554894 ], [ -73.877442316100343, 40.635266777427574 ], [ -73.87748612663971, 40.635220697890773 ], [ -73.877536658798618, 40.635178899262804 ], [ -73.877581587142828, 40.635136240117646 ], [ -73.877601795116433, 40.635121742590286 ], [ -73.877644485341904, 40.635074807114833 ], [ -73.877687169504739, 40.635033000136652 ], [ -73.877714174770063, 40.634980923081621 ], [ -73.87772656198544, 40.634951043520608 ], [ -73.877732270665817, 40.634894673533523 ], [ -73.877739052674471, 40.634864785322137 ], [ -73.877750362779423, 40.634811837859196 ], [ -73.877763859207519, 40.634788789915667 ], [ -73.877814387733409, 40.634748699522007 ], [ -73.877851451475593, 40.634713719617068 ], [ -73.877886299776904, 40.634663360903232 ], [ -73.877931231034935, 40.634618138744507 ], [ -73.877963809832295, 40.634583153113091 ], [ -73.878019935652645, 40.634547336978194 ], [ -73.87806262862027, 40.634500402268593 ], [ -73.878107545948311, 40.634462014064418 ], [ -73.878159193496046, 40.634421921947862 ], [ -73.878203005287133, 40.634375845650787 ], [ -73.878243412463036, 40.634351970766325 ], [ -73.878282691243342, 40.634332367587632 ], [ -73.878320867637584, 40.634300802593287 ], [ -73.878378113127127, 40.634265845667592 ], [ -73.878416284416048, 40.634237697194109 ], [ -73.878442122606756, 40.634211245683638 ], [ -73.878497126322173, 40.634174574447357 ], [ -73.878553251509643, 40.634138760812441 ], [ -73.87861161143455, 40.63410636423145 ], [ -73.878667737606094, 40.634070547781313 ], [ -73.878730579833046, 40.634040719678147 ], [ -73.878792303343417, 40.63400918116006 ], [ -73.878854021041178, 40.633980204561219 ], [ -73.878907895680314, 40.633948657780095 ], [ -73.878969612065902, 40.633919680197714 ], [ -73.879004399415109, 40.633903487759099 ], [ -73.879061648859647, 40.63386596577665 ], [ -73.879120006861569, 40.633834422698619 ], [ -73.879181727241019, 40.633803738567657 ], [ -73.879233375935186, 40.633763648645228 ], [ -73.879280540268226, 40.633722697625622 ], [ -73.879326588961334, 40.633678328854131 ], [ -73.879375993948926, 40.633638234750556 ], [ -73.879419801745939, 40.633593010828292 ], [ -73.879451286506921, 40.633542648185383 ], [ -73.879485010552756, 40.633493998843271 ], [ -73.879492895547003, 40.633472650405146 ], [ -73.879464889077028, 40.633459810195241 ], [ -73.879458191138042, 40.633444429479788 ], [ -73.8794627587056, 40.633399160722178 ], [ -73.879478507816017, 40.633369282741867 ], [ -73.879522309195565, 40.633327474411061 ], [ -73.879584030129237, 40.633296790064001 ], [ -73.87965581126619, 40.63328319819459 ], [ -73.87972869157592, 40.633280712545741 ], [ -73.879769077517395, 40.63326794322181 ], [ -73.879821850616821, 40.633225289573893 ], [ -73.879864533004621, 40.633181773418094 ], [ -73.879898204594554, 40.633161307460085 ], [ -73.879954300388732, 40.633140866706711 ], [ -73.879993622539274, 40.63309649063072 ], [ -73.880003815279352, 40.63303927245169 ], [ -73.880019563294439, 40.633011103596061 ], [ -73.880047645306121, 40.63298123658884 ], [ -73.880113841490953, 40.632954827793611 ], [ -73.880167725457, 40.632917299066719 ], [ -73.880208158996822, 40.63287847759667 ], [ -73.880226145784775, 40.632851590648997 ], [ -73.880280031130496, 40.63281321095144 ], [ -73.880345103343814, 40.632788508209671 ], [ -73.880404583078558, 40.632756111048124 ], [ -73.880419183071709, 40.632742459939479 ], [ -73.880445064953435, 40.632689528304823 ], [ -73.880473170809978, 40.632646850499846 ], [ -73.88051697109276, 40.632605041786043 ], [ -73.880577568835122, 40.632575208495112 ], [ -73.880637046624173, 40.632543668488502 ], [ -73.880698768281249, 40.63251127342361 ], [ -73.880760487923013, 40.632480586601446 ], [ -73.880823323139481, 40.63245332022597 ], [ -73.880886159371187, 40.632423489180553 ], [ -73.880949001793738, 40.632392804343837 ], [ -73.881011840219685, 40.632362973148176 ], [ -73.881067962422108, 40.632327159200038 ], [ -73.881121842723829, 40.632290483700828 ], [ -73.881181325776922, 40.632256381457722 ], [ -73.881234086836855, 40.632218851987538 ], [ -73.881268865255308, 40.632206929929588 ], [ -73.881308110271945, 40.632204406806636 ], [ -73.881367588907722, 40.632172010902956 ], [ -73.881428186185715, 40.632141324403484 ], [ -73.881488783827706, 40.632109784109097 ], [ -73.881544907876702, 40.632073965411749 ], [ -73.881606623800323, 40.632044986411898 ], [ -73.881660495884873, 40.632012584572671 ], [ -73.881682962591114, 40.631987837217395 ], [ -73.88170545645049, 40.631947714362653 ], [ -73.881768292597741, 40.631918740028489 ], [ -73.881835603938342, 40.631895747114051 ], [ -73.881904026573139, 40.631877879139182 ], [ -73.881969095759388, 40.631854030159737 ], [ -73.882035288559578, 40.631828472093844 ], [ -73.882103712578186, 40.631809752162198 ], [ -73.882166547030309, 40.631781627774103 ], [ -73.882232739573269, 40.631756070515685 ], [ -73.882298935982973, 40.631729661382408 ], [ -73.882364011021451, 40.631702395541751 ], [ -73.882432438131389, 40.631681111701013 ], [ -73.882499747796075, 40.631658117392284 ], [ -73.88256257671992, 40.63163426578334 ], [ -73.882630999187199, 40.631615543696256 ], [ -73.88265904336653, 40.631606175453179 ], [ -73.882697215830916, 40.631575467194246 ], [ -73.882764524896402, 40.631553326409517 ], [ -73.8828318316083, 40.631531186586926 ], [ -73.88289913337168, 40.631512465037602 ], [ -73.882932802604103, 40.631493707386952 ], [ -73.882955286254074, 40.631459564638355 ], [ -73.882964351594083, 40.631404052316618 ], [ -73.882983507209786, 40.631349404966265 ], [ -73.883018349591083, 40.631299900200908 ], [ -73.88301956872283, 40.631244379959497 ], [ -73.883035322824469, 40.631211085854559 ], [ -73.883065668644761, 40.631168406933796 ], [ -73.88311171006626, 40.631125744913831 ], [ -73.883162231113147, 40.631086506756517 ], [ -73.883207122266768, 40.631060073567042 ], [ -73.883273312200032, 40.631035370305014 ], [ -73.883322681186002, 40.63101406646576 ], [ -73.883386630292847, 40.630988507264334 ], [ -73.883436005465342, 40.630962932221451 ], [ -73.883465245333639, 40.630911711592823 ], [ -73.883491124087854, 40.630858781019953 ], [ -73.883510276241338, 40.630805840936652 ], [ -73.883531670756398, 40.630752053042642 ], [ -73.883544099170607, 40.63069739784838 ], [ -73.883555405738804, 40.630642743271878 ], [ -73.883566682461549, 40.630605170627653 ], [ -73.883565615650397, 40.630574420419983 ], [ -73.883593776779847, 40.630498429896669 ], [ -73.883617416042625, 40.630443787820766 ], [ -73.883661302048822, 40.630351582265206 ], [ -73.88367143757948, 40.630325113653925 ], [ -73.883677073505709, 40.630308035644674 ], [ -73.883683849015938, 40.630280709026501 ], [ -73.883688379616075, 40.630254235652465 ], [ -73.88368952881693, 40.630237153096267 ], [ -73.883688434746318, 40.630222631145799 ], [ -73.883685105497591, 40.630202128325017 ], [ -73.883679540715207, 40.630179060358699 ], [ -73.883673965898069, 40.630161117305711 ], [ -73.883668382142744, 40.630148299084702 ], [ -73.883661677609865, 40.630136334243268 ], [ -73.883650491938255, 40.630121802981371 ], [ -73.883628109255241, 40.630097864280216 ], [ -73.883536323442783, 40.630014916189545 ], [ -73.883519534425432, 40.629999523707923 ], [ -73.883510579638013, 40.629990118532746 ], [ -73.883506105973851, 40.629983281791823 ], [ -73.883502757176458, 40.629976018430703 ], [ -73.883503051389354, 40.629967262988941 ], [ -73.883506617718538, 40.629958939464487 ], [ -73.883466981487956, 40.629918325411815 ], [ -73.884021438117614, 40.629560993825649 ], [ -73.883832261949109, 40.629393386911147 ], [ -73.882667716431968, 40.628349263090527 ], [ -73.883786439334799, 40.627627427944269 ], [ -73.884422709068858, 40.628202743197697 ], [ -73.884516935863644, 40.628287943126686 ], [ -73.884529249009532, 40.628299057124345 ], [ -73.884720657108431, 40.628471791753071 ], [ -73.885130338817262, 40.62884461591208 ], [ -73.885719576877534, 40.628460832042428 ], [ -73.885773307480065, 40.628509572996023 ], [ -73.885829390364108, 40.628493400522466 ], [ -73.885885468727892, 40.628479789140364 ], [ -73.886041351100531, 40.628450046847092 ], [ -73.886234239115211, 40.628416073389161 ], [ -73.886291430268656, 40.628407587754424 ], [ -73.886440560030636, 40.628392361832439 ], [ -73.886571760104943, 40.628375407789967 ], [ -73.886661470454953, 40.628361830191231 ], [ -73.886822956821817, 40.628332946889962 ], [ -73.886982194766063, 40.628308332392123 ], [ -73.887077512337939, 40.628293908068073 ], [ -73.887099944829117, 40.628288804379629 ], [ -73.88712349715793, 40.628281994430019 ], [ -73.887194171371178, 40.628255585040868 ], [ -73.887270454491272, 40.628226619157779 ], [ -73.887296259999687, 40.628214684704147 ], [ -73.887318702784285, 40.628202748782741 ], [ -73.887416332709762, 40.628147323953527 ], [ -73.887571196853571, 40.628056082082772 ], [ -73.887613836105984, 40.628033915287752 ], [ -73.887693497087938, 40.627996409190359 ], [ -73.887846082688327, 40.627925663246955 ], [ -73.887885356305873, 40.627905202178951 ], [ -73.88792463587086, 40.627880470024841 ], [ -73.887967286375172, 40.62785146990521 ], [ -73.888017797789871, 40.6278147897184 ], [ -73.888151382518956, 40.62770985913172 ], [ -73.888237810577991, 40.627647588643313 ], [ -73.888310761568206, 40.627599825898798 ], [ -73.888500416462662, 40.627485554388052 ], [ -73.888545307366243, 40.627456557149316 ], [ -73.888584589280413, 40.627430114651482 ], [ -73.888619386609477, 40.627404525063561 ], [ -73.888655306117258, 40.627377228191676 ], [ -73.888690109209648, 40.627348219350246 ], [ -73.88872603578757, 40.627316650462944 ], [ -73.888839436306839, 40.627214259702811 ], [ -73.888935986189239, 40.627131499962985 ], [ -73.888959567363855, 40.62710846229561 ], [ -73.889007857116695, 40.627058112358867 ], [ -73.889029190350541, 40.627038486387242 ], [ -73.889053885683722, 40.627020573699028 ], [ -73.889081941239553, 40.62700266425383 ], [ -73.889116724063797, 40.626985614148069 ], [ -73.88915598843397, 40.626969422039899 ], [ -73.889181786120645, 40.626960905472721 ], [ -73.889223279990873, 40.626951550458806 ], [ -73.88924346977015, 40.626946445107087 ], [ -73.889258051191632, 40.626942188020209 ], [ -73.889270390407944, 40.626937928767674 ], [ -73.889300682291434, 40.626923437988495 ], [ -73.889327611305845, 40.626909797722661 ], [ -73.889352298330294, 40.626896153446978 ], [ -73.889373621694745, 40.626881655839668 ], [ -73.889424134437959, 40.626843266754676 ], [ -73.889467916813302, 40.626806578523869 ], [ -73.889519568281827, 40.626757088050113 ], [ -73.889553257719598, 40.626722101025557 ], [ -73.889631886302652, 40.626629072007731 ], [ -73.889710512938649, 40.626537751212325 ], [ -73.889715006987473, 40.626531777847106 ], [ -73.889721741814427, 40.62652665947904 ], [ -73.889736332892042, 40.62651642289805 ], [ -73.889796921191305, 40.626485731973652 ], [ -73.889839558906374, 40.626462709749084 ], [ -73.889890056957796, 40.626432861847206 ], [ -73.889971982194226, 40.62637998449447 ], [ -73.889982083612949, 40.626372306458116 ], [ -73.889993307881269, 40.626364629497459 ], [ -73.890037092447528, 40.62632623368976 ], [ -73.890057294853307, 40.626312585885621 ], [ -73.890081981905908, 40.626297234929346 ], [ -73.890107787568738, 40.626284448840671 ], [ -73.890134711942025, 40.626273368583327 ], [ -73.890160513366624, 40.626263143519999 ], [ -73.890184065878117, 40.626256332942276 ], [ -73.890259209322508, 40.626237613668494 ], [ -73.890287251270706, 40.626228244482128 ], [ -73.890307441451867, 40.626220576985268 ], [ -73.890318665654192, 40.626212900829103 ], [ -73.890325402906285, 40.62620692874664 ], [ -73.890329898592654, 40.626199244400951 ], [ -73.890334407517486, 40.626185581544981 ], [ -73.890334427183859, 40.626173624435765 ], [ -73.890334476355449, 40.62614372819106 ], [ -73.890335609429158, 40.626136041551121 ], [ -73.890336743708843, 40.626128355748627 ], [ -73.890351392503163, 40.626082244247421 ], [ -73.890359261795865, 40.626067731841765 ], [ -73.890367131900945, 40.626054927634002 ], [ -73.890383981997644, 40.626033588844635 ], [ -73.89043115337266, 40.625981531634899 ], [ -73.890468221271448, 40.625936295204575 ], [ -73.890494060390822, 40.625903007853026 ], [ -73.890503057891479, 40.625885932712514 ], [ -73.890509813524389, 40.625868001668117 ], [ -73.890513209669393, 40.625847504621042 ], [ -73.890514369170774, 40.625824443394315 ], [ -73.8905132601611, 40.625816755532945 ], [ -73.890512151154709, 40.625809065831355 ], [ -73.89050211880739, 40.625774036795477 ], [ -73.890501008396512, 40.625767203532689 ], [ -73.890499899194765, 40.625760368430868 ], [ -73.890505688492254, 40.625649332697463 ], [ -73.890504624565523, 40.625613457702073 ], [ -73.89050130858152, 40.625584412761732 ], [ -73.890497973971961, 40.625568180451076 ], [ -73.89048570102554, 40.625532294757974 ], [ -73.890481243282252, 40.625516915892362 ], [ -73.890477913281472, 40.625496412423608 ], [ -73.890476818314625, 40.625480181247525 ], [ -73.890479084318812, 40.625465663483872 ], [ -73.890481337285024, 40.625459685271075 ], [ -73.8904835880479, 40.625453710654078 ], [ -73.890488083362627, 40.625446879981375 ], [ -73.890493701700791, 40.625439198540519 ], [ -73.890515042394426, 40.625414448292752 ], [ -73.89052402739712, 40.62540420626128 ], [ -73.890557733855402, 40.625358113833727 ], [ -73.890564483809499, 40.625343600261623 ], [ -73.890568991832595, 40.625329083714455 ], [ -73.890571265810877, 40.625310294710758 ], [ -73.8905702240897, 40.625261607171652 ], [ -73.890575937729864, 40.625195839584833 ], [ -73.890578198094673, 40.625184739211562 ], [ -73.890581578765179, 40.625173639070354 ], [ -73.890592830987927, 40.62514802366433 ], [ -73.890605196603943, 40.625126682322211 ], [ -73.890618686058716, 40.625106193972471 ], [ -73.890633288194564, 40.625088273161438 ], [ -73.890649009037617, 40.625072057177022 ], [ -73.89071076081828, 40.625014035220815 ], [ -73.890809569717291, 40.624917608881731 ], [ -73.890821918063935, 40.624908221951152 ], [ -73.890836507410157, 40.624897986147943 ], [ -73.890891488068661, 40.624867290144891 ], [ -73.890911689666311, 40.624854497708903 ], [ -73.891011580562477, 40.624781988239739 ], [ -73.891027290070966, 40.62477260715648 ], [ -73.891066558444095, 40.624752144993948 ], [ -73.891076660510009, 40.624745322381543 ], [ -73.891085638361275, 40.624739350540914 ], [ -73.891109220745136, 40.624714600551947 ], [ -73.891154146111575, 40.62466339550889 ], [ -73.891174357916753, 40.624642060628297 ], [ -73.891246217947142, 40.624572940923137 ], [ -73.891351749953373, 40.62447737517234 ], [ -73.891380938871308, 40.624452632194235 ], [ -73.891460628588376, 40.624392063012579 ], [ -73.891540338457574, 40.624321243188469 ], [ -73.89157513610661, 40.624293088063368 ], [ -73.891661549612323, 40.624235086137887 ], [ -73.89173337541169, 40.624186467390473 ], [ -73.891777145071373, 40.624155758626252 ], [ -73.891790615097605, 40.624144667045485 ], [ -73.891805210878658, 40.62413101540065 ], [ -73.891837783122568, 40.624091753726844 ], [ -73.891865866998828, 40.624055906216903 ], [ -73.891872613591289, 40.624043953687618 ], [ -73.89187823598489, 40.624032855537635 ], [ -73.891900754094905, 40.623973085834884 ], [ -73.891913153626163, 40.623931243169388 ], [ -73.89191260883527, 40.623920993889833 ], [ -73.891907581161547, 40.623910738546478 ], [ -73.891901988038612, 40.623903046389714 ], [ -73.891894152925303, 40.623895351281128 ], [ -73.891885195861434, 40.62388936339773 ], [ -73.891873993006897, 40.623884226155802 ], [ -73.891862789974354, 40.623879945354382 ], [ -73.891852703069503, 40.623878227565868 ], [ -73.891842614888859, 40.623877364375538 ], [ -73.891816831206171, 40.623878193745291 ], [ -73.891704712238038, 40.623888338572101 ], [ -73.89162734771611, 40.623896807842875 ], [ -73.891593712172437, 40.623900190869563 ], [ -73.891581384430836, 40.623897829759287 ], [ -73.891567939841408, 40.623892479710889 ], [ -73.891554502824007, 40.623883284339904 ], [ -73.891550029094034, 40.623876233566961 ], [ -73.891547802203675, 40.623867690057097 ], [ -73.891549499975909, 40.623857868816224 ], [ -73.891554559946144, 40.623848905269995 ], [ -73.891560176819624, 40.623841223774726 ], [ -73.891568034294451, 40.623834398077022 ], [ -73.891590476524726, 40.623820752034533 ], [ -73.891625255663484, 40.623804554842685 ], [ -73.891679100796154, 40.623782397120692 ], [ -73.891747522187913, 40.623758545684126 ], [ -73.891858561474208, 40.623722348658987 ], [ -73.891870895364875, 40.623720226083336 ], [ -73.891907895489254, 40.623716843467889 ], [ -73.891915745922674, 40.623715143420078 ], [ -73.891923596421577, 40.623712588853934 ], [ -73.891931449517088, 40.623709177933016 ], [ -73.891939300299214, 40.623705770522264 ], [ -73.891953893014346, 40.623694678139302 ], [ -73.891969607667292, 40.623681882127116 ], [ -73.891987576580647, 40.623662252434201 ], [ -73.891993190619971, 40.62365628011559 ], [ -73.891997688072891, 40.623649450305066 ], [ -73.892014557793559, 40.623615298640175 ], [ -73.892019052996815, 40.623607616902923 ], [ -73.892023548028703, 40.623600787090396 ], [ -73.892044882037737, 40.623579453193855 ], [ -73.892067333760977, 40.623559829462991 ], [ -73.892090904195967, 40.623541912383942 ], [ -73.892115592171834, 40.623526560989447 ], [ -73.89216607628066, 40.623501837916578 ], [ -73.892221042580871, 40.623479681830787 ], [ -73.892298439764659, 40.623450713655615 ], [ -73.892348916340708, 40.623432823619929 ], [ -73.892454345776656, 40.623398754036195 ], [ -73.892547440884528, 40.623366383844591 ], [ -73.892559779057933, 40.623362980595658 ], [ -73.892573233935082, 40.623360430397327 ], [ -73.892603506527863, 40.62335789401844 ], [ -73.892636014486612, 40.623358779966239 ], [ -73.892694300087499, 40.623363961098988 ], [ -73.892708887437124, 40.623354577815618 ], [ -73.892736937558439, 40.623339229515757 ], [ -73.892768346069374, 40.623325590789811 ], [ -73.892860322957844, 40.623293218379608 ], [ -73.892980333550469, 40.623254038927683 ], [ -73.893029685625152, 40.62323700298078 ], [ -73.893052118699416, 40.62323019077138 ], [ -73.893075664528808, 40.623225942476878 ], [ -73.89309808844456, 40.623223399573725 ], [ -73.893154140209262, 40.623223451791397 ], [ -73.893248302987587, 40.62322439405196 ], [ -73.893438871733764, 40.623226280425385 ], [ -73.893503891378373, 40.623226340802226 ], [ -73.893549856562586, 40.623223819662194 ], [ -73.893571158867033, 40.623221278384996 ], [ -73.893590222870415, 40.62321788034366 ], [ -73.893607043854729, 40.623213623862256 ], [ -73.89362386751597, 40.623208512863044 ], [ -73.893669858406156, 40.623190618925783 ], [ -73.893720337183041, 40.623170167165938 ], [ -73.893889727883092, 40.62309430299306 ], [ -73.893955913817081, 40.623066177012205 ], [ -73.894161191090802, 40.622982657883028 ], [ -73.894259899632331, 40.62294516664123 ], [ -73.894511154561286, 40.622850585890333 ], [ -73.894626689034823, 40.622805421996105 ], [ -73.894707454676308, 40.622772184129666 ], [ -73.894902642067265, 40.622687799814734 ], [ -73.894992380608997, 40.622651154326057 ], [ -73.895122490260533, 40.622604295077601 ], [ -73.895172969602555, 40.622582987158673 ], [ -73.895220085524116, 40.622560821545171 ], [ -73.895339003859291, 40.622502847541504 ], [ -73.895474742787684, 40.622439762894544 ], [ -73.89553408275566, 40.622412764715882 ], [ -73.895650864453387, 40.622359632017812 ], [ -73.895750708603842, 40.622312742681672 ], [ -73.895804547520996, 40.622291438459854 ], [ -73.895821727333256, 40.622285458054272 ], [ -73.894647797083664, 40.624224954938498 ] ] ] ] } }
]
}
