{
"type": "FeatureCollection",
"name": "pluto_Dyker_Beach_Park",
"crs": { "type": "name", "properties": { "name": "urn:ogc:def:crs:OGC:1.3:CRS84" } },
"features": [
{ "type": "Feature", "properties": { "Borough": "BK", "Block": 6418, "Lot": 50, "CD": 310, "BCT2020": "3016400", "BCTCB2020": "30164001017", "CT2010": "164", "CB2010": "1027", "SchoolDist": "20", "Council": 50, "ZipCode": 11209, "FireComp": "E242", "PolicePrct": 68, "HealthCent": 31, "HealthArea": 7820, "Sanitboro": "3", "SanitDistr": "10", "SanitSub": "4E", "Address": "7 AVENUE", "ZoneDist1": "PARK", "ZoneDist2": null, "ZoneDist3": null, "ZoneDist4": null, "Overlay1": null, "Overlay2": null, "SPDist1": null, "SPDist2": null, "SPDist3": null, "LtdHeight": null, "SplitZone": "N", "BldgClass": "Q1", "LandUse": "09", "Easements": 0, "OwnerType": "X", "OwnerName": "UNITED STATES ARMY", "LotArea": 474450, "BldgArea": 0, "ComArea": 0, "ResArea": 0, "OfficeArea": 0, "RetailArea": 0, "GarageArea": 0, "StrgeArea": 0, "FactryArea": 0, "OtherArea": 0, "AreaSource": "7", "NumBldgs": 1, "NumFloors": 0.0, "UnitsRes": 0, "UnitsTotal": 0, "LotFront": 867.0, "LotDepth": 635.0, "BldgFront": 0.0, "BldgDepth": 0.0, "Ext": "N", "ProxCode": "0", "IrrLotCode": "Y", "LotType": "5", "BsmtCode": "0", "AssessLand": 3774150.0, "AssessTot": 3774150.0, "ExemptTot": 3774150.0, "YearBuilt": 0, "YearAlter1": 0, "YearAlter2": 0, "HistDist": null, "Landmark": null, "BuiltFAR": 0.0, "ResidFAR": 0.0, "CommFAR": 0.0, "FacilFAR": 0.0, "BoroCode": 3, "BBL": 3064180050.0, "CondoNo": 0, "Tract2010": "0164", "XCoord": 978116, "YCoord": 159951, "ZoneMap": "22b", "ZMCode": "Y", "Sanborn": "311 059", "TaxMap": "31908", "EDesigNum": null, "APPBBL": 0.0, "APPDate": null, "PLUTOMapID": "1", "FIRM07_FLA": null, "PFIRM15_FL": null, "Version": "25v4", "DCPEdited": null, "Latitude": 40.6057027, "Longitude": -74.0220907, "Notes": null, "Shape_Leng": 0.0, "Shape_Area": 529907.398667 }, "geometry": { "type": "MultiPolygon", "coordinates": [ [ [ [ -74.024259659814618, 40.605104777023769 ], [ -74.023770810640102, 40.605598091083003 ], [ -74.022278526713507, 40.607103943355256 ], [ -74.020372965793484, 40.605929892709952 ], [ -74.021086931618044, 40.604510671396021 ], [ -74.021585820772685, 40.604652825430776 ], [ -74.021994802195678, 40.604769356594431 ], [ -74.02240202768489, 40.604884332382653 ], [ -74.02268609510071, 40.604957827745203 ], [ -74.022982608536168, 40.605018290415977 ], [ -74.023256229730251, 40.605060099856331 ], [ -74.0234652372162, 40.605083306300877 ], [ -74.023685451728241, 40.605099768711234 ], [ -74.024055528694575, 40.605109248462895 ], [ -74.024259659814618, 40.605104777023769 ] ] ] ] } },
{ "type": "Feature", "properties": { "Borough": "BK", "Block": 6418, "Lot": 1, "CD": 310, "BCT2020": "3015400", "BCTCB2020": "30154001000", "CT2010": "154", "CB2010": "1000", "SchoolDist": "20", "Council": 50, "ZipCode": 11228, "FireComp": "E242", "PolicePrct": 68, "HealthCent": 31, "HealthArea": 7820, "Sanitboro": "3", "SanitDistr": "10", "SanitSub": "3E", "Address": "9001 7 AVENUE", "ZoneDist1": "PARK", "ZoneDist2": null, "ZoneDist3": null, "ZoneDist4": null, "Overlay1": null, "Overlay2": null, "SPDist1": null, "SPDist2": null, "SPDist3": null, "LtdHeight": null, "SplitZone": "N", "BldgClass": "Q1", "LandUse": "09", "Easements": 0, "OwnerType": "C", "OwnerName": "NYC DEPARTMENT OF PARKS AND RECREATION", "LotArea": 10490000, "BldgArea": 16570, "ComArea": 16570, "ResArea": 0, "OfficeArea": 0, "RetailArea": 0, "GarageArea": 0, "StrgeArea": 0, "FactryArea": 0, "OtherArea": 16570, "AreaSource": "2", "NumBldgs": 12, "NumFloors": 1.0, "UnitsRes": 0, "UnitsTotal": 2, "LotFront": 999.92, "LotDepth": 942.33, "BldgFront": 123.0, "BldgDepth": 90.0, "Ext": "N", "ProxCode": "0", "IrrLotCode": "Y", "LotType": "5", "BsmtCode": "0", "AssessLand": 20587500.0, "AssessTot": 24539400.0, "ExemptTot": 24539400.0, "YearBuilt": 1925, "YearAlter1": 0, "YearAlter2": 0, "HistDist": null, "Landmark": "INDIVIDUAL LANDMARK", "BuiltFAR": 0.0, "ResidFAR": 0.0, "CommFAR": 0.0, "FacilFAR": 0.0, "BoroCode": 3, "BBL": 3064180001.0, "CondoNo": 0, "Tract2010": "0154", "XCoord": 978850, "YCoord": 161532, "ZoneMap": "22b", "ZMCode": "Y", "Sanborn": "311 059", "TaxMap": "31908", "EDesigNum": null, "APPBBL": 0.0, "APPDate": null, "PLUTOMapID": "1", "FIRM07_FLA": "1", "PFIRM15_FL": "1", "Version": "25v4", "DCPEdited": "t", "Latitude": 40.6100427, "Longitude": -74.0194486, "Notes": null, "Shape_Leng": 0.0, "Shape_Area": 10026362.5011 }, "geometry": { "type": "MultiPolygon", "coordinates": [ [ [ [ -74.019518230931354, 40.602840574079792 ], [ -74.019524417994177, 40.602845288527362 ], [ -74.019537869923951, 40.602855536867331 ], [ -74.019551320401902, 40.602864927928309 ], [ -74.019563652047324, 40.602874320935037 ], [ -74.019575979938494, 40.602882861178848 ], [ -74.019596157963662, 40.602896525022004 ], [ -74.019611848654122, 40.602905917452105 ], [ -74.01962754069578, 40.602916166322423 ], [ -74.019640991908219, 40.602923850847084 ], [ -74.01966228574301, 40.602934952440613 ], [ -74.019682463551604, 40.602947760747398 ], [ -74.019693673232382, 40.602954591045574 ], [ -74.019704881109732, 40.602963132387977 ], [ -74.019728419567272, 40.602977648393889 ], [ -74.019750835643222, 40.602987894258035 ], [ -74.019769889522237, 40.602995578729107 ], [ -74.019781099218278, 40.603002409103823 ], [ -74.019794550263001, 40.603013512016247 ], [ -74.019803518826208, 40.603024613855808 ], [ -74.019809126190168, 40.603036571792586 ], [ -74.019811370299095, 40.603050236831912 ], [ -74.019818095702078, 40.603055362366796 ], [ -74.01983378600103, 40.603055359672496 ], [ -74.019856197385494, 40.60305364753826 ], [ -74.019871886926282, 40.603051081954369 ], [ -74.019887576213833, 40.603047662687395 ], [ -74.019901025123758, 40.603051076935486 ], [ -74.019911112130146, 40.603057052804843 ], [ -74.019918961012763, 40.603065592947836 ], [ -74.019927927527164, 40.603074133735028 ], [ -74.019940258507162, 40.603080963815579 ], [ -74.019951465425308, 40.603086088568567 ], [ -74.01996715781388, 40.603097189233196 ], [ -74.019978370082157, 40.603112561001261 ], [ -74.019986217771233, 40.603121101976178 ], [ -74.019997426922288, 40.603129641448277 ], [ -74.020011996104742, 40.603138180420679 ], [ -74.020025448359732, 40.603145012139208 ], [ -74.020044500963266, 40.60315184104379 ], [ -74.02006243462175, 40.603158672899959 ], [ -74.020078125628345, 40.603164649622165 ], [ -74.020089335384768, 40.60317148172318 ], [ -74.020105027051301, 40.60318001948459 ], [ -74.020120717191233, 40.603183433316651 ], [ -74.020140888585885, 40.60318599092615 ], [ -74.020159942751107, 40.603190259687153 ], [ -74.020173392544976, 40.60319281930213 ], [ -74.020189082545926, 40.603195381200329 ], [ -74.020205893509527, 40.603201355031402 ], [ -74.02022270579603, 40.603207332457728 ], [ -74.020237276413738, 40.603212454752075 ], [ -74.020247362447719, 40.603215014947992 ], [ -74.020261934276462, 40.60322013816041 ], [ -74.020277623850589, 40.603225259416909 ], [ -74.020293315296598, 40.603232943471667 ], [ -74.020310128953597, 40.603239774565942 ], [ -74.0203258190501, 40.603246604934192 ], [ -74.020340391151549, 40.603252582737703 ], [ -74.020353840529978, 40.603257703458389 ], [ -74.020367288557537, 40.603261973173268 ], [ -74.020381860405692, 40.603267096370466 ], [ -74.020395310741137, 40.603271365161561 ], [ -74.020409880178548, 40.603276486514133 ], [ -74.02043789954935, 40.60328416928909 ], [ -74.020470402320555, 40.603294414146738 ], [ -74.020493938034306, 40.603302950547629 ], [ -74.020516355710285, 40.603309779696666 ], [ -74.020534287991353, 40.603315755958263 ], [ -74.02055221975175, 40.603320021255939 ], [ -74.020567910318562, 40.603324290549416 ], [ -74.020585842085666, 40.603328557599568 ], [ -74.020602653913812, 40.603332826687016 ], [ -74.020622828461043, 40.603337946092026 ], [ -74.020645244321969, 40.603343069694461 ], [ -74.02066429625944, 40.603347337452156 ], [ -74.020686709556557, 40.603351601844096 ], [ -74.020708004849297, 40.603355016431649 ], [ -74.020725936107794, 40.603357575177967 ], [ -74.020744987791275, 40.60336098832127 ], [ -74.020767403139928, 40.603364400938766 ], [ -74.020784213518866, 40.603367813558656 ], [ -74.020803267249008, 40.603370373010918 ], [ -74.02082119945706, 40.603372078981344 ], [ -74.020835769099392, 40.603373784634556 ], [ -74.020851457959935, 40.603376342844641 ], [ -74.020868270386657, 40.60337890361108 ], [ -74.020882839089523, 40.603381463860885 ], [ -74.02090301257617, 40.603386585057116 ], [ -74.020927670048493, 40.603392559119243 ], [ -74.020946723756467, 40.603398534275563 ], [ -74.020961293939564, 40.603401948196158 ], [ -74.020981467062782, 40.603406216619099 ], [ -74.020996036417074, 40.603410485972859 ], [ -74.021008365561528, 40.603414753139724 ], [ -74.02102853933448, 40.603420727994866 ], [ -74.02105095525144, 40.603425847920263 ], [ -74.021070008603402, 40.603430971049207 ], [ -74.0210868204897, 40.60343523914576 ], [ -74.021103630791188, 40.603438651802712 ], [ -74.02112268399263, 40.603442920320546 ], [ -74.021137253926128, 40.603445479701577 ], [ -74.021153504342038, 40.603449320129933 ], [ -74.021167514922794, 40.603454015569177 ], [ -74.021184325206889, 40.603453158804243 ], [ -74.02121122122027, 40.603454007545849 ], [ -74.021239240077932, 40.603455708835497 ], [ -74.021265015212506, 40.603457414213381 ], [ -74.021287430351535, 40.603459972046004 ], [ -74.021308724231517, 40.603462531000041 ], [ -74.021331138276381, 40.603465087987992 ], [ -74.021352432160228, 40.603467648691669 ], [ -74.021374846750561, 40.603471913032983 ], [ -74.021392779815116, 40.603476182633614 ], [ -74.021410712056777, 40.6034813023997 ], [ -74.021430885232675, 40.603485570743793 ], [ -74.021448818033363, 40.603488983976888 ], [ -74.021464508424671, 40.603492398545626 ], [ -74.021482440019412, 40.603495809934806 ], [ -74.021504854901337, 40.603500931529666 ], [ -74.021523908035448, 40.603505197386959 ], [ -74.021542960074115, 40.60350946675679 ], [ -74.021560894093867, 40.603512879137156 ], [ -74.021577702958808, 40.603515439716745 ], [ -74.021593394297142, 40.603517997908902 ], [ -74.021607963717273, 40.603518850703423 ], [ -74.021624774998756, 40.603521407679033 ], [ -74.0216427046891, 40.603522258919412 ], [ -74.02166400008646, 40.603525672409759 ], [ -74.021679689837029, 40.603527377747092 ], [ -74.021698743646368, 40.603529935209451 ], [ -74.021715553838305, 40.603532496772509 ], [ -74.02173124386708, 40.60353505486232 ], [ -74.021750296583889, 40.603537614157851 ], [ -74.021768229415159, 40.603541028262526 ], [ -74.021783919447984, 40.603543586430241 ], [ -74.02180297272281, 40.603547854835334 ], [ -74.02182650675779, 40.603550413271577 ], [ -74.021847800798582, 40.603552971289425 ], [ -74.021867974120383, 40.603553820229727 ], [ -74.021884784866401, 40.603554672565757 ], [ -74.021899352271205, 40.603556378084598 ], [ -74.021920648621148, 40.603558936006067 ], [ -74.021945302828243, 40.603561494205223 ], [ -74.021966595668459, 40.603564053037616 ], [ -74.021990130924323, 40.603566611440115 ], [ -74.02201590991227, 40.603569166731994 ], [ -74.022039443513421, 40.60357001675888 ], [ -74.022052891969437, 40.603571724312154 ], [ -74.022067461686731, 40.603573429810574 ], [ -74.022083151568111, 40.60357513333507 ], [ -74.022110049410671, 40.603577691069546 ], [ -74.022134704558354, 40.603579395461864 ], [ -74.022158239544709, 40.60358109922894 ], [ -74.022177293106722, 40.603582803934906 ], [ -74.022196343801809, 40.603582800272427 ], [ -74.022215394778669, 40.603583650287696 ], [ -74.022229964785254, 40.603586211202902 ], [ -74.022244533301048, 40.603587915842773 ], [ -74.022260224964569, 40.603591328461185 ], [ -74.022280397945323, 40.603594742973968 ], [ -74.022307296477109, 40.603599007104059 ], [ -74.022336435937632, 40.603602418953365 ], [ -74.022359971505097, 40.60360583188119 ], [ -74.02237230002919, 40.603607536855108 ], [ -74.022386868555259, 40.603609242312004 ], [ -74.022417128188565, 40.603612653003431 ], [ -74.022433939526991, 40.6036152117847 ], [ -74.022461958987591, 40.603622040385389 ], [ -74.022486616050344, 40.603629724151823 ], [ -74.022509031053872, 40.603634844713227 ], [ -74.022534807672159, 40.603637400726853 ], [ -74.022558343085208, 40.60363995809162 ], [ -74.022580758620322, 40.603643371193201 ], [ -74.022594206293945, 40.603645931445499 ], [ -74.022617744303403, 40.603649341643568 ], [ -74.022639037375257, 40.603652755790129 ], [ -74.022660332053292, 40.603657021940741 ], [ -74.022680505937174, 40.603662996506017 ], [ -74.022700680854427, 40.603668119228075 ], [ -74.022716370666615, 40.603669824422603 ], [ -74.022733180642803, 40.603671527555449 ], [ -74.022753353671646, 40.60367494106513 ], [ -74.022767925792479, 40.60368006303851 ], [ -74.022785857904339, 40.603684331585704 ], [ -74.022800429401343, 40.603691161838441 ], [ -74.022811637449578, 40.603695429033465 ], [ -74.022825084271474, 40.603695426374479 ], [ -74.022837412184018, 40.603692007369858 ], [ -74.022855341340957, 40.603684317844518 ], [ -74.022872149809203, 40.603678335065453 ], [ -74.022890075734551, 40.603671496539768 ], [ -74.02290240480221, 40.60367149409344 ], [ -74.022912492797118, 40.603675764177474 ], [ -74.022924823277179, 40.60368344854043 ], [ -74.022930428702523, 40.60369113607883 ], [ -74.022937714829453, 40.603700955729607 ], [ -74.022953965453326, 40.603701381179484 ], [ -74.022969655944436, 40.603697960571651 ], [ -74.02298310335064, 40.603699667096222 ], [ -74.02300103654089, 40.603707351255046 ], [ -74.023015605214653, 40.603709056633512 ], [ -74.023023454496837, 40.603714178995126 ], [ -74.023036903370794, 40.603720154003149 ], [ -74.023051471646198, 40.603721006532531 ], [ -74.023068282777317, 40.603719294053199 ], [ -74.023082851455698, 40.603721000259497 ], [ -74.023097421232151, 40.603722706546158 ], [ -74.023113111175462, 40.603724411687836 ], [ -74.023129922274862, 40.603726115765006 ], [ -74.02314449113976, 40.60372867480811 ], [ -74.02315906271464, 40.603732089370013 ], [ -74.023188203269541, 40.603738062966315 ], [ -74.023216221864516, 40.603742328498875 ], [ -74.023243119605169, 40.603747447012609 ], [ -74.023268896995987, 40.603751712063662 ], [ -74.023292432957788, 40.603755979401654 ], [ -74.023312606445785, 40.603760244737693 ], [ -74.023329418425732, 40.603767929071843 ], [ -74.023347351397774, 40.603771342930187 ], [ -74.023361921894079, 40.603774754706301 ], [ -74.023376491689689, 40.603776461877743 ], [ -74.023400026777097, 40.60377816539058 ], [ -74.023419078735017, 40.603778161525234 ], [ -74.023432525167721, 40.603777304194146 ], [ -74.023454939915538, 40.603774735835295 ], [ -74.023470628688926, 40.603773026203115 ], [ -74.023487437410012, 40.603771314499326 ], [ -74.023507610318788, 40.6037738732756 ], [ -74.023526664567228, 40.603777285037346 ], [ -74.023544596643745, 40.603781553466256 ], [ -74.023561407566717, 40.603785819360958 ], [ -74.023578218993137, 40.603788379731355 ], [ -74.023596151495525, 40.603790084347494 ], [ -74.023614082379709, 40.603790933439996 ], [ -74.023629771342783, 40.603790077467046 ], [ -74.023647700832043, 40.603790073793689 ], [ -74.023667875455502, 40.603790922417886 ], [ -74.023684684885637, 40.603790918968492 ], [ -74.023702618488741, 40.603792623652907 ], [ -74.023719428713321, 40.603795183917811 ], [ -74.023738481881381, 40.603798595728456 ], [ -74.02375193012476, 40.60379944756184 ], [ -74.023769862222352, 40.603800296629764 ], [ -74.023791154604737, 40.603801147763669 ], [ -74.023811326819256, 40.603801997283298 ], [ -74.023831502961812, 40.603807117965175 ], [ -74.0238494339699, 40.603811385427939 ], [ -74.023869607400258, 40.603815650582511 ], [ -74.02388641956108, 40.603819920109885 ], [ -74.02390098847539, 40.603822479057129 ], [ -74.023923403338429, 40.603823328092496 ], [ -74.023945817789979, 40.603823323442548 ], [ -74.02396038609885, 40.603824174098982 ], [ -74.023976076686338, 40.603824170839339 ], [ -74.023996247398443, 40.60382416664585 ], [ -74.02401530077185, 40.603825017282475 ], [ -74.024035473106665, 40.603825867682851 ], [ -74.02405452678633, 40.603827571995232 ], [ -74.024073578162799, 40.603829277225039 ], [ -74.0240892680455, 40.603830980475763 ], [ -74.024102718119181, 40.603833540549836 ], [ -74.024122890167547, 40.603836952899343 ], [ -74.024143063606658, 40.603837804118271 ], [ -74.024158752990147, 40.603837800833951 ], [ -74.024178925526982, 40.603839503133663 ], [ -74.024197976907971, 40.603841207421432 ], [ -74.024211427887792, 40.603842913802922 ], [ -74.024227116878478, 40.603845473393882 ], [ -74.024239447825309, 40.603850596571462 ], [ -74.024261864884053, 40.603860841555935 ], [ -74.024282040824517, 40.6038719407725 ], [ -74.024292129245836, 40.60387706349632 ], [ -74.024309501015736, 40.603880049561546 ], [ -74.024331355328769, 40.603883035600248 ], [ -74.024353771146608, 40.603886445594505 ], [ -74.024363857130851, 40.603888151748329 ], [ -74.024394117301654, 40.603892417440548 ], [ -74.024413170112098, 40.603894975374693 ], [ -74.024429981596882, 40.603897535620511 ], [ -74.02444903483071, 40.603900948149736 ], [ -74.024467525977371, 40.603905641315848 ], [ -74.024479294627454, 40.603907774026275 ], [ -74.024494985545743, 40.603908625213094 ], [ -74.024514037468307, 40.603912035975377 ], [ -74.0245319702302, 40.603914596804358 ], [ -74.024553264800545, 40.603918008003319 ], [ -74.024576799494739, 40.603921419557473 ], [ -74.024600335287261, 40.603924832026657 ], [ -74.024619389634552, 40.603928243605992 ], [ -74.024636200040035, 40.603930803821889 ], [ -74.024655252870687, 40.603933361715903 ], [ -74.024674304603479, 40.603935918769359 ], [ -74.024691116689667, 40.603936768854588 ], [ -74.024718014462451, 40.603938473132978 ], [ -74.024740428169295, 40.603939322009303 ], [ -74.024762842079781, 40.603941025483621 ], [ -74.024787499734785, 40.603942727633822 ], [ -74.024811032612561, 40.603944431778395 ], [ -74.024831204993561, 40.603945282039163 ], [ -74.024851379103595, 40.603947840495636 ], [ -74.024867069460214, 40.603950399161327 ], [ -74.0248894861097, 40.603952956291366 ], [ -74.024910779394403, 40.603956370100931 ], [ -74.024930951522137, 40.60395978046845 ], [ -74.024950004055967, 40.60396148555148 ], [ -74.024969057907541, 40.603963189712275 ], [ -74.024991472149438, 40.603965747743047 ], [ -74.025017249736408, 40.603970013322218 ], [ -74.025039665826725, 40.603974277785092 ], [ -74.025063200566265, 40.603977691079869 ], [ -74.02508449628111, 40.603981102096441 ], [ -74.025106910392665, 40.603986222151626 ], [ -74.025130448082052, 40.603991341873886 ], [ -74.025157344861, 40.603996460860124 ], [ -74.025182003507936, 40.604000725726287 ], [ -74.025206661589436, 40.604006698953135 ], [ -74.02522907539894, 40.604010966056137 ], [ -74.025250369469845, 40.604016085409526 ], [ -74.025269424198171, 40.604020353323655 ], [ -74.025291840078211, 40.604027180621955 ], [ -74.025308653589278, 40.60403144718078 ], [ -74.025322118142554, 40.604032585701681 ], [ -74.024643958832257, 40.604716962965824 ], [ -74.024259659814618, 40.605104777023769 ], [ -74.024055528694575, 40.605109248462895 ], [ -74.023685451728241, 40.605099768711234 ], [ -74.0234652372162, 40.605083306300877 ], [ -74.023256229730251, 40.605060099856331 ], [ -74.022982608536168, 40.605018290415977 ], [ -74.02268609510071, 40.604957827745203 ], [ -74.02240202768489, 40.604884332382653 ], [ -74.021994802195678, 40.604769356594431 ], [ -74.021585820772685, 40.604652825430776 ], [ -74.021086931618044, 40.604510671396021 ], [ -74.020372965793484, 40.605929892709952 ], [ -74.022278526713507, 40.607103943355256 ], [ -74.021712360228506, 40.607675234914417 ], [ -74.021700615600679, 40.607687086169427 ], [ -74.021632240654299, 40.607756077984142 ], [ -74.024307834946924, 40.609277338970827 ], [ -74.024410072771261, 40.609336587802808 ], [ -74.02445918806238, 40.609373437522748 ], [ -74.024501215299154, 40.60942144974085 ], [ -74.024530834076259, 40.609455004045671 ], [ -74.024559008283575, 40.609490206528044 ], [ -74.024579640333343, 40.609522327353716 ], [ -74.02460715065348, 40.609538289437857 ], [ -74.02468738513403, 40.609584846343473 ], [ -74.021084539525418, 40.618181648116675 ], [ -74.011979522969057, 40.612690392138013 ], [ -74.017149512020808, 40.607632117358555 ], [ -74.016325962869217, 40.607146505933507 ], [ -74.015723254880498, 40.60682730287278 ], [ -74.018618021839927, 40.603945282739886 ], [ -74.018478393528014, 40.603866459128213 ], [ -74.019228755634273, 40.603126469985995 ], [ -74.019518230931354, 40.602840574079792 ] ] ] ] } }
]
}
