{
"type": "FeatureCollection",
"name": "pluto_Astoria_Park",
"crs": { "type": "name", "properties": { "name": "urn:ogc:def:crs:OGC:1.3:CRS84" } },
"features": [
{ "type": "Feature", "properties": { "Borough": "QN", "Block": 898, "Lot": 1, "CD": 401, "BCT2020": "4009900", "BCTCB2020": "40099001002", "CT2010": "99", "CB2010": "1002", "SchoolDist": "30", "Council": 22, "ZipCode": 11105, "FireComp": "E312", "PolicePrct": 114, "HealthCent": 41, "HealthArea": 110, "Sanitboro": "4", "SanitDistr": "01", "SanitSub": "1D", "Address": "24-02 19 STREET", "ZoneDist1": "PARK", "ZoneDist2": null, "ZoneDist3": null, "ZoneDist4": null, "Overlay1": null, "Overlay2": null, "SPDist1": null, "SPDist2": null, "SPDist3": null, "LtdHeight": null, "SplitZone": "N", "BldgClass": "Q1", "LandUse": "09", "Easements": 0, "OwnerType": "C", "OwnerName": "NYC DEPARTMENT OF PARKS AND RECREATION", "LotArea": 2189060, "BldgArea": 0, "ComArea": 0, "ResArea": 0, "OfficeArea": 0, "RetailArea": 0, "GarageArea": 0, "StrgeArea": 0, "FactryArea": 0, "OtherArea": 0, "AreaSource": "7", "NumBldgs": 6, "NumFloors": 0.0, "UnitsRes": 0, "UnitsTotal": 0, "LotFront": 2873.89, "LotDepth": 1013.5, "BldgFront": 0.0, "BldgDepth": 0.0, "Ext": "N", "ProxCode": "0", "IrrLotCode": "Y", "LotType": "2", "BsmtCode": "0", "AssessLand": 19504350.0, "AssessTot": 23143500.0, "ExemptTot": 23143500.0, "YearBuilt": 0, "YearAlter1": 0, "YearAlter2": 0, "HistDist": null, "Landmark": "INDIVIDUAL LANDMARK", "BuiltFAR": 0.0, "ResidFAR": 0.0, "CommFAR": 0.0, "FacilFAR": 0.0, "BoroCode": 4, "BBL": 4008980001.0, "CondoNo": 0, "Tract2010": "0099", "XCoord": 1005516, "YCoord": 223050, "ZoneMap": "9a", "ZMCode": "Y", "Sanborn": "402 052", "TaxMap": "40602", "EDesigNum": null, "APPBBL": 0.0, "APPDate": null, "PLUTOMapID": "1", "FIRM07_FLA": "1", "PFIRM15_FL": "1", "Version": "25v4", "DCPEdited": "t", "Latitude": 40.7788714, "Longitude": -73.9232143, "Notes": null, "Shape_Leng": 0.0, "Shape_Area": 2169459.5826300001 }, "geometry": { "type": "MultiPolygon", "coordinates": [ [ [ [ -73.919967932101102, 40.782526854930097 ], [ -73.919862423702583, 40.782451632663637 ], [ -73.9197980170687, 40.782405714310855 ], [ -73.918159856955526, 40.781237747133737 ], [ -73.919059904697377, 40.780501209799347 ], [ -73.919851704437647, 40.781093008962095 ], [ -73.91984421981573, 40.781098931803037 ], [ -73.919724126838361, 40.781193962823274 ], [ -73.920548849202291, 40.781801003182451 ], [ -73.920633725281931, 40.781728084928503 ], [ -73.920812260565242, 40.781574700878402 ], [ -73.920973840519096, 40.781435882217927 ], [ -73.92016798317502, 40.780842730274408 ], [ -73.920052950796801, 40.780933758931887 ], [ -73.919251862918244, 40.780343465599472 ], [ -73.923936674578286, 40.776504561175329 ], [ -73.925200454333691, 40.775468964138589 ], [ -73.927856774024164, 40.776936097996234 ], [ -73.928030770471111, 40.777032196328406 ], [ -73.928082054517702, 40.777060519938964 ], [ -73.928021837619738, 40.77708690433294 ], [ -73.927962260830228, 40.777112491733618 ], [ -73.927815008034372, 40.777168771892491 ], [ -73.927776787809734, 40.777185832259306 ], [ -73.927743060775896, 40.777202892758652 ], [ -73.927685720911597, 40.777234459926767 ], [ -73.927631752329219, 40.777266030945349 ], [ -73.927581157630485, 40.777298455134705 ], [ -73.927532806516126, 40.777330882473144 ], [ -73.927487824667793, 40.777364165581204 ], [ -73.927455214375641, 40.7773889151307 ], [ -73.927427102753967, 40.777408542837726 ], [ -73.927389999958251, 40.77743158220359 ], [ -73.927297806665266, 40.777482771690302 ], [ -73.927274195813837, 40.777496424619713 ], [ -73.927255079670701, 40.77751093229525 ], [ -73.927232588043324, 40.777528001508131 ], [ -73.927184225658138, 40.777571531869199 ], [ -73.927161732234879, 40.777590309402171 ], [ -73.927057154625089, 40.777665407300645 ], [ -73.927034662234746, 40.777684182969068 ], [ -73.926986300541728, 40.777726862258667 ], [ -73.926964931863594, 40.777743931294054 ], [ -73.926944693154212, 40.777756729869594 ], [ -73.926894102001739, 40.777783176172562 ], [ -73.926872739185768, 40.777795974022169 ], [ -73.92685137155722, 40.777813043957067 ], [ -73.926805257769033, 40.777854866415993 ], [ -73.926782765082038, 40.777872790209088 ], [ -73.926755780342262, 40.777890710133271 ], [ -73.92669281428519, 40.777928252563719 ], [ -73.926664701269644, 40.777948734584363 ], [ -73.926544367766439, 40.778046031165417 ], [ -73.92637342393607, 40.778185146107042 ], [ -73.926348684099551, 40.778203922041648 ], [ -73.926322821831192, 40.778220988915493 ], [ -73.926293588274291, 40.77823805186668 ], [ -73.92626210861205, 40.778255116048172 ], [ -73.926228381746725, 40.778272176103208 ], [ -73.926190158065282, 40.778289232341166 ], [ -73.926085615506281, 40.778331875180307 ], [ -73.926056387269171, 40.778342960490107 ], [ -73.926026040241737, 40.778352335985346 ], [ -73.925994569691696, 40.7783600042535 ], [ -73.92596310209521, 40.778365107836557 ], [ -73.925939503274975, 40.77836850822689 ], [ -73.925930513556011, 40.778369356187198 ], [ -73.925906910666129, 40.778375321162912 ], [ -73.925749558460666, 40.778415365071083 ], [ -73.925732700347666, 40.77841962443987 ], [ -73.92558209131829, 40.778457963300539 ], [ -73.925540504927227, 40.778468186815786 ], [ -73.925494423319094, 40.778480114737924 ], [ -73.925162856550841, 40.778567022411202 ], [ -73.925077433436272, 40.778590883242956 ], [ -73.925034720893251, 40.778603667843754 ], [ -73.924906585591117, 40.778642020466329 ], [ -73.924841391073826, 40.778662477825662 ], [ -73.92481550327004, 40.778701751700567 ], [ -73.924783999850277, 40.778739312725996 ], [ -73.92474800149418, 40.778775161713043 ], [ -73.924707515932425, 40.778806740176265 ], [ -73.924660289675245, 40.778837458786803 ], [ -73.924605195360499, 40.778869026807534 ], [ -73.924548983079845, 40.778897174803305 ], [ -73.92441294884074, 40.778962855644728 ], [ -73.924344366062684, 40.77899868392425 ], [ -73.924311758524937, 40.779018308746053 ], [ -73.92428252204715, 40.779037081275959 ], [ -73.924256656121685, 40.779056708679683 ], [ -73.924231913070997, 40.779076338741142 ], [ -73.924165553557245, 40.779135229399358 ], [ -73.924100313659224, 40.779195831685222 ], [ -73.924033947589379, 40.779258139684494 ], [ -73.923967577254047, 40.779323012237796 ], [ -73.923846086614532, 40.779443366237118 ], [ -73.923779430981412, 40.779514001738761 ], [ -73.923774080092244, 40.779525315704163 ], [ -73.923770682587403, 40.779550083643322 ], [ -73.923768426553806, 40.779557768820091 ], [ -73.923763921096082, 40.779566308012818 ], [ -73.923747047425493, 40.779581670254089 ], [ -73.923730179102819, 40.779594472337713 ], [ -73.923707690015121, 40.779608978105458 ], [ -73.923636855147379, 40.779648221888962 ], [ -73.92361661204977, 40.779662727205995 ], [ -73.923599741720864, 40.779677237603735 ], [ -73.923552491546431, 40.779726745587425 ], [ -73.923420863622795, 40.779866740423351 ], [ -73.92330724298678, 40.779981972490674 ], [ -73.923284741864947, 40.780006728596241 ], [ -73.92326561087566, 40.780030632275128 ], [ -73.923247604332488, 40.78005538953142 ], [ -73.92323072068298, 40.780080149373113 ], [ -73.923217209821729, 40.780104911381315 ], [ -73.923205944770018, 40.78012881854405 ], [ -73.923195805264754, 40.780153581964022 ], [ -73.92318818580145, 40.780182192157234 ], [ -73.923189579948087, 40.780191588931636 ], [ -73.923204715102457, 40.780220212562106 ], [ -73.923208636504995, 40.780231317516588 ], [ -73.923208345893158, 40.780239860420664 ], [ -73.923196798963104, 40.780264622815594 ], [ -73.923184417975392, 40.780283405396958 ], [ -73.923170914720458, 40.780300478976578 ], [ -73.923155163975196, 40.780316695546269 ], [ -73.923134916621208, 40.780334620036264 ], [ -73.923111302268794, 40.78035083310251 ], [ -73.923086566295282, 40.780363628993491 ], [ -73.923059587224074, 40.780373860458788 ], [ -73.923002262392146, 40.780389195525629 ], [ -73.922873011328363, 40.780417297379415 ], [ -73.922817935657662, 40.78043092561181 ], [ -73.922662814073391, 40.780479508968277 ], [ -73.922586361657636, 40.780515331821618 ], [ -73.922516655474837, 40.780550303663148 ], [ -73.922451442649503, 40.780585281169571 ], [ -73.922392971669083, 40.780621114258999 ], [ -73.922373852135749, 40.780634769208774 ], [ -73.922354731814622, 40.780650130565348 ], [ -73.922274863964248, 40.780725239933311 ], [ -73.922254618567635, 40.780742309683617 ], [ -73.922235500286533, 40.78075681651994 ], [ -73.922204013087196, 40.780776442418151 ], [ -73.922166909392331, 40.780796060910873 ], [ -73.922126434368124, 40.780816533452359 ], [ -73.922007258905325, 40.780872827844433 ], [ -73.921971280345645, 40.780891592451432 ], [ -73.921939796109029, 40.780909509190849 ], [ -73.921843086308584, 40.780972649904513 ], [ -73.921799228721042, 40.781003370458656 ], [ -73.921758742415193, 40.781033237867447 ], [ -73.921720500933361, 40.78106310770962 ], [ -73.921685632271831, 40.781092977995179 ], [ -73.921651887716152, 40.781122849035718 ], [ -73.921621513451498, 40.781152725039185 ], [ -73.921569761954544, 40.781204792052222 ], [ -73.921443752027002, 40.781340514667299 ], [ -73.921385248476284, 40.781401973664238 ], [ -73.921353749821478, 40.781431847991207 ], [ -73.921272756658567, 40.781506103056941 ], [ -73.921231130396706, 40.781548780920559 ], [ -73.921201873938529, 40.781583781494767 ], [ -73.921186581211416, 40.781604305334838 ], [ -73.921185507085625, 40.781603516690168 ], [ -73.921112604535708, 40.781549993916215 ], [ -73.920953253736698, 40.781687056440362 ], [ -73.920774827442486, 40.781840526364697 ], [ -73.920692707245053, 40.781911160196572 ], [ -73.920769247126415, 40.781971330591624 ], [ -73.920804395489085, 40.78199896154981 ], [ -73.920830066770606, 40.782019142085929 ], [ -73.920811424892079, 40.782031085421913 ], [ -73.920755205088099, 40.782060942478182 ], [ -73.92069561791773, 40.782088233512312 ], [ -73.920678754095491, 40.782094201223913 ], [ -73.920659646281536, 40.782099311962533 ], [ -73.920588837728133, 40.782113782774644 ], [ -73.92056185941118, 40.78212145265806 ], [ -73.920536003423678, 40.782130829803094 ], [ -73.920525883843226, 40.782136802987246 ], [ -73.920515762142287, 40.782143629081659 ], [ -73.920484265810543, 40.782170939412595 ], [ -73.920447136142144, 40.782210203595255 ], [ -73.92042350689421, 40.782236667440912 ], [ -73.920369492363903, 40.782302399270478 ], [ -73.920339112898986, 40.782335689671577 ], [ -73.920319989387366, 40.782351904434918 ], [ -73.920296373710073, 40.782368970582752 ], [ -73.920270508383027, 40.782386035250298 ], [ -73.920196289578143, 40.782430401070009 ], [ -73.920174923033656, 40.782444906920183 ], [ -73.920156928006122, 40.782458558682485 ], [ -73.920119815778506, 40.782485013105934 ], [ -73.920106315021357, 40.782496959729436 ], [ -73.920100687883973, 40.782503790664904 ], [ -73.920096747834322, 40.782511475516941 ], [ -73.920095050756146, 40.78252086833691 ], [ -73.920096154520635, 40.782537952616302 ], [ -73.920103980549058, 40.782569561235441 ], [ -73.92010508841625, 40.78258322985203 ], [ -73.920106188925857, 40.782602020538917 ], [ -73.920105057661686, 40.782608853675484 ], [ -73.920101958615589, 40.782615685446594 ], [ -73.920098732371002, 40.782620290940713 ], [ -73.920092555572836, 40.782615847406881 ], [ -73.920070628333789, 40.782600073332254 ], [ -73.919967932101102, 40.782526854930097 ] ] ] ] } },
{ "type": "Feature", "properties": { "Borough": "QN", "Block": 897, "Lot": 2, "CD": 401, "BCT2020": "4010300", "BCTCB2020": "40103001000", "CT2010": "103", "CB2010": "1000", "SchoolDist": "30", "Council": 22, "ZipCode": 11105, "FireComp": "E312", "PolicePrct": 114, "HealthCent": 41, "HealthArea": 120, "Sanitboro": "4", "SanitDistr": "01", "SanitSub": "1D", "Address": "SHORE BOULEVARD", "ZoneDist1": "PARK", "ZoneDist2": null, "ZoneDist3": null, "ZoneDist4": null, "Overlay1": null, "Overlay2": null, "SPDist1": null, "SPDist2": null, "SPDist3": null, "LtdHeight": null, "SplitZone": "N", "BldgClass": "Q0", "LandUse": "09", "Easements": 0, "OwnerType": "C", "OwnerName": "NYC DEPARTMENT OF PARKS AND RECREATION", "LotArea": 263800, "BldgArea": 0, "ComArea": 0, "ResArea": 0, "OfficeArea": 0, "RetailArea": 0, "GarageArea": 0, "StrgeArea": 0, "FactryArea": 0, "OtherArea": 0, "AreaSource": "7", "NumBldgs": 0, "NumFloors": 0.0, "UnitsRes": 0, "UnitsTotal": 0, "LotFront": 1921.68, "LotDepth": 125.0, "BldgFront": 0.0, "BldgDepth": 0.0, "Ext": null, "ProxCode": "0", "IrrLotCode": "Y", "LotType": "5", "BsmtCode": "5", "AssessLand": 9583650.0, "AssessTot": 9583650.0, "ExemptTot": 9583650.0, "YearBuilt": 0, "YearAlter1": 0, "YearAlter2": 0, "HistDist": null, "Landmark": null, "BuiltFAR": 0.0, "ResidFAR": 0.0, "CommFAR": 0.0, "FacilFAR": 0.0, "BoroCode": 4, "BBL": 4008970002.0, "CondoNo": 0, "Tract2010": "0103", "XCoord": 1007169, "YCoord": 225158, "ZoneMap": "6b", "ZMCode": null, "Sanborn": "402 049", "TaxMap": "40602", "EDesigNum": null, "APPBBL": 0.0, "APPDate": null, "PLUTOMapID": "1", "FIRM07_FLA": "1", "PFIRM15_FL": "1", "Version": "25v4", "DCPEdited": "t", "Latitude": 40.7846531, "Longitude": -73.9172386, "Notes": null, "Shape_Leng": 0.0, "Shape_Area": 159403.77127699999 }, "geometry": { "type": "MultiPolygon", "coordinates": [ [ [ [ -73.915292456166497, 40.786134773892364 ], [ -73.915352072555024, 40.78608537832821 ], [ -73.915403412234596, 40.786048140703265 ], [ -73.915440475685926, 40.786026819719417 ], [ -73.916163990201625, 40.785244251721267 ], [ -73.916309943308121, 40.785071568468879 ], [ -73.916665633549698, 40.78453144994031 ], [ -73.916692915442439, 40.784497204636203 ], [ -73.916709748163981, 40.784477106753307 ], [ -73.916741966363062, 40.784443143263225 ], [ -73.916796613660395, 40.784397686650117 ], [ -73.917176252808858, 40.784128508371232 ], [ -73.917519944030744, 40.783884816055327 ], [ -73.917574418564286, 40.783849909291504 ], [ -73.917633531076973, 40.783817953993911 ], [ -73.917716928314249, 40.783781518066988 ], [ -73.917799161918609, 40.783753959314652 ], [ -73.917872786728964, 40.783735446271855 ], [ -73.917959736418666, 40.783720380685935 ], [ -73.918176728874784, 40.783691541732772 ], [ -73.918260758783575, 40.783677924672737 ], [ -73.918333876041032, 40.783661614406839 ], [ -73.918427805438611, 40.783634285959565 ], [ -73.918486347456763, 40.783612927850889 ], [ -73.918500250298706, 40.783607855280259 ], [ -73.918573677001064, 40.783575729604358 ], [ -73.918636379950783, 40.783543474656867 ], [ -73.918710006543677, 40.783498966204633 ], [ -73.919967932101102, 40.782526854930097 ], [ -73.920070628333789, 40.782600073332254 ], [ -73.920033569107659, 40.782631603073838 ], [ -73.920016230406929, 40.782646354307886 ], [ -73.919983652607144, 40.782647206316696 ], [ -73.919970165581134, 40.782648690932554 ], [ -73.919954989851405, 40.782653590789742 ], [ -73.919940934612328, 40.782662550935825 ], [ -73.919930810900411, 40.782671938808456 ], [ -73.919908309304518, 40.782693276823345 ], [ -73.919837438235632, 40.782758997580771 ], [ -73.919614690177866, 40.78296981483355 ], [ -73.919516822160546, 40.783057722862317 ], [ -73.91935820986906, 40.78319854601915 ], [ -73.919254717233784, 40.783292431057461 ], [ -73.919211969396173, 40.783329980886037 ], [ -73.919165850960994, 40.783367531926778 ], [ -73.919120864025857, 40.78339910348658 ], [ -73.919083756053411, 40.783421285569517 ], [ -73.919042150042912, 40.783445172808804 ], [ -73.918903844345905, 40.783518531257542 ], [ -73.91885549177654, 40.783544974669176 ], [ -73.918666578439897, 40.783651611229324 ], [ -73.918555252143449, 40.783716447995516 ], [ -73.918486652894757, 40.783758250334238 ], [ -73.918312340796248, 40.783870874236541 ], [ -73.918236993737509, 40.783916945396705 ], [ -73.918193137635726, 40.78394253805984 ], [ -73.918150407842774, 40.78396557042776 ], [ -73.91810993160064, 40.783983476956521 ], [ -73.918061591199489, 40.784001381466666 ], [ -73.918008757014519, 40.784017572662471 ], [ -73.917949180495825, 40.784032904524217 ], [ -73.917877242889276, 40.784049082033079 ], [ -73.917670425369522, 40.784091641559556 ], [ -73.917514184135683, 40.78412654839812 ], [ -73.917451240259481, 40.784140170174354 ], [ -73.917414150091744, 40.784145268306681 ], [ -73.917328738407434, 40.784152894547837 ], [ -73.917293896822073, 40.78415799425597 ], [ -73.917277034292312, 40.784162254138138 ], [ -73.9172646700207, 40.784165659991437 ], [ -73.917254552070958, 40.784169924720558 ], [ -73.917247803919636, 40.784173763200812 ], [ -73.917229808392321, 40.784187844010795 ], [ -73.917218555369629, 40.784199791910417 ], [ -73.917212925667386, 40.784208330951245 ], [ -73.91720897930297, 40.784219859032227 ], [ -73.917209474489169, 40.784274097656727 ], [ -73.917207095174575, 40.784378302144844 ], [ -73.917203672628304, 40.784420152443126 ], [ -73.917195748798761, 40.784467124169375 ], [ -73.917186700760794, 40.784514096004308 ], [ -73.91716298007384, 40.784611451286928 ], [ -73.917149429595213, 40.784663544627591 ], [ -73.917131383406769, 40.784718195806178 ], [ -73.917107711640242, 40.784777115771526 ], [ -73.917078409952708, 40.784844571250716 ], [ -73.91704235653016, 40.78492056569953 ], [ -73.917009693890904, 40.784980330146418 ], [ -73.916975917564542, 40.785032410711906 ], [ -73.916957909348227, 40.785055458715902 ], [ -73.916939901087247, 40.785077652132124 ], [ -73.916906141570109, 40.785115213021882 ], [ -73.916870134564519, 40.785151914011109 ], [ -73.916833011137669, 40.785186052267534 ], [ -73.916794760789017, 40.785219336952153 ], [ -73.916678906364154, 40.785308082362256 ], [ -73.91663390958837, 40.785346487694234 ], [ -73.916573154788921, 40.785403670659825 ], [ -73.916507896451321, 40.785467683325344 ], [ -73.916340245694983, 40.785637536977063 ], [ -73.916276114450099, 40.785698989249696 ], [ -73.916214240340622, 40.785753610213348 ], [ -73.916179367580497, 40.785781771397438 ], [ -73.916098383000332, 40.785842355868823 ], [ -73.916062384846768, 40.785871371785014 ], [ -73.916042134029823, 40.785890147758487 ], [ -73.915951005818584, 40.785972932054769 ], [ -73.915856508018749, 40.786055716491475 ], [ -73.915838508575007, 40.786068515661242 ], [ -73.915817143285139, 40.786081311527788 ], [ -73.915794654714915, 40.78609239823512 ], [ -73.915769918294146, 40.786100922297166 ], [ -73.915744064560656, 40.786108590114615 ], [ -73.91571708622881, 40.786114549689394 ], [ -73.915690112459558, 40.786117947345922 ], [ -73.915659768827936, 40.786118779606696 ], [ -73.915648533853783, 40.786117916869131 ], [ -73.915631681677368, 40.786114487092291 ], [ -73.915580010482188, 40.786097367525592 ], [ -73.915562037361909, 40.786092227746586 ], [ -73.915553049719762, 40.786090512899349 ], [ -73.915544057486173, 40.786090506298699 ], [ -73.915531134996414, 40.786090926405059 ], [ -73.915509217044487, 40.786094752723876 ], [ -73.915491228205624, 40.786101998423383 ], [ -73.915479981595922, 40.786108396412573 ], [ -73.915474355865157, 40.786114371614929 ], [ -73.915405705656269, 40.786193755407233 ], [ -73.915377572644047, 40.786224485976632 ], [ -73.915351017510403, 40.786250384254181 ], [ -73.915237546565777, 40.786170274570551 ], [ -73.915292456166497, 40.786134773892364 ] ] ] ] } },
{ "type": "Feature", "properties": { "Borough": "QN", "Block": 898, "Lot": 80, "CD": 111, "BCT2020": "1024000", "BCTCB2020": "10240000003", "CT2010": "240", "CB2010": "0003", "SchoolDist": null, "Council": 8, "ZipCode": 11105, "FireComp": null, "PolicePrct": 0, "HealthCent": 0, "HealthArea": 0, "Sanitboro": null, "SanitDistr": null, "SanitSub": null, "Address": "19 STREET", "ZoneDist1": "PARK", "ZoneDist2": null, "ZoneDist3": null, "ZoneDist4": null, "Overlay1": null, "Overlay2": null, "SPDist1": null, "SPDist2": null, "SPDist3": null, "LtdHeight": null, "SplitZone": "N", "BldgClass": "U6", "LandUse": "07", "Easements": 0, "OwnerType": "X", "OwnerName": "NATIONAL RAILROAD PASSENGER CORP", "LotArea": 16514, "BldgArea": 0, "ComArea": 0, "ResArea": 0, "OfficeArea": 0, "RetailArea": 0, "GarageArea": 0, "StrgeArea": 0, "FactryArea": 0, "OtherArea": 0, "AreaSource": "7", "NumBldgs": 0, "NumFloors": 0.0, "UnitsRes": 0, "UnitsTotal": 0, "LotFront": 180.0, "LotDepth": 103.0, "BldgFront": 0.0, "BldgDepth": 0.0, "Ext": "N", "ProxCode": "0", "IrrLotCode": "N", "LotType": "5", "BsmtCode": "0", "AssessLand": 0.0, "AssessTot": 0.0, "ExemptTot": 0.0, "YearBuilt": 0, "YearAlter1": 0, "YearAlter2": 0, "HistDist": null, "Landmark": null, "BuiltFAR": 0.0, "ResidFAR": 0.0, "CommFAR": 0.0, "FacilFAR": 0.0, "BoroCode": 4, "BBL": 4008980080.0000005, "CondoNo": 0, "Tract2010": "0240", "XCoord": 1006120, "YCoord": 224124, "ZoneMap": "9a", "ZMCode": null, "Sanborn": "402 052", "TaxMap": "40602", "EDesigNum": null, "APPBBL": 0.0, "APPDate": null, "PLUTOMapID": "1", "FIRM07_FLA": "1", "PFIRM15_FL": "1", "Version": "25v4", "DCPEdited": "t", "Latitude": 40.7818177, "Longitude": -73.92103, "Notes": null, "Shape_Leng": 0.0, "Shape_Area": 8426.9926245999995 }, "geometry": { "type": "MultiPolygon", "coordinates": [ [ [ [ -73.920804395489085, 40.78199896154981 ], [ -73.920769247126415, 40.781971330591624 ], [ -73.920692707245053, 40.781911160196572 ], [ -73.920774827442486, 40.781840526364697 ], [ -73.920953253736698, 40.781687056440362 ], [ -73.921112604535708, 40.781549993916215 ], [ -73.921185507085625, 40.781603516690168 ], [ -73.921186581211416, 40.781604305334838 ], [ -73.921172612503142, 40.78162305222407 ], [ -73.921145596003413, 40.781663179991305 ], [ -73.921116327218641, 40.781707573697041 ], [ -73.921074113378424, 40.781772034291428 ], [ -73.921051039674438, 40.781804902143072 ], [ -73.921034155691913, 40.781827950645962 ], [ -73.921026278555161, 40.781838196584786 ], [ -73.920995892335725, 40.781876613750491 ], [ -73.92096663775142, 40.781909903252689 ], [ -73.920945261199947, 40.781932096830509 ], [ -73.920937385873955, 40.781939777167196 ], [ -73.920909264429937, 40.781964528017738 ], [ -73.920862031217766, 40.781998663395875 ], [ -73.920830066770606, 40.782019142085929 ], [ -73.920804395489085, 40.78199896154981 ] ] ] ] } },
{ "type": "Feature", "properties": { "Borough": "QN", "Block": 889, "Lot": 1, "CD": 401, "BCT2020": "4009900", "BCTCB2020": "40099001006", "CT2010": "99", "CB2010": "1005", "SchoolDist": "30", "Council": 22, "ZipCode": 11105, "FireComp": "E312", "PolicePrct": 114, "HealthCent": 41, "HealthArea": 110, "Sanitboro": "4", "SanitDistr": "01", "SanitSub": "1D", "Address": "HOYT AVENUE", "ZoneDist1": "PARK", "ZoneDist2": null, "ZoneDist3": null, "ZoneDist4": null, "Overlay1": null, "Overlay2": null, "SPDist1": null, "SPDist2": null, "SPDist3": null, "LtdHeight": null, "SplitZone": "N", "BldgClass": "Q1", "LandUse": "09", "Easements": 0, "OwnerType": "C", "OwnerName": "NYC DEPARTMENT OF PARKS AND RECREATION", "LotArea": 182325, "BldgArea": 0, "ComArea": 0, "ResArea": 0, "OfficeArea": 0, "RetailArea": 0, "GarageArea": 0, "StrgeArea": 0, "FactryArea": 0, "OtherArea": 0, "AreaSource": "7", "NumBldgs": 0, "NumFloors": 0.0, "UnitsRes": 0, "UnitsTotal": 0, "LotFront": 315.0, "LotDepth": 425.0, "BldgFront": 0.0, "BldgDepth": 0.0, "Ext": null, "ProxCode": "0", "IrrLotCode": "N", "LotType": "5", "BsmtCode": "5", "AssessLand": 49050.0, "AssessTot": 49050.0, "ExemptTot": 49050.0, "YearBuilt": 0, "YearAlter1": 0, "YearAlter2": 0, "HistDist": null, "Landmark": null, "BuiltFAR": 0.0, "ResidFAR": 0.0, "CommFAR": 0.0, "FacilFAR": 0.0, "BoroCode": 4, "BBL": 4008890000.9999995, "CondoNo": 0, "Tract2010": "0099", "XCoord": 1005257, "YCoord": 221839, "ZoneMap": "9a", "ZMCode": null, "Sanborn": "402 058", "TaxMap": "40602", "EDesigNum": null, "APPBBL": 0.0, "APPDate": null, "PLUTOMapID": "1", "FIRM07_FLA": null, "PFIRM15_FL": null, "Version": "25v4", "DCPEdited": "t", "Latitude": 40.7755481, "Longitude": -73.9241533, "Notes": null, "Shape_Leng": 0.0, "Shape_Area": 180371.785932 }, "geometry": { "type": "MultiPolygon", "coordinates": [ [ [ [ -73.92323666814471, 40.775377697232166 ], [ -73.924013606663735, 40.774737183419461 ], [ -73.925257476876624, 40.775422237051593 ], [ -73.925200454333691, 40.775468964138589 ], [ -73.923936674578286, 40.776504561175329 ], [ -73.92323666814471, 40.775377697232166 ] ] ] ] } },
{ "type": "Feature", "properties": { "Borough": "QN", "Block": 898, "Lot": 37, "CD": 401, "BCT2020": "4009900", "BCTCB2020": "40099001002", "CT2010": "99", "CB2010": "1002", "SchoolDist": "30", "Council": 22, "ZipCode": 11105, "FireComp": "E312", "PolicePrct": 114, "HealthCent": 41, "HealthArea": 110, "Sanitboro": "4", "SanitDistr": "01", "SanitSub": "1D", "Address": "19 STREET", "ZoneDist1": "PARK", "ZoneDist2": null, "ZoneDist3": null, "ZoneDist4": null, "Overlay1": null, "Overlay2": null, "SPDist1": null, "SPDist2": null, "SPDist3": null, "LtdHeight": null, "SplitZone": "N", "BldgClass": "U6", "LandUse": "07", "Easements": 0, "OwnerType": "X", "OwnerName": "UNAVAILABLE OWNER", "LotArea": 80230, "BldgArea": 0, "ComArea": 0, "ResArea": 0, "OfficeArea": 0, "RetailArea": 0, "GarageArea": 0, "StrgeArea": 0, "FactryArea": 0, "OtherArea": 0, "AreaSource": "7", "NumBldgs": 0, "NumFloors": 0.0, "UnitsRes": 0, "UnitsTotal": 0, "LotFront": 180.0, "LotDepth": 627.0, "BldgFront": 0.0, "BldgDepth": 0.0, "Ext": "N", "ProxCode": "0", "IrrLotCode": "N", "LotType": "5", "BsmtCode": "0", "AssessLand": 0.0, "AssessTot": 0.0, "ExemptTot": 0.0, "YearBuilt": 0, "YearAlter1": 0, "YearAlter2": 0, "HistDist": null, "Landmark": null, "BuiltFAR": 0.0, "ResidFAR": 0.0, "CommFAR": 0.0, "FacilFAR": 0.0, "BoroCode": 4, "BBL": 4008980037.0000005, "CondoNo": 0, "Tract2010": "0099", "XCoord": 1006374, "YCoord": 223876, "ZoneMap": "9a", "ZMCode": null, "Sanborn": "402 052", "TaxMap": "40602", "EDesigNum": null, "APPBBL": 0.0, "APPDate": null, "PLUTOMapID": "1", "FIRM07_FLA": "1", "PFIRM15_FL": null, "Version": "25v4", "DCPEdited": "t", "Latitude": 40.7811364, "Longitude": -73.9201136, "Notes": null, "Shape_Leng": 0.0, "Shape_Area": 80230.436030099998 }, "geometry": { "type": "MultiPolygon", "coordinates": [ [ [ [ -73.919724126838361, 40.781193962823274 ], [ -73.91984421981573, 40.781098931803037 ], [ -73.919851704437647, 40.781093008962095 ], [ -73.919059904697377, 40.780501209799347 ], [ -73.919251862918244, 40.780343465599472 ], [ -73.920052950796801, 40.780933758931887 ], [ -73.92016798317502, 40.780842730274408 ], [ -73.920973840519096, 40.781435882217927 ], [ -73.920812260565242, 40.781574700878402 ], [ -73.920633725281931, 40.781728084928503 ], [ -73.920548849202291, 40.781801003182451 ], [ -73.919724126838361, 40.781193962823274 ] ] ] ] } }
]
}
