{
"type": "FeatureCollection",
"name": "pluto_Calvary_&_Mount_Zion_Cemeteries",
"crs": { "type": "name", "properties": { "name": "urn:ogc:def:crs:OGC:1.3:CRS84" } },
"features": [
{ "type": "Feature", "properties": { "Borough": "QN", "Block": 2306, "Lot": 201, "CD": 402, "BCT2020": "4022900", "BCTCB2020": "40229001004", "CT2010": "229", "CB2010": "1005", "SchoolDist": "24", "Council": 26, "ZipCode": 11377, "FireComp": "E259", "PolicePrct": 108, "HealthCent": 41, "HealthArea": 910, "Sanitboro": "4", "SanitDistr": "02", "SanitSub": "3C", "Address": "48 STREET", "ZoneDist1": "R4", "ZoneDist2": null, "ZoneDist3": null, "ZoneDist4": null, "Overlay1": null, "Overlay2": null, "SPDist1": null, "SPDist2": null, "SPDist3": null, "LtdHeight": null, "SplitZone": "N", "BldgClass": "Z8", "LandUse": "09", "Easements": 0, "OwnerType": "X", "OwnerName": "TR-ST PATRICKS CATHEDRAL", "LotArea": 11540, "BldgArea": 0, "ComArea": 0, "ResArea": 0, "OfficeArea": 0, "RetailArea": 0, "GarageArea": 0, "StrgeArea": 0, "FactryArea": 0, "OtherArea": 0, "AreaSource": "7", "NumBldgs": 0, "NumFloors": 0.0, "UnitsRes": 0, "UnitsTotal": 0, "LotFront": 372.25, "LotDepth": 31.0, "BldgFront": 0.0, "BldgDepth": 0.0, "Ext": "N", "ProxCode": "0", "IrrLotCode": "N", "LotType": "5", "BsmtCode": "0", "AssessLand": 185400.0, "AssessTot": 185400.0, "ExemptTot": 185400.0, "YearBuilt": 0, "YearAlter1": 0, "YearAlter2": 0, "HistDist": null, "Landmark": null, "BuiltFAR": 0.0, "ResidFAR": 1.0, "CommFAR": 0.0, "FacilFAR": 2.0, "BoroCode": 4, "BBL": 4023060201.0, "CondoNo": 0, "Tract2010": "0229", "XCoord": 1006803, "YCoord": 206244, "ZoneMap": "13a", "ZMCode": null, "Sanborn": "409 030", "TaxMap": "41301", "EDesigNum": null, "APPBBL": 0.0, "APPDate": null, "PLUTOMapID": "1", "FIRM07_FLA": null, "PFIRM15_FL": null, "Version": "25v4", "DCPEdited": null, "Latitude": 40.73274, "Longitude": -73.9186237, "Notes": null, "Shape_Leng": 0.0, "Shape_Area": 19989.329847600002 }, "geometry": { "type": "MultiPolygon", "coordinates": [ [ [ [ -73.918370649284498, 40.73317062400038 ], [ -73.918732872770079, 40.732134762430505 ], [ -73.918834898538975, 40.732184257947999 ], [ -73.918633083203844, 40.733199631656603 ], [ -73.918370649284498, 40.73317062400038 ] ] ] ] } },
{ "type": "Feature", "properties": { "Borough": "QN", "Block": 2311, "Lot": 24, "CD": 402, "BCT2020": "4023501", "BCTCB2020": "40235011003", "CT2010": "235", "CB2010": "1004", "SchoolDist": "24", "Council": 26, "ZipCode": 11377, "FireComp": "E259", "PolicePrct": 108, "HealthCent": 41, "HealthArea": 910, "Sanitboro": "4", "SanitDistr": "02", "SanitSub": "3C", "Address": "50-07 49 STREET", "ZoneDist1": "M1-1", "ZoneDist2": null, "ZoneDist3": null, "ZoneDist4": null, "Overlay1": null, "Overlay2": null, "SPDist1": null, "SPDist2": null, "SPDist3": null, "LtdHeight": null, "SplitZone": "N", "BldgClass": "E9", "LandUse": "06", "Easements": 0, "OwnerType": null, "OwnerName": "50-07 49TH STREET,", "LotArea": 12320, "BldgArea": 11200, "ComArea": 11200, "ResArea": 0, "OfficeArea": 0, "RetailArea": 0, "GarageArea": 0, "StrgeArea": 11200, "FactryArea": 0, "OtherArea": 0, "AreaSource": "2", "NumBldgs": 1, "NumFloors": 1.0, "UnitsRes": 0, "UnitsTotal": 1, "LotFront": 80.0, "LotDepth": 166.0, "BldgFront": 80.0, "BldgDepth": 140.0, "Ext": "N", "ProxCode": "0", "IrrLotCode": "Y", "LotType": "5", "BsmtCode": "0", "AssessLand": 166950.0, "AssessTot": 1437300.0, "ExemptTot": 0.0, "YearBuilt": 1931, "YearAlter1": 0, "YearAlter2": 0, "HistDist": null, "Landmark": null, "BuiltFAR": 0.91, "ResidFAR": 0.0, "CommFAR": 1.0, "FacilFAR": 2.4, "BoroCode": 4, "BBL": 4023110024.0, "CondoNo": 0, "Tract2010": "0235", "XCoord": 1007299, "YCoord": 207688, "ZoneMap": "13a", "ZMCode": null, "Sanborn": "409 034", "TaxMap": "41301", "EDesigNum": null, "APPBBL": 0.0, "APPDate": null, "PLUTOMapID": "1", "FIRM07_FLA": null, "PFIRM15_FL": null, "Version": "25v4", "DCPEdited": null, "Latitude": 40.7367022, "Longitude": -73.9168291, "Notes": null, "Shape_Leng": 0.0, "Shape_Area": 13650.5940892 }, "geometry": { "type": "MultiPolygon", "coordinates": [ [ [ [ -73.916504050291408, 40.736760735847916 ], [ -73.916581831589482, 40.736536954219154 ], [ -73.917093484046575, 40.736632318748484 ], [ -73.917097423041881, 40.736643450062068 ], [ -73.917106730618499, 40.736670043383093 ], [ -73.917110138505947, 40.736680905930953 ], [ -73.917113048939413, 40.73669184918834 ], [ -73.917115450394007, 40.73670285507383 ], [ -73.917117353196247, 40.736713933634654 ], [ -73.917118737486661, 40.736725045955133 ], [ -73.917119623400652, 40.736736185859129 ], [ -73.917119989489677, 40.736747352411157 ], [ -73.917119856025252, 40.736758518601711 ], [ -73.917119202904416, 40.736769665512064 ], [ -73.91711804068197, 40.73678079674373 ], [ -73.917116357614816, 40.736791889787391 ], [ -73.917114177371346, 40.736802928427025 ], [ -73.917111501162054, 40.73681391174339 ], [ -73.917108313629555, 40.736824805594594 ], [ -73.917104630163294, 40.736835618021068 ], [ -73.917092063961789, 40.736870332523083 ], [ -73.916504050291408, 40.736760735847916 ] ] ] ] } },
{ "type": "Feature", "properties": { "Borough": "QN", "Block": 2311, "Lot": 250, "CD": 402, "BCT2020": "4022900", "BCTCB2020": "40229001000", "CT2010": "229", "CB2010": "1000", "SchoolDist": "24", "Council": 26, "ZipCode": 11377, "FireComp": "E259", "PolicePrct": 108, "HealthCent": 41, "HealthArea": 910, "Sanitboro": "4", "SanitDistr": "02", "SanitSub": "3C", "Address": "49 STREET", "ZoneDist1": "R4", "ZoneDist2": null, "ZoneDist3": null, "ZoneDist4": null, "Overlay1": null, "Overlay2": null, "SPDist1": null, "SPDist2": null, "SPDist3": null, "LtdHeight": null, "SplitZone": "N", "BldgClass": "Z8", "LandUse": "09", "Easements": 1, "OwnerType": "X", "OwnerName": "TR-ST PATRICKS CATHEDRAL", "LotArea": 4625000, "BldgArea": 62488, "ComArea": 62488, "ResArea": 0, "OfficeArea": 0, "RetailArea": 0, "GarageArea": 0, "StrgeArea": 0, "FactryArea": 0, "OtherArea": 62488, "AreaSource": "2", "NumBldgs": 2, "NumFloors": 1.0, "UnitsRes": 0, "UnitsTotal": 0, "LotFront": 1712.0, "LotDepth": 2610.0, "BldgFront": 15.0, "BldgDepth": 20.0, "Ext": "N", "ProxCode": "0", "IrrLotCode": "Y", "LotType": "5", "BsmtCode": "0", "AssessLand": 6160500.0, "AssessTot": 7414650.0, "ExemptTot": 7414650.0, "YearBuilt": 1929, "YearAlter1": 0, "YearAlter2": 0, "HistDist": null, "Landmark": null, "BuiltFAR": 0.01, "ResidFAR": 1.0, "CommFAR": 0.0, "FacilFAR": 2.0, "BoroCode": 4, "BBL": 4023110250.0, "CondoNo": 0, "Tract2010": "0229", "XCoord": 1008519, "YCoord": 208496, "ZoneMap": "9d", "ZMCode": "Y", "Sanborn": "409 999", "TaxMap": "41301", "EDesigNum": null, "APPBBL": 0.0, "APPDate": null, "PLUTOMapID": "1", "FIRM07_FLA": null, "PFIRM15_FL": null, "Version": "25v4", "DCPEdited": null, "Latitude": 40.7389167, "Longitude": -73.9124239, "Notes": null, "Shape_Leng": 0.0, "Shape_Area": 4465363.5482599996 }, "geometry": { "type": "MultiPolygon", "coordinates": [ [ [ [ -73.90777026795314, 40.741614201319081 ], [ -73.908286886614306, 40.739336751971983 ], [ -73.908644758123529, 40.738095428170531 ], [ -73.909343356882644, 40.736630399973386 ], [ -73.90935729762046, 40.736601161530231 ], [ -73.909374965156999, 40.736564113333884 ], [ -73.916935685579219, 40.735518890272893 ], [ -73.916923048857996, 40.735555245369802 ], [ -73.916919033014921, 40.735566801375278 ], [ -73.916875896023313, 40.735690909577151 ], [ -73.916764705405939, 40.736010818870454 ], [ -73.916581831589482, 40.736536954219154 ], [ -73.916504050291408, 40.736760735847916 ], [ -73.917092063961789, 40.736870332523083 ], [ -73.916333776480073, 40.739050852491587 ], [ -73.916148313639638, 40.739584401695005 ], [ -73.916056912588104, 40.73984734676484 ], [ -73.916038351186202, 40.739900747684807 ], [ -73.916019787336495, 40.739954147597096 ], [ -73.916001576370505, 40.740006538404216 ], [ -73.915983014771655, 40.740059939231593 ], [ -73.9159640980143, 40.740114358357758 ], [ -73.915945737163298, 40.740167176714898 ], [ -73.915927366898018, 40.740220023926085 ], [ -73.91590886821372, 40.740273243828973 ], [ -73.915890305364954, 40.740326644721115 ], [ -73.915853179580623, 40.740433444573966 ], [ -73.915748275009847, 40.740735232828541 ], [ -73.914400233633089, 40.740482090896883 ], [ -73.914361063369128, 40.740606074958443 ], [ -73.914277082549688, 40.740870355982473 ], [ -73.914196862339026, 40.74112280618818 ], [ -73.914027039338009, 40.741657222538102 ], [ -73.913901328946011, 40.742052815378905 ], [ -73.913815853698054, 40.742321787476442 ], [ -73.912776012383844, 40.74220010691527 ], [ -73.90777026795314, 40.741614201319081 ] ] ] ] } },
{ "type": "Feature", "properties": { "Borough": "QN", "Block": 2361, "Lot": 31, "CD": 402, "BCT2020": "4022900", "BCTCB2020": "40229001005", "CT2010": "229", "CB2010": "1009", "SchoolDist": "24", "Council": 26, "ZipCode": 11377, "FireComp": "Q288", "PolicePrct": 108, "HealthCent": 41, "HealthArea": 910, "Sanitboro": "4", "SanitDistr": "02", "SanitSub": "1E", "Address": "TYLER AVENUE", "ZoneDist1": "R4", "ZoneDist2": null, "ZoneDist3": null, "ZoneDist4": null, "Overlay1": null, "Overlay2": null, "SPDist1": null, "SPDist2": null, "SPDist3": null, "LtdHeight": null, "SplitZone": "N", "BldgClass": "Z8", "LandUse": "09", "Easements": 0, "OwnerType": "X", "OwnerName": "ELMWIER CEMETERY ASSOC", "LotArea": 115075, "BldgArea": 0, "ComArea": 0, "ResArea": 0, "OfficeArea": 0, "RetailArea": 0, "GarageArea": 0, "StrgeArea": 0, "FactryArea": 0, "OtherArea": 0, "AreaSource": "7", "NumBldgs": 0, "NumFloors": 0.0, "UnitsRes": 0, "UnitsTotal": 0, "LotFront": 1162.17, "LotDepth": 100.0, "BldgFront": 0.0, "BldgDepth": 0.0, "Ext": null, "ProxCode": "0", "IrrLotCode": "Y", "LotType": "3", "BsmtCode": "5", "AssessLand": 3216600.0, "AssessTot": 3216600.0, "ExemptTot": 3216600.0, "YearBuilt": 0, "YearAlter1": 0, "YearAlter2": 0, "HistDist": null, "Landmark": null, "BuiltFAR": 0.0, "ResidFAR": 1.0, "CommFAR": 0.0, "FacilFAR": 2.0, "BoroCode": 4, "BBL": 4023610031.0000005, "CondoNo": 0, "Tract2010": "0229", "XCoord": 1011104, "YCoord": 206932, "ZoneMap": "13c", "ZMCode": null, "Sanborn": "409 038", "TaxMap": "41302", "EDesigNum": null, "APPBBL": 0.0, "APPDate": null, "PLUTOMapID": "1", "FIRM07_FLA": null, "PFIRM15_FL": null, "Version": "25v4", "DCPEdited": null, "Latitude": 40.7346164, "Longitude": -73.903102, "Notes": null, "Shape_Leng": 0.0, "Shape_Area": 117059.480597 }, "geometry": { "type": "MultiPolygon", "coordinates": [ [ [ [ -73.901246003109193, 40.733902834228807 ], [ -73.901441823937901, 40.73366564023226 ], [ -73.904921684789798, 40.735312720748702 ], [ -73.904894746103878, 40.735370140057221 ], [ -73.904795039509523, 40.735582657400982 ], [ -73.901246003109193, 40.733902834228807 ] ] ] ] } },
{ "type": "Feature", "properties": { "Borough": "QN", "Block": 2567, "Lot": 1, "CD": 402, "BCT2020": "4022900", "BCTCB2020": "40229001009", "CT2010": "229", "CB2010": "1013", "SchoolDist": "24", "Council": 26, "ZipCode": 11378, "FireComp": "E259", "PolicePrct": 108, "HealthCent": 41, "HealthArea": 910, "Sanitboro": "4", "SanitDistr": "02", "SanitSub": "3C", "Address": "58 ROAD", "ZoneDist1": "R4", "ZoneDist2": null, "ZoneDist3": null, "ZoneDist4": null, "Overlay1": null, "Overlay2": null, "SPDist1": null, "SPDist2": null, "SPDist3": null, "LtdHeight": null, "SplitZone": "N", "BldgClass": "Z8", "LandUse": "09", "Easements": 2, "OwnerType": "X", "OwnerName": "TR-ST PATRICKS CATHEDRAL", "LotArea": 931712, "BldgArea": 16000, "ComArea": 16000, "ResArea": 0, "OfficeArea": 0, "RetailArea": 0, "GarageArea": 0, "StrgeArea": 0, "FactryArea": 0, "OtherArea": 16000, "AreaSource": "2", "NumBldgs": 1, "NumFloors": 1.0, "UnitsRes": 0, "UnitsTotal": 0, "LotFront": 1230.0, "LotDepth": 810.0, "BldgFront": 80.0, "BldgDepth": 200.0, "Ext": "N", "ProxCode": "0", "IrrLotCode": "Y", "LotType": "5", "BsmtCode": "5", "AssessLand": 3442050.0, "AssessTot": 4597200.0, "ExemptTot": 4597200.0, "YearBuilt": 1947, "YearAlter1": 0, "YearAlter2": 0, "HistDist": null, "Landmark": null, "BuiltFAR": 0.02, "ResidFAR": 1.0, "CommFAR": 0.0, "FacilFAR": 2.0, "BoroCode": 4, "BBL": 4025670000.9999995, "CondoNo": 0, "Tract2010": "0229", "XCoord": 1007871, "YCoord": 205113, "ZoneMap": "13a", "ZMCode": "Y", "Sanborn": "403 013", "TaxMap": "41402", "EDesigNum": null, "APPBBL": 0.0, "APPDate": null, "PLUTOMapID": "1", "FIRM07_FLA": null, "PFIRM15_FL": null, "Version": "25v4", "DCPEdited": null, "Latitude": 40.7296329, "Longitude": -73.9147741, "Notes": null, "Shape_Leng": 0.0, "Shape_Area": 927384.33533899998 }, "geometry": { "type": "MultiPolygon", "coordinates": [ [ [ [ -73.913853906724327, 40.730296029569637 ], [ -73.913500024025907, 40.730183855062599 ], [ -73.913439322569374, 40.730164613281133 ], [ -73.913373323549436, 40.730153834895539 ], [ -73.912988566189043, 40.730091002276055 ], [ -73.911897198077057, 40.729832410615593 ], [ -73.911907254015162, 40.729806464824115 ], [ -73.911914378481157, 40.729788081010803 ], [ -73.912130121556615, 40.729231447724082 ], [ -73.912174478090805, 40.728521343902528 ], [ -73.915027650766561, 40.728571896903674 ], [ -73.915028769393132, 40.728545031079967 ], [ -73.915823924880897, 40.728576880860835 ], [ -73.915732651122639, 40.729000753236157 ], [ -73.917315424287636, 40.729318214052256 ], [ -73.917051647068803, 40.731107789131393 ], [ -73.917048203953925, 40.731131154785217 ], [ -73.91704050473264, 40.731183389511465 ], [ -73.914225980403046, 40.730384182901432 ], [ -73.913853906724327, 40.730296029569637 ] ] ] ] } },
{ "type": "Feature", "properties": { "Borough": "QN", "Block": 2567, "Lot": 159, "CD": 402, "BCT2020": "4022900", "BCTCB2020": "40229001009", "CT2010": "229", "CB2010": "1013", "SchoolDist": "24", "Council": 26, "ZipCode": 11378, "FireComp": "E259", "PolicePrct": 108, "HealthCent": 41, "HealthArea": 910, "Sanitboro": "4", "SanitDistr": "02", "SanitSub": "3C", "Address": "55 AVENUE", "ZoneDist1": "R4", "ZoneDist2": null, "ZoneDist3": null, "ZoneDist4": null, "Overlay1": null, "Overlay2": null, "SPDist1": null, "SPDist2": null, "SPDist3": null, "LtdHeight": null, "SplitZone": "N", "BldgClass": "Z8", "LandUse": "09", "Easements": 0, "OwnerType": "X", "OwnerName": "CALVARY CEMETERY", "LotArea": 11935, "BldgArea": 0, "ComArea": 0, "ResArea": 0, "OfficeArea": 0, "RetailArea": 0, "GarageArea": 0, "StrgeArea": 0, "FactryArea": 0, "OtherArea": 0, "AreaSource": "7", "NumBldgs": 0, "NumFloors": 0.0, "UnitsRes": 0, "UnitsTotal": 0, "LotFront": 77.0, "LotDepth": 155.0, "BldgFront": 0.0, "BldgDepth": 0.0, "Ext": "N", "ProxCode": "0", "IrrLotCode": "N", "LotType": "5", "BsmtCode": "0", "AssessLand": 194850.0, "AssessTot": 194850.0, "ExemptTot": 194850.0, "YearBuilt": 0, "YearAlter1": 0, "YearAlter2": 0, "HistDist": null, "Landmark": null, "BuiltFAR": 0.0, "ResidFAR": 1.0, "CommFAR": 0.0, "FacilFAR": 2.0, "BoroCode": 4, "BBL": 4025670159.0000005, "CondoNo": 0, "Tract2010": "0229", "XCoord": 1007768, "YCoord": 204588, "ZoneMap": "13a", "ZMCode": null, "Sanborn": "403 013", "TaxMap": "41402", "EDesigNum": null, "APPBBL": 0.0, "APPDate": null, "PLUTOMapID": "1", "FIRM07_FLA": null, "PFIRM15_FL": null, "Version": "25v4", "DCPEdited": null, "Latitude": 40.7281922, "Longitude": -73.9151476, "Notes": null, "Shape_Leng": 0.0, "Shape_Area": 5276.3058633000001 }, "geometry": { "type": "MultiPolygon", "coordinates": [ [ [ [ -73.9150489609423, 40.728060324284982 ], [ -73.915322405846482, 40.728109625324983 ], [ -73.915324404311619, 40.728140940997775 ], [ -73.915312337237438, 40.728164400314512 ], [ -73.915270933105546, 40.728197990264306 ], [ -73.915247065794119, 40.728213822438654 ], [ -73.915221395138701, 40.728241239302797 ], [ -73.915204287097239, 40.728253171024157 ], [ -73.915180176997424, 40.728269987352945 ], [ -73.915095012834797, 40.728339929034576 ], [ -73.915057184971658, 40.728381536117155 ], [ -73.915034817697645, 40.72839984034465 ], [ -73.9150489609423, 40.728060324284982 ] ] ] ] } },
{ "type": "Feature", "properties": { "Borough": "QN", "Block": 2567, "Lot": 160, "CD": 402, "BCT2020": "4022900", "BCTCB2020": "40229001009", "CT2010": "229", "CB2010": "1013", "SchoolDist": "24", "Council": 26, "ZipCode": 11378, "FireComp": "E259", "PolicePrct": 108, "HealthCent": 41, "HealthArea": 910, "Sanitboro": "4", "SanitDistr": "02", "SanitSub": "3C", "Address": "55 AVENUE", "ZoneDist1": "R4", "ZoneDist2": null, "ZoneDist3": null, "ZoneDist4": null, "Overlay1": null, "Overlay2": null, "SPDist1": null, "SPDist2": null, "SPDist3": null, "LtdHeight": null, "SplitZone": "N", "BldgClass": "Z8", "LandUse": "09", "Easements": 2, "OwnerType": "X", "OwnerName": "TR-ST PATRICKS CATHEDRAL", "LotArea": 261465, "BldgArea": 820, "ComArea": 820, "ResArea": 0, "OfficeArea": 820, "RetailArea": 0, "GarageArea": 0, "StrgeArea": 0, "FactryArea": 0, "OtherArea": 0, "AreaSource": "2", "NumBldgs": 1, "NumFloors": 1.0, "UnitsRes": 0, "UnitsTotal": 0, "LotFront": 995.0, "LotDepth": 716.0, "BldgFront": 41.0, "BldgDepth": 20.0, "Ext": "N", "ProxCode": "0", "IrrLotCode": "Y", "LotType": "3", "BsmtCode": "0", "AssessLand": 2653200.0, "AssessTot": 3229200.0, "ExemptTot": 3229200.0, "YearBuilt": 1947, "YearAlter1": 0, "YearAlter2": 0, "HistDist": null, "Landmark": null, "BuiltFAR": 0.0, "ResidFAR": 1.0, "CommFAR": 0.0, "FacilFAR": 2.0, "BoroCode": 4, "BBL": 4025670159.9999995, "CondoNo": 0, "Tract2010": "0229", "XCoord": 1007309, "YCoord": 204934, "ZoneMap": "13a", "ZMCode": null, "Sanborn": "403 013", "TaxMap": "41402", "EDesigNum": null, "APPBBL": 0.0, "APPDate": null, "PLUTOMapID": "1", "FIRM07_FLA": null, "PFIRM15_FL": null, "Version": "25v4", "DCPEdited": null, "Latitude": 40.7291431, "Longitude": -73.9168024, "Notes": null, "Shape_Leng": 0.0, "Shape_Area": 266692.80655400001 }, "geometry": { "type": "MultiPolygon", "coordinates": [ [ [ [ -73.91704050473264, 40.731183389511465 ], [ -73.917048203953925, 40.731131154785217 ], [ -73.917051647068803, 40.731107789131393 ], [ -73.917315424287636, 40.729318214052256 ], [ -73.915732651122639, 40.729000753236157 ], [ -73.915823924880897, 40.728576880860835 ], [ -73.915028769393132, 40.728545031079967 ], [ -73.915034817697645, 40.72839984034465 ], [ -73.915057184971658, 40.728381536117155 ], [ -73.915095012834797, 40.728339929034576 ], [ -73.915180176997424, 40.728269987352945 ], [ -73.915204287097239, 40.728253171024157 ], [ -73.915221395138701, 40.728241239302797 ], [ -73.915247065794119, 40.728213822438654 ], [ -73.915270933105546, 40.728197990264306 ], [ -73.915312337237438, 40.728164400314512 ], [ -73.915324404311619, 40.728140940997775 ], [ -73.915322405846482, 40.728109625324983 ], [ -73.917833026297501, 40.728562245201125 ], [ -73.917385804304473, 40.731281435053035 ], [ -73.917380594036359, 40.731279954454806 ], [ -73.91704050473264, 40.731183389511465 ] ] ] ] } },
{ "type": "Feature", "properties": { "Borough": "QN", "Block": 2656, "Lot": 75, "CD": 402, "BCT2020": "4022900", "BCTCB2020": "40229001006", "CT2010": "229", "CB2010": "1014", "SchoolDist": "24", "Council": 26, "ZipCode": 11378, "FireComp": "Q288", "PolicePrct": 108, "HealthCent": 41, "HealthArea": 910, "Sanitboro": "4", "SanitDistr": "02", "SanitSub": "1E", "Address": "54 AVENUE", "ZoneDist1": "M1-1", "ZoneDist2": null, "ZoneDist3": null, "ZoneDist4": null, "Overlay1": null, "Overlay2": null, "SPDist1": null, "SPDist2": null, "SPDist3": null, "LtdHeight": null, "SplitZone": "N", "BldgClass": "G7", "LandUse": "10", "Easements": 0, "OwnerType": "P", "OwnerName": "ELMWIER CEMETERY CORPORATION, INC.", "LotArea": 19408, "BldgArea": 0, "ComArea": 0, "ResArea": 0, "OfficeArea": 0, "RetailArea": 0, "GarageArea": 0, "StrgeArea": 0, "FactryArea": 0, "OtherArea": 0, "AreaSource": "0", "NumBldgs": 0, "NumFloors": 0.0, "UnitsRes": 0, "UnitsTotal": 0, "LotFront": 0.0, "LotDepth": 0.0, "BldgFront": 0.0, "BldgDepth": 0.0, "Ext": null, "ProxCode": "0", "IrrLotCode": "N", "LotType": "0", "BsmtCode": "5", "AssessLand": 265950.0, "AssessTot": 265950.0, "ExemptTot": 0.0, "YearBuilt": 0, "YearAlter1": 0, "YearAlter2": 0, "HistDist": null, "Landmark": null, "BuiltFAR": 0.0, "ResidFAR": 0.0, "CommFAR": 1.0, "FacilFAR": 2.4, "BoroCode": 4, "BBL": 4026560075.0, "CondoNo": 0, "Tract2010": "0229", "XCoord": 1009927, "YCoord": 204896, "ZoneMap": "13c", "ZMCode": null, "Sanborn": "403 014", "TaxMap": "41403", "EDesigNum": null, "APPBBL": 4026560065.0, "APPDate": "05/09/2011", "PLUTOMapID": "1", "FIRM07_FLA": null, "PFIRM15_FL": null, "Version": "25v4", "DCPEdited": null, "Latitude": 40.7290316, "Longitude": -73.9073568, "Notes": null, "Shape_Leng": 0.0, "Shape_Area": 17449.978903 }, "geometry": { "type": "MultiPolygon", "coordinates": [ [ [ [ -73.907016430386776, 40.729039488687491 ], [ -73.907026569395356, 40.72902399823959 ], [ -73.907189234971966, 40.728775458845597 ], [ -73.907692967036922, 40.729037606041004 ], [ -73.907548013872486, 40.729268953390836 ], [ -73.907537738746512, 40.729285353329324 ], [ -73.907016430386776, 40.729039488687491 ] ] ] ] } },
{ "type": "Feature", "properties": { "Borough": "QN", "Block": 2656, "Lot": 88, "CD": 402, "BCT2020": "4022900", "BCTCB2020": "40229001006", "CT2010": "229", "CB2010": "1014", "SchoolDist": "24", "Council": 26, "ZipCode": 11378, "FireComp": "Q288", "PolicePrct": 108, "HealthCent": 41, "HealthArea": 910, "Sanitboro": "4", "SanitDistr": "02", "SanitSub": "1E", "Address": "54 AVENUE", "ZoneDist1": "M1-1", "ZoneDist2": null, "ZoneDist3": null, "ZoneDist4": null, "Overlay1": null, "Overlay2": null, "SPDist1": null, "SPDist2": null, "SPDist3": null, "LtdHeight": null, "SplitZone": "N", "BldgClass": "V1", "LandUse": "11", "Easements": 0, "OwnerType": null, "OwnerName": "58-55 QUEENS MIDTOWN", "LotArea": 9855, "BldgArea": 0, "ComArea": 0, "ResArea": 0, "OfficeArea": 0, "RetailArea": 0, "GarageArea": 0, "StrgeArea": 0, "FactryArea": 0, "OtherArea": 0, "AreaSource": "7", "NumBldgs": 0, "NumFloors": 0.0, "UnitsRes": 0, "UnitsTotal": 0, "LotFront": 19.04, "LotDepth": 155.61, "BldgFront": 0.0, "BldgDepth": 0.0, "Ext": null, "ProxCode": "0", "IrrLotCode": "Y", "LotType": "5", "BsmtCode": "5", "AssessLand": 134550.0, "AssessTot": 134550.0, "ExemptTot": 0.0, "YearBuilt": 0, "YearAlter1": 0, "YearAlter2": 0, "HistDist": null, "Landmark": null, "BuiltFAR": 0.0, "ResidFAR": 0.0, "CommFAR": 1.0, "FacilFAR": 2.4, "BoroCode": 4, "BBL": 4026560088.0, "CondoNo": 0, "Tract2010": "0229", "XCoord": 1010111, "YCoord": 204726, "ZoneMap": "13c", "ZMCode": null, "Sanborn": "403 014", "TaxMap": "41403", "EDesigNum": null, "APPBBL": 4026560086.0, "APPDate": "02/27/1998", "PLUTOMapID": "1", "FIRM07_FLA": null, "PFIRM15_FL": null, "Version": "25v4", "DCPEdited": null, "Latitude": 40.7285644, "Longitude": -73.9066935, "Notes": null, "Shape_Leng": 0.0, "Shape_Area": 9017.6741825999998 }, "geometry": { "type": "MultiPolygon", "coordinates": [ [ [ [ -73.906574740225366, 40.728831168203008 ], [ -73.906586362781354, 40.728817202619346 ], [ -73.906703109131172, 40.728676908225225 ], [ -73.906507197071619, 40.728583268273965 ], [ -73.906514750430034, 40.728573914506669 ], [ -73.906462144012949, 40.728549938024372 ], [ -73.906573182235221, 40.728464530535106 ], [ -73.906654133996412, 40.72836018870138 ], [ -73.90691059301254, 40.728513909791047 ], [ -73.906642490054224, 40.728843570068385 ], [ -73.90663099758919, 40.728857702330416 ], [ -73.906574740225366, 40.728831168203008 ] ] ] ] } },
{ "type": "Feature", "properties": { "Borough": "QN", "Block": 2656, "Lot": 205, "CD": 402, "BCT2020": "4022900", "BCTCB2020": "40229001006", "CT2010": "229", "CB2010": "1014", "SchoolDist": "24", "Council": 26, "ZipCode": 11378, "FireComp": "Q288", "PolicePrct": 108, "HealthCent": 41, "HealthArea": 910, "Sanitboro": "4", "SanitDistr": "02", "SanitSub": "1E", "Address": "59-91A MAURICE AVENUE", "ZoneDist1": "M1-1", "ZoneDist2": null, "ZoneDist3": null, "ZoneDist4": null, "Overlay1": null, "Overlay2": null, "SPDist1": null, "SPDist2": null, "SPDist3": null, "LtdHeight": null, "SplitZone": "N", "BldgClass": "G2", "LandUse": "07", "Easements": 0, "OwnerType": null, "OwnerName": "7 ISLANDS CAR WASH INC", "LotArea": 2350, "BldgArea": 1660, "ComArea": 1660, "ResArea": 0, "OfficeArea": 0, "RetailArea": 0, "GarageArea": 1660, "StrgeArea": 0, "FactryArea": 0, "OtherArea": 0, "AreaSource": "2", "NumBldgs": 1, "NumFloors": 1.0, "UnitsRes": 0, "UnitsTotal": 1, "LotFront": 58.0, "LotDepth": 80.0, "BldgFront": 37.0, "BldgDepth": 45.0, "Ext": "N", "ProxCode": "2", "IrrLotCode": "Y", "LotType": "5", "BsmtCode": "0", "AssessLand": 57600.0, "AssessTot": 88650.0, "ExemptTot": 0.0, "YearBuilt": 1981, "YearAlter1": 0, "YearAlter2": 0, "HistDist": null, "Landmark": null, "BuiltFAR": 0.71, "ResidFAR": 0.0, "CommFAR": 1.0, "FacilFAR": 2.4, "BoroCode": 4, "BBL": 4026560205.0, "CondoNo": 0, "Tract2010": "0229", "XCoord": 1010027, "YCoord": 204626, "ZoneMap": "13c", "ZMCode": null, "Sanborn": "403 014", "TaxMap": "41403", "EDesigNum": null, "APPBBL": 0.0, "APPDate": null, "PLUTOMapID": "1", "FIRM07_FLA": null, "PFIRM15_FL": null, "Version": "25v4", "DCPEdited": null, "Latitude": 40.7282902, "Longitude": -73.906997, "Notes": null, "Shape_Leng": 0.0, "Shape_Area": 2016.2874015 }, "geometry": { "type": "MultiPolygon", "coordinates": [ [ [ [ -73.90712866538334, 40.728245762684125 ], [ -73.907017304198817, 40.72838269579993 ], [ -73.906835871056046, 40.728247187282683 ], [ -73.90712866538334, 40.728245762684125 ] ] ] ] } },
{ "type": "Feature", "properties": { "Borough": "QN", "Block": 2283, "Lot": 43, "CD": 402, "BCT2020": "4023502", "BCTCB2020": "40235021000", "CT2010": "235", "CB2010": "2000", "SchoolDist": "24", "Council": 26, "ZipCode": 11377, "FireComp": "E325", "PolicePrct": 108, "HealthCent": 41, "HealthArea": 910, "Sanitboro": "4", "SanitDistr": "02", "SanitSub": "2C", "Address": "50-24 QUEENS BOULEVARD", "ZoneDist1": "M1-1", "ZoneDist2": "R4", "ZoneDist3": null, "ZoneDist4": null, "Overlay1": null, "Overlay2": null, "SPDist1": null, "SPDist2": null, "SPDist3": null, "LtdHeight": null, "SplitZone": "Y", "BldgClass": "K7", "LandUse": "05", "Easements": 0, "OwnerType": null, "OwnerName": "QUEENS BLVD WOODSIDE ACQUISTION II LLC", "LotArea": 12221, "BldgArea": 16703, "ComArea": 16703, "ResArea": 0, "OfficeArea": 0, "RetailArea": 12147, "GarageArea": 4556, "StrgeArea": 0, "FactryArea": 0, "OtherArea": 0, "AreaSource": "2", "NumBldgs": 1, "NumFloors": 3.0, "UnitsRes": 0, "UnitsTotal": 1, "LotFront": 121.0, "LotDepth": 101.0, "BldgFront": 50.0, "BldgDepth": 84.0, "Ext": "N", "ProxCode": "1", "IrrLotCode": "N", "LotType": "5", "BsmtCode": "0", "AssessLand": 326700.0, "AssessTot": 1534950.0, "ExemptTot": 861840.0, "YearBuilt": 2010, "YearAlter1": 0, "YearAlter2": 0, "HistDist": null, "Landmark": null, "BuiltFAR": 1.37, "ResidFAR": 0.0, "CommFAR": 1.0, "FacilFAR": 2.4, "BoroCode": 4, "BBL": 4022830042.9999995, "CondoNo": 0, "Tract2010": "0235", "XCoord": 1008059, "YCoord": 209696, "ZoneMap": "9b", "ZMCode": null, "Sanborn": "409 032", "TaxMap": "41301", "EDesigNum": null, "APPBBL": 0.0, "APPDate": null, "PLUTOMapID": "1", "FIRM07_FLA": null, "PFIRM15_FL": null, "Version": "25v4", "DCPEdited": null, "Latitude": 40.7422116, "Longitude": -73.9140796, "Notes": null, "Shape_Leng": 0.0, "Shape_Area": 12392.299101000001 }, "geometry": { "type": "MultiPolygon", "coordinates": [ [ [ [ -73.913815853698054, 40.742321787476442 ], [ -73.913901328946011, 40.742052815378905 ], [ -73.914093060828662, 40.742074879812037 ], [ -73.914341581443239, 40.742103478935128 ], [ -73.914256109007582, 40.742372450436136 ], [ -73.914007274978829, 40.742343815760499 ], [ -73.914001591524823, 40.742343162307165 ], [ -73.913815853698054, 40.742321787476442 ] ] ] ] } },
{ "type": "Feature", "properties": { "Borough": "QN", "Block": 2283, "Lot": 53, "CD": 402, "BCT2020": "4023502", "BCTCB2020": "40235021000", "CT2010": "235", "CB2010": "2000", "SchoolDist": "24", "Council": 26, "ZipCode": 11377, "FireComp": "E325", "PolicePrct": 108, "HealthCent": 41, "HealthArea": 910, "Sanitboro": "4", "SanitDistr": "02", "SanitSub": "3C", "Address": "45-14 51 STREET", "ZoneDist1": "M1-1", "ZoneDist2": "R4", "ZoneDist3": null, "ZoneDist4": null, "Overlay1": null, "Overlay2": null, "SPDist1": null, "SPDist2": null, "SPDist3": null, "LtdHeight": null, "SplitZone": "Y", "BldgClass": "F5", "LandUse": "06", "Easements": 0, "OwnerType": null, "OwnerName": "45-14 51ST STREET LLC", "LotArea": 17303, "BldgArea": 14300, "ComArea": 14300, "ResArea": 0, "OfficeArea": 0, "RetailArea": 0, "GarageArea": 0, "StrgeArea": 0, "FactryArea": 10000, "OtherArea": 4300, "AreaSource": "2", "NumBldgs": 1, "NumFloors": 1.0, "UnitsRes": 0, "UnitsTotal": 1, "LotFront": 149.0, "LotDepth": 121.0, "BldgFront": 137.0, "BldgDepth": 100.0, "Ext": "N", "ProxCode": "0", "IrrLotCode": "Y", "LotType": "5", "BsmtCode": "0", "AssessLand": 146250.0, "AssessTot": 418500.0, "ExemptTot": 0.0, "YearBuilt": 1931, "YearAlter1": 0, "YearAlter2": 0, "HistDist": null, "Landmark": null, "BuiltFAR": 0.83, "ResidFAR": 0.0, "CommFAR": 1.0, "FacilFAR": 2.4, "BoroCode": 4, "BBL": 4022830053.0000005, "CondoNo": 0, "Tract2010": "0235", "XCoord": 1008031, "YCoord": 209578, "ZoneMap": "9b", "ZMCode": null, "Sanborn": "409 032", "TaxMap": "41301", "EDesigNum": null, "APPBBL": 0.0, "APPDate": null, "PLUTOMapID": "1", "FIRM07_FLA": null, "PFIRM15_FL": null, "Version": "25v4", "DCPEdited": null, "Latitude": 40.7418878, "Longitude": -73.914181, "Notes": null, "Shape_Leng": 0.0, "Shape_Area": 17541.255849599998 }, "geometry": { "type": "MultiPolygon", "coordinates": [ [ [ [ -73.913901328946011, 40.742052815378905 ], [ -73.914027039338009, 40.741657222538102 ], [ -73.914215093625245, 40.741692314331296 ], [ -73.914457842143051, 40.741737612391383 ], [ -73.914341581443239, 40.742103478935128 ], [ -73.914093060828662, 40.742074879812037 ], [ -73.913901328946011, 40.742052815378905 ] ] ] ] } },
{ "type": "Feature", "properties": { "Borough": "QN", "Block": 2283, "Lot": 54, "CD": 402, "BCT2020": "4023502", "BCTCB2020": "40235021000", "CT2010": "235", "CB2010": "2000", "SchoolDist": "24", "Council": 26, "ZipCode": 11377, "FireComp": "E325", "PolicePrct": 108, "HealthCent": 41, "HealthArea": 910, "Sanitboro": "4", "SanitDistr": "02", "SanitSub": "3C", "Address": "45-40 51 STREET", "ZoneDist1": "M1-1", "ZoneDist2": "R4", "ZoneDist3": null, "ZoneDist4": null, "Overlay1": null, "Overlay2": null, "SPDist1": null, "SPDist2": null, "SPDist3": null, "LtdHeight": null, "SplitZone": "Y", "BldgClass": "F5", "LandUse": "06", "Easements": 0, "OwnerType": null, "OwnerName": "MBAR REALTY, LLC", "LotArea": 24000, "BldgArea": 18000, "ComArea": 18000, "ResArea": 0, "OfficeArea": 0, "RetailArea": 0, "GarageArea": 0, "StrgeArea": 0, "FactryArea": 18000, "OtherArea": 0, "AreaSource": "2", "NumBldgs": 1, "NumFloors": 2.0, "UnitsRes": 0, "UnitsTotal": 1, "LotFront": 200.0, "LotDepth": 120.0, "BldgFront": 200.0, "BldgDepth": 90.0, "Ext": "N", "ProxCode": "0", "IrrLotCode": "N", "LotType": "5", "BsmtCode": "0", "AssessLand": 324900.0, "AssessTot": 816750.0, "ExemptTot": 0.0, "YearBuilt": 1932, "YearAlter1": 0, "YearAlter2": 0, "HistDist": null, "Landmark": null, "BuiltFAR": 0.75, "ResidFAR": 0.0, "CommFAR": 1.0, "FacilFAR": 2.4, "BoroCode": 4, "BBL": 4022830053.9999995, "CondoNo": 0, "Tract2010": "0235", "XCoord": 1007990, "YCoord": 209411, "ZoneMap": "9b", "ZMCode": null, "Sanborn": "409 032", "TaxMap": "41301", "EDesigNum": null, "APPBBL": 0.0, "APPDate": null, "PLUTOMapID": "1", "FIRM07_FLA": null, "PFIRM15_FL": null, "Version": "25v4", "DCPEdited": null, "Latitude": 40.7414295, "Longitude": -73.9143296, "Notes": null, "Shape_Leng": 0.0, "Shape_Area": 24621.9745922 }, "geometry": { "type": "MultiPolygon", "coordinates": [ [ [ [ -73.914027039338009, 40.741657222538102 ], [ -73.914196862339026, 40.74112280618818 ], [ -73.91438552485954, 40.741158012525354 ], [ -73.914627661895636, 40.741203196250055 ], [ -73.914489849600557, 40.741636887524557 ], [ -73.914457842143051, 40.741737612391383 ], [ -73.914215093625245, 40.741692314331296 ], [ -73.914027039338009, 40.741657222538102 ] ] ] ] } },
{ "type": "Feature", "properties": { "Borough": "QN", "Block": 2283, "Lot": 64, "CD": 402, "BCT2020": "4023502", "BCTCB2020": "40235021000", "CT2010": "235", "CB2010": "2000", "SchoolDist": "24", "Council": 26, "ZipCode": 11377, "FireComp": "E325", "PolicePrct": 108, "HealthCent": 41, "HealthArea": 910, "Sanitboro": "4", "SanitDistr": "02", "SanitSub": "3C", "Address": "45-48 51 STREET", "ZoneDist1": "M1-1", "ZoneDist2": "R4", "ZoneDist3": null, "ZoneDist4": null, "Overlay1": null, "Overlay2": null, "SPDist1": null, "SPDist2": null, "SPDist3": null, "LtdHeight": null, "SplitZone": "Y", "BldgClass": "F9", "LandUse": "06", "Easements": 0, "OwnerType": null, "OwnerName": "PNK REALTY LLC", "LotArea": 10560, "BldgArea": 5530, "ComArea": 5530, "ResArea": 0, "OfficeArea": 1030, "RetailArea": 0, "GarageArea": 0, "StrgeArea": 0, "FactryArea": 4500, "OtherArea": 0, "AreaSource": "2", "NumBldgs": 1, "NumFloors": 2.0, "UnitsRes": 0, "UnitsTotal": 1, "LotFront": 88.0, "LotDepth": 120.0, "BldgFront": 50.0, "BldgDepth": 90.0, "Ext": "N", "ProxCode": "0", "IrrLotCode": "N", "LotType": "5", "BsmtCode": "0", "AssessLand": 59400.0, "AssessTot": 365850.0, "ExemptTot": 0.0, "YearBuilt": 1931, "YearAlter1": 0, "YearAlter2": 0, "HistDist": null, "Landmark": null, "BuiltFAR": 0.52, "ResidFAR": 0.0, "CommFAR": 1.0, "FacilFAR": 2.4, "BoroCode": 4, "BBL": 4022830064.0000005, "CondoNo": 0, "Tract2010": "0235", "XCoord": 1007956, "YCoord": 209268, "ZoneMap": "9b", "ZMCode": null, "Sanborn": "409 032", "TaxMap": "41301", "EDesigNum": null, "APPBBL": 0.0, "APPDate": null, "PLUTOMapID": "1", "FIRM07_FLA": null, "PFIRM15_FL": null, "Version": "25v4", "DCPEdited": null, "Latitude": 40.7410371, "Longitude": -73.9144528, "Notes": null, "Shape_Leng": 0.0, "Shape_Area": 11631.0914679 }, "geometry": { "type": "MultiPolygon", "coordinates": [ [ [ [ -73.914196862339026, 40.74112280618818 ], [ -73.914277082549688, 40.740870355982473 ], [ -73.9144660343797, 40.740905615529599 ], [ -73.914707881781169, 40.740950745750013 ], [ -73.914627661895636, 40.741203196250055 ], [ -73.91438552485954, 40.741158012525354 ], [ -73.914196862339026, 40.74112280618818 ] ] ] ] } },
{ "type": "Feature", "properties": { "Borough": "QN", "Block": 2283, "Lot": 68, "CD": 402, "BCT2020": "4023502", "BCTCB2020": "40235021000", "CT2010": "235", "CB2010": "2000", "SchoolDist": "24", "Council": 26, "ZipCode": 11377, "FireComp": "E325", "PolicePrct": 108, "HealthCent": 41, "HealthArea": 910, "Sanitboro": "4", "SanitDistr": "02", "SanitSub": "3C", "Address": "50-17 47 AVENUE", "ZoneDist1": "M1-1", "ZoneDist2": "R4", "ZoneDist3": null, "ZoneDist4": null, "Overlay1": null, "Overlay2": null, "SPDist1": null, "SPDist2": null, "SPDist3": null, "LtdHeight": null, "SplitZone": "Y", "BldgClass": "E1", "LandUse": "06", "Easements": 0, "OwnerType": null, "OwnerName": "SIPOS, CHARLOTTE", "LotArea": 12000, "BldgArea": 10000, "ComArea": 10000, "ResArea": 0, "OfficeArea": 0, "RetailArea": 0, "GarageArea": 0, "StrgeArea": 0, "FactryArea": 10000, "OtherArea": 0, "AreaSource": "2", "NumBldgs": 1, "NumFloors": 1.0, "UnitsRes": 0, "UnitsTotal": 1, "LotFront": 100.0, "LotDepth": 120.0, "BldgFront": 100.0, "BldgDepth": 100.0, "Ext": "N", "ProxCode": "0", "IrrLotCode": "N", "LotType": "5", "BsmtCode": "0", "AssessLand": 162450.0, "AssessTot": 506700.0, "ExemptTot": 0.0, "YearBuilt": 1931, "YearAlter1": 0, "YearAlter2": 0, "HistDist": null, "Landmark": null, "BuiltFAR": 0.83, "ResidFAR": 0.0, "CommFAR": 1.0, "FacilFAR": 2.4, "BoroCode": 4, "BBL": 4022830068.0, "CondoNo": 0, "Tract2010": "0235", "XCoord": 1007933, "YCoord": 209173, "ZoneMap": "9b", "ZMCode": null, "Sanborn": "409 032", "TaxMap": "41301", "EDesigNum": null, "APPBBL": 0.0, "APPDate": null, "PLUTOMapID": "1", "FIRM07_FLA": null, "PFIRM15_FL": null, "Version": "25v4", "DCPEdited": null, "Latitude": 40.7407764, "Longitude": -73.9145361, "Notes": null, "Shape_Leng": 0.0, "Shape_Area": 12177.497752699999 }, "geometry": { "type": "MultiPolygon", "coordinates": [ [ [ [ -73.914277082549688, 40.740870355982473 ], [ -73.914361063369128, 40.740606074958443 ], [ -73.914545710812263, 40.740640503606272 ], [ -73.914550322320352, 40.740641365217513 ], [ -73.914791877675711, 40.740686405865759 ], [ -73.914707881781169, 40.740950745750013 ], [ -73.9144660343797, 40.740905615529599 ], [ -73.914277082549688, 40.740870355982473 ] ] ] ] } },
{ "type": "Feature", "properties": { "Borough": "QN", "Block": 2312, "Lot": 1, "CD": 402, "BCT2020": "4022900", "BCTCB2020": "40229001004", "CT2010": "229", "CB2010": "1005", "SchoolDist": "24", "Council": 26, "ZipCode": 11378, "FireComp": "E259", "PolicePrct": 108, "HealthCent": 41, "HealthArea": 910, "Sanitboro": "4", "SanitDistr": "02", "SanitSub": "3C", "Address": "49-02 LAUREL HILL BLVD", "ZoneDist1": "R4", "ZoneDist2": null, "ZoneDist3": null, "ZoneDist4": null, "Overlay1": null, "Overlay2": null, "SPDist1": null, "SPDist2": null, "SPDist3": null, "LtdHeight": null, "SplitZone": "N", "BldgClass": "Z8", "LandUse": "09", "Easements": 3, "OwnerType": "X", "OwnerName": "TR-ST PATRICKS CATHEDRAL", "LotArea": 3589501, "BldgArea": 9700, "ComArea": 9100, "ResArea": 0, "OfficeArea": 5400, "RetailArea": 0, "GarageArea": 0, "StrgeArea": 0, "FactryArea": 0, "OtherArea": 3700, "AreaSource": "2", "NumBldgs": 1, "NumFloors": 2.0, "UnitsRes": 0, "UnitsTotal": 1, "LotFront": 2485.0, "LotDepth": 657.0, "BldgFront": 75.0, "BldgDepth": 45.0, "Ext": "N", "ProxCode": "1", "IrrLotCode": "Y", "LotType": "1", "BsmtCode": "2", "AssessLand": 4587300.0, "AssessTot": 5503050.0, "ExemptTot": 5503050.0, "YearBuilt": 1961, "YearAlter1": 0, "YearAlter2": 0, "HistDist": null, "Landmark": null, "BuiltFAR": 0.0, "ResidFAR": 1.0, "CommFAR": 0.0, "FacilFAR": 2.0, "BoroCode": 4, "BBL": 4023120001.0, "CondoNo": 0, "Tract2010": "0229", "XCoord": 1008044, "YCoord": 206470, "ZoneMap": "13a", "ZMCode": "Y", "Sanborn": "409 999", "TaxMap": "41301", "EDesigNum": null, "APPBBL": 0.0, "APPDate": null, "PLUTOMapID": "1", "FIRM07_FLA": null, "PFIRM15_FL": null, "Version": "25v4", "DCPEdited": null, "Latitude": 40.7333571, "Longitude": -73.9141451, "Notes": null, "Shape_Leng": 0.0, "Shape_Area": 3563567.9603200001 }, "geometry": { "type": "MultiPolygon", "coordinates": [ [ [ [ -73.918732872770079, 40.732134762430505 ], [ -73.918370649284498, 40.73317062400038 ], [ -73.918350460787451, 40.733228352929821 ], [ -73.918332036573943, 40.733281042915529 ], [ -73.918312842418075, 40.733335929603896 ], [ -73.918293972592025, 40.733389894331268 ], [ -73.918275311779141, 40.733443255094691 ], [ -73.918256804122677, 40.733496180010391 ], [ -73.918238075594999, 40.733549735144976 ], [ -73.918220087160861, 40.733601175538134 ], [ -73.918200169348921, 40.73365813646226 ], [ -73.918182682043749, 40.733708141764041 ], [ -73.918163203768955, 40.733763842319021 ], [ -73.918145767614575, 40.733813704425124 ], [ -73.918125448157852, 40.733871809604295 ], [ -73.918107850260753, 40.733922130045464 ], [ -73.918079586574123, 40.734002952916775 ], [ -73.918069830682569, 40.734030855418347 ], [ -73.918050640949843, 40.734085728507019 ], [ -73.918033148669409, 40.734135750930342 ], [ -73.918012966872467, 40.734193459049941 ], [ -73.917996154195563, 40.73424153676968 ], [ -73.917976911911012, 40.734296562988995 ], [ -73.917958371773807, 40.734349580606022 ], [ -73.917939016627699, 40.734404929080554 ], [ -73.917920980167509, 40.73445650265824 ], [ -73.917902264119064, 40.73451002352337 ], [ -73.917883625303404, 40.734563321151271 ], [ -73.917864660863529, 40.734617548677946 ], [ -73.917845092985928, 40.734673505777323 ], [ -73.917744106835556, 40.734962280178713 ], [ -73.917665917217548, 40.735185865991156 ], [ -73.917535041796796, 40.735202659410049 ], [ -73.909458988806421, 40.736238638164018 ], [ -73.90948507365998, 40.736182322110864 ], [ -73.910202017012693, 40.73463443538067 ], [ -73.910884706573668, 40.733357238661853 ], [ -73.91145480673994, 40.732005015336895 ], [ -73.911731793653445, 40.730768524476595 ], [ -73.911805468007501, 40.730140069900656 ], [ -73.911807692648878, 40.730121090689956 ], [ -73.911812037577917, 40.730084030950401 ], [ -73.912278616187962, 40.73019150957569 ], [ -73.914170057416825, 40.730643913276225 ], [ -73.915230618219127, 40.730936353890456 ], [ -73.916826620708918, 40.73136956792144 ], [ -73.917560097215016, 40.731565795411278 ], [ -73.917692645474077, 40.73163010110958 ], [ -73.917780456216619, 40.731672702988497 ], [ -73.918732872770079, 40.732134762430505 ] ] ] ] } },
{ "type": "Feature", "properties": { "Borough": "QN", "Block": 2361, "Lot": 5, "CD": 402, "BCT2020": "4022900", "BCTCB2020": "40229001005", "CT2010": "229", "CB2010": "1009", "SchoolDist": "24", "Council": 26, "ZipCode": 11377, "FireComp": "Q288", "PolicePrct": 108, "HealthCent": 41, "HealthArea": 910, "Sanitboro": "4", "SanitDistr": "02", "SanitSub": "1E", "Address": "51-41 59 PLACE", "ZoneDist1": "M1-1", "ZoneDist2": "R4", "ZoneDist3": null, "ZoneDist4": null, "Overlay1": null, "Overlay2": null, "SPDist1": null, "SPDist2": null, "SPDist3": null, "LtdHeight": null, "SplitZone": "Y", "BldgClass": "F4", "LandUse": "06", "Easements": 0, "OwnerType": null, "OwnerName": "58TH STREET TYLER, LLC", "LotArea": 24100, "BldgArea": 24100, "ComArea": 24100, "ResArea": 0, "OfficeArea": 0, "RetailArea": 0, "GarageArea": 0, "StrgeArea": 0, "FactryArea": 24100, "OtherArea": 0, "AreaSource": "2", "NumBldgs": 1, "NumFloors": 1.0, "UnitsRes": 0, "UnitsTotal": 1, "LotFront": 100.0, "LotDepth": 241.17, "BldgFront": 100.0, "BldgDepth": 241.0, "Ext": "N", "ProxCode": "0", "IrrLotCode": "N", "LotType": "5", "BsmtCode": "0", "AssessLand": 326250.0, "AssessTot": 1256850.0, "ExemptTot": 0.0, "YearBuilt": 1965, "YearAlter1": 0, "YearAlter2": 0, "HistDist": null, "Landmark": null, "BuiltFAR": 1.0, "ResidFAR": 0.0, "CommFAR": 1.0, "FacilFAR": 2.4, "BoroCode": 4, "BBL": 4023610005.0, "CondoNo": 0, "Tract2010": "0229", "XCoord": 1010515, "YCoord": 207103, "ZoneMap": "13c", "ZMCode": null, "Sanborn": "409 038", "TaxMap": "41302", "EDesigNum": null, "APPBBL": 0.0, "APPDate": null, "PLUTOMapID": "1", "FIRM07_FLA": null, "PFIRM15_FL": null, "Version": "25v4", "DCPEdited": null, "Latitude": 40.7350875, "Longitude": -73.9052266, "Notes": null, "Shape_Leng": 0.0, "Shape_Area": 25983.2962735 }, "geometry": { "type": "MultiPolygon", "coordinates": [ [ [ [ -73.904894746103878, 40.735370140057221 ], [ -73.904921684789798, 40.735312720748702 ], [ -73.905201169462643, 40.734717014797532 ], [ -73.905549289289397, 40.734805504124871 ], [ -73.905250681731644, 40.735460617895079 ], [ -73.904894746103878, 40.735370140057221 ] ] ] ] } },
{ "type": "Feature", "properties": { "Borough": "QN", "Block": 2361, "Lot": 150, "CD": 402, "BCT2020": "4024300", "BCTCB2020": "40243002016", "CT2010": "243", "CB2010": "2013", "SchoolDist": "24", "Council": 26, "ZipCode": 11377, "FireComp": "Q288", "PolicePrct": 108, "HealthCent": 41, "HealthArea": 920, "Sanitboro": "4", "SanitDistr": "02", "SanitSub": "1E", "Address": "53-01 58 STREET", "ZoneDist1": "M3-1", "ZoneDist2": null, "ZoneDist3": null, "ZoneDist4": null, "Overlay1": null, "Overlay2": null, "SPDist1": null, "SPDist2": null, "SPDist3": null, "LtdHeight": null, "SplitZone": "N", "BldgClass": "G1", "LandUse": "10", "Easements": 0, "OwnerType": "C", "OwnerName": "NYC POLICE DEPARTMENT", "LotArea": 88992, "BldgArea": 75400, "ComArea": 75400, "ResArea": 0, "OfficeArea": 0, "RetailArea": 0, "GarageArea": 75400, "StrgeArea": 0, "FactryArea": 0, "OtherArea": 0, "AreaSource": "2", "NumBldgs": 1, "NumFloors": 2.0, "UnitsRes": 0, "UnitsTotal": 1, "LotFront": 309.0, "LotDepth": 288.0, "BldgFront": 290.0, "BldgDepth": 260.0, "Ext": "N", "ProxCode": "0", "IrrLotCode": "N", "LotType": "5", "BsmtCode": "0", "AssessLand": 1204650.0, "AssessTot": 3190950.0, "ExemptTot": 3190950.0, "YearBuilt": 1927, "YearAlter1": 0, "YearAlter2": 0, "HistDist": null, "Landmark": null, "BuiltFAR": 0.85, "ResidFAR": 0.0, "CommFAR": 2.0, "FacilFAR": 0.0, "BoroCode": 4, "BBL": 4023610149.9999995, "CondoNo": 0, "Tract2010": "0243", "XCoord": 1009221, "YCoord": 206599, "ZoneMap": "13c", "ZMCode": null, "Sanborn": "409 039", "TaxMap": "41302", "EDesigNum": null, "APPBBL": 0.0, "APPDate": null, "PLUTOMapID": "1", "FIRM07_FLA": null, "PFIRM15_FL": null, "Version": "25v4", "DCPEdited": "t", "Latitude": 40.7337079, "Longitude": -73.9098977, "Notes": null, "Shape_Leng": 0.0, "Shape_Area": 87481.830636400002 }, "geometry": { "type": "MultiPolygon", "coordinates": [ [ [ [ -73.909232980502665, 40.733994381048078 ], [ -73.90959121780061, 40.733185109912654 ], [ -73.91057319137343, 40.733434680886504 ], [ -73.910491274044418, 40.733599388326638 ], [ -73.910175664476981, 40.73423396736311 ], [ -73.909232980502665, 40.733994381048078 ] ] ] ] } },
{ "type": "Feature", "properties": { "Borough": "QN", "Block": 2361, "Lot": 151, "CD": 402, "BCT2020": "4024300", "BCTCB2020": "40243002016", "CT2010": "243", "CB2010": "2013", "SchoolDist": "24", "Council": 26, "ZipCode": 11377, "FireComp": "Q288", "PolicePrct": 108, "HealthCent": 41, "HealthArea": 920, "Sanitboro": "4", "SanitDistr": "02", "SanitSub": "1E", "Address": "58-62 58 STREET", "ZoneDist1": "M3-1", "ZoneDist2": null, "ZoneDist3": null, "ZoneDist4": null, "Overlay1": null, "Overlay2": null, "SPDist1": null, "SPDist2": null, "SPDist3": null, "LtdHeight": null, "SplitZone": "N", "BldgClass": "Y6", "LandUse": "07", "Easements": 0, "OwnerType": "C", "OwnerName": "NYC DEPARTMENT OF SANITATION", "LotArea": 304000, "BldgArea": 38916, "ComArea": 38916, "ResArea": 0, "OfficeArea": 0, "RetailArea": 0, "GarageArea": 0, "StrgeArea": 0, "FactryArea": 0, "OtherArea": 38916, "AreaSource": "2", "NumBldgs": 3, "NumFloors": 4.0, "UnitsRes": 0, "UnitsTotal": 1, "LotFront": 309.0, "LotDepth": 868.0, "BldgFront": 207.0, "BldgDepth": 188.0, "Ext": "EG", "ProxCode": "0", "IrrLotCode": "Y", "LotType": "5", "BsmtCode": "0", "AssessLand": 4225950.0, "AssessTot": 6279750.0, "ExemptTot": 6279750.0, "YearBuilt": 1924, "YearAlter1": 0, "YearAlter2": 0, "HistDist": null, "Landmark": null, "BuiltFAR": 0.13, "ResidFAR": 0.0, "CommFAR": 2.0, "FacilFAR": 0.0, "BoroCode": 4, "BBL": 4023610151.0, "CondoNo": 0, "Tract2010": "0243", "XCoord": 1009820, "YCoord": 206405, "ZoneMap": "13c", "ZMCode": null, "Sanborn": "409 039", "TaxMap": "41302", "EDesigNum": null, "APPBBL": 0.0, "APPDate": null, "PLUTOMapID": "1", "FIRM07_FLA": null, "PFIRM15_FL": null, "Version": "25v4", "DCPEdited": "t", "Latitude": 40.7331737, "Longitude": -73.9077371, "Notes": null, "Shape_Leng": 0.0, "Shape_Area": 305002.66408700001 }, "geometry": { "type": "MultiPolygon", "coordinates": [ [ [ [ -73.909232980502665, 40.733994381048078 ], [ -73.906271223295704, 40.733241577878864 ], [ -73.906200299997451, 40.733397186254258 ], [ -73.905860847854342, 40.733310899536754 ], [ -73.906310998707653, 40.732351356963868 ], [ -73.90959121780061, 40.733185109912654 ], [ -73.909232980502665, 40.733994381048078 ] ] ] ] } },
{ "type": "Feature", "properties": { "Borough": "QN", "Block": 2361, "Lot": 268, "CD": 402, "BCT2020": "4024300", "BCTCB2020": "40243002016", "CT2010": "243", "CB2010": "2013", "SchoolDist": "24", "Council": 26, "ZipCode": 11377, "FireComp": "Q288", "PolicePrct": 108, "HealthCent": 41, "HealthArea": 920, "Sanitboro": "4", "SanitDistr": "02", "SanitSub": "1E", "Address": "52-35 59 PLACE", "ZoneDist1": "M3-1", "ZoneDist2": null, "ZoneDist3": null, "ZoneDist4": null, "Overlay1": null, "Overlay2": null, "SPDist1": null, "SPDist2": null, "SPDist3": null, "LtdHeight": null, "SplitZone": "N", "BldgClass": "G1", "LandUse": "10", "Easements": 0, "OwnerType": "C", "OwnerName": "NYC DEPARTMENT OF SANITATION", "LotArea": 318000, "BldgArea": 739478, "ComArea": 739478, "ResArea": 0, "OfficeArea": 0, "RetailArea": 0, "GarageArea": 739478, "StrgeArea": 0, "FactryArea": 0, "OtherArea": 0, "AreaSource": "2", "NumBldgs": 2, "NumFloors": 3.0, "UnitsRes": 0, "UnitsTotal": 1, "LotFront": 260.0, "LotDepth": 1150.0, "BldgFront": 200.0, "BldgDepth": 992.0, "Ext": "N", "ProxCode": "0", "IrrLotCode": "Y", "LotType": "5", "BsmtCode": "0", "AssessLand": 8586000.0, "AssessTot": 28701000.0, "ExemptTot": 28701000.0, "YearBuilt": 1964, "YearAlter1": 0, "YearAlter2": 0, "HistDist": null, "Landmark": null, "BuiltFAR": 2.33, "ResidFAR": 0.0, "CommFAR": 2.0, "FacilFAR": 0.0, "BoroCode": 4, "BBL": 4023610267.9999995, "CondoNo": 0, "Tract2010": "0243", "XCoord": 1009777, "YCoord": 206721, "ZoneMap": "13c", "ZMCode": null, "Sanborn": "409 039", "TaxMap": "41302", "EDesigNum": null, "APPBBL": 0.0, "APPDate": null, "PLUTOMapID": "1", "FIRM07_FLA": null, "PFIRM15_FL": null, "Version": "25v4", "DCPEdited": "t", "Latitude": 40.7340412, "Longitude": -73.9078911, "Notes": null, "Shape_Leng": 0.0, "Shape_Area": 322282.50559100002 }, "geometry": { "type": "MultiPolygon", "coordinates": [ [ [ [ -73.905954970347281, 40.733915457415989 ], [ -73.905885716438235, 40.734067400960797 ], [ -73.905546404542804, 40.733981150420512 ], [ -73.905860847854342, 40.733310899536754 ], [ -73.906200299997451, 40.733397186254258 ], [ -73.906271223295704, 40.733241577878864 ], [ -73.909232980502665, 40.733994381048078 ], [ -73.910175664476981, 40.73423396736311 ], [ -73.91003380017095, 40.734519201938753 ], [ -73.909842622703536, 40.734903581336567 ], [ -73.908784588636891, 40.734634676700857 ], [ -73.905954970347281, 40.733915457415989 ] ] ] ] } },
{ "type": "Feature", "properties": { "Borough": "QN", "Block": 2361, "Lot": 281, "CD": 402, "BCT2020": "4022900", "BCTCB2020": "40229001005", "CT2010": "229", "CB2010": "1009", "SchoolDist": "24", "Council": 26, "ZipCode": 11377, "FireComp": "Q288", "PolicePrct": 108, "HealthCent": 41, "HealthArea": 910, "Sanitboro": "4", "SanitDistr": "02", "SanitSub": "1E", "Address": "51-55 59 PLACE", "ZoneDist1": "M1-1", "ZoneDist2": "R4", "ZoneDist3": null, "ZoneDist4": null, "Overlay1": null, "Overlay2": null, "SPDist1": null, "SPDist2": null, "SPDist3": null, "LtdHeight": null, "SplitZone": "Y", "BldgClass": "F1", "LandUse": "06", "Easements": 0, "OwnerType": "X", "OwnerName": "DOMAX REALTY ASSOCIATES, LLC", "LotArea": 14000, "BldgArea": 8920, "ComArea": 8920, "ResArea": 0, "OfficeArea": 3628, "RetailArea": 0, "GarageArea": 0, "StrgeArea": 0, "FactryArea": 5292, "OtherArea": 0, "AreaSource": "2", "NumBldgs": 1, "NumFloors": 2.0, "UnitsRes": 0, "UnitsTotal": 1, "LotFront": 140.0, "LotDepth": 100.0, "BldgFront": 50.0, "BldgDepth": 77.0, "Ext": "N", "ProxCode": "0", "IrrLotCode": "N", "LotType": "5", "BsmtCode": "0", "AssessLand": 111600.0, "AssessTot": 614250.0, "ExemptTot": 614250.0, "YearBuilt": 1986, "YearAlter1": 0, "YearAlter2": 0, "HistDist": null, "Landmark": null, "BuiltFAR": 0.64, "ResidFAR": 0.0, "CommFAR": 1.0, "FacilFAR": 2.4, "BoroCode": 4, "BBL": 4023610281.0, "CondoNo": 0, "Tract2010": "0229", "XCoord": 1010402, "YCoord": 206780, "ZoneMap": "13c", "ZMCode": null, "Sanborn": "409 039", "TaxMap": "41302", "EDesigNum": null, "APPBBL": 4023610284.0, "APPDate": "04/18/1985", "PLUTOMapID": "1", "FIRM07_FLA": null, "PFIRM15_FL": null, "Version": "25v4", "DCPEdited": null, "Latitude": 40.7342013, "Longitude": -73.9056356, "Notes": null, "Shape_Leng": 0.0, "Shape_Area": 13643.598047199999 }, "geometry": { "type": "MultiPolygon", "coordinates": [ [ [ [ -73.905380514179726, 40.734334744993085 ], [ -73.905546404542804, 40.733981150420512 ], [ -73.905885716438235, 40.734067400960797 ], [ -73.905724058334528, 40.734422071171608 ], [ -73.905380514179726, 40.734334744993085 ] ] ] ] } },
{ "type": "Feature", "properties": { "Borough": "QN", "Block": 2567, "Lot": 300, "CD": 402, "BCT2020": "4022900", "BCTCB2020": "40229001009", "CT2010": "229", "CB2010": "1013", "SchoolDist": "24", "Council": 26, "ZipCode": 11378, "FireComp": "E259", "PolicePrct": 108, "HealthCent": 41, "HealthArea": 910, "Sanitboro": "4", "SanitDistr": "02", "SanitSub": "3C", "Address": "58 ROAD", "ZoneDist1": "R4", "ZoneDist2": null, "ZoneDist3": null, "ZoneDist4": null, "Overlay1": null, "Overlay2": null, "SPDist1": null, "SPDist2": null, "SPDist3": null, "LtdHeight": null, "SplitZone": "N", "BldgClass": "V0", "LandUse": "11", "Easements": 2, "OwnerType": "X", "OwnerName": "NYS DEPARTMENT OF TRANSPORTATION", "LotArea": 1584, "BldgArea": 0, "ComArea": 0, "ResArea": 0, "OfficeArea": 0, "RetailArea": 0, "GarageArea": 0, "StrgeArea": 0, "FactryArea": 0, "OtherArea": 0, "AreaSource": "7", "NumBldgs": 0, "NumFloors": 0.0, "UnitsRes": 0, "UnitsTotal": 0, "LotFront": 676.97, "LotDepth": 264.54, "BldgFront": 0.0, "BldgDepth": 0.0, "Ext": null, "ProxCode": "0", "IrrLotCode": "Y", "LotType": "5", "BsmtCode": "5", "AssessLand": 450.0, "AssessTot": 450.0, "ExemptTot": 450.0, "YearBuilt": 0, "YearAlter1": 0, "YearAlter2": 0, "HistDist": null, "Landmark": null, "BuiltFAR": 0.0, "ResidFAR": 1.0, "CommFAR": 0.0, "FacilFAR": 2.0, "BoroCode": 4, "BBL": 4025670299.9999995, "CondoNo": 0, "Tract2010": "0229", "XCoord": 1008244, "YCoord": 205314, "ZoneMap": "13a", "ZMCode": null, "Sanborn": "403 013", "TaxMap": "41402", "EDesigNum": null, "APPBBL": 0.0, "APPDate": null, "PLUTOMapID": "1", "FIRM07_FLA": null, "PFIRM15_FL": null, "Version": "25v4", "DCPEdited": "t", "Latitude": 40.7301836, "Longitude": -73.9134276, "Notes": null, "Shape_Leng": 0.0, "Shape_Area": 1450.0109783 }, "geometry": { "type": "MultiPolygon", "coordinates": [ [ [ [ -73.912988566189043, 40.730091002276055 ], [ -73.913373323549436, 40.730153834895539 ], [ -73.913439322569374, 40.730164613281133 ], [ -73.913500024025907, 40.730183855062599 ], [ -73.913853906724327, 40.730296029569637 ], [ -73.912988566189043, 40.730091002276055 ] ] ] ] } },
{ "type": "Feature", "properties": { "Borough": "QN", "Block": 2656, "Lot": 20, "CD": 402, "BCT2020": "4022900", "BCTCB2020": "40229001006", "CT2010": "229", "CB2010": "1014", "SchoolDist": "24", "Council": 26, "ZipCode": 11378, "FireComp": "Q288", "PolicePrct": 108, "HealthCent": 41, "HealthArea": 910, "Sanitboro": "4", "SanitDistr": "02", "SanitSub": "1E", "Address": "58-55 54 AVENUE", "ZoneDist1": "M1-4", "ZoneDist2": null, "ZoneDist3": null, "ZoneDist4": null, "Overlay1": null, "Overlay2": null, "SPDist1": null, "SPDist2": null, "SPDist3": null, "LtdHeight": null, "SplitZone": "N", "BldgClass": "F1", "LandUse": "06", "Easements": 0, "OwnerType": null, "OwnerName": "58-55 QUEENS MIDTOWNEXPRESSWAY CORP", "LotArea": 53144, "BldgArea": 19500, "ComArea": 19500, "ResArea": 0, "OfficeArea": 4300, "RetailArea": 0, "GarageArea": 0, "StrgeArea": 0, "FactryArea": 15200, "OtherArea": 0, "AreaSource": "2", "NumBldgs": 1, "NumFloors": 1.0, "UnitsRes": 0, "UnitsTotal": 1, "LotFront": 44.0, "LotDepth": 286.0, "BldgFront": 190.0, "BldgDepth": 80.0, "Ext": "N", "ProxCode": "0", "IrrLotCode": "Y", "LotType": "3", "BsmtCode": "0", "AssessLand": 324000.0, "AssessTot": 1567800.0, "ExemptTot": 0.0, "YearBuilt": 1961, "YearAlter1": 0, "YearAlter2": 0, "HistDist": null, "Landmark": null, "BuiltFAR": 0.37, "ResidFAR": 0.0, "CommFAR": 2.0, "FacilFAR": 6.5, "BoroCode": 4, "BBL": 4026560020.0, "CondoNo": 0, "Tract2010": "0229", "XCoord": 1009362, "YCoord": 205099, "ZoneMap": "13c", "ZMCode": null, "Sanborn": "403 013", "TaxMap": "41403", "EDesigNum": null, "APPBBL": 0.0, "APPDate": null, "PLUTOMapID": "1", "FIRM07_FLA": null, "PFIRM15_FL": null, "Version": "25v4", "DCPEdited": null, "Latitude": 40.7295904, "Longitude": -73.9093945, "Notes": null, "Shape_Leng": 0.0, "Shape_Area": 48136.228771499998 }, "geometry": { "type": "MultiPolygon", "coordinates": [ [ [ [ -73.90916558311649, 40.729801122764108 ], [ -73.909160345686288, 40.729792849229263 ], [ -73.908976368261207, 40.729792822596387 ], [ -73.90896415105523, 40.729764112859385 ], [ -73.908917425473661, 40.729761234747713 ], [ -73.908900035387148, 40.729720370342498 ], [ -73.908886804344263, 40.729449976972532 ], [ -73.909169813455918, 40.729183824427253 ], [ -73.909470810749269, 40.729369158549318 ], [ -73.909522287087015, 40.729399418241115 ], [ -73.909603616468473, 40.729445069523059 ], [ -73.90969136545813, 40.72949151554247 ], [ -73.909776586716603, 40.729533989163059 ], [ -73.909865758019507, 40.729575800383813 ], [ -73.909956474379399, 40.729615714410286 ], [ -73.91006502496063, 40.729660171935365 ], [ -73.910059241157015, 40.729768777645802 ], [ -73.910058479627011, 40.729783070820154 ], [ -73.910056537558759, 40.729819555121928 ], [ -73.909803917779769, 40.729825115960097 ], [ -73.909472613877966, 40.729833705810847 ], [ -73.90919083598736, 40.729841009997152 ], [ -73.90916558311649, 40.729801122764108 ] ] ] ] } },
{ "type": "Feature", "properties": { "Borough": "QN", "Block": 2656, "Lot": 64, "CD": 402, "BCT2020": "4022900", "BCTCB2020": "40229001006", "CT2010": "229", "CB2010": "1014", "SchoolDist": "24", "Council": 26, "ZipCode": 11378, "FireComp": "Q288", "PolicePrct": 108, "HealthCent": 41, "HealthArea": 910, "Sanitboro": "4", "SanitDistr": "02", "SanitSub": "1E", "Address": "58-75 LONG ISLAND EXPWY", "ZoneDist1": "M1-4", "ZoneDist2": null, "ZoneDist3": null, "ZoneDist4": null, "Overlay1": null, "Overlay2": null, "SPDist1": null, "SPDist2": null, "SPDist3": null, "LtdHeight": null, "SplitZone": "N", "BldgClass": "E1", "LandUse": "06", "Easements": 1, "OwnerType": null, "OwnerName": "LUCKY SUPPLY HOLDING, LLC.", "LotArea": 77026, "BldgArea": 75447, "ComArea": 75447, "ResArea": 0, "OfficeArea": 10127, "RetailArea": 0, "GarageArea": 0, "StrgeArea": 0, "FactryArea": 65320, "OtherArea": 0, "AreaSource": "2", "NumBldgs": 1, "NumFloors": 1.0, "UnitsRes": 0, "UnitsTotal": 1, "LotFront": 265.0, "LotDepth": 310.0, "BldgFront": 284.0, "BldgDepth": 230.0, "Ext": "N", "ProxCode": "0", "IrrLotCode": "Y", "LotType": "5", "BsmtCode": "0", "AssessLand": 612000.0, "AssessTot": 4406850.0, "ExemptTot": 0.0, "YearBuilt": 1967, "YearAlter1": 2019, "YearAlter2": 0, "HistDist": null, "Landmark": null, "BuiltFAR": 0.98, "ResidFAR": 0.0, "CommFAR": 2.0, "FacilFAR": 6.5, "BoroCode": 4, "BBL": 4026560064.0, "CondoNo": 0, "Tract2010": "0229", "XCoord": 1009602, "YCoord": 204992, "ZoneMap": "13c", "ZMCode": null, "Sanborn": "403 014", "TaxMap": "41203", "EDesigNum": "E-755", "APPBBL": 0.0, "APPDate": null, "PLUTOMapID": "1", "FIRM07_FLA": null, "PFIRM15_FL": null, "Version": "25v4", "DCPEdited": null, "Latitude": 40.729296, "Longitude": -73.908529, "Notes": null, "Shape_Leng": 0.0, "Shape_Area": 77650.93385820002 }, "geometry": { "type": "MultiPolygon", "coordinates": [ [ [ [ -73.907927033045524, 40.729468955989788 ], [ -73.907937700695015, 40.729452009780267 ], [ -73.908073807118015, 40.729235793278299 ], [ -73.907963364894272, 40.729178320092814 ], [ -73.908437190636434, 40.728732721857334 ], [ -73.909103822554201, 40.729143192700683 ], [ -73.909169813455918, 40.729183824427253 ], [ -73.908886804344263, 40.729449976972532 ], [ -73.908900035387148, 40.729720370342498 ], [ -73.908917425473661, 40.729761234747713 ], [ -73.908932611426195, 40.729796919506221 ], [ -73.90893951527238, 40.729813143097594 ], [ -73.908904825367159, 40.729810784256792 ], [ -73.908821692856591, 40.729805130688923 ], [ -73.90860920929741, 40.729790681675901 ], [ -73.907927033045524, 40.729468955989788 ] ] ] ] } },
{ "type": "Feature", "properties": { "Borough": "QN", "Block": 2656, "Lot": 65, "CD": 402, "BCT2020": "4022900", "BCTCB2020": "40229001006", "CT2010": "229", "CB2010": "1014", "SchoolDist": "24", "Council": 26, "ZipCode": 11378, "FireComp": "Q288", "PolicePrct": 108, "HealthCent": 41, "HealthArea": 910, "Sanitboro": "4", "SanitDistr": "02", "SanitSub": "1E", "Address": "59-62 54 AVENUE", "ZoneDist1": "M1-4", "ZoneDist2": "M1-1", "ZoneDist3": null, "ZoneDist4": null, "Overlay1": null, "Overlay2": null, "SPDist1": null, "SPDist2": null, "SPDist3": null, "LtdHeight": null, "SplitZone": "Y", "BldgClass": "G1", "LandUse": "10", "Easements": 0, "OwnerType": "X", "OwnerName": "ELMWIER CEMETERY CORPORATION, INC.", "LotArea": 13890, "BldgArea": 6000, "ComArea": 6000, "ResArea": 0, "OfficeArea": 0, "RetailArea": 0, "GarageArea": 6000, "StrgeArea": 0, "FactryArea": 0, "OtherArea": 0, "AreaSource": "2", "NumBldgs": 1, "NumFloors": 1.0, "UnitsRes": 0, "UnitsTotal": 1, "LotFront": 130.0, "LotDepth": 110.0, "BldgFront": 50.0, "BldgDepth": 100.0, "Ext": "N", "ProxCode": "0", "IrrLotCode": "Y", "LotType": "5", "BsmtCode": "0", "AssessLand": 188100.0, "AssessTot": 323550.0, "ExemptTot": 323550.0, "YearBuilt": 1986, "YearAlter1": 1988, "YearAlter2": 0, "HistDist": null, "Landmark": null, "BuiltFAR": 0.43, "ResidFAR": 0.0, "CommFAR": 2.0, "FacilFAR": 6.5, "BoroCode": 4, "BBL": 4026560065.0, "CondoNo": 0, "Tract2010": "0229", "XCoord": 1009802, "YCoord": 204977, "ZoneMap": "13c", "ZMCode": null, "Sanborn": "403 014", "TaxMap": "41403", "EDesigNum": null, "APPBBL": 4026560065.0, "APPDate": "05/09/2011", "PLUTOMapID": "1", "FIRM07_FLA": null, "PFIRM15_FL": null, "Version": "25v4", "DCPEdited": null, "Latitude": 40.7292543, "Longitude": -73.9078075, "Notes": null, "Shape_Leng": 0.0, "Shape_Area": 12260.4260464 }, "geometry": { "type": "MultiPolygon", "coordinates": [ [ [ [ -73.907537738746512, 40.729285353329324 ], [ -73.907548013872486, 40.729268953390836 ], [ -73.907692967036922, 40.729037606041004 ], [ -73.907963364894272, 40.729178320092814 ], [ -73.908073807118015, 40.729235793278299 ], [ -73.907937700695015, 40.729452009780267 ], [ -73.907927033045524, 40.729468955989788 ], [ -73.907537738746512, 40.729285353329324 ] ] ] ] } },
{ "type": "Feature", "properties": { "Borough": "QN", "Block": 2656, "Lot": 80, "CD": 402, "BCT2020": "4022900", "BCTCB2020": "40229001006", "CT2010": "229", "CB2010": "1014", "SchoolDist": "24", "Council": 26, "ZipCode": 11378, "FireComp": "Q288", "PolicePrct": 108, "HealthCent": 41, "HealthArea": 910, "Sanitboro": "4", "SanitDistr": "02", "SanitSub": "1E", "Address": "54 AVENUE", "ZoneDist1": "M1-1", "ZoneDist2": null, "ZoneDist3": null, "ZoneDist4": null, "Overlay1": null, "Overlay2": null, "SPDist1": null, "SPDist2": null, "SPDist3": null, "LtdHeight": null, "SplitZone": "N", "BldgClass": "G7", "LandUse": "10", "Easements": 0, "OwnerType": "P", "OwnerName": "ELMWEIR CEM ASSN", "LotArea": 24688, "BldgArea": 0, "ComArea": 0, "ResArea": 0, "OfficeArea": 0, "RetailArea": 0, "GarageArea": 0, "StrgeArea": 0, "FactryArea": 0, "OtherArea": 0, "AreaSource": "7", "NumBldgs": 0, "NumFloors": 0.0, "UnitsRes": 0, "UnitsTotal": 0, "LotFront": 125.0, "LotDepth": 118.0, "BldgFront": 0.0, "BldgDepth": 0.0, "Ext": null, "ProxCode": "0", "IrrLotCode": "Y", "LotType": "5", "BsmtCode": "5", "AssessLand": 336600.0, "AssessTot": 336600.0, "ExemptTot": 0.0, "YearBuilt": 0, "YearAlter1": 0, "YearAlter2": 0, "HistDist": null, "Landmark": null, "BuiltFAR": 0.0, "ResidFAR": 0.0, "CommFAR": 1.0, "FacilFAR": 2.4, "BoroCode": 4, "BBL": 4026560079.9999995, "CondoNo": 0, "Tract2010": "0229", "XCoord": 1010033, "YCoord": 204776, "ZoneMap": "13c", "ZMCode": null, "Sanborn": "403 014", "TaxMap": "41403", "EDesigNum": null, "APPBBL": 0.0, "APPDate": null, "PLUTOMapID": "1", "FIRM07_FLA": null, "PFIRM15_FL": null, "Version": "25v4", "DCPEdited": null, "Latitude": 40.7287019, "Longitude": -73.9069748, "Notes": null, "Shape_Leng": 0.0, "Shape_Area": 22281.5440318 }, "geometry": { "type": "MultiPolygon", "coordinates": [ [ [ [ -73.90663099758919, 40.728857702330416 ], [ -73.906642490054224, 40.728843570068385 ], [ -73.90691059301254, 40.728513909791047 ], [ -73.907017304198817, 40.72838269579993 ], [ -73.90712866538334, 40.728245762684125 ], [ -73.907141004328068, 40.72823059099062 ], [ -73.907189234971966, 40.728775458845597 ], [ -73.907026569395356, 40.72902399823959 ], [ -73.907016430386776, 40.729039488687491 ], [ -73.90663099758919, 40.728857702330416 ] ] ] ] } },
{ "type": "Feature", "properties": { "Borough": "QN", "Block": 2656, "Lot": 86, "CD": 402, "BCT2020": "4022900", "BCTCB2020": "40229001006", "CT2010": "229", "CB2010": "1014", "SchoolDist": "24", "Council": 26, "ZipCode": 11378, "FireComp": "Q288", "PolicePrct": 108, "HealthCent": 41, "HealthArea": 910, "Sanitboro": "4", "SanitDistr": "02", "SanitSub": "1E", "Address": "59-78 54 AVENUE", "ZoneDist1": "M1-1", "ZoneDist2": null, "ZoneDist3": null, "ZoneDist4": null, "Overlay1": null, "Overlay2": null, "SPDist1": null, "SPDist2": null, "SPDist3": null, "LtdHeight": null, "SplitZone": "N", "BldgClass": "G2", "LandUse": "07", "Easements": 0, "OwnerType": null, "OwnerName": "MAURICE AVENUE REALY CO LLC", "LotArea": 12380, "BldgArea": 11950, "ComArea": 11950, "ResArea": 0, "OfficeArea": 0, "RetailArea": 0, "GarageArea": 11950, "StrgeArea": 0, "FactryArea": 0, "OtherArea": 0, "AreaSource": "2", "NumBldgs": 2, "NumFloors": 1.0, "UnitsRes": 0, "UnitsTotal": 3, "LotFront": 100.96, "LotDepth": 170.0, "BldgFront": 102.0, "BldgDepth": 64.0, "Ext": "N", "ProxCode": "2", "IrrLotCode": "Y", "LotType": "3", "BsmtCode": "0", "AssessLand": 302850.0, "AssessTot": 589050.0, "ExemptTot": 0.0, "YearBuilt": 1982, "YearAlter1": 1986, "YearAlter2": 0, "HistDist": null, "Landmark": null, "BuiltFAR": 0.97, "ResidFAR": 0.0, "CommFAR": 1.0, "FacilFAR": 2.4, "BoroCode": 4, "BBL": 4026560086.0, "CondoNo": 0, "Tract2010": "0229", "XCoord": 1010171, "YCoord": 204804, "ZoneMap": "13c", "ZMCode": null, "Sanborn": "403 014", "TaxMap": "41403", "EDesigNum": null, "APPBBL": 4026560086.0, "APPDate": "02/27/1998", "PLUTOMapID": "1", "FIRM07_FLA": null, "PFIRM15_FL": null, "Version": "25v4", "DCPEdited": null, "Latitude": 40.7287783, "Longitude": -73.9064768, "Notes": null, "Shape_Leng": 0.0, "Shape_Area": 12069.194427500001 }, "geometry": { "type": "MultiPolygon", "coordinates": [ [ [ [ -73.906269068246388, 40.728687000168669 ], [ -73.906284127576996, 40.728675221200476 ], [ -73.906554032591174, 40.728464101606939 ], [ -73.906184184773167, 40.728289662903329 ], [ -73.906305977797572, 40.728194397469672 ], [ -73.906641729632653, 40.728352753948791 ], [ -73.906654133996412, 40.72836018870138 ], [ -73.906573182235221, 40.728464530535106 ], [ -73.906462144012949, 40.728549938024372 ], [ -73.906514750430034, 40.728573914506669 ], [ -73.906507197071619, 40.728583268273965 ], [ -73.906703109131172, 40.728676908225225 ], [ -73.906586362781354, 40.728817202619346 ], [ -73.906574740225366, 40.728831168203008 ], [ -73.906269068246388, 40.728687000168669 ] ] ] ] } },
{ "type": "Feature", "properties": { "Borough": "QN", "Block": 2656, "Lot": 92, "CD": 402, "BCT2020": "4022900", "BCTCB2020": "40229001006", "CT2010": "229", "CB2010": "1014", "SchoolDist": "24", "Council": 26, "ZipCode": 11378, "FireComp": "Q288", "PolicePrct": 108, "HealthCent": 41, "HealthArea": 910, "Sanitboro": "4", "SanitDistr": "02", "SanitSub": "1E", "Address": "59-85 MAURICE AVENUE", "ZoneDist1": "M1-1", "ZoneDist2": null, "ZoneDist3": null, "ZoneDist4": null, "Overlay1": null, "Overlay2": null, "SPDist1": null, "SPDist2": null, "SPDist3": null, "LtdHeight": null, "SplitZone": "N", "BldgClass": "F1", "LandUse": "06", "Easements": 0, "OwnerType": null, "OwnerName": "WHITEROCK VENTURES 58 ST LLC", "LotArea": 14400, "BldgArea": 13000, "ComArea": 13000, "ResArea": 0, "OfficeArea": 0, "RetailArea": 0, "GarageArea": 0, "StrgeArea": 0, "FactryArea": 13000, "OtherArea": 0, "AreaSource": "2", "NumBldgs": 1, "NumFloors": 1.0, "UnitsRes": 0, "UnitsTotal": 1, "LotFront": 120.0, "LotDepth": 120.0, "BldgFront": 109.0, "BldgDepth": 119.0, "Ext": "N", "ProxCode": "0", "IrrLotCode": "N", "LotType": "3", "BsmtCode": "0", "AssessLand": 162000.0, "AssessTot": 638100.0, "ExemptTot": 0.0, "YearBuilt": 1961, "YearAlter1": 1985, "YearAlter2": 0, "HistDist": null, "Landmark": null, "BuiltFAR": 0.9, "ResidFAR": 0.0, "CommFAR": 1.0, "FacilFAR": 2.4, "BoroCode": 4, "BBL": 4026560091.9999995, "CondoNo": 0, "Tract2010": "0229", "XCoord": 1010240, "YCoord": 204698, "ZoneMap": "13c", "ZMCode": null, "Sanborn": "403 014", "TaxMap": "41403", "EDesigNum": null, "APPBBL": 0.0, "APPDate": null, "PLUTOMapID": "1", "FIRM07_FLA": null, "PFIRM15_FL": null, "Version": "25v4", "DCPEdited": null, "Latitude": 40.7284872, "Longitude": -73.9062282, "Notes": null, "Shape_Leng": 0.0, "Shape_Area": 13344.147514300001 }, "geometry": { "type": "MultiPolygon", "coordinates": [ [ [ [ -73.905899219937453, 40.728512560556588 ], [ -73.905913725853637, 40.728501214293175 ], [ -73.906184184773167, 40.728289662903329 ], [ -73.906554032591174, 40.728464101606939 ], [ -73.906284127576996, 40.728675221200476 ], [ -73.906269068246388, 40.728687000168669 ], [ -73.905899219937453, 40.728512560556588 ] ] ] ] } },
{ "type": "Feature", "properties": { "Borough": "QN", "Block": 2656, "Lot": 98, "CD": 402, "BCT2020": "4022900", "BCTCB2020": "40229001006", "CT2010": "229", "CB2010": "1014", "SchoolDist": "24", "Council": 26, "ZipCode": 11378, "FireComp": "Q288", "PolicePrct": 108, "HealthCent": 41, "HealthArea": 910, "Sanitboro": "4", "SanitDistr": "02", "SanitSub": "1E", "Address": "59-91 MAURICE AVENUE", "ZoneDist1": "M1-1", "ZoneDist2": null, "ZoneDist3": null, "ZoneDist4": null, "Overlay1": null, "Overlay2": null, "SPDist1": null, "SPDist2": null, "SPDist3": null, "LtdHeight": null, "SplitZone": "N", "BldgClass": "GW", "LandUse": "05", "Easements": 0, "OwnerType": null, "OwnerName": "7 ISLAND CAR WASH & MANUKIAN TRADIN", "LotArea": 11800, "BldgArea": 4500, "ComArea": 4500, "ResArea": 0, "OfficeArea": 0, "RetailArea": 0, "GarageArea": 4500, "StrgeArea": 0, "FactryArea": 0, "OtherArea": 0, "AreaSource": "2", "NumBldgs": 1, "NumFloors": 1.0, "UnitsRes": 0, "UnitsTotal": 1, "LotFront": 72.0, "LotDepth": 203.0, "BldgFront": 40.0, "BldgDepth": 113.0, "Ext": "E", "ProxCode": "2", "IrrLotCode": "N", "LotType": "5", "BsmtCode": "0", "AssessLand": 180000.0, "AssessTot": 625500.0, "ExemptTot": 0.0, "YearBuilt": 1993, "YearAlter1": 1986, "YearAlter2": 0, "HistDist": null, "Landmark": null, "BuiltFAR": 0.38, "ResidFAR": 0.0, "CommFAR": 1.0, "FacilFAR": 2.4, "BoroCode": 4, "BBL": 4026560098.0, "CondoNo": 0, "Tract2010": "0229", "XCoord": 1010116, "YCoord": 204623, "ZoneMap": "13c", "ZMCode": null, "Sanborn": "403 014", "TaxMap": "41403", "EDesigNum": null, "APPBBL": 0.0, "APPDate": null, "PLUTOMapID": "1", "FIRM07_FLA": null, "PFIRM15_FL": null, "Version": "25v4", "DCPEdited": null, "Latitude": 40.7282817, "Longitude": -73.9066759, "Notes": null, "Shape_Leng": 0.0, "Shape_Area": 11573.2601258 }, "geometry": { "type": "MultiPolygon", "coordinates": [ [ [ [ -73.906654133996412, 40.72836018870138 ], [ -73.906641729632653, 40.728352753948791 ], [ -73.906305977797572, 40.728194397469672 ], [ -73.906482302484406, 40.728056476077029 ], [ -73.906745988472608, 40.728247624990054 ], [ -73.906831314913902, 40.728247209693265 ], [ -73.906835871056046, 40.728247187282683 ], [ -73.907017304198817, 40.72838269579993 ], [ -73.90691059301254, 40.728513909791047 ], [ -73.906654133996412, 40.72836018870138 ] ] ] ] } },
{ "type": "Feature", "properties": { "Borough": "QN", "Block": 2656, "Lot": 105, "CD": 402, "BCT2020": "4022900", "BCTCB2020": "40229001006", "CT2010": "229", "CB2010": "1014", "SchoolDist": "24", "Council": 26, "ZipCode": 11378, "FireComp": "Q288", "PolicePrct": 108, "HealthCent": 41, "HealthArea": 910, "Sanitboro": "4", "SanitDistr": "02", "SanitSub": "1E", "Address": "59-51 MAURICE AVENUE", "ZoneDist1": "M1-1", "ZoneDist2": null, "ZoneDist3": null, "ZoneDist4": null, "Overlay1": null, "Overlay2": null, "SPDist1": null, "SPDist2": null, "SPDist3": null, "LtdHeight": null, "SplitZone": "N", "BldgClass": "G3", "LandUse": "07", "Easements": 0, "OwnerType": null, "OwnerName": "MOSHOPOULOS ANTHIPPI", "LotArea": 12073, "BldgArea": 3000, "ComArea": 3000, "ResArea": 0, "OfficeArea": 0, "RetailArea": 1500, "GarageArea": 1500, "StrgeArea": 0, "FactryArea": 0, "OtherArea": 0, "AreaSource": "2", "NumBldgs": 2, "NumFloors": 2.0, "UnitsRes": 0, "UnitsTotal": 1, "LotFront": 101.23, "LotDepth": 101.05, "BldgFront": 52.0, "BldgDepth": 30.0, "Ext": "N", "ProxCode": "0", "IrrLotCode": "Y", "LotType": "3", "BsmtCode": "0", "AssessLand": 108000.0, "AssessTot": 927000.0, "ExemptTot": 0.0, "YearBuilt": 2000, "YearAlter1": 2004, "YearAlter2": 0, "HistDist": null, "Landmark": null, "BuiltFAR": 0.25, "ResidFAR": 0.0, "CommFAR": 1.0, "FacilFAR": 2.4, "BoroCode": 4, "BBL": 4026560105.0, "CondoNo": 0, "Tract2010": "0229", "XCoord": 1010090, "YCoord": 204540, "ZoneMap": "13c", "ZMCode": null, "Sanborn": "403 014", "TaxMap": "41403", "EDesigNum": null, "APPBBL": 0.0, "APPDate": null, "PLUTOMapID": "1", "FIRM07_FLA": null, "PFIRM15_FL": null, "Version": "25v4", "DCPEdited": null, "Latitude": 40.728054, "Longitude": -73.90677, "Notes": null, "Shape_Leng": 0.0, "Shape_Area": 12391.833915200001 }, "geometry": { "type": "MultiPolygon", "coordinates": [ [ [ [ -73.906482302484406, 40.728056476077029 ], [ -73.906744596618651, 40.72785130669277 ], [ -73.907050362896896, 40.728009018910861 ], [ -73.906831314913902, 40.728247209693265 ], [ -73.906745988472608, 40.728247624990054 ], [ -73.906482302484406, 40.728056476077029 ] ] ] ] } },
{ "type": "Feature", "properties": { "Borough": "QN", "Block": 2287, "Lot": 28, "CD": 402, "BCT2020": "4023501", "BCTCB2020": "40235012000", "CT2010": "235", "CB2010": "3000", "SchoolDist": "24", "Council": 26, "ZipCode": 11377, "FireComp": "E259", "PolicePrct": 108, "HealthCent": 41, "HealthArea": 910, "Sanitboro": "4", "SanitDistr": "02", "SanitSub": "3C", "Address": "49-10 47 AVENUE", "ZoneDist1": "M1-1", "ZoneDist2": null, "ZoneDist3": null, "ZoneDist4": null, "Overlay1": null, "Overlay2": null, "SPDist1": null, "SPDist2": null, "SPDist3": null, "LtdHeight": null, "SplitZone": "N", "BldgClass": "E1", "LandUse": "06", "Easements": 0, "OwnerType": null, "OwnerName": "SIPOS, CHARLOTTE", "LotArea": 10400, "BldgArea": 10400, "ComArea": 10400, "ResArea": 0, "OfficeArea": 0, "RetailArea": 0, "GarageArea": 0, "StrgeArea": 0, "FactryArea": 10400, "OtherArea": 0, "AreaSource": "2", "NumBldgs": 1, "NumFloors": 1.0, "UnitsRes": 0, "UnitsTotal": 1, "LotFront": 99.0, "LotDepth": 115.0, "BldgFront": 99.0, "BldgDepth": 115.0, "Ext": "N", "ProxCode": "0", "IrrLotCode": "Y", "LotType": "3", "BsmtCode": "0", "AssessLand": 140850.0, "AssessTot": 442350.0, "ExemptTot": 0.0, "YearBuilt": 1939, "YearAlter1": 0, "YearAlter2": 0, "HistDist": null, "Landmark": null, "BuiltFAR": 1.0, "ResidFAR": 0.0, "CommFAR": 1.0, "FacilFAR": 2.4, "BoroCode": 4, "BBL": 4022870028.0, "CondoNo": 0, "Tract2010": "0235", "XCoord": 1007535, "YCoord": 209112, "ZoneMap": "9b", "ZMCode": null, "Sanborn": "409 032", "TaxMap": "41301", "EDesigNum": null, "APPBBL": 0.0, "APPDate": null, "PLUTOMapID": "1", "FIRM07_FLA": null, "PFIRM15_FL": null, "Version": "25v4", "DCPEdited": null, "Latitude": 40.7406101, "Longitude": -73.9159726, "Notes": null, "Shape_Leng": 0.0, "Shape_Area": 10892.5132875 }, "geometry": { "type": "MultiPolygon", "coordinates": [ [ [ [ -73.915748275009847, 40.740735232828541 ], [ -73.915853179580623, 40.740433444573966 ], [ -73.916168501285128, 40.740469056684084 ], [ -73.916105779538697, 40.74078673838325 ], [ -73.915936904555508, 40.740762624673067 ], [ -73.915748275009847, 40.740735232828541 ] ] ] ] } },
{ "type": "Feature", "properties": { "Borough": "QN", "Block": 2361, "Lot": 1, "CD": 402, "BCT2020": "4022900", "BCTCB2020": "40229001005", "CT2010": "229", "CB2010": "1009", "SchoolDist": "24", "Council": 26, "ZipCode": 11377, "FireComp": "Q288", "PolicePrct": 108, "HealthCent": 41, "HealthArea": 910, "Sanitboro": "4", "SanitDistr": "02", "SanitSub": "1E", "Address": "51-51 59 PLACE", "ZoneDist1": "M1-1", "ZoneDist2": "R4", "ZoneDist3": null, "ZoneDist4": null, "Overlay1": null, "Overlay2": null, "SPDist1": null, "SPDist2": null, "SPDist3": null, "LtdHeight": null, "SplitZone": "Y", "BldgClass": "E2", "LandUse": "06", "Easements": 0, "OwnerType": null, "OwnerName": "51-51 59TH PLACE LLC", "LotArea": 16000, "BldgArea": 16000, "ComArea": 16000, "ResArea": 0, "OfficeArea": 0, "RetailArea": 0, "GarageArea": 0, "StrgeArea": 0, "FactryArea": 16000, "OtherArea": 0, "AreaSource": "2", "NumBldgs": 1, "NumFloors": 1.0, "UnitsRes": 0, "UnitsTotal": 2, "LotFront": 160.0, "LotDepth": 100.0, "BldgFront": 160.0, "BldgDepth": 100.0, "Ext": "N", "ProxCode": "2", "IrrLotCode": "N", "LotType": "5", "BsmtCode": "0", "AssessLand": 295200.0, "AssessTot": 819450.0, "ExemptTot": 0.0, "YearBuilt": 1962, "YearAlter1": 1995, "YearAlter2": 0, "HistDist": null, "Landmark": null, "BuiltFAR": 1.0, "ResidFAR": 0.0, "CommFAR": 1.0, "FacilFAR": 2.4, "BoroCode": 4, "BBL": 4023610000.9999995, "CondoNo": 0, "Tract2010": "0229", "XCoord": 1010449, "YCoord": 206914, "ZoneMap": "13c", "ZMCode": null, "Sanborn": "409 038", "TaxMap": "41302", "EDesigNum": null, "APPBBL": 0.0, "APPDate": null, "PLUTOMapID": "1", "FIRM07_FLA": null, "PFIRM15_FL": null, "Version": "25v4", "DCPEdited": null, "Latitude": 40.7345689, "Longitude": -73.9054655, "Notes": null, "Shape_Leng": 0.0, "Shape_Area": 14940.232032800001 }, "geometry": { "type": "MultiPolygon", "coordinates": [ [ [ [ -73.905201169462643, 40.734717014797532 ], [ -73.905380514179726, 40.734334744993085 ], [ -73.905724058334528, 40.734422071171608 ], [ -73.905549289289397, 40.734805504124871 ], [ -73.905201169462643, 40.734717014797532 ] ] ] ] } },
{ "type": "Feature", "properties": { "Borough": "QN", "Block": 2361, "Lot": 15, "CD": 402, "BCT2020": "4022900", "BCTCB2020": "40229001005", "CT2010": "229", "CB2010": "1009", "SchoolDist": "24", "Council": 26, "ZipCode": 11377, "FireComp": "Q288", "PolicePrct": 108, "HealthCent": 41, "HealthArea": 910, "Sanitboro": "4", "SanitDistr": "02", "SanitSub": "1E", "Address": "51-03 59 PLACE", "ZoneDist1": "M1-1", "ZoneDist2": null, "ZoneDist3": null, "ZoneDist4": null, "Overlay1": null, "Overlay2": null, "SPDist1": null, "SPDist2": null, "SPDist3": null, "LtdHeight": null, "SplitZone": "N", "BldgClass": "F4", "LandUse": "06", "Easements": 0, "OwnerType": null, "OwnerName": "58TH STREET TYLER, LLC", "LotArea": 9000, "BldgArea": 8900, "ComArea": 8900, "ResArea": 0, "OfficeArea": 0, "RetailArea": 0, "GarageArea": 0, "StrgeArea": 0, "FactryArea": 8900, "OtherArea": 0, "AreaSource": "2", "NumBldgs": 1, "NumFloors": 1.0, "UnitsRes": 0, "UnitsTotal": 1, "LotFront": 102.0, "LotDepth": 100.0, "BldgFront": 81.33, "BldgDepth": 100.0, "Ext": "N", "ProxCode": "0", "IrrLotCode": "Y", "LotType": "3", "BsmtCode": "0", "AssessLand": 121950.0, "AssessTot": 397800.0, "ExemptTot": 0.0, "YearBuilt": 1965, "YearAlter1": 0, "YearAlter2": 0, "HistDist": null, "Landmark": null, "BuiltFAR": 0.99, "ResidFAR": 0.0, "CommFAR": 1.0, "FacilFAR": 2.4, "BoroCode": 4, "BBL": 4023610015.0, "CondoNo": 0, "Tract2010": "0229", "XCoord": 1010571, "YCoord": 207268, "ZoneMap": "13c", "ZMCode": null, "Sanborn": "409 038", "TaxMap": "41302", "EDesigNum": null, "APPBBL": 0.0, "APPDate": null, "PLUTOMapID": "1", "FIRM07_FLA": null, "PFIRM15_FL": null, "Version": "25v4", "DCPEdited": null, "Latitude": 40.7355402, "Longitude": -73.9050239, "Notes": null, "Shape_Leng": 0.0, "Shape_Area": 9883.5549460999991 }, "geometry": { "type": "MultiPolygon", "coordinates": [ [ [ [ -73.904795039509523, 40.735582657400982 ], [ -73.904894746103878, 40.735370140057221 ], [ -73.905250681731644, 40.735460617895079 ], [ -73.905124072535216, 40.73573838477148 ], [ -73.904795039509523, 40.735582657400982 ] ] ] ] } },
{ "type": "Feature", "properties": { "Borough": "QN", "Block": 2361, "Lot": 101, "CD": 402, "BCT2020": "4022900", "BCTCB2020": "40229001005", "CT2010": "229", "CB2010": "1009", "SchoolDist": "24", "Council": 26, "ZipCode": 11377, "FireComp": "Q288", "PolicePrct": 108, "HealthCent": 41, "HealthArea": 910, "Sanitboro": "4", "SanitDistr": "02", "SanitSub": "1E", "Address": "59-63 54 AVENUE", "ZoneDist1": "R4", "ZoneDist2": null, "ZoneDist3": null, "ZoneDist4": null, "Overlay1": null, "Overlay2": null, "SPDist1": null, "SPDist2": null, "SPDist3": null, "LtdHeight": null, "SplitZone": "N", "BldgClass": "Z8", "LandUse": "09", "Easements": 1, "OwnerType": "X", "OwnerName": "MT ZION CEMETERY", "LotArea": 22987, "BldgArea": 0, "ComArea": 0, "ResArea": 0, "OfficeArea": 0, "RetailArea": 0, "GarageArea": 0, "StrgeArea": 0, "FactryArea": 0, "OtherArea": 0, "AreaSource": "7", "NumBldgs": 2, "NumFloors": 2.0, "UnitsRes": 0, "UnitsTotal": 1, "LotFront": 2021.07, "LotDepth": 1139.33, "BldgFront": 22.0, "BldgDepth": 95.0, "Ext": "N", "ProxCode": "0", "IrrLotCode": "N", "LotType": "5", "BsmtCode": "0", "AssessLand": 5054400.0, "AssessTot": 6094350.0, "ExemptTot": 6094350.0, "YearBuilt": 1893, "YearAlter1": 0, "YearAlter2": 0, "HistDist": null, "Landmark": null, "BuiltFAR": 0.0, "ResidFAR": 1.0, "CommFAR": 0.0, "FacilFAR": 2.0, "BoroCode": 4, "BBL": 4023610101.0, "CondoNo": 0, "Tract2010": "0229", "XCoord": 1010149, "YCoord": 205902, "ZoneMap": "13c", "ZMCode": null, "Sanborn": "409 999", "TaxMap": "41302", "EDesigNum": null, "APPBBL": 0.0, "APPDate": null, "PLUTOMapID": "1", "FIRM07_FLA": null, "PFIRM15_FL": null, "Version": "25v4", "DCPEdited": null, "Latitude": 40.7317921, "Longitude": -73.9065519, "Notes": null, "Shape_Leng": 0.0, "Shape_Area": 3316041.0937899998 }, "geometry": { "type": "MultiPolygon", "coordinates": [ [ [ [ -73.901441823937901, 40.73366564023226 ], [ -73.905321533521374, 40.728965816197714 ], [ -73.905762328574468, 40.728629504531369 ], [ -73.908583169719407, 40.729972162871867 ], [ -73.908974204106357, 40.729997280321911 ], [ -73.911404408168892, 40.730022307409705 ], [ -73.911600679134352, 40.730024327967506 ], [ -73.911594480673969, 40.730073571054533 ], [ -73.911521082424215, 40.730656695005941 ], [ -73.911084612799485, 40.732406360470449 ], [ -73.91057319137343, 40.733434680886504 ], [ -73.90959121780061, 40.733185109912654 ], [ -73.906310998707653, 40.732351356963868 ], [ -73.905860847854342, 40.733310899536754 ], [ -73.905546404542804, 40.733981150420512 ], [ -73.905380514179726, 40.734334744993085 ], [ -73.905201169462643, 40.734717014797532 ], [ -73.904921684789798, 40.735312720748702 ], [ -73.901441823937901, 40.73366564023226 ] ] ] ] } },
{ "type": "Feature", "properties": { "Borough": "QN", "Block": 2656, "Lot": 115, "CD": 402, "BCT2020": "4022900", "BCTCB2020": "40229001006", "CT2010": "229", "CB2010": "1014", "SchoolDist": "24", "Council": 26, "ZipCode": 11378, "FireComp": "Q288", "PolicePrct": 108, "HealthCent": 41, "HealthArea": 910, "Sanitboro": "4", "SanitDistr": "02", "SanitSub": "1E", "Address": "59-21 58 ROAD", "ZoneDist1": "M1-1", "ZoneDist2": null, "ZoneDist3": null, "ZoneDist4": null, "Overlay1": null, "Overlay2": null, "SPDist1": null, "SPDist2": null, "SPDist3": null, "LtdHeight": null, "SplitZone": "N", "BldgClass": "E1", "LandUse": "06", "Easements": 0, "OwnerType": null, "OwnerName": "ANJO MANUFACTURING COMPANY INC", "LotArea": 81552, "BldgArea": 95963, "ComArea": 95963, "ResArea": 0, "OfficeArea": 9900, "RetailArea": 0, "GarageArea": 0, "StrgeArea": 86063, "FactryArea": 0, "OtherArea": 0, "AreaSource": "2", "NumBldgs": 1, "NumFloors": 2.0, "UnitsRes": 0, "UnitsTotal": 1, "LotFront": 560.0, "LotDepth": 205.0, "BldgFront": 300.0, "BldgDepth": 205.0, "Ext": "N", "ProxCode": "0", "IrrLotCode": "Y", "LotType": "5", "BsmtCode": "0", "AssessLand": 1101150.0, "AssessTot": 4313250.0, "ExemptTot": 0.0, "YearBuilt": 1967, "YearAlter1": 2001, "YearAlter2": 0, "HistDist": null, "Landmark": null, "BuiltFAR": 1.18, "ResidFAR": 0.0, "CommFAR": 1.0, "FacilFAR": 2.4, "BoroCode": 4, "BBL": 4026560115.0, "CondoNo": 0, "Tract2010": "0229", "XCoord": 1009845, "YCoord": 204749, "ZoneMap": "13c", "ZMCode": null, "Sanborn": "403 014", "TaxMap": "41403", "EDesigNum": null, "APPBBL": 0.0, "APPDate": null, "PLUTOMapID": "1", "FIRM07_FLA": null, "PFIRM15_FL": null, "Version": "25v4", "DCPEdited": null, "Latitude": 40.7286283, "Longitude": -73.9076532, "Notes": null, "Shape_Leng": 0.0, "Shape_Area": 77961.500424700003 }, "geometry": { "type": "MultiPolygon", "coordinates": [ [ [ [ -73.90712866538334, 40.728245762684125 ], [ -73.906835871056046, 40.728247187282683 ], [ -73.906831314913902, 40.728247209693265 ], [ -73.907050362896896, 40.728009018910861 ], [ -73.90823486523243, 40.728619970985839 ], [ -73.908437190636434, 40.728732721857334 ], [ -73.907963364894272, 40.729178320092814 ], [ -73.907692967036922, 40.729037606041004 ], [ -73.907189234971966, 40.728775458845597 ], [ -73.907141004328068, 40.72823059099062 ], [ -73.90712866538334, 40.728245762684125 ] ] ] ] } }
]
}
