{
"type": "FeatureCollection",
"name": "pluto_Inwood_Hill_Park",
"crs": { "type": "name", "properties": { "name": "urn:ogc:def:crs:OGC:1.3:CRS84" } },
"features": [
{ "type": "Feature", "properties": { "Borough": "MN", "Block": 2244, "Lot": 200, "CD": 112, "BCT2020": "1029700", "BCTCB2020": "10297001001", "CT2010": "297", "CB2010": "1000", "SchoolDist": "06", "Council": 10, "ZipCode": 10034, "FireComp": "E095", "PolicePrct": 34, "HealthCent": 17, "HealthArea": 120, "Sanitboro": "1", "SanitDistr": "12", "SanitSub": "4B", "Address": "BROADWAY", "ZoneDist1": "R7-2", "ZoneDist2": null, "ZoneDist3": null, "ZoneDist4": null, "Overlay1": null, "Overlay2": null, "SPDist1": null, "SPDist2": null, "SPDist3": null, "LtdHeight": null, "SplitZone": "N", "BldgClass": "U1", "LandUse": "07", "Easements": 0, "OwnerType": "C", "OwnerName": "NYC DEPARTMENT OF TRANSPORTATION", "LotArea": 8377, "BldgArea": 0, "ComArea": 0, "ResArea": 0, "OfficeArea": 0, "RetailArea": 0, "GarageArea": 0, "StrgeArea": 0, "FactryArea": 0, "OtherArea": 0, "AreaSource": "7", "NumBldgs": 0, "NumFloors": 0.0, "UnitsRes": 0, "UnitsTotal": 0, "LotFront": 210.75, "LotDepth": 39.75, "BldgFront": 0.0, "BldgDepth": 0.0, "Ext": "N", "ProxCode": "0", "IrrLotCode": "Y", "LotType": "5", "BsmtCode": "0", "AssessLand": 0.0, "AssessTot": 0.0, "ExemptTot": 0.0, "YearBuilt": 0, "YearAlter1": 0, "YearAlter2": 0, "HistDist": null, "Landmark": null, "BuiltFAR": 0.0, "ResidFAR": 3.44, "CommFAR": 0.0, "FacilFAR": 6.5, "BoroCode": 1, "BBL": 1022440200.0, "CondoNo": 0, "Tract2010": "0297", "XCoord": 1008623, "YCoord": 257420, "ZoneMap": "1d", "ZMCode": "Y", "Sanborn": "112 077", "TaxMap": "10804", "EDesigNum": null, "APPBBL": 0.0, "APPDate": null, "PLUTOMapID": "1", "FIRM07_FLA": "1", "PFIRM15_FL": "1", "Version": "25v4", "DCPEdited": "t", "Latitude": 40.8731992, "Longitude": -73.911871, "Notes": null, "Shape_Leng": 0.0, "Shape_Area": 4322.9824864000002 }, "geometry": { "type": "MultiPolygon", "coordinates": [ [ [ [ -73.911648166649329, 40.8733218097071 ], [ -73.91175117229163, 40.873239221858384 ], [ -73.91187625284293, 40.873141910752494 ], [ -73.912196656283356, 40.87289479263832 ], [ -73.912082214293008, 40.873024287654317 ], [ -73.911761649290753, 40.873387013811794 ], [ -73.911648166649329, 40.8733218097071 ] ] ] ] } },
{ "type": "Feature", "properties": { "Borough": "MN", "Block": 2255, "Lot": 1, "CD": 112, "BCT2020": "1029700", "BCTCB2020": "10297001003", "CT2010": "297", "CB2010": "1000", "SchoolDist": "06", "Council": 10, "ZipCode": 10034, "FireComp": "E095", "PolicePrct": 34, "HealthCent": 17, "HealthArea": 120, "Sanitboro": "1", "SanitDistr": "12", "SanitSub": "4B", "Address": "570 WEST 214 STREET", "ZoneDist1": "PARK", "ZoneDist2": null, "ZoneDist3": null, "ZoneDist4": null, "Overlay1": null, "Overlay2": null, "SPDist1": null, "SPDist2": null, "SPDist3": null, "LtdHeight": null, "SplitZone": "N", "BldgClass": "Q1", "LandUse": "09", "Easements": 0, "OwnerType": "C", "OwnerName": "NYC DEPARTMENT OF PARKS AND RECREATION", "LotArea": 448200, "BldgArea": 0, "ComArea": 0, "ResArea": 0, "OfficeArea": 0, "RetailArea": 0, "GarageArea": 0, "StrgeArea": 0, "FactryArea": 0, "OtherArea": 0, "AreaSource": "7", "NumBldgs": 0, "NumFloors": 0.0, "UnitsRes": 0, "UnitsTotal": 0, "LotFront": 338.0, "LotDepth": 604.0, "BldgFront": 0.0, "BldgDepth": 0.0, "Ext": "N", "ProxCode": "0", "IrrLotCode": "Y", "LotType": "3", "BsmtCode": "0", "AssessLand": 6930000.0, "AssessTot": 8787600.0, "ExemptTot": 8787600.0, "YearBuilt": 0, "YearAlter1": 0, "YearAlter2": 0, "HistDist": null, "Landmark": null, "BuiltFAR": 0.0, "ResidFAR": 0.0, "CommFAR": 0.0, "FacilFAR": 0.0, "BoroCode": 1, "BBL": 1022550001.0000001, "CondoNo": 0, "Tract2010": "0297", "XCoord": 1006283, "YCoord": 256853, "ZoneMap": "1b", "ZMCode": "Y", "Sanborn": "112 074", "TaxMap": "10804", "EDesigNum": null, "APPBBL": 0.0, "APPDate": null, "PLUTOMapID": "1", "FIRM07_FLA": "1", "PFIRM15_FL": "1", "Version": "25v4", "DCPEdited": "t", "Latitude": 40.8716491, "Longitude": -73.9203339, "Notes": null, "Shape_Leng": 0.0, "Shape_Area": 448252.81306000001 }, "geometry": { "type": "MultiPolygon", "coordinates": [ [ [ [ -73.920934732295052, 40.869986734129569 ], [ -73.92145012171973, 40.870810794419107 ], [ -73.921439859369229, 40.872093704301719 ], [ -73.920973587389398, 40.872107415658853 ], [ -73.920703186611874, 40.872134818088078 ], [ -73.920548730229342, 40.872169980232464 ], [ -73.920740135822896, 40.872815124221496 ], [ -73.920386768400888, 40.872890455837187 ], [ -73.91961630042853, 40.873033647727127 ], [ -73.919070922585419, 40.873160636393685 ], [ -73.918632404403567, 40.872960092557427 ], [ -73.919877577602648, 40.872050855666409 ], [ -73.919760051553666, 40.871941104064305 ], [ -73.91970917367162, 40.871978256105294 ], [ -73.919661268783528, 40.871843378798715 ], [ -73.919645477065529, 40.871797340980542 ], [ -73.919578803825843, 40.871611987988246 ], [ -73.919505233601683, 40.871427984394693 ], [ -73.919424844318669, 40.87124563919339 ], [ -73.919346443243626, 40.871083133126668 ], [ -73.920934732295052, 40.869986734129569 ] ] ] ] } },
{ "type": "Feature", "properties": { "Borough": "MN", "Block": 2255, "Lot": 1031, "CD": 112, "BCT2020": "1029700", "BCTCB2020": "10297001005", "CT2010": "297", "CB2010": "1002", "SchoolDist": "06", "Council": 10, "ZipCode": 10034, "FireComp": "E095", "PolicePrct": 34, "HealthCent": 17, "HealthArea": 120, "Sanitboro": "1", "SanitDistr": "12", "SanitSub": "4B", "Address": "DYCKMAN STREET", "ZoneDist1": "PARK", "ZoneDist2": null, "ZoneDist3": null, "ZoneDist4": null, "Overlay1": null, "Overlay2": null, "SPDist1": null, "SPDist2": null, "SPDist3": null, "LtdHeight": null, "SplitZone": "N", "BldgClass": "U1", "LandUse": "07", "Easements": 1, "OwnerType": "X", "OwnerName": "AMTRAK HEADQUARTERS", "LotArea": 30525, "BldgArea": 0, "ComArea": 0, "ResArea": 0, "OfficeArea": 0, "RetailArea": 0, "GarageArea": 0, "StrgeArea": 0, "FactryArea": 0, "OtherArea": 0, "AreaSource": "7", "NumBldgs": 0, "NumFloors": 0.0, "UnitsRes": 0, "UnitsTotal": 0, "LotFront": 73.58, "LotDepth": 947.5, "BldgFront": 0.0, "BldgDepth": 0.0, "Ext": "N", "ProxCode": "0", "IrrLotCode": "N", "LotType": "5", "BsmtCode": "0", "AssessLand": 0.0, "AssessTot": 0.0, "ExemptTot": 0.0, "YearBuilt": 0, "YearAlter1": 0, "YearAlter2": 0, "HistDist": null, "Landmark": null, "BuiltFAR": 0.0, "ResidFAR": 0.0, "CommFAR": 0.0, "FacilFAR": 0.0, "BoroCode": 1, "BBL": 1022551030.9999999, "CondoNo": 0, "Tract2010": "0297", "XCoord": 1003356, "YCoord": 256268, "ZoneMap": "3a", "ZMCode": "Y", "Sanborn": "112 074", "TaxMap": "10804", "EDesigNum": null, "APPBBL": 0.0, "APPDate": null, "PLUTOMapID": "1", "FIRM07_FLA": "1", "PFIRM15_FL": null, "Version": "25v4", "DCPEdited": null, "Latitude": 40.8700502, "Longitude": -73.9309189, "Notes": null, "Shape_Leng": 0.0, "Shape_Area": 35061.626203200001 }, "geometry": { "type": "MultiPolygon", "coordinates": [ [ [ [ -73.930716679629896, 40.87025997071008 ], [ -73.93125998038559, 40.869112162888264 ], [ -73.931426035236527, 40.869253575054515 ], [ -73.930202717895867, 40.871593139630491 ], [ -73.930716679629896, 40.87025997071008 ] ] ] ] } },
{ "type": "Feature", "properties": { "Borough": "MN", "Block": 2244, "Lot": 1, "CD": 112, "BCT2020": "1029700", "BCTCB2020": "10297001001", "CT2010": "297", "CB2010": "1000", "SchoolDist": "06", "Council": 10, "ZipCode": 10034, "FireComp": "E095", "PolicePrct": 34, "HealthCent": 17, "HealthArea": 120, "Sanitboro": "1", "SanitDistr": "12", "SanitSub": "4B", "Address": "501 WEST 218 STREET", "ZoneDist1": "R7-2", "ZoneDist2": null, "ZoneDist3": null, "ZoneDist4": null, "Overlay1": null, "Overlay2": null, "SPDist1": null, "SPDist2": null, "SPDist3": null, "LtdHeight": null, "SplitZone": "N", "BldgClass": "Q6", "LandUse": "09", "Easements": 0, "OwnerType": "X", "OwnerName": "COLUMBIA UNIV TR CITY NY", "LotArea": 1004668, "BldgArea": 166755, "ComArea": 166755, "ResArea": 0, "OfficeArea": 0, "RetailArea": 0, "GarageArea": 3490, "StrgeArea": 0, "FactryArea": 0, "OtherArea": 163265, "AreaSource": "2", "NumBldgs": 11, "NumFloors": 5.0, "UnitsRes": 0, "UnitsTotal": 2, "LotFront": 1438.75, "LotDepth": 786.75, "BldgFront": 80.0, "BldgDepth": 105.0, "Ext": "N", "ProxCode": "0", "IrrLotCode": "Y", "LotType": "3", "BsmtCode": "0", "AssessLand": 18441000.0, "AssessTot": 34454700.0, "ExemptTot": 34454700.0, "YearBuilt": 1985, "YearAlter1": 1997, "YearAlter2": 0, "HistDist": null, "Landmark": null, "BuiltFAR": 0.17, "ResidFAR": 3.44, "CommFAR": 0.0, "FacilFAR": 6.5, "BoroCode": 1, "BBL": 1022440001.0000001, "CondoNo": 0, "Tract2010": "0297", "XCoord": 1007622, "YCoord": 257386, "ZoneMap": "1b", "ZMCode": null, "Sanborn": "112 072", "TaxMap": "10804", "EDesigNum": null, "APPBBL": 0.0, "APPDate": null, "PLUTOMapID": "1", "FIRM07_FLA": "1", "PFIRM15_FL": "1", "Version": "25v4", "DCPEdited": null, "Latitude": 40.8731085, "Longitude": -73.9154906, "Notes": null, "Shape_Leng": 0.0, "Shape_Area": 1020529.98852 }, "geometry": { "type": "MultiPolygon", "coordinates": [ [ [ [ -73.915206978365603, 40.874465864292993 ], [ -73.91493380376491, 40.874408263990389 ], [ -73.914869253934938, 40.874386590710003 ], [ -73.914822011045558, 40.874373743629683 ], [ -73.914724327367992, 40.874349179945263 ], [ -73.914639323724344, 40.874323183723838 ], [ -73.91461452876959, 40.874315907540684 ], [ -73.914548681090196, 40.874292398819875 ], [ -73.91442495830583, 40.874250454894124 ], [ -73.91441145779315, 40.87424702657087 ], [ -73.914395710261715, 40.874243599335841 ], [ -73.914356058825774, 40.874240058367363 ], [ -73.913920704186296, 40.874112301479407 ], [ -73.9138861659859, 40.874096308075949 ], [ -73.913833306781825, 40.874075769754917 ], [ -73.913779319471999, 40.874056084300719 ], [ -73.91372420426147, 40.874038960688658 ], [ -73.913667963365441, 40.874022689023285 ], [ -73.913636466178033, 40.874015830665925 ], [ -73.913568965419017, 40.874005533350783 ], [ -73.913539717562259, 40.873999531311107 ], [ -73.913520635023076, 40.873994899362721 ], [ -73.913201520831493, 40.873901253785284 ], [ -73.913185406452968, 40.873892498143732 ], [ -73.91316066733026, 40.873880522753439 ], [ -73.913128052161781, 40.873866832354622 ], [ -73.913097685496325, 40.873856558253067 ], [ -73.91309013029354, 40.873854487606188 ], [ -73.913092160210667, 40.873753643473016 ], [ -73.913870348540343, 40.873810984228335 ], [ -73.913930323765797, 40.873098860322166 ], [ -73.913697197857417, 40.873068624791586 ], [ -73.913681131662003, 40.872998424937826 ], [ -73.913639036529787, 40.872910392050628 ], [ -73.913568240450374, 40.872824096280382 ], [ -73.913453215028269, 40.872738675846165 ], [ -73.913348437150162, 40.872690527983835 ], [ -73.913240194488267, 40.872660396225825 ], [ -73.91311590747766, 40.872645568731024 ], [ -73.912996895285886, 40.872649439189225 ], [ -73.912872244868012, 40.872672962105582 ], [ -73.912792445398836, 40.87259811868239 ], [ -73.912886736733483, 40.872551524858039 ], [ -73.912891664175618, 40.872548195878181 ], [ -73.912897959457283, 40.872543924262956 ], [ -73.912910164214139, 40.872536526944977 ], [ -73.912920822546383, 40.872528674609853 ], [ -73.91293637246882, 40.872517766993795 ], [ -73.912954489183036, 40.872503487197655 ], [ -73.912962990676618, 40.872493040731221 ], [ -73.912970849863925, 40.872482175066295 ], [ -73.912978744900215, 40.872470104577687 ], [ -73.912981803869727, 40.872461444207026 ], [ -73.912985961350728, 40.872451819245995 ], [ -73.912989045876046, 40.872439883826807 ], [ -73.912990689316985, 40.872426838758926 ], [ -73.912990150020804, 40.872419206677414 ], [ -73.912989003502886, 40.872410623274206 ], [ -73.912987555853604, 40.872403668560295 ], [ -73.91298509158851, 40.872395734271656 ], [ -73.912982676946825, 40.872388958944484 ], [ -73.912980646951496, 40.872382761150902 ], [ -73.912975879595621, 40.872373511347256 ], [ -73.912970696322134, 40.872363830721994 ], [ -73.912964534415764, 40.872355055294705 ], [ -73.912959731052894, 40.87234881491495 ], [ -73.912952146444141, 40.872340299510846 ], [ -73.912945042859477, 40.872334004267188 ], [ -73.912937564332609, 40.872328727116916 ], [ -73.912931706245658, 40.872325280136188 ], [ -73.914179885781436, 40.8713559099618 ], [ -73.91849721573611, 40.873182539529147 ], [ -73.918497398781341, 40.87318318157206 ], [ -73.918500762250574, 40.873192579733299 ], [ -73.918511992252832, 40.873210523583971 ], [ -73.918527724380581, 40.873228469781708 ], [ -73.918564812616921, 40.873264370667584 ], [ -73.918576049914591, 40.873275481700787 ], [ -73.918604152287656, 40.873298563067173 ], [ -73.91861651556664, 40.873310532140962 ], [ -73.918623065922333, 40.873319666098872 ], [ -73.918366597239924, 40.873440478890629 ], [ -73.918237821854078, 40.873506079174483 ], [ -73.918163886455233, 40.873549649084204 ], [ -73.918101525832697, 40.873590268175569 ], [ -73.918050994888631, 40.873626097832435 ], [ -73.918000602796326, 40.873664754139156 ], [ -73.917809539170818, 40.87379788052727 ], [ -73.917543045491186, 40.873991251204934 ], [ -73.917328529724657, 40.874122709408155 ], [ -73.917131383601955, 40.874221488363801 ], [ -73.916874842647843, 40.874324104203637 ], [ -73.916783051660417, 40.874350281850163 ], [ -73.916776592288429, 40.874351257660493 ], [ -73.91673832269997, 40.87435891746486 ], [ -73.916703428440087, 40.874368285247193 ], [ -73.916674157620491, 40.874379370665437 ], [ -73.916664952163444, 40.87438396238074 ], [ -73.916518008268113, 40.874425868861024 ], [ -73.916246277485044, 40.874475420950866 ], [ -73.915873987334351, 40.874507595118509 ], [ -73.915601798802015, 40.874506009132574 ], [ -73.915206978365603, 40.874465864292993 ] ] ] ] } },
{ "type": "Feature", "properties": { "Borough": "MN", "Block": 2244, "Lot": 100, "CD": 112, "BCT2020": "1029700", "BCTCB2020": "10297001001", "CT2010": "297", "CB2010": "1000", "SchoolDist": "06", "Council": 10, "ZipCode": 10034, "FireComp": "E095", "PolicePrct": 34, "HealthCent": 17, "HealthArea": 120, "Sanitboro": "1", "SanitDistr": "12", "SanitSub": "4B", "Address": "5141 BROADWAY", "ZoneDist1": "R7-2", "ZoneDist2": null, "ZoneDist3": null, "ZoneDist4": null, "Overlay1": null, "Overlay2": null, "SPDist1": null, "SPDist2": null, "SPDist3": null, "LtdHeight": null, "SplitZone": "N", "BldgClass": "I1", "LandUse": "08", "Easements": 1, "OwnerType": "X", "OwnerName": "THE PRESPYTERIAN HOSP", "LotArea": 195907, "BldgArea": 393924, "ComArea": 393924, "ResArea": 0, "OfficeArea": 0, "RetailArea": 0, "GarageArea": 0, "StrgeArea": 0, "FactryArea": 0, "OtherArea": 393924, "AreaSource": "2", "NumBldgs": 1, "NumFloors": 3.0, "UnitsRes": 0, "UnitsTotal": 1, "LotFront": 502.0, "LotDepth": 415.75, "BldgFront": 220.0, "BldgDepth": 500.0, "Ext": "N", "ProxCode": "0", "IrrLotCode": "Y", "LotType": "5", "BsmtCode": "2", "AssessLand": 3739950.0, "AssessTot": 55229850.0, "ExemptTot": 55229850.0, "YearBuilt": 1988, "YearAlter1": 2015, "YearAlter2": 2012, "HistDist": null, "Landmark": null, "BuiltFAR": 2.01, "ResidFAR": 3.44, "CommFAR": 0.0, "FacilFAR": 6.5, "BoroCode": 1, "BBL": 1022440099.9999999, "CondoNo": 0, "Tract2010": "0297", "XCoord": 1008325, "YCoord": 257430, "ZoneMap": "1b", "ZMCode": "Y", "Sanborn": "112 077", "TaxMap": "10804", "EDesigNum": null, "APPBBL": 0.0, "APPDate": null, "PLUTOMapID": "1", "FIRM07_FLA": "1", "PFIRM15_FL": "1", "Version": "25v4", "DCPEdited": null, "Latitude": 40.8732274, "Longitude": -73.9129485, "Notes": null, "Shape_Leng": 0.0, "Shape_Area": 193478.485644 }, "geometry": { "type": "MultiPolygon", "coordinates": [ [ [ [ -73.912082214293008, 40.873024287654317 ], [ -73.912196656283356, 40.87289479263832 ], [ -73.912931706245658, 40.872325280136188 ], [ -73.912937564332609, 40.872328727116916 ], [ -73.912945042859477, 40.872334004267188 ], [ -73.912952146444141, 40.872340299510846 ], [ -73.912959731052894, 40.87234881491495 ], [ -73.912964534415764, 40.872355055294705 ], [ -73.912970696322134, 40.872363830721994 ], [ -73.912975879595621, 40.872373511347256 ], [ -73.912980646951496, 40.872382761150902 ], [ -73.912982676946825, 40.872388958944484 ], [ -73.91298509158851, 40.872395734271656 ], [ -73.912987555853604, 40.872403668560295 ], [ -73.912989003502886, 40.872410623274206 ], [ -73.912990150020804, 40.872419206677414 ], [ -73.912990689316985, 40.872426838758926 ], [ -73.912989045876046, 40.872439883826807 ], [ -73.912985961350728, 40.872451819245995 ], [ -73.912981803869727, 40.872461444207026 ], [ -73.912978744900215, 40.872470104577687 ], [ -73.912970849863925, 40.872482175066295 ], [ -73.912962990676618, 40.872493040731221 ], [ -73.912954489183036, 40.872503487197655 ], [ -73.91293637246882, 40.872517766993795 ], [ -73.912920822546383, 40.872528674609853 ], [ -73.912910164214139, 40.872536526944977 ], [ -73.912897959457283, 40.872543924262956 ], [ -73.912891664175618, 40.872548195878181 ], [ -73.912886736733483, 40.872551524858039 ], [ -73.912792445398836, 40.87259811868239 ], [ -73.912872244868012, 40.872672962105582 ], [ -73.912996895285886, 40.872649439189225 ], [ -73.91311590747766, 40.872645568731024 ], [ -73.913240194488267, 40.872660396225825 ], [ -73.913348437150162, 40.872690527983835 ], [ -73.913453215028269, 40.872738675846165 ], [ -73.913568240450374, 40.872824096280382 ], [ -73.913639036529787, 40.872910392050628 ], [ -73.913681131662003, 40.872998424937826 ], [ -73.913697197857417, 40.873068624791586 ], [ -73.913930323765797, 40.873098860322166 ], [ -73.913870348540343, 40.873810984228335 ], [ -73.913092160210667, 40.873753643473016 ], [ -73.91309013029354, 40.873854487606188 ], [ -73.913069564581605, 40.873848851312914 ], [ -73.913042565037301, 40.873843707174046 ], [ -73.913029065859192, 40.873841986915274 ], [ -73.913014436314882, 40.873841975865481 ], [ -73.913000207692548, 40.873842576743634 ], [ -73.912502054276686, 40.873698609795809 ], [ -73.912296622420016, 40.873631419313107 ], [ -73.912043161415767, 40.873528227040332 ], [ -73.911982509155663, 40.873497801752087 ], [ -73.911761649290753, 40.873387013811794 ], [ -73.912082214293008, 40.873024287654317 ] ] ] ] } },
{ "type": "Feature", "properties": { "Borough": "MN", "Block": 2248, "Lot": 92, "CD": 112, "BCT2020": "1029500", "BCTCB2020": "10295004000", "CT2010": "295", "CB2010": "4000", "SchoolDist": "06", "Council": 10, "ZipCode": 10034, "FireComp": "E095", "PolicePrct": 34, "HealthCent": 17, "HealthArea": 120, "Sanitboro": "1", "SanitDistr": "12", "SanitSub": "4B", "Address": "128 SEAMAN AVENUE", "ZoneDist1": "R7A", "ZoneDist2": null, "ZoneDist3": null, "ZoneDist4": null, "Overlay1": null, "Overlay2": null, "SPDist1": null, "SPDist2": null, "SPDist3": null, "LtdHeight": null, "SplitZone": "N", "BldgClass": "C1", "LandUse": "02", "Easements": 0, "OwnerType": null, "OwnerName": "WINDY REALTY ASSOCIATES LLC", "LotArea": 36625, "BldgArea": 127255, "ComArea": 0, "ResArea": 127255, "OfficeArea": 0, "RetailArea": 0, "GarageArea": 0, "StrgeArea": 0, "FactryArea": 0, "OtherArea": 0, "AreaSource": "2", "NumBldgs": 6, "NumFloors": 5.0, "UnitsRes": 259, "UnitsTotal": 259, "LotFront": 325.0, "LotDepth": 325.0, "BldgFront": 55.0, "BldgDepth": 95.0, "Ext": "N", "ProxCode": "2", "IrrLotCode": "Y", "LotType": "1", "BsmtCode": "2", "AssessLand": 407250.0, "AssessTot": 3326400.0, "ExemptTot": 0.0, "YearBuilt": 1920, "YearAlter1": 1986, "YearAlter2": 0, "HistDist": null, "Landmark": null, "BuiltFAR": 3.47, "ResidFAR": 4.0, "CommFAR": 0.0, "FacilFAR": 4.0, "BoroCode": 1, "BBL": 1022480092.0000001, "CondoNo": 0, "Tract2010": "0295", "XCoord": 1005553, "YCoord": 255942, "ZoneMap": "3a", "ZMCode": null, "Sanborn": "112 056", "TaxMap": "10804", "EDesigNum": null, "APPBBL": 0.0, "APPDate": null, "PLUTOMapID": "1", "FIRM07_FLA": null, "PFIRM15_FL": null, "Version": "25v4", "DCPEdited": null, "Latitude": 40.8691504, "Longitude": -73.9229763, "Notes": null, "Shape_Leng": 0.0, "Shape_Area": 39308.982790800001 }, "geometry": { "type": "MultiPolygon", "coordinates": [ [ [ [ -73.923053153620856, 40.869335220212832 ], [ -73.923017801958224, 40.869277543549316 ], [ -73.922477340145178, 40.869471971346655 ], [ -73.922310360508618, 40.869209964607109 ], [ -73.923400426723887, 40.868817356244186 ], [ -73.923604014543002, 40.869136815468167 ], [ -73.923053153620856, 40.869335220212832 ] ] ] ] } },
{ "type": "Feature", "properties": { "Borough": "MN", "Block": 2255, "Lot": 2000, "CD": 112, "BCT2020": "1029700", "BCTCB2020": "10297001003", "CT2010": "297", "CB2010": "1000", "SchoolDist": "06", "Council": 10, "ZipCode": 10034, "FireComp": "E095", "PolicePrct": 34, "HealthCent": 17, "HealthArea": 120, "Sanitboro": "1", "SanitDistr": "12", "SanitSub": "4B", "Address": "269 DYCKMAN STREET", "ZoneDist1": "PARK", "ZoneDist2": null, "ZoneDist3": null, "ZoneDist4": null, "Overlay1": null, "Overlay2": null, "SPDist1": null, "SPDist2": null, "SPDist3": null, "LtdHeight": null, "SplitZone": "N", "BldgClass": "Q1", "LandUse": "09", "Easements": 1, "OwnerType": "M", "OwnerName": "TRUSTEE OF COLUMBIA UNIVERSITY NYC", "LotArea": 11320000, "BldgArea": 0, "ComArea": 0, "ResArea": 0, "OfficeArea": 0, "RetailArea": 0, "GarageArea": 0, "StrgeArea": 0, "FactryArea": 0, "OtherArea": 0, "AreaSource": "7", "NumBldgs": 7, "NumFloors": 0.0, "UnitsRes": 0, "UnitsTotal": 0, "LotFront": 1080.17, "LotDepth": 5000.0, "BldgFront": 0.0, "BldgDepth": 0.0, "Ext": "N", "ProxCode": "0", "IrrLotCode": "Y", "LotType": "2", "BsmtCode": "0", "AssessLand": 51286500.0, "AssessTot": 60990750.0, "ExemptTot": 60990750.0, "YearBuilt": 0, "YearAlter1": 0, "YearAlter2": 0, "HistDist": null, "Landmark": null, "BuiltFAR": 0.0, "ResidFAR": 0.0, "CommFAR": 0.0, "FacilFAR": 0.0, "BoroCode": 1, "BBL": 1022552000.0, "CondoNo": 0, "Tract2010": "0297", "XCoord": 1004800, "YCoord": 257521, "ZoneMap": "1b", "ZMCode": "Y", "Sanborn": "112 074", "TaxMap": "10804", "EDesigNum": null, "APPBBL": 0.0, "APPDate": null, "PLUTOMapID": "1", "FIRM07_FLA": "1", "PFIRM15_FL": "1", "Version": "25v4", "DCPEdited": null, "Latitude": 40.8734861, "Longitude": -73.925694, "Notes": null, "Shape_Leng": 0.0, "Shape_Area": 7989918.3740800004 }, "geometry": { "type": "MultiPolygon", "coordinates": [ [ [ [ -73.919003229200726, 40.876026596489936 ], [ -73.91903852974896, 40.876040633958759 ], [ -73.919141998837304, 40.876085976988648 ], [ -73.919216483715957, 40.8761209696858 ], [ -73.919003229200726, 40.876026596489936 ] ] ], [ [ [ -73.91860946333091, 40.875891427593928 ], [ -73.918659480695482, 40.875901142987111 ], [ -73.918705600714134, 40.875913134047565 ], [ -73.918753969379594, 40.8759285422883 ], [ -73.918806833830516, 40.875948224615428 ], [ -73.918890062667231, 40.875981595109181 ], [ -73.918936352515331, 40.876000002557802 ], [ -73.91860946333091, 40.875891427593928 ] ] ], [ [ [ -73.917677340463129, 40.875661512787495 ], [ -73.917689792108746, 40.875662151888726 ], [ -73.917713419706132, 40.87566473065305 ], [ -73.917734795653985, 40.875668163295771 ], [ -73.917755043756614, 40.875673301596152 ], [ -73.917774165902287, 40.875678441682908 ], [ -73.917792163731335, 40.875685286593409 ], [ -73.917801244213933, 40.875688971041228 ], [ -73.917677340463129, 40.875661512787495 ] ] ], [ [ [ -73.911996416755159, 40.874568468751555 ], [ -73.912025508281502, 40.874574923989798 ], [ -73.912078372998636, 40.874590338468003 ], [ -73.912139113916297, 40.874609176216964 ], [ -73.912152794769128, 40.874614549337046 ], [ -73.911996416755159, 40.874568468751555 ] ] ], [ [ [ -73.911629676661974, 40.873310416025575 ], [ -73.911648166649329, 40.8733218097071 ], [ -73.911761649290753, 40.873387013811794 ], [ -73.911982509155663, 40.873497801752087 ], [ -73.912043161415767, 40.873528227040332 ], [ -73.912296622420016, 40.873631419313107 ], [ -73.912502054276686, 40.873698609795809 ], [ -73.913000207692548, 40.873842576743634 ], [ -73.912954794915365, 40.873844494515062 ], [ -73.912928915493481, 40.873843621298121 ], [ -73.912870215225226, 40.873836022696054 ], [ -73.912862538601345, 40.873835029046781 ], [ -73.912795039180608, 40.873823018536036 ], [ -73.912709546509461, 40.87380416412752 ], [ -73.91265780240677, 40.873791311825997 ], [ -73.912611688316886, 40.873776758227294 ], [ -73.912572324417638, 40.873761353403921 ], [ -73.91248910704428, 40.873723709081922 ], [ -73.912366524757559, 40.873670658047288 ], [ -73.912169722924574, 40.873585950356457 ], [ -73.911972630980586, 40.873505724701459 ], [ -73.911959687154962, 40.873508491017013 ], [ -73.9119337886426, 40.873522136094188 ], [ -73.911921126369222, 40.873524594672617 ], [ -73.911853655133896, 40.87349260805172 ], [ -73.911832291406242, 40.873480634122856 ], [ -73.911814302800749, 40.873468661853273 ], [ -73.911751358094151, 40.873418219451302 ], [ -73.911721008780233, 40.873394281040909 ], [ -73.911665926429421, 40.873353240315275 ], [ -73.91165131406575, 40.873342124263175 ], [ -73.911619370195467, 40.873318253453064 ], [ -73.911629676661974, 40.873310416025575 ] ] ], [ [ [ -73.913520635023076, 40.873994899362721 ], [ -73.913334988209996, 40.873949836888961 ], [ -73.913324864026961, 40.873948122885068 ], [ -73.913298988014049, 40.87394468603604 ], [ -73.913289425036723, 40.87394297061013 ], [ -73.913268618847951, 40.873935267469918 ], [ -73.91324837376753, 40.873926711012842 ], [ -73.913201520831493, 40.873901253785284 ], [ -73.913520635023076, 40.873994899362721 ] ] ], [ [ [ -73.914356058825774, 40.874240058367363 ], [ -73.914328203652701, 40.874237570806145 ], [ -73.914312453817658, 40.874234995369889 ], [ -73.914298954415045, 40.874231568874428 ], [ -73.914196595175923, 40.874202452745564 ], [ -73.914088612656229, 40.874170769534366 ], [ -73.913957014388885, 40.874127963737727 ], [ -73.913937894977664, 40.874120261978852 ], [ -73.913920704186296, 40.874112301479407 ], [ -73.914356058825774, 40.874240058367363 ] ] ], [ [ [ -73.914639323724344, 40.874323183723838 ], [ -73.914724327367992, 40.874349179945263 ], [ -73.914702773468747, 40.874343759972412 ], [ -73.914639782841988, 40.874324923660865 ], [ -73.91461452876959, 40.874315907540684 ], [ -73.914639323724344, 40.874323183723838 ] ] ], [ [ [ -73.915206978365603, 40.874465864292993 ], [ -73.915601798802015, 40.874506009132574 ], [ -73.915873987334351, 40.874507595118509 ], [ -73.916246277485044, 40.874475420950866 ], [ -73.916518008268113, 40.874425868861024 ], [ -73.916664952163444, 40.87438396238074 ], [ -73.916627994010213, 40.874402397069098 ], [ -73.916524397188496, 40.874461257224283 ], [ -73.916498500312471, 40.874474049756266 ], [ -73.916472605683978, 40.874485134895053 ], [ -73.916411814548411, 40.874508154112867 ], [ -73.916363406596275, 40.874524346718779 ], [ -73.916318382472156, 40.874536270658538 ], [ -73.916276740063239, 40.874543075126589 ], [ -73.916260985912061, 40.874544770974602 ], [ -73.916247480827721, 40.87454476115245 ], [ -73.916232856805692, 40.874543043210828 ], [ -73.916205855526016, 40.874537897051496 ], [ -73.916192358250953, 40.874533617126062 ], [ -73.916181112389665, 40.874528483347149 ], [ -73.916169866499814, 40.874522498591624 ], [ -73.916159748735595, 40.874515657406619 ], [ -73.916137252955991, 40.874509662698486 ], [ -73.916115876116194, 40.874505376106306 ], [ -73.916094499680042, 40.87450365138772 ], [ -73.916073120842995, 40.874502783075592 ], [ -73.916050613190095, 40.874505328544359 ], [ -73.915998841990003, 40.874512976502764 ], [ -73.915975208257692, 40.874514668404757 ], [ -73.915953829662968, 40.874514652802581 ], [ -73.91593020038512, 40.874513780979932 ], [ -73.915903197239885, 40.874512052117716 ], [ -73.915889693396551, 40.874512896826616 ], [ -73.9158784388908, 40.874513743177232 ], [ -73.915738887063256, 40.874530725229867 ], [ -73.915706250596344, 40.874534116872432 ], [ -73.915682619385976, 40.874535806874903 ], [ -73.915656737346424, 40.874534933347952 ], [ -73.91562748485704, 40.874533204612462 ], [ -73.91553354382765, 40.874519043119001 ], [ -73.915519482664138, 40.874516043181117 ], [ -73.915475614361171, 40.874501491455504 ], [ -73.915463239711841, 40.874499773227292 ], [ -73.915453677825795, 40.874498912555104 ], [ -73.915349584817633, 40.87450395983317 ], [ -73.915312450847111, 40.874505640752837 ], [ -73.915291070916155, 40.874504772295012 ], [ -73.915271945922669, 40.874502196348359 ], [ -73.915251695091342, 40.87449876407657 ], [ -73.915184202192918, 40.874480776644788 ], [ -73.915021099733792, 40.874436242386459 ], [ -73.914983979754624, 40.874425111066657 ], [ -73.91493380376491, 40.874408263990389 ], [ -73.915206978365603, 40.874465864292993 ] ] ], [ [ [ -73.916874842647843, 40.874324104203637 ], [ -73.917131383601955, 40.874221488363801 ], [ -73.917328529724657, 40.874122709408155 ], [ -73.917543045491186, 40.873991251204934 ], [ -73.917809539170818, 40.87379788052727 ], [ -73.918000602796326, 40.873664754139156 ], [ -73.918050994888631, 40.873626097832435 ], [ -73.918101525832697, 40.873590268175569 ], [ -73.918163886455233, 40.873549649084204 ], [ -73.918237821854078, 40.873506079174483 ], [ -73.918366597239924, 40.873440478890629 ], [ -73.918623065922333, 40.873319666098872 ], [ -73.918623256483599, 40.873319931683135 ], [ -73.918627744742153, 40.873330183367422 ], [ -73.918631106145256, 40.87334129058506 ], [ -73.918633341912368, 40.873353249740482 ], [ -73.918632200423616, 40.873366060243768 ], [ -73.918631060143738, 40.873378871584144 ], [ -73.918626545911948, 40.873390826051619 ], [ -73.918620905700166, 40.87340192598716 ], [ -73.918607377017892, 40.873423269695927 ], [ -73.918602868885486, 40.873429245756647 ], [ -73.918581456995483, 40.873455709566962 ], [ -73.918556671900461, 40.873479608105676 ], [ -73.918529637536167, 40.873502650559047 ], [ -73.918517249217217, 40.873511182916559 ], [ -73.918483470105372, 40.873530802295647 ], [ -73.91847558452092, 40.873536776880158 ], [ -73.91846770125278, 40.873542749708044 ], [ -73.918440662806091, 40.873570061319271 ], [ -73.918415872374837, 40.873598231766834 ], [ -73.918409111870304, 40.873606768100124 ], [ -73.918290838126779, 40.873707470663241 ], [ -73.918276187608939, 40.87372454351663 ], [ -73.918260414794787, 40.873741616409021 ], [ -73.918242390295973, 40.87375783137054 ], [ -73.918223241021508, 40.873773192715909 ], [ -73.91820297050333, 40.873787696930407 ], [ -73.918181575049843, 40.873800493874128 ], [ -73.918159054933938, 40.873812435443682 ], [ -73.9181365381246, 40.873822669704452 ], [ -73.918110646016927, 40.873832047073243 ], [ -73.918081379931422, 40.873840567378608 ], [ -73.91797895429815, 40.873864410528455 ], [ -73.917940684232931, 40.873873778119581 ], [ -73.917904660515134, 40.873887419158962 ], [ -73.917875384679022, 40.873901917814635 ], [ -73.917850611085981, 40.873918130578346 ], [ -73.917898940977679, 40.87396172348334 ], [ -73.917966502438517, 40.873923336037997 ], [ -73.918032804409137, 40.873994276130212 ], [ -73.917887548425099, 40.874075314937265 ], [ -73.917880805582968, 40.874068477145698 ], [ -73.917437134144024, 40.874332088061671 ], [ -73.917278378166714, 40.87440884539545 ], [ -73.917246916571841, 40.874372949905201 ], [ -73.917397792192958, 40.874298747164644 ], [ -73.91784146879246, 40.874030014404845 ], [ -73.917817874666767, 40.874001809559822 ], [ -73.917857283147299, 40.8739813398198 ], [ -73.91781682608827, 40.873940312554396 ], [ -73.917762771293525, 40.873975294866433 ], [ -73.917716601687175, 40.874001737232135 ], [ -73.917653549516118, 40.874035003918387 ], [ -73.917592747204935, 40.874064854893163 ], [ -73.917527446560641, 40.874095557188539 ], [ -73.917458769344975, 40.87412540337305 ], [ -73.917384466858564, 40.874156099048768 ], [ -73.917227982982155, 40.874216629268155 ], [ -73.917105608363329, 40.87426125992598 ], [ -73.91695217190302, 40.874317218934038 ], [ -73.916922903175276, 40.8743265935165 ], [ -73.916889136918485, 40.874334254863591 ], [ -73.916855372751584, 40.874339356917694 ], [ -73.916783051660417, 40.874350281850163 ], [ -73.916874842647843, 40.874324104203637 ] ] ], [ [ [ -73.919070922585419, 40.873160636393685 ], [ -73.91961630042853, 40.873033647727127 ], [ -73.920386768400888, 40.872890455837187 ], [ -73.920740135822896, 40.872815124221496 ], [ -73.920548730229342, 40.872169980232464 ], [ -73.920703186611874, 40.872134818088078 ], [ -73.920973587389398, 40.872107415658853 ], [ -73.921439859369229, 40.872093704301719 ], [ -73.92145012171973, 40.870810794419107 ], [ -73.920934732295052, 40.869986734129569 ], [ -73.921568067967584, 40.869549524350894 ], [ -73.921721617664772, 40.869443523165771 ], [ -73.921928553057555, 40.869353787518293 ], [ -73.92204376937606, 40.869305982058371 ], [ -73.922210860613433, 40.869568175646762 ], [ -73.922477340145178, 40.869471971346655 ], [ -73.923017801958224, 40.869277543549316 ], [ -73.923053153620856, 40.869335220212832 ], [ -73.923604014543002, 40.869136815468167 ], [ -73.923400426723887, 40.868817356244186 ], [ -73.923424405070122, 40.86885229048611 ], [ -73.923443410997052, 40.868875684384257 ], [ -73.92346925549127, 40.868903229619505 ], [ -73.923488929160428, 40.868921655883739 ], [ -73.923517727980325, 40.868945516401226 ], [ -73.923562277506832, 40.868976668769783 ], [ -73.923585935742622, 40.868990894234521 ], [ -73.923609264813805, 40.869003580490698 ], [ -73.92363147730488, 40.869014539789326 ], [ -73.923658181027392, 40.869026395369524 ], [ -73.923676637219344, 40.869033808805156 ], [ -73.923700689683443, 40.869042575696504 ], [ -73.923743600267031, 40.869055880005547 ], [ -73.923774914603101, 40.869063825981243 ], [ -73.923806457078882, 40.869070418668493 ], [ -73.923836927679716, 40.869075500516495 ], [ -73.923862733679314, 40.869078844859814 ], [ -73.923897895653866, 40.869082026139914 ], [ -73.923943029391083, 40.869083826353112 ], [ -73.923976653279624, 40.869083515351868 ], [ -73.924004940290004, 40.869082159015448 ], [ -73.924038265827988, 40.869079267013078 ], [ -73.924074056048127, 40.869074570267877 ], [ -73.924112480932649, 40.869067636627221 ], [ -73.925988662507621, 40.86865463874696 ], [ -73.926093050669564, 40.868630180946361 ], [ -73.926191588804556, 40.868598793618403 ], [ -73.926341461839314, 40.868531848077097 ], [ -73.926455587607734, 40.868460936255332 ], [ -73.926991020567797, 40.868091233907009 ], [ -73.927121645552361, 40.867962572681947 ], [ -73.927889342732442, 40.867428567100333 ], [ -73.9286565158625, 40.866894914434887 ], [ -73.930702513338957, 40.868637409520076 ], [ -73.930802262772644, 40.868722359739913 ], [ -73.931012996582766, 40.868901827077607 ], [ -73.931141686439048, 40.869011421862503 ], [ -73.93125998038559, 40.869112162888264 ], [ -73.930716679629896, 40.87025997071008 ], [ -73.930202717895867, 40.871593139630491 ], [ -73.931426035236527, 40.869253575054515 ], [ -73.931996930215831, 40.869739750119997 ], [ -73.932197761241298, 40.869910775111009 ], [ -73.932199217416667, 40.869925010152279 ], [ -73.932203661369712, 40.869980531657347 ], [ -73.932202447980686, 40.870067652465586 ], [ -73.932194507757401, 40.870129998655116 ], [ -73.932183181241413, 40.870203447696781 ], [ -73.932166224437239, 40.870282019014574 ], [ -73.932158319021894, 40.870310198781887 ], [ -73.932148165801252, 40.870335816264401 ], [ -73.932100794851408, 40.870446826927044 ], [ -73.932056806688948, 40.870551003900957 ], [ -73.932052291119135, 40.870565522533163 ], [ -73.932047773683408, 40.870580894816499 ], [ -73.932039836440197, 40.870642387340297 ], [ -73.932017222054711, 40.870749994286605 ], [ -73.932013831660214, 40.870762806276524 ], [ -73.932007067073798, 40.870777321820078 ], [ -73.931974377680234, 40.870836236828289 ], [ -73.931969863932366, 40.87084904639503 ], [ -73.931966475271125, 40.870860149238034 ], [ -73.931948377306725, 40.870953237540697 ], [ -73.931913307410895, 40.871136854675569 ], [ -73.931902014871682, 40.871177848249033 ], [ -73.931882833954631, 40.871229082907512 ], [ -73.931864786544693, 40.871272633436838 ], [ -73.931852381961775, 40.87129910588618 ], [ -73.931838854227266, 40.871323013113951 ], [ -73.931824206636833, 40.871343502306956 ], [ -73.931798294642718, 40.87137508966704 ], [ -73.93175887007601, 40.87141692011852 ], [ -73.931677769691419, 40.871501428947042 ], [ -73.931651858440233, 40.871532164462927 ], [ -73.931612420176592, 40.871585950675779 ], [ -73.931542563213142, 40.871678154481238 ], [ -73.931507631963484, 40.871726818746119 ], [ -73.931479452592399, 40.871774634202829 ], [ -73.931468176736274, 40.871796834417417 ], [ -73.931459152436702, 40.871819037895669 ], [ -73.931445607167731, 40.871860881890079 ], [ -73.93142752846255, 40.871934326812763 ], [ -73.931401534740431, 40.872043639826153 ], [ -73.931386855998966, 40.872094025181937 ], [ -73.931382344037175, 40.872105980987911 ], [ -73.931373328154791, 40.872118786924062 ], [ -73.931340656063227, 40.872159765844927 ], [ -73.931330512941102, 40.872175135660967 ], [ -73.931268523026986, 40.872275884189882 ], [ -73.931236958256065, 40.872332237851076 ], [ -73.931185096771301, 40.87243043318324 ], [ -73.931128725533412, 40.872537167000353 ], [ -73.93107798267269, 40.872639631296131 ], [ -73.931066711619138, 40.87265926875682 ], [ -73.931052061395988, 40.872680614174101 ], [ -73.930997983450965, 40.872745496321251 ], [ -73.930879694547301, 40.872882939164157 ], [ -73.930850399983271, 40.8729196498671 ], [ -73.930823355000612, 40.872957214646576 ], [ -73.930797434786811, 40.872995634751682 ], [ -73.930772638678903, 40.87303576458747 ], [ -73.930748963459465, 40.873079312379545 ], [ -73.930701604137539, 40.87317494563635 ], [ -73.930681310160821, 40.873212515365537 ], [ -73.9306024137028, 40.873338024978601 ], [ -73.930574233107933, 40.873385840201344 ], [ -73.930548305445882, 40.87343109305867 ], [ -73.930090670879096, 40.874183306814579 ], [ -73.929839425352483, 40.874482953146128 ], [ -73.929141675162157, 40.875628773468478 ], [ -73.929105606335, 40.87568597730872 ], [ -73.928876975629763, 40.875874597821323 ], [ -73.928717045916528, 40.876006036068681 ], [ -73.927968071523921, 40.876621397524488 ], [ -73.927577500900128, 40.876710835750202 ], [ -73.927301616834271, 40.876884052954409 ], [ -73.927033542495124, 40.877118767903347 ], [ -73.92695919896569, 40.877184490669926 ], [ -73.92688936525407, 40.877244233411204 ], [ -73.926619012247897, 40.877498593726273 ], [ -73.926528894664713, 40.877583950348793 ], [ -73.926492862468649, 40.877606132495245 ], [ -73.926460222878291, 40.877610384507243 ], [ -73.92644559466035, 40.877609520589786 ], [ -73.926414091618113, 40.877605228516217 ], [ -73.926381468484905, 40.87759581288914 ], [ -73.926360094878149, 40.877588110832512 ], [ -73.926344348889529, 40.877582122352123 ], [ -73.926336476101724, 40.877577848136028 ], [ -73.926327477441006, 40.877573570438656 ], [ -73.926311172062697, 40.877563738407261 ], [ -73.926299366680354, 40.877553907414516 ], [ -73.926288127477761, 40.877542798061704 ], [ -73.926283634802743, 40.877535107718991 ], [ -73.926280267962056, 40.877526564361879 ], [ -73.92627802678291, 40.877518020051653 ], [ -73.9262780381505, 40.877507770634914 ], [ -73.926280313433736, 40.877485564265847 ], [ -73.926290480314591, 40.877450553406526 ], [ -73.926292737224003, 40.877443720200802 ], [ -73.926297244935654, 40.877437743760161 ], [ -73.926302879736269, 40.877431769966144 ], [ -73.926309637988098, 40.877425795049533 ], [ -73.926327654470455, 40.87741384717642 ], [ -73.926373819125644, 40.8773908169903 ], [ -73.926392959303911, 40.877379724397137 ], [ -73.926400844628915, 40.877373751032124 ], [ -73.926407603812862, 40.877366922460212 ], [ -73.926413238331776, 40.877360092247564 ], [ -73.926416622042524, 40.877352408784581 ], [ -73.926420014528802, 40.877337890508635 ], [ -73.926422283031584, 40.877321663374893 ], [ -73.926421174018671, 40.877305433160913 ], [ -73.92642007031381, 40.877287495564879 ], [ -73.92641558909736, 40.87726955589229 ], [ -73.926408858027116, 40.877249907394486 ], [ -73.926401003512495, 40.877230256420226 ], [ -73.92639089914708, 40.877208897541429 ], [ -73.926375174628944, 40.877182409475495 ], [ -73.926357191866003, 40.877161899205923 ], [ -73.926348200147984, 40.877152497762566 ], [ -73.926338078507158, 40.87714565839137 ], [ -73.926327959297197, 40.877138818100789 ], [ -73.926316713421841, 40.877133686232582 ], [ -73.926270593871195, 40.877118281770194 ], [ -73.926217720589563, 40.877103729288748 ], [ -73.926161469297526, 40.877091733815774 ], [ -73.926051213500159, 40.877071165194828 ], [ -73.925948835919868, 40.877048891472 ], [ -73.925893707883958, 40.877040315798602 ], [ -73.925866703195325, 40.877037733775104 ], [ -73.925841947970724, 40.877036010526162 ], [ -73.925817189999648, 40.877036848227327 ], [ -73.925794683917701, 40.877038541108753 ], [ -73.925740659426367, 40.877047903718882 ], [ -73.925682131258853, 40.877060676329748 ], [ -73.925620220566628, 40.877077719500868 ], [ -73.925560286783536, 40.87709587130707 ], [ -73.92551328080441, 40.877110107609646 ], [ -73.925377075400647, 40.877150164118618 ], [ -73.925336546986728, 40.877164657363643 ], [ -73.925300524468355, 40.877179154355908 ], [ -73.9252678693977, 40.877196215482634 ], [ -73.925234086420446, 40.877218400452875 ], [ -73.925200298255177, 40.877244001942216 ], [ -73.925149612413136, 40.877286676512924 ], [ -73.925137221488981, 40.877298627860952 ], [ -73.925123700700411, 40.877313138592122 ], [ -73.925083134125217, 40.877363504419087 ], [ -73.925067357955271, 40.877382287371006 ], [ -73.925048208640121, 40.877400210876637 ], [ -73.925029063029783, 40.877413865117731 ], [ -73.925013299607627, 40.877422396889806 ], [ -73.924996410059919, 40.87743007251688 ], [ -73.924978397909811, 40.877436891833248 ], [ -73.924962639297874, 40.877441153502787 ], [ -73.924939002356822, 40.877447117335244 ], [ -73.924916490656145, 40.877450518265931 ], [ -73.924895108110164, 40.877453066192388 ], [ -73.924872599545182, 40.877454761486277 ], [ -73.924839965004551, 40.8774555947574 ], [ -73.924809584149912, 40.877454720345597 ], [ -73.924779204128299, 40.877452136867113 ], [ -73.924749948524124, 40.877448702138054 ], [ -73.924695948850896, 40.877436707421978 ], [ -73.924573328893615, 40.87740331624434 ], [ -73.924517077643401, 40.87739132273073 ], [ -73.924485575797874, 40.877386177401149 ], [ -73.924449571665249, 40.877381028188346 ], [ -73.924298800513156, 40.877366409620329 ], [ -73.924238042924188, 40.877356973041628 ], [ -73.924177293747476, 40.877343268095331 ], [ -73.924078297666412, 40.877316723086054 ], [ -73.924050175101598, 40.877308164337471 ], [ -73.924018679929077, 40.877296186827635 ], [ -73.923917452999035, 40.877252557887033 ], [ -73.923879210417482, 40.877238014002486 ], [ -73.923840964686363, 40.87722517565107 ], [ -73.923804965819983, 40.877216610711763 ], [ -73.923780211673531, 40.877214031531039 ], [ -73.923755455568511, 40.877213161486864 ], [ -73.923729571753839, 40.877214852564791 ], [ -73.923701435675554, 40.877219103100067 ], [ -73.923676671490966, 40.877224213197032 ], [ -73.923649658334071, 40.877231029098866 ], [ -73.923556226704562, 40.877259151492346 ], [ -73.92352020513357, 40.877269377913031 ], [ -73.923484187603464, 40.877277041446831 ], [ -73.923451545790215, 40.877282143499293 ], [ -73.923375020676701, 40.877288926406564 ], [ -73.923323252851631, 40.87729145381428 ], [ -73.923277116021794, 40.877290568505465 ], [ -73.923234359664434, 40.877287125396613 ], [ -73.923192730935895, 40.877281117469416 ], [ -73.92315223105102, 40.877272549323628 ], [ -73.923112857589118, 40.877261419958899 ], [ -73.923086985710228, 40.877252860638407 ], [ -73.923075737371377, 40.877249010770768 ], [ -73.923043120326298, 40.877234893596324 ], [ -73.923011629329025, 40.877219497609097 ], [ -73.922984642602785, 40.877202398159802 ], [ -73.922967777840952, 40.877189576496193 ], [ -73.922959907300481, 40.877183591986324 ], [ -73.922954289608256, 40.877177608063519 ], [ -73.922948669600927, 40.877171625980345 ], [ -73.922944175355241, 40.877164790077479 ], [ -73.922938557219382, 40.877157098766816 ], [ -73.922914985683349, 40.877106688924691 ], [ -73.922906003375715, 40.877089599752516 ], [ -73.922894766470151, 40.877075926353484 ], [ -73.922888020605981, 40.877069942593153 ], [ -73.922880150306455, 40.877064813570833 ], [ -73.922811555852164, 40.877022914655711 ], [ -73.922780068204602, 40.877005811220073 ], [ -73.922748577375074, 40.876990415160485 ], [ -73.922709211209693, 40.876973307338702 ], [ -73.922618104864526, 40.876938225251358 ], [ -73.922578740859734, 40.876920263734817 ], [ -73.922548378971612, 40.876902306419701 ], [ -73.922519145847318, 40.876880933492302 ], [ -73.922488793954045, 40.876854434129527 ], [ -73.922458447845742, 40.87682195736015 ], [ -73.922432605340759, 40.876789483615624 ], [ -73.922422494129123, 40.876774101868726 ], [ -73.922414636967687, 40.876758721556122 ], [ -73.922409027012577, 40.87674419833295 ], [ -73.922405667583192, 40.876729673866052 ], [ -73.922403433018019, 40.876716006485225 ], [ -73.922404574833934, 40.876702342385123 ], [ -73.922410244388757, 40.876664764278104 ], [ -73.922431727662271, 40.876576802675281 ], [ -73.922435130948585, 40.876553742564781 ], [ -73.922436279515196, 40.876533246409089 ], [ -73.922436353268978, 40.876470040168392 ], [ -73.922424195267553, 40.87628212232589 ], [ -73.922424218193257, 40.876262478226167 ], [ -73.922426493726917, 40.876241125495596 ], [ -73.922441231219096, 40.876148033829715 ], [ -73.922443507625161, 40.876125829288739 ], [ -73.922443531542285, 40.876105330532305 ], [ -73.922441308951875, 40.876081412979254 ], [ -73.922435713002912, 40.876054932113334 ], [ -73.922425616853843, 40.876026737229843 ], [ -73.92239420478279, 40.875946427522578 ], [ -73.922387482015495, 40.875920800467149 ], [ -73.922384134915603, 40.875897736642123 ], [ -73.922380810335355, 40.875852464161191 ], [ -73.922383111686699, 40.875808906291589 ], [ -73.922389913007208, 40.875766204270612 ], [ -73.922400089869626, 40.875725211827636 ], [ -73.922417017734986, 40.875682516629588 ], [ -73.922437321017412, 40.875640678274607 ], [ -73.922462126333457, 40.875598843784232 ], [ -73.922491430478701, 40.875557864212468 ], [ -73.922538808286575, 40.875457962432016 ], [ -73.922542195553149, 40.875448569018481 ], [ -73.922550096702253, 40.875428074722741 ], [ -73.922560246110294, 40.875408438268188 ], [ -73.92257489856074, 40.875387093021033 ], [ -73.922615461078607, 40.875341850885455 ], [ -73.922631239223662, 40.875320509063982 ], [ -73.922644771860703, 40.875294894709683 ], [ -73.922653806643595, 40.875266714536423 ], [ -73.922661721759241, 40.875235116241448 ], [ -73.922665138697283, 40.875199245742486 ], [ -73.922669727071735, 40.875124083191352 ], [ -73.922668664050178, 40.875071129112392 ], [ -73.922664234566255, 40.875009627217374 ], [ -73.922663138652567, 40.87498400303194 ], [ -73.922663239019386, 40.874897735301033 ], [ -73.922663345348141, 40.874806342900015 ], [ -73.922661138619091, 40.874768760312946 ], [ -73.922657805179895, 40.87473288352119 ], [ -73.922653330118678, 40.874710674433274 ], [ -73.922634280441031, 40.874643185219881 ], [ -73.922614151382717, 40.87453469504517 ], [ -73.922592924520728, 40.874402291661454 ], [ -73.922587331637558, 40.874373246243174 ], [ -73.922579488757833, 40.874345909293048 ], [ -73.922570517636117, 40.874318570662055 ], [ -73.922558171582935, 40.874292084333412 ], [ -73.922545817469086, 40.874271577328265 ], [ -73.922530089314833, 40.87425021431558 ], [ -73.922508736583069, 40.874227991185215 ], [ -73.922480633347675, 40.874204056116611 ], [ -73.922471637380241, 40.874198071733609 ], [ -73.922461515593042, 40.874192086590369 ], [ -73.922409781479161, 40.874169845653128 ], [ -73.922396289365977, 40.87416086676847 ], [ -73.922387720485972, 40.874150824137999 ], [ -73.922385057942165, 40.874142068643941 ], [ -73.922386198327615, 40.874130538665966 ], [ -73.922394106527122, 40.874101931841025 ], [ -73.922393556687723, 40.874091254293063 ], [ -73.922372797275656, 40.874042555351231 ], [ -73.922352591114432, 40.874000686917029 ], [ -73.922331259476593, 40.873960529624057 ], [ -73.922309922556522, 40.873922934200657 ], [ -73.92222680229554, 40.87379646460024 ], [ -73.922191981295697, 40.873745194161835 ], [ -73.922158276164595, 40.873702463835301 ], [ -73.922142541843101, 40.87368451637537 ], [ -73.922124560643894, 40.873666568230988 ], [ -73.922082966898216, 40.87363066636356 ], [ -73.922039123319237, 40.873596470262861 ], [ -73.921935691334212, 40.873522091768621 ], [ -73.921808651092107, 40.873425488303361 ], [ -73.92167599517947, 40.87332290254853 ], [ -73.921617523689477, 40.873288697336811 ], [ -73.921598407866995, 40.873278433967144 ], [ -73.921581538326436, 40.873270735005903 ], [ -73.921563542066323, 40.873264745340315 ], [ -73.921546668705801, 40.873261316473382 ], [ -73.921529792114526, 40.873259597666213 ], [ -73.921510098986886, 40.873260011068687 ], [ -73.921501658375462, 40.87326214036495 ], [ -73.921489275525431, 40.873266402023319 ], [ -73.92147801424197, 40.873273227243111 ], [ -73.92144535970975, 40.873293703748864 ], [ -73.921431848518338, 40.873300101522325 ], [ -73.921423968984541, 40.873302230275712 ], [ -73.921372196396831, 40.873313301612534 ], [ -73.921353065557184, 40.873315850421918 ], [ -73.92133618370697, 40.873317545356301 ], [ -73.921319304975711, 40.873317533822458 ], [ -73.921304679989859, 40.873315817358765 ], [ -73.921291180411828, 40.873312391680628 ], [ -73.921281619938426, 40.873309395520998 ], [ -73.921268688629169, 40.873302977844084 ], [ -73.921259695114969, 40.873296140635169 ], [ -73.921250701203263, 40.873287594195837 ], [ -73.921241709521638, 40.873278190507378 ], [ -73.921229356203511, 40.873258537929992 ], [ -73.921201285224427, 40.873208125458802 ], [ -73.92119791611043, 40.873202143905019 ], [ -73.921195676126288, 40.873195310391949 ], [ -73.921191192456035, 40.873179931458516 ], [ -73.92118451710725, 40.87311586690614 ], [ -73.92118115609955, 40.873103052374844 ], [ -73.921177793068139, 40.873091947070201 ], [ -73.921172178629092, 40.873081693876102 ], [ -73.921165999059724, 40.873074856662335 ], [ -73.921156442786881, 40.873068444043689 ], [ -73.921144632886751, 40.873063738107739 ], [ -73.921095695544068, 40.873056017106627 ], [ -73.921045068991276, 40.873049149498542 ], [ -73.920889804188363, 40.873035377031378 ], [ -73.920768292578657, 40.873025043202404 ], [ -73.920742416429974, 40.87302160802173 ], [ -73.920688418757379, 40.873009614181953 ], [ -73.920660857262419, 40.87300489734438 ], [ -73.920620915892414, 40.873001025616261 ], [ -73.920579281921249, 40.873001850555802 ], [ -73.92056015185868, 40.873002691930076 ], [ -73.920541020056888, 40.873006094257768 ], [ -73.920524138531832, 40.873009500895883 ], [ -73.92050837613877, 40.873014612848344 ], [ -73.920453217399668, 40.873035076212147 ], [ -73.920369908402805, 40.87307003694162 ], [ -73.920277592582835, 40.873110117806519 ], [ -73.920212295142306, 40.873139966970442 ], [ -73.920186395312598, 40.873155324047119 ], [ -73.920159367879492, 40.873174094945867 ], [ -73.920132334084769, 40.873197137692294 ], [ -73.920089529186995, 40.873236398167379 ], [ -73.920043340762859, 40.873280781872275 ], [ -73.920017426342582, 40.873308095554549 ], [ -73.92000615910149, 40.873321754446501 ], [ -73.919997139832105, 40.873335415819433 ], [ -73.919991496775253, 40.873349075103732 ], [ -73.919985857053234, 40.873361884250698 ], [ -73.919970593333389, 40.873421663436645 ], [ -73.919953053649365, 40.873503648964537 ], [ -73.919927010681107, 40.873638582791486 ], [ -73.919924729404144, 40.873664203739466 ], [ -73.919925822290892, 40.873691538021021 ], [ -73.919930288139739, 40.873720581867218 ], [ -73.919938125079611, 40.873753899164178 ], [ -73.919943730054712, 40.873770983552134 ], [ -73.919950462789643, 40.873786364097519 ], [ -73.919958320133574, 40.87380174274525 ], [ -73.919968430138525, 40.873816271065223 ], [ -73.91997966699472, 40.873829944672671 ], [ -73.919990903595888, 40.873841910138438 ], [ -73.920004395176505, 40.873853022513984 ], [ -73.920017885176705, 40.873862428502825 ], [ -73.920183177700224, 40.873960767762689 ], [ -73.920342848052073, 40.874054833711462 ], [ -73.92049688701843, 40.874156155192004 ], [ -73.920507579226864, 40.874153172950756 ], [ -73.920526158613953, 40.874141867524202 ], [ -73.920535726274579, 40.874139846243835 ], [ -73.920566644769352, 40.874160046615536 ], [ -73.920591374186017, 40.874182271598478 ], [ -73.920612725520201, 40.874207055202724 ], [ -73.920630698682075, 40.874233547377223 ], [ -73.920637551334323, 40.874244018541994 ], [ -73.920661199296305, 40.874233547401431 ], [ -73.920774787987554, 40.874183251607384 ], [ -73.920797256875758, 40.874214015193189 ], [ -73.920747602585934, 40.87423354759521 ], [ -73.920652031116774, 40.874271142268626 ], [ -73.920662136163656, 40.874289086971068 ], [ -73.920682339506328, 40.874333514814559 ], [ -73.920701404435306, 40.874386483996361 ], [ -73.920742908918626, 40.874494987384232 ], [ -73.920763106182164, 40.874543687148915 ], [ -73.920786679250455, 40.874590681008378 ], [ -73.920812505333345, 40.874637675574625 ], [ -73.92084395462571, 40.874685529410463 ], [ -73.920877655739687, 40.874733382107074 ], [ -73.9208967587427, 40.874755602151538 ], [ -73.920942834689782, 40.874804319743497 ], [ -73.920960814325994, 40.874826539925728 ], [ -73.92098552463456, 40.87486413974792 ], [ -73.921049541869579, 40.874967532871189 ], [ -73.921059650062745, 40.874982914741601 ], [ -73.921074260593329, 40.874999152513205 ], [ -73.921124831570225, 40.875052996865364 ], [ -73.921142812256434, 40.875073509713957 ], [ -73.921158540158658, 40.875094873750051 ], [ -73.921170892785312, 40.875115380983523 ], [ -73.921173134133113, 40.875123068231197 ], [ -73.921174247725659, 40.875132465608175 ], [ -73.921174236582814, 40.875141862213773 ], [ -73.92117197486867, 40.87515125543964 ], [ -73.92116294788616, 40.875173457095023 ], [ -73.921147163224362, 40.875199924305861 ], [ -73.921107714481707, 40.875254562465507 ], [ -73.921053621606447, 40.875321146300124 ], [ -73.921020947667685, 40.875356999361308 ], [ -73.920986020713499, 40.87539199370098 ], [ -73.920947721947385, 40.875426131979253 ], [ -73.920906049053357, 40.875459414274914 ], [ -73.920897708483835, 40.87546446955303 ], [ -73.920897602160267, 40.875464534064072 ], [ -73.92088803165251, 40.875468796668528 ], [ -73.92088015466571, 40.875470500400731 ], [ -73.920872275363962, 40.875472203209412 ], [ -73.920863273464519, 40.875472197022333 ], [ -73.920844142610477, 40.87547218387121 ], [ -73.920823891278744, 40.875469608070951 ], [ -73.920803643112308, 40.87546446947124 ], [ -73.920784522719998, 40.875457622501507 ], [ -73.920767653736561, 40.875449069688059 ], [ -73.920676556425121, 40.875408009496802 ], [ -73.920374029164648, 40.875266013119194 ], [ -73.919737455925329, 40.874998228361143 ], [ -73.919394394217576, 40.874880972779202 ], [ -73.919236926111552, 40.874827051813426 ], [ -73.918968129121879, 40.874711556172585 ], [ -73.91894732902972, 40.874697847040935 ], [ -73.918900667307554, 40.874667092914166 ], [ -73.918865807760426, 40.874649131453936 ], [ -73.918853439079015, 40.874641436188689 ], [ -73.918845572399064, 40.87463374225262 ], [ -73.918837425547181, 40.874624341736023 ], [ -73.918834341896627, 40.87461494470444 ], [ -73.918836038378316, 40.874608112081958 ], [ -73.918844495580814, 40.874593597674732 ], [ -73.918856890425559, 40.874579940530133 ], [ -73.918871535598655, 40.874566285974943 ], [ -73.918894064009024, 40.874546655799612 ], [ -73.918916590604141, 40.874529588500842 ], [ -73.918947329106715, 40.874508058019835 ], [ -73.918976280279338, 40.87448777939538 ], [ -73.918992047881787, 40.874474977425059 ], [ -73.919004441696188, 40.874463028488883 ], [ -73.919026975232725, 40.874439129111025 ], [ -73.919049513027801, 40.874411811526052 ], [ -73.919072054847334, 40.874381081002866 ], [ -73.91910023801384, 40.874338392433003 ], [ -73.919130679952133, 40.87428972786968 ], [ -73.919166760759879, 40.874229110689839 ], [ -73.919190437571061, 40.8741898371388 ], [ -73.919205102489258, 40.874160807528739 ], [ -73.919216384568969, 40.874135191071268 ], [ -73.919224290674478, 40.874110426816252 ], [ -73.919233345555227, 40.874068580200365 ], [ -73.919240155122708, 40.874021608255013 ], [ -73.919244718232179, 40.873970363626597 ], [ -73.919248192806023, 40.873887514697067 ], [ -73.919251733836887, 40.873750857947016 ], [ -73.919252867777899, 40.873743170349435 ], [ -73.919255130995097, 40.87373462989305 ], [ -73.919267548130549, 40.873701328593256 ], [ -73.91927206676958, 40.873687665044024 ], [ -73.919272075067738, 40.873680832066661 ], [ -73.919272083364646, 40.873674000093139 ], [ -73.919269839004372, 40.873668016511907 ], [ -73.9192675958504, 40.873662036613069 ], [ -73.919262539290827, 40.873655626993312 ], [ -73.919250739107909, 40.873644941623404 ], [ -73.919238371670644, 40.873637246313756 ], [ -73.919199016702123, 40.873613302634936 ], [ -73.919186652392952, 40.873603045444263 ], [ -73.919181033028011, 40.873597062253822 ], [ -73.91916081221801, 40.873568008152155 ], [ -73.919063068128494, 40.873444088790066 ], [ -73.919047341350336, 40.873423579872096 ], [ -73.919012514440638, 40.87337743322486 ], [ -73.918981051360973, 40.873342390094251 ], [ -73.918964192686843, 40.873327005127408 ], [ -73.918947329515319, 40.873313328294138 ], [ -73.918929339566745, 40.873301354372693 ], [ -73.918910223222312, 40.873291946134565 ], [ -73.918886606844637, 40.873280827333751 ], [ -73.918858488741975, 40.873270558172798 ], [ -73.918795297225259, 40.873250038849406 ], [ -73.919070922585419, 40.873160636393685 ] ] ] ] } },
{ "type": "Feature", "properties": { "Borough": "BX", "Block": 5716, "Lot": 700, "CD": 208, "BCT2020": "2029301", "BCTCB2020": "20293011000", "CT2010": "293.01", "CB2010": "1000", "SchoolDist": "10", "Council": 11, "ZipCode": 10463, "FireComp": "L052", "PolicePrct": 50, "HealthCent": 21, "HealthArea": 200, "Sanitboro": "2", "SanitDistr": "08", "SanitSub": "3C", "Address": null, "ZoneDist1": "R1-2", "ZoneDist2": "M1-1", "ZoneDist3": null, "ZoneDist4": null, "Overlay1": null, "Overlay2": null, "SPDist1": "NA-2", "SPDist2": null, "SPDist3": null, "LtdHeight": null, "SplitZone": "Y", "BldgClass": "U6", "LandUse": "07", "Easements": 5, "OwnerType": "X", "OwnerName": "NYC DEPARTMENT OF ENVIRONMENTAL PROTECTION", "LotArea": 604554, "BldgArea": 0, "ComArea": 0, "ResArea": 0, "OfficeArea": 0, "RetailArea": 0, "GarageArea": 0, "StrgeArea": 0, "FactryArea": 0, "OtherArea": 0, "AreaSource": "7", "NumBldgs": 1, "NumFloors": 0.0, "UnitsRes": 0, "UnitsTotal": 0, "LotFront": 0.0, "LotDepth": 0.0, "BldgFront": 0.0, "BldgDepth": 0.0, "Ext": "N", "ProxCode": "0", "IrrLotCode": "N", "LotType": "5", "BsmtCode": "0", "AssessLand": 0.0, "AssessTot": 0.0, "ExemptTot": 0.0, "YearBuilt": 0, "YearAlter1": 0, "YearAlter2": 0, "HistDist": null, "Landmark": null, "BuiltFAR": 0.0, "ResidFAR": 0.75, "CommFAR": 0.0, "FacilFAR": 1.0, "BoroCode": 2, "BBL": 2057160700.0, "CondoNo": 0, "Tract2010": "029301", "XCoord": 1005549, "YCoord": 260303, "ZoneMap": "1b", "ZMCode": null, "Sanborn": "213 001", "TaxMap": "21901", "EDesigNum": null, "APPBBL": 0.0, "APPDate": null, "PLUTOMapID": "1", "FIRM07_FLA": "1", "PFIRM15_FL": "1", "Version": "25v4", "DCPEdited": "t", "Latitude": 40.8811201, "Longitude": -73.9229769, "Notes": null, "Shape_Leng": 0.0, "Shape_Area": 509659.61681600002 }, "geometry": { "type": "MultiPolygon", "coordinates": [ [ [ [ -73.923010627196703, 40.880703869345091 ], [ -73.923011561023458, 40.880673024667963 ], [ -73.923012833174752, 40.880629767808117 ], [ -73.923013590063931, 40.880572397250546 ], [ -73.92301365767986, 40.880567311361524 ], [ -73.92301392375758, 40.880536289717682 ], [ -73.923014527637164, 40.880499394387179 ], [ -73.923012301617945, 40.880470995946027 ], [ -73.92300657240763, 40.880416690896482 ], [ -73.922999779763487, 40.880374004964537 ], [ -73.922990372563405, 40.88030741379432 ], [ -73.922982893405944, 40.880265356011442 ], [ -73.92297441776914, 40.880225361414759 ], [ -73.922958961817756, 40.880154016148623 ], [ -73.922944865107198, 40.880104586046201 ], [ -73.92293479586894, 40.880064824539254 ], [ -73.922918780637659, 40.880011331111412 ], [ -73.922904145163557, 40.879965182899213 ], [ -73.922882720873233, 40.879906804286271 ], [ -73.922865708493433, 40.879862187182823 ], [ -73.922846090003844, 40.879818177031176 ], [ -73.922818033144495, 40.879757289724672 ], [ -73.922781225523948, 40.879684043529544 ], [ -73.922765997385355, 40.879656915997792 ], [ -73.922756493384867, 40.87964023890968 ], [ -73.922721341466101, 40.879578809144462 ], [ -73.922670819892701, 40.879499745630099 ], [ -73.922328458726057, 40.879425746192034 ], [ -73.92208732897781, 40.879373626819408 ], [ -73.921997579420307, 40.87934948160288 ], [ -73.921952485922702, 40.879336807231454 ], [ -73.92187944388769, 40.879313425170302 ], [ -73.921862396294912, 40.879307433440744 ], [ -73.921792156912034, 40.879282744807789 ], [ -73.922021231341915, 40.879045374525361 ], [ -73.922132168830672, 40.878930427440324 ], [ -73.921573592027926, 40.87842041468862 ], [ -73.921549537699107, 40.878398450656746 ], [ -73.921321501541058, 40.878194165834586 ], [ -73.921293370775132, 40.878168409732559 ], [ -73.92100489456746, 40.877904282406881 ], [ -73.92096451639074, 40.877944922612215 ], [ -73.920883866354416, 40.877891938227634 ], [ -73.920802421943506, 40.8778365858714 ], [ -73.920688773619531, 40.877763247449941 ], [ -73.920582390327269, 40.877698346957857 ], [ -73.920465790048226, 40.877630546982992 ], [ -73.920372317533861, 40.877577298555906 ], [ -73.920261918532745, 40.87751668675417 ], [ -73.920133945037378, 40.877449906979123 ], [ -73.920013999361743, 40.877389584551793 ], [ -73.920183300199611, 40.877163674659791 ], [ -73.919729432042473, 40.876771107739259 ], [ -73.919481696498593, 40.876641585765597 ], [ -73.919399912969496, 40.87659126322589 ], [ -73.919322601971146, 40.876542088294769 ], [ -73.919215811042918, 40.876482386624048 ], [ -73.919091951148104, 40.876418744004297 ], [ -73.918965399458912, 40.876359077654492 ], [ -73.918855851617295, 40.876313393459633 ], [ -73.918752907372152, 40.876275229285199 ], [ -73.918626980484362, 40.876233872682882 ], [ -73.918567995725894, 40.876214954014515 ], [ -73.91851672627746, 40.876201486027938 ], [ -73.91834824382461, 40.876159346237742 ], [ -73.918177324109863, 40.876124590263743 ], [ -73.91801270270777, 40.876098534577665 ], [ -73.91788829337159, 40.876084506318875 ], [ -73.917812516143897, 40.876078156028342 ], [ -73.917750751303188, 40.87607432177505 ], [ -73.917718358728635, 40.876072745342505 ], [ -73.917652259971504, 40.876070973636182 ], [ -73.917570623519751, 40.876070286696645 ], [ -73.917517517131301, 40.876071792084367 ], [ -73.917453142001889, 40.876218184480557 ], [ -73.917060145701825, 40.87617133412752 ], [ -73.916765748990827, 40.87628900212259 ], [ -73.916154298503812, 40.876110096748441 ], [ -73.916141606868436, 40.876106382938083 ], [ -73.916037341606724, 40.876075875824412 ], [ -73.915899723935169, 40.876035608999558 ], [ -73.915892599185469, 40.876050212420616 ], [ -73.91587499316168, 40.876086299314842 ], [ -73.915861591605136, 40.876109262832308 ], [ -73.915857241036477, 40.876115980864355 ], [ -73.915847526029836, 40.876130975919644 ], [ -73.915834671609687, 40.876149031252268 ], [ -73.915825829371201, 40.876159603747148 ], [ -73.915816333090788, 40.876170538675709 ], [ -73.915814517846172, 40.876172530095594 ], [ -73.915806712629333, 40.876181098889248 ], [ -73.915200325415825, 40.876022642323505 ], [ -73.915246645263409, 40.87594257603164 ], [ -73.915283461564485, 40.875878937619937 ], [ -73.915446450093697, 40.875597197828725 ], [ -73.915450017788558, 40.875592751820754 ], [ -73.915488843234797, 40.875603331423925 ], [ -73.915582211952923, 40.875625607830152 ], [ -73.915718332526396, 40.875654745595519 ], [ -73.915790329888338, 40.875671027864819 ], [ -73.915822953798909, 40.87567703179986 ], [ -73.91585557988158, 40.875681325829696 ], [ -73.915885962253597, 40.875683056250921 ], [ -73.915928724761272, 40.875680523763123 ], [ -73.916034510969055, 40.875672913480756 ], [ -73.916050612801527, 40.87567225695696 ], [ -73.916178549759891, 40.875667040934644 ], [ -73.916224688733209, 40.875666220860062 ], [ -73.91627307156979, 40.875668817925806 ], [ -73.916323705165766, 40.875673123995483 ], [ -73.916375455576357, 40.875680849058902 ], [ -73.916385582412403, 40.875682565557923 ], [ -73.916394578829554, 40.875685989458873 ], [ -73.916403573210303, 40.875691119741127 ], [ -73.916411444088425, 40.875697103780269 ], [ -73.916428303018478, 40.875713345610649 ], [ -73.916459762686159, 40.875751803106766 ], [ -73.916474369945391, 40.87576804229279 ], [ -73.916483364511535, 40.875774881797618 ], [ -73.916492357725019, 40.875780868401534 ], [ -73.916502480151905, 40.875785145926052 ], [ -73.916511477908671, 40.875788570655118 ], [ -73.916563225249462, 40.875799709403921 ], [ -73.916583476543678, 40.875803142364958 ], [ -73.916602604136841, 40.875804864443559 ], [ -73.916620608133613, 40.875804877481812 ], [ -73.916636362747028, 40.875804888888808 ], [ -73.916652119363491, 40.875802337498378 ], [ -73.916666752520555, 40.87579893072094 ], [ -73.916721914891497, 40.875780181000991 ], [ -73.916772578116024, 40.875758009796613 ], [ -73.916782713244288, 40.87575118238469 ], [ -73.916801865667694, 40.875734114818506 ], [ -73.916808624603746, 40.875728139537905 ], [ -73.916818761076897, 40.875722169455756 ], [ -73.916827765538386, 40.875719186338223 ], [ -73.916840146615556, 40.87571791388222 ], [ -73.916851395791539, 40.875719630229497 ], [ -73.916862643009623, 40.875724763944135 ], [ -73.916871640816098, 40.875729039620516 ], [ -73.916880632991834, 40.875735879092666 ], [ -73.91691435177745, 40.875765798731145 ], [ -73.916928967870149, 40.875776912356287 ], [ -73.916936837664963, 40.875782044463293 ], [ -73.916944710736146, 40.875786320326384 ], [ -73.916952583736872, 40.875788889637953 ], [ -73.916960458909074, 40.875790601784701 ], [ -73.917000959224637, 40.875797464801927 ], [ -73.917039213329616, 40.875800907898032 ], [ -73.917074096465797, 40.875800933025438 ], [ -73.917105607782801, 40.875798394758363 ], [ -73.917250796484126, 40.875777144086648 ], [ -73.91739794730816, 40.875757712708797 ], [ -73.917409488601777, 40.875752488227882 ], [ -73.917416248501553, 40.875744806527699 ], [ -73.917423012879965, 40.875736269338418 ], [ -73.917429779141258, 40.875723463804896 ], [ -73.91743091226293, 40.875716632558081 ], [ -73.917432049253577, 40.875707663586141 ], [ -73.917429250246499, 40.875696557661684 ], [ -73.91742363139187, 40.875690148481858 ], [ -73.917415196597474, 40.875687152809249 ], [ -73.917406195049296, 40.875685864955692 ], [ -73.917390440462242, 40.875685853653827 ], [ -73.917331920388179, 40.875691789978269 ], [ -73.917314478738319, 40.87569177745479 ], [ -73.917307324566096, 40.875687431023522 ], [ -73.917311682407487, 40.875678536479221 ], [ -73.9173174565761, 40.875674818154344 ], [ -73.917373529356951, 40.875670439643663 ], [ -73.917432182275675, 40.875664546644423 ], [ -73.917435637474128, 40.875663696556508 ], [ -73.917489479306454, 40.875674821584589 ], [ -73.917504103652206, 40.875677393102237 ], [ -73.917517606693266, 40.875678258185239 ], [ -73.917531109694153, 40.875678267857133 ], [ -73.917544615916242, 40.875676567548481 ], [ -73.917609899203683, 40.875662094749991 ], [ -73.917624528950597, 40.875660396993595 ], [ -73.917639158742574, 40.875659552885828 ], [ -73.917677340463129, 40.875661512787495 ], [ -73.917801244213933, 40.875688971041228 ], [ -73.91780903340063, 40.875692131533405 ], [ -73.917832646120857, 40.87570666875181 ], [ -73.917880991060343, 40.875740015996541 ], [ -73.917903479132875, 40.87575369514866 ], [ -73.917957460654094, 40.875781067972248 ], [ -73.917982202243849, 40.875791334106275 ], [ -73.918008072216054, 40.875800535731834 ], [ -73.918016510525661, 40.875801607884611 ], [ -73.918028325798829, 40.87580119039017 ], [ -73.91803845738778, 40.875798207980615 ], [ -73.918047462489596, 40.875795652513695 ], [ -73.918080111981425, 40.875782008950949 ], [ -73.918093621317354, 40.875776893051935 ], [ -73.918105441115713, 40.875774766325421 ], [ -73.918119505307871, 40.875774634108396 ], [ -73.918137505599518, 40.87577863332163 ], [ -73.918154376269825, 40.875784623722353 ], [ -73.918226357507137, 40.875813715596479 ], [ -73.918243229566542, 40.875820561394598 ], [ -73.9182601023616, 40.875824841717623 ], [ -73.918338850000993, 40.875842837167866 ], [ -73.918428847863922, 40.875861691426493 ], [ -73.918480600100978, 40.875871122013912 ], [ -73.918602106099726, 40.875889998524222 ], [ -73.91860946333091, 40.875891427593928 ], [ -73.918936352515331, 40.876000002557802 ], [ -73.919003229200726, 40.876026596489936 ], [ -73.919216483715957, 40.8761209696858 ], [ -73.919256710288181, 40.876139868009481 ], [ -73.919379289779855, 40.876200595565102 ], [ -73.919491749296412, 40.876257901306055 ], [ -73.919527733643989, 40.876277572417372 ], [ -73.919560343901736, 40.876296383911985 ], [ -73.919583955151907, 40.87631262991264 ], [ -73.919637918131542, 40.876355375113178 ], [ -73.919663775727912, 40.876374184625206 ], [ -73.919761602576727, 40.876434040845425 ], [ -73.919791962537658, 40.876453707955228 ], [ -73.919862794825193, 40.876504149589593 ], [ -73.919895399955266, 40.876526381029556 ], [ -73.919908894785507, 40.876533223313366 ], [ -73.919924641340785, 40.876540067161578 ], [ -73.919980882742735, 40.876558043156031 ], [ -73.92000000568558, 40.876564889340429 ], [ -73.92001687588008, 40.876572587608393 ], [ -73.920023621249541, 40.876577717048967 ], [ -73.920030367648877, 40.87658199275451 ], [ -73.92005622049335, 40.876605926763155 ], [ -73.920091060011373, 40.876642678305501 ], [ -73.9201371316218, 40.876696519950137 ], [ -73.920187697348851, 40.87675719934311 ], [ -73.920200054086436, 40.87677429022937 ], [ -73.92021128328561, 40.876794797618281 ], [ -73.920239334607345, 40.876863147093758 ], [ -73.920249431553657, 40.876887070224399 ], [ -73.920262910097534, 40.876907579165824 ], [ -73.92027751770425, 40.876925525253682 ], [ -73.920395527379455, 40.87704860202718 ], [ -73.920569730209692, 40.877228945416952 ], [ -73.920870992301857, 40.877494786443073 ], [ -73.921209330070909, 40.877813610656908 ], [ -73.921336182136315, 40.877925627819913 ], [ -73.921488112519981, 40.878059790463226 ], [ -73.921530833392325, 40.878095692361924 ], [ -73.921560062702369, 40.878120481141551 ], [ -73.921644378548919, 40.878191433212677 ], [ -73.921653370542799, 40.878199125877018 ], [ -73.922069322150548, 40.878550456722913 ], [ -73.922094061608732, 40.878564994743741 ], [ -73.922121056192083, 40.878578676115495 ], [ -73.922159294942631, 40.878595786968148 ], [ -73.922198663824631, 40.878610331258578 ], [ -73.922236912245367, 40.878622317422725 ], [ -73.922279659424674, 40.878634302093303 ], [ -73.9223820330146, 40.878659996344268 ], [ -73.922410162133261, 40.878664285402401 ], [ -73.922479922454613, 40.878671165287493 ], [ -73.922497924349884, 40.878674593016036 ], [ -73.922513672567476, 40.87867972920661 ], [ -73.922522672130327, 40.878683152629776 ], [ -73.922530543587726, 40.878687428944467 ], [ -73.922546286943302, 40.87869768795629 ], [ -73.922594626475544, 40.878739575238356 ], [ -73.922614864952862, 40.878754106522933 ], [ -73.922645225386788, 40.878772919222079 ], [ -73.922680090543309, 40.878790878608285 ], [ -73.922768937956008, 40.878835354805197 ], [ -73.92279930806238, 40.878849040123292 ], [ -73.922830803750671, 40.878861019720297 ], [ -73.922862298017961, 40.878872142980065 ], [ -73.922894921498894, 40.87888241509129 ], [ -73.922927546863491, 40.878890122644307 ], [ -73.922960171019682, 40.878897831943661 ], [ -73.922992799364337, 40.878902980282881 ], [ -73.923025430795562, 40.878906417630873 ], [ -73.923035556859858, 40.878907278971923 ], [ -73.923046812128689, 40.878906431924271 ], [ -73.92307044789311, 40.878903032193797 ], [ -73.923092961821155, 40.878896213422578 ], [ -73.923143620580134, 40.878879165857484 ], [ -73.923167259297202, 40.878873200553763 ], [ -73.923187517676723, 40.878870653116635 ], [ -73.923197645937293, 40.87887065987362 ], [ -73.923206648297196, 40.878870665878743 ], [ -73.923244903729056, 40.878875816059825 ], [ -73.923332658472177, 40.878892956762229 ], [ -73.923375413897219, 40.878898109058994 ], [ -73.923412550693669, 40.878898987420939 ], [ -73.923451545316965, 40.878898282932603 ], [ -73.923503703626793, 40.878897340720712 ], [ -73.923527334334949, 40.87889735641965 ], [ -73.923548713589483, 40.878899077921126 ], [ -73.923590344344802, 40.878904232069146 ], [ -73.923635348421982, 40.87891109657847 ], [ -73.923739981630618, 40.878930809204121 ], [ -73.92377373203766, 40.878939372754388 ], [ -73.923855854400657, 40.878963341385649 ], [ -73.923878353358447, 40.878968481854379 ], [ -73.923899730797459, 40.878971913353553 ], [ -73.923916608899333, 40.878973632731473 ], [ -73.923935738571615, 40.878974499943389 ], [ -73.924016764297079, 40.878971990655067 ], [ -73.924052774136285, 40.878972868987226 ], [ -73.924077526761081, 40.878976301759934 ], [ -73.92413715466688, 40.878988299549071 ], [ -73.924165284038764, 40.878992587259155 ], [ -73.924208042750436, 40.878996032783348 ], [ -73.924256429295284, 40.878997772851967 ], [ -73.924403027773224, 40.879000271128838 ], [ -73.92441757249162, 40.879011129596712 ], [ -73.924452979344338, 40.879075911549457 ], [ -73.924452358918941, 40.879085214052225 ], [ -73.924412052008975, 40.879127021616746 ], [ -73.924362263944957, 40.87917871664375 ], [ -73.924318290514307, 40.879224022873942 ], [ -73.924288715404387, 40.879254544387429 ], [ -73.924238218284103, 40.879306750381637 ], [ -73.924174230215229, 40.879377802756494 ], [ -73.924112198924178, 40.879448526770375 ], [ -73.924082261221216, 40.879482612177625 ], [ -73.924047299776475, 40.879522417758814 ], [ -73.924007419244248, 40.879571640028374 ], [ -73.923986841585986, 40.879597035538794 ], [ -73.923913814099436, 40.87968851931727 ], [ -73.923796303457124, 40.879841640883811 ], [ -73.923750327144347, 40.879902976039318 ], [ -73.923707540536682, 40.879962622218891 ], [ -73.923622145344609, 40.880082753906528 ], [ -73.923605245935775, 40.880106528141461 ], [ -73.923581965772897, 40.880139661531814 ], [ -73.923533094497728, 40.880212111217368 ], [ -73.923491213999327, 40.880275847058343 ], [ -73.923441445001345, 40.880351820638538 ], [ -73.923332083702675, 40.8805237222724 ], [ -73.923265214965767, 40.880632048840944 ], [ -73.923216811646313, 40.880710612126201 ], [ -73.923143847776885, 40.880835375705452 ], [ -73.923104158656528, 40.880903483766126 ], [ -73.92306280211119, 40.880978149020827 ], [ -73.923026683356596, 40.881046882609773 ], [ -73.92293667413206, 40.88122097424835 ], [ -73.922966649721545, 40.881096988855759 ], [ -73.92298243566627, 40.881030045362252 ], [ -73.922988241167062, 40.880997035517716 ], [ -73.922996164130268, 40.88093256949395 ], [ -73.923007158208748, 40.880846058752901 ], [ -73.923010372379167, 40.880738394862824 ], [ -73.923010627196703, 40.880703869345091 ] ] ] ] } }
]
}
