{
"type": "FeatureCollection",
"name": "pluto_Shirley_Chisholm_State_Park",
"crs": { "type": "name", "properties": { "name": "urn:ogc:def:crs:OGC:1.3:CRS84" } },
"features": [
{ "type": "Feature", "properties": { "Borough": "BK", "Block": 4452, "Lot": 2, "CD": 356, "BCT2020": "3107002", "BCTCB2020": "31070021000", "CT2010": "1070", "CB2010": "1010", "SchoolDist": "19", "Council": 42, "ZipCode": 11234, "FireComp": "E290", "PolicePrct": 75, "HealthCent": 33, "HealthArea": 6420, "Sanitboro": "3", "SanitDistr": "56", "SanitSub": "4D", "Address": "SHORE PARKWAY", "ZoneDist1": "PARK", "ZoneDist2": null, "ZoneDist3": null, "ZoneDist4": null, "Overlay1": null, "Overlay2": null, "SPDist1": null, "SPDist2": null, "SPDist3": null, "LtdHeight": null, "SplitZone": "N", "BldgClass": "Q1", "LandUse": "09", "Easements": 0, "OwnerType": "X", "OwnerName": "NATIONAL PARK SERVICE", "LotArea": 15949312, "BldgArea": 5302, "ComArea": 5302, "ResArea": 0, "OfficeArea": 5302, "RetailArea": 0, "GarageArea": 0, "StrgeArea": 0, "FactryArea": 0, "OtherArea": 0, "AreaSource": "2", "NumBldgs": 6, "NumFloors": 0.0, "UnitsRes": 0, "UnitsTotal": 1, "LotFront": 7536.42, "LotDepth": 4356.75, "BldgFront": 0.0, "BldgDepth": 0.0, "Ext": "N", "ProxCode": "0", "IrrLotCode": "Y", "LotType": "5", "BsmtCode": "0", "AssessLand": 63966194.0, "AssessTot": 92142450.0, "ExemptTot": 92142450.0, "YearBuilt": 1931, "YearAlter1": 0, "YearAlter2": 0, "HistDist": null, "Landmark": null, "BuiltFAR": 0.0, "ResidFAR": 0.0, "CommFAR": 0.0, "FacilFAR": 0.0, "BoroCode": 3, "BBL": 3044520002.0, "CondoNo": 0, "Tract2010": "1070", "XCoord": 1021343, "YCoord": 174017, "ZoneMap": "24a", "ZMCode": "Y", "Sanborn": "317 086", "TaxMap": "31403", "EDesigNum": null, "APPBBL": 0.0, "APPDate": null, "PLUTOMapID": "1", "FIRM07_FLA": "1", "PFIRM15_FL": "1", "Version": "25v4", "DCPEdited": null, "Latitude": 40.6442354, "Longitude": -73.8663376, "Notes": null, "Shape_Leng": 0.0, "Shape_Area": 17418807.225900002 }, "geometry": { "type": "MultiPolygon", "coordinates": [ [ [ [ -73.876028061345238, 40.642163506111125 ], [ -73.875799410485115, 40.642633641928732 ], [ -73.874910256805066, 40.643201002500703 ], [ -73.875260321339354, 40.643676479610278 ], [ -73.874911197169666, 40.644184349369574 ], [ -73.874582335744336, 40.644662732046257 ], [ -73.873917411759109, 40.645485815542109 ], [ -73.873889510390967, 40.645520353112822 ], [ -73.873522673038551, 40.645905461902252 ], [ -73.873522550785793, 40.645905348407169 ], [ -73.873471042850952, 40.645865147506782 ], [ -73.87343188194005, 40.645818978923614 ], [ -73.87341513831106, 40.645778814475605 ], [ -73.873392811916958, 40.645724978484765 ], [ -73.873376095119369, 40.645669439561253 ], [ -73.873357134798908, 40.645615606354916 ], [ -73.873321330679488, 40.645573713509265 ], [ -73.873301127143435, 40.645583085446276 ], [ -73.873185901130554, 40.645437751534509 ], [ -73.873212836557883, 40.645425824174744 ], [ -73.873212869042646, 40.645408742270391 ], [ -73.873212880413746, 40.645402762850324 ], [ -73.873229795571731, 40.645353239550417 ], [ -73.873236583798601, 40.645321643363943 ], [ -73.873259103573048, 40.64527298084581 ], [ -73.873292842823503, 40.645221767828339 ], [ -73.873316494219637, 40.645167981630806 ], [ -73.873331176686818, 40.645112478258696 ], [ -73.873334646825683, 40.645056962432619 ], [ -73.873314548528654, 40.645011669432186 ], [ -73.873293346051099, 40.644956980057081 ], [ -73.873290054450493, 40.644918538709973 ], [ -73.873294646568183, 40.644863023284458 ], [ -73.873284652445307, 40.644811763752898 ], [ -73.873254468863081, 40.644761334776078 ], [ -73.873242238485787, 40.644706654374097 ], [ -73.873231130597958, 40.644651122536423 ], [ -73.873221145094547, 40.644594737252945 ], [ -73.873215644561981, 40.644539210683384 ], [ -73.873232520939027, 40.644509332991397 ], [ -73.873255050184923, 40.64445554564729 ], [ -73.873268588666079, 40.644412852557373 ], [ -73.873272060441536, 40.644356483970775 ], [ -73.873272165975692, 40.644300962670208 ], [ -73.873269941159748, 40.6442915642264 ], [ -73.873261042312109, 40.644253117606098 ], [ -73.873250989324418, 40.644233460766955 ], [ -73.873234230795575, 40.644200128544 ], [ -73.873205170671994, 40.644149702547189 ], [ -73.873200772526374, 40.644104425939652 ], [ -73.873212078462657, 40.644055751875612 ], [ -73.873245813996235, 40.644006247140496 ], [ -73.873251495961512, 40.643966962936389 ], [ -73.873217915282837, 40.643934468492411 ], [ -73.873196619533402, 40.643928464621489 ], [ -73.873177533007564, 40.643941257004123 ], [ -73.87317294651956, 40.643995065079636 ], [ -73.873168444147666, 40.644002746979247 ], [ -73.873112390376463, 40.643995851011312 ], [ -73.873041774835244, 40.643980398359716 ], [ -73.872998079558954, 40.643960703454333 ], [ -73.872958900977224, 40.643923932508486 ], [ -73.872926438726125, 40.64389400025388 ], [ -73.872893992676055, 40.643855526616804 ], [ -73.872863815383084, 40.643803390096771 ], [ -73.872838123565515, 40.643751257698987 ], [ -73.872810190225209, 40.64369912456965 ], [ -73.872778867223531, 40.643658943865638 ], [ -73.872750924188622, 40.64361193470662 ], [ -73.872725232424699, 40.643559801363509 ], [ -73.872719688785125, 40.643526483250874 ], [ -73.872713043997038, 40.643482915085613 ], [ -73.87270529849259, 40.643428239673668 ], [ -73.872687458329565, 40.643375261346101 ], [ -73.87265279176458, 40.643324828066611 ], [ -73.872610256492052, 40.643285490396195 ], [ -73.872563195598786, 40.643266645268689 ], [ -73.872490328515937, 40.643256313774295 ], [ -73.87244328891471, 40.643226367867172 ], [ -73.872424280227278, 40.643197305013075 ], [ -73.872398588984453, 40.643145173433417 ], [ -73.872361681896365, 40.643095589496482 ], [ -73.872334865973173, 40.643044312087994 ], [ -73.872301321771417, 40.642993879111735 ], [ -73.872256545813627, 40.642953683297129 ], [ -73.87219830277887, 40.642919450988764 ], [ -73.872163631799552, 40.642871579593603 ], [ -73.872140186356958, 40.642818596691896 ], [ -73.872133532623565, 40.642779296958075 ], [ -73.872132518820521, 40.642722922478349 ], [ -73.872122460273786, 40.642705827571689 ], [ -73.872101156819824, 40.642704094643349 ], [ -73.872073128342663, 40.642701502377868 ], [ -73.872033930478068, 40.642676687195952 ], [ -73.871992525753441, 40.642631370199666 ], [ -73.871953373460315, 40.642583492822403 ], [ -73.871924318179524, 40.642531358216644 ], [ -73.871893015950832, 40.642480927618571 ], [ -73.871875179534115, 40.642427095399597 ], [ -73.871884241466773, 40.64238012731321 ], [ -73.871926931602061, 40.642338321580496 ], [ -73.871949445194915, 40.642292223011538 ], [ -73.871980910285814, 40.642257236094132 ], [ -73.871976456231735, 40.642241001939446 ], [ -73.871955155669013, 40.642238415306792 ], [ -73.871875520942126, 40.64224943165204 ], [ -73.871836245040257, 40.642264761482558 ], [ -73.871812642856682, 40.642292922268524 ], [ -73.871789014265573, 40.642334749247546 ], [ -73.871774428040837, 40.642339859633651 ], [ -73.871746455485223, 40.642308223775217 ], [ -73.871730859966831, 40.642253541275835 ], [ -73.871711901946654, 40.642199706020342 ], [ -73.87167835852469, 40.642149274697296 ], [ -73.871648180871802, 40.642098846121868 ], [ -73.871624735342721, 40.642045006753989 ], [ -73.871602408464994, 40.641992877746183 ], [ -73.871567744100545, 40.641943297894578 ], [ -73.871527464899899, 40.641897130062617 ], [ -73.871489421332697, 40.641855231441802 ], [ -73.871440161989057, 40.641814176604761 ], [ -73.871401003651172, 40.641768007306183 ], [ -73.871365219408119, 40.641717574214972 ], [ -73.871332798391691, 40.641667142119999 ], [ -73.871304862600709, 40.641616714208403 ], [ -73.871276933002449, 40.641563725258528 ], [ -73.871231029578368, 40.641526091486256 ], [ -73.871231047722844, 40.641516696435311 ], [ -73.871200872344488, 40.641465413225262 ], [ -73.871182970091212, 40.641444892793686 ], [ -73.871160593691215, 40.641419242501804 ], [ -73.871125927645195, 40.641369663431099 ], [ -73.871103573965044, 40.641332908882454 ], [ -73.871062171916762, 40.641287590625055 ], [ -73.871024139450654, 40.641239715937431 ], [ -73.870988330877879, 40.64120209349047 ], [ -73.87095474552649, 40.641173867766526 ], [ -73.870942404153823, 40.64115860922869 ], [ -73.87091671265253, 40.641126844964624 ], [ -73.870873069492134, 40.641081526794416 ], [ -73.870829423530921, 40.641037061446809 ], [ -73.870786902824648, 40.640990889070736 ], [ -73.870760093033979, 40.640938754846175 ], [ -73.870736649722872, 40.640884917131245 ], [ -73.870721816625078, 40.640857115865067 ], [ -73.870714305260222, 40.640843037679119 ], [ -73.870689738483136, 40.640790051363929 ], [ -73.870665164774238, 40.640741338115902 ], [ -73.870661871582968, 40.640704604029175 ], [ -73.870668708149623, 40.64064909204577 ], [ -73.870678907171467, 40.640592727492461 ], [ -73.870693591581997, 40.640538080786129 ], [ -73.870695941802154, 40.640482561989316 ], [ -73.87068476761182, 40.640462049053589 ], [ -73.870672442934904, 40.640456910334684 ], [ -73.870651114930709, 40.640468845177935 ], [ -73.870640947280307, 40.640508979736993 ], [ -73.870593809326593, 40.640531134321336 ], [ -73.870572502841057, 40.640531963982099 ], [ -73.870546729834786, 40.640522539851091 ], [ -73.870524351987314, 40.640498597708451 ], [ -73.870509814069635, 40.640478934726183 ], [ -73.870476269664323, 40.6404293566343 ], [ -73.870428131003436, 40.640389157218138 ], [ -73.870372122063984, 40.640360905927977 ], [ -73.870340733428932, 40.640356600245589 ], [ -73.870317197181819, 40.640351446984212 ], [ -73.870265692591715, 40.64031209829777 ], [ -73.870218662266097, 40.640279585920041 ], [ -73.870152553605863, 40.640254741502588 ], [ -73.870116719431664, 40.640230784143057 ], [ -73.870086541518091, 40.640180356065009 ], [ -73.87006085557114, 40.640128222106796 ], [ -73.870036847974646, 40.640075664959994 ], [ -73.870020693857398, 40.6400222612641 ], [ -73.870017437686087, 40.639966736965874 ], [ -73.870015305055844, 40.639910359423901 ], [ -73.870013170759847, 40.639854837315184 ], [ -73.870007590482842, 40.63984116384627 ], [ -73.86996838885608, 40.639818912662072 ], [ -73.869941516757478, 40.639799234713749 ], [ -73.869909099062284, 40.639748804970196 ], [ -73.869893505082402, 40.639694973207241 ], [ -73.86989473584859, 40.639638600392921 ], [ -73.869898206786644, 40.639583938312867 ], [ -73.869879176906963, 40.639566833871598 ], [ -73.869839966691302, 40.639549706634291 ], [ -73.869819819055195, 40.639531747236681 ], [ -73.869815444091998, 40.639475367145337 ], [ -73.869818915653596, 40.639419851388183 ], [ -73.869835831813262, 40.639370329474303 ], [ -73.869828022443372, 40.639349819346997 ], [ -73.869795511997452, 40.639346367761846 ], [ -73.869780976326084, 40.639325849167385 ], [ -73.869769872670503, 40.639269464117071 ], [ -73.869772223615882, 40.639213945331058 ], [ -73.869772300357951, 40.63917465215669 ], [ -73.86973084835013, 40.639156670413961 ], [ -73.869707374787993, 40.639119059712506 ], [ -73.86970523967895, 40.639063535835454 ], [ -73.869714319371042, 40.639008026443598 ], [ -73.869720038037485, 40.638950804120462 ], [ -73.869729114826271, 40.638896148401393 ], [ -73.869738193269711, 40.638840638085199 ], [ -73.869747274573314, 40.638784274174448 ], [ -73.869751866338106, 40.638729613363928 ], [ -73.869737323384967, 40.638711659473429 ], [ -73.869719416854153, 40.638694555358136 ], [ -73.869711617608999, 40.638668922319745 ], [ -73.869701613705331, 40.63862449378388 ], [ -73.869679214343861, 40.638610804719107 ], [ -73.869663592080627, 40.638572348402924 ], [ -73.869664822910437, 40.638515975500162 ], [ -73.869659328603177, 40.63845959504556 ], [ -73.869645954336562, 40.63841772463627 ], [ -73.86964718638626, 40.63836135173409 ], [ -73.869637190285218, 40.638311798362722 ], [ -73.869630527526667, 40.638279333407262 ], [ -73.869633999181644, 40.638223816728257 ], [ -73.869638529214157, 40.63820075964292 ], [ -73.869643070928092, 40.638171725725464 ], [ -73.86965102583946, 40.638117066978928 ], [ -73.869641017156567, 40.638075202228919 ], [ -73.86963795383862, 40.638065162494009 ], [ -73.869627597885383, 40.638056394998273 ], [ -73.869599611438147, 40.638033299977145 ], [ -73.869542496354782, 40.637998215738293 ], [ -73.869522355383253, 40.637977692494054 ], [ -73.86955604638834, 40.637949544549798 ], [ -73.869602094435606, 40.637910305435383 ], [ -73.869642528070244, 40.637876184766036 ], [ -73.869702016322989, 40.637843794074797 ], [ -73.869753653246079, 40.637814811839 ], [ -73.869810887894403, 40.637789252486982 ], [ -73.869871492820337, 40.637759424848596 ], [ -73.869939928457043, 40.637739001210811 ], [ -73.869999392213359, 40.637720277407851 ], [ -73.870045393231464, 40.637704954057298 ], [ -73.870107066447488, 40.637702462816762 ], [ -73.870179927746946, 40.637713648590434 ], [ -73.870212442856328, 40.637713685355486 ], [ -73.870249471885032, 40.637700060058307 ], [ -73.870252856115826, 40.637689814208379 ], [ -73.870257396321819, 40.637660779343726 ], [ -73.870311289620986, 40.63762325709132 ], [ -73.87035841610502, 40.637605372928995 ], [ -73.870429096860107, 40.637584098691313 ], [ -73.870496419367157, 40.637560257826131 ], [ -73.870558148363884, 40.637529576494572 ], [ -73.870617622152892, 40.637504873866568 ], [ -73.870665866983487, 40.637488700037537 ], [ -73.870718599997701, 40.637470821958892 ], [ -73.870776970262014, 40.637438429367357 ], [ -73.870818503009659, 40.637413705602157 ], [ -73.870883586962421, 40.637386444428643 ], [ -73.87093297011485, 40.637361728531346 ], [ -73.870942409824963, 40.637357705583149 ], [ -73.870996934555649, 40.637334468796567 ], [ -73.871044075073272, 40.637309752086473 ], [ -73.871086763705677, 40.637267943884666 ], [ -73.871110349557171, 40.637247471853243 ], [ -73.871156364402339, 40.637225316712652 ], [ -73.871193418603724, 40.637197170305015 ], [ -73.871224850235606, 40.637178413491675 ], [ -73.871277626937115, 40.637138326655069 ], [ -73.871287728505692, 40.637133213142747 ], [ -73.871336020703936, 40.637092266650271 ], [ -73.87139103233892, 40.637054747906213 ], [ -73.871441566410013, 40.637014658480311 ], [ -73.871494339997156, 40.636975426139877 ], [ -73.871538128116995, 40.63694558055267 ], [ -73.871559516154605, 40.636901185540204 ], [ -73.871603328096242, 40.636857673720314 ], [ -73.871670647916687, 40.636834686765333 ], [ -73.871735723175519, 40.636810841658402 ], [ -73.871762658896415, 40.636798914716074 ], [ -73.871782931595433, 40.636751105370926 ], [ -73.871794211047316, 40.636716095939477 ], [ -73.871838023922308, 40.636672584030762 ], [ -73.871882955710319, 40.636629924355539 ], [ -73.87192676890443, 40.636585557897419 ], [ -73.871962739973299, 40.636536911432302 ], [ -73.871991946813068, 40.636508755093232 ], [ -73.87204248502303, 40.636466105204867 ], [ -73.872090744604378, 40.636442242156669 ], [ -73.872152435915865, 40.636430351082836 ], [ -73.872225315030732, 40.636430432226994 ], [ -73.872264569409836, 40.636424499153151 ], [ -73.872322938868024, 40.636390395739546 ], [ -73.87235436597112, 40.636372493211347 ], [ -73.872400421761398, 40.636328983665429 ], [ -73.87242964139871, 40.636293994027291 ], [ -73.872457773391503, 40.63624106937754 ], [ -73.872495989133199, 40.636191570722914 ], [ -73.872530841822808, 40.636142066479465 ], [ -73.872570177200927, 40.636094278159696 ], [ -73.872606147006479, 40.636046483413395 ], [ -73.872618486235396, 40.636043081467626 ], [ -73.872692483469763, 40.636044871837328 ], [ -73.872767603830837, 40.636046662482855 ], [ -73.872840485363355, 40.636045889561046 ], [ -73.872916735298617, 40.636041705519524 ], [ -73.872989629422889, 40.636034952241964 ], [ -73.873061410388019, 40.636023071845372 ], [ -73.873129847721984, 40.636000940707682 ], [ -73.873185955418634, 40.635975376589393 ], [ -73.873220771332015, 40.635945521453195 ], [ -73.873279060341503, 40.635953271775435 ], [ -73.8733429141854, 40.635982383920343 ], [ -73.8734022780109, 40.636014907720671 ], [ -73.87345605271112, 40.6360388830104 ], [ -73.873527785403539, 40.636051775541596 ], [ -73.873601764450342, 40.636063814983252 ], [ -73.873674631535664, 40.636070729234426 ], [ -73.873746371464392, 40.636081057921047 ], [ -73.873816980840431, 40.63609480087662 ], [ -73.873887579215292, 40.636116233416836 ], [ -73.873954807488317, 40.636140224090163 ], [ -73.874004114631163, 40.636153944540084 ], [ -73.87406347530046, 40.636189030790099 ], [ -73.874116101562038, 40.636226670828449 ], [ -73.874166474706129, 40.636269434049311 ], [ -73.874216851722537, 40.636311342651283 ], [ -73.874264983281833, 40.636354957050138 ], [ -73.8743221015595, 40.63638833251283 ], [ -73.874387085731172, 40.636414028837578 ], [ -73.874443084218058, 40.636448255773644 ], [ -73.874501324368637, 40.636481631453705 ], [ -73.874560687704601, 40.636515009250232 ], [ -73.874620059817943, 40.636542406669747 ], [ -73.874663743503191, 40.636567224048825 ], [ -73.874724224676285, 40.636601458417964 ], [ -73.87478358491569, 40.636636543455211 ], [ -73.874835089725934, 40.636675036456431 ], [ -73.87489445379812, 40.636707558560737 ], [ -73.874956059843612, 40.636740938597256 ], [ -73.874997494533091, 40.636767461678694 ], [ -73.875050119000065, 40.636808517758652 ], [ -73.87510386570402, 40.636846161239525 ], [ -73.875167730014581, 40.636871854060722 ], [ -73.875233834492576, 40.636897551122686 ], [ -73.875297693286839, 40.636924954821886 ], [ -73.875338015209337, 40.636948060933626 ], [ -73.875385026142652, 40.636991672721678 ], [ -73.875424213547845, 40.637021610687114 ], [ -73.875475715447664, 40.637062666273543 ], [ -73.875527219774469, 40.637101160800214 ], [ -73.875586580880139, 40.637136244500532 ], [ -73.875643695214421, 40.637173035856058 ], [ -73.875680622887273, 40.637212366359833 ], [ -73.875705192695847, 40.637264496109353 ], [ -73.875716320129072, 40.637310633618632 ], [ -73.875720701146406, 40.637367011741425 ], [ -73.875746417125981, 40.637405478161142 ], [ -73.875766583218052, 40.637414041467153 ], [ -73.875822580066213, 40.637449978679875 ], [ -73.875884186550962, 40.637482500938027 ], [ -73.87594242952872, 40.637515877641398 ], [ -73.875996180933825, 40.637553517944134 ], [ -73.876049929602885, 40.637592012901607 ], [ -73.876099184280264, 40.637634774978288 ], [ -73.876156306878897, 40.637668148605371 ], [ -73.876191011705359, 40.637697226870635 ], [ -73.876235776883846, 40.637742546003366 ], [ -73.876268252003896, 40.637764789560798 ], [ -73.876327626763327, 40.637793039772802 ], [ -73.87637576710442, 40.637833236729925 ], [ -73.876394761382983, 40.637868280208274 ], [ -73.87640591156277, 40.637902457878312 ], [ -73.876446190033278, 40.637949478618758 ], [ -73.876485346455837, 40.637997354494438 ], [ -73.876531232664391, 40.638042674716289 ], [ -73.876568146736844, 40.638090547231101 ], [ -73.876606190978777, 40.638133295274528 ], [ -73.876648737589875, 40.63816665382236 ], [ -73.876689013710717, 40.63821452999268 ], [ -73.876720317937497, 40.638264102869165 ], [ -73.876765086637661, 40.63830856995677 ], [ -73.876775162597468, 40.638317121331504 ], [ -73.876778510399191, 40.63832481347805 ], [ -73.876835632354116, 40.638359038685692 ], [ -73.876880406299236, 40.638400087335242 ], [ -73.876931914408928, 40.638439433068541 ], [ -73.876991277916417, 40.63847366419931 ], [ -73.877052885435631, 40.638507042182056 ], [ -73.877115624416874, 40.63853529558795 ], [ -73.877173865780108, 40.638570380858056 ], [ -73.877224263832545, 40.638602892155788 ], [ -73.877269075919415, 40.638623438585853 ], [ -73.877338558164368, 40.638643159524015 ], [ -73.87740691992272, 40.638662878220863 ], [ -73.877475285113192, 40.638680033164277 ], [ -73.877544761314823, 40.638703169524987 ], [ -73.877588452560929, 40.638724571995176 ], [ -73.87766243964397, 40.638734900544243 ], [ -73.877695453414816, 40.638734935724031 ], [ -73.876028061345238, 40.642163506111125 ] ] ], [ [ [ -73.872941963040944, 40.646508493937162 ], [ -73.872489107088171, 40.64692950082393 ], [ -73.871833273143224, 40.647487887754295 ], [ -73.870880687168039, 40.648209457117652 ], [ -73.869905784563343, 40.648872826105496 ], [ -73.868988820036876, 40.649410457924652 ], [ -73.868364988868166, 40.649745452020916 ], [ -73.867462847839732, 40.650221746204934 ], [ -73.866986917138604, 40.650473012209389 ], [ -73.866608097921429, 40.650673005415619 ], [ -73.864316076031841, 40.651903785983691 ], [ -73.862919589212453, 40.652674782363498 ], [ -73.86147274712603, 40.653531898449216 ], [ -73.861322735232378, 40.653624845383185 ], [ -73.860988068477027, 40.653832197315772 ], [ -73.860501667610961, 40.654133559978483 ], [ -73.859355839280468, 40.652606491612033 ], [ -73.857242732309928, 40.649790064940966 ], [ -73.857256377042461, 40.649738536996708 ], [ -73.857273285647224, 40.649697557426158 ], [ -73.857299171107186, 40.64965573440778 ], [ -73.857303777469298, 40.649599365885003 ], [ -73.857299319178637, 40.649586549642869 ], [ -73.857265736127076, 40.649557466187005 ], [ -73.857246765640554, 40.649513880064667 ], [ -73.857235669053992, 40.649458346622019 ], [ -73.857226794594808, 40.649413064768943 ], [ -73.857225791452606, 40.649357543871069 ], [ -73.85723151805567, 40.649302029582728 ], [ -73.857252939787585, 40.649248244001946 ], [ -73.857278847644878, 40.649195318506955 ], [ -73.857298028291979, 40.649140676369868 ], [ -73.85730144251184, 40.649117618403814 ], [ -73.857283589284137, 40.649075742871979 ], [ -73.857294924232704, 40.649019382706101 ], [ -73.857304014391218, 40.64896387434819 ], [ -73.857306377869506, 40.648907503116554 ], [ -73.857298624246056, 40.648862222575048 ], [ -73.857283008437605, 40.648822909102414 ], [ -73.85725508585341, 40.648769919461799 ], [ -73.85724732496972, 40.648728053706229 ], [ -73.857244081304401, 40.648672530102907 ], [ -73.857256537024, 40.648616171331511 ], [ -73.857276839429716, 40.648561529752605 ], [ -73.857300506739122, 40.64850689410617 ], [ -73.857318563809741, 40.648453958842836 ], [ -73.857325413507752, 40.64839673858269 ], [ -73.85734459071368, 40.6483446583862 ], [ -73.857380581781626, 40.648295162026777 ], [ -73.857413209186674, 40.648245661480935 ], [ -73.857448084215406, 40.648194453598215 ], [ -73.857477347327361, 40.648144095093954 ], [ -73.857498767759395, 40.648091164896059 ], [ -73.857514581762914, 40.648038225978929 ], [ -73.857531525039605, 40.647981873663483 ], [ -73.857552944902068, 40.647928086176123 ], [ -73.857579969261849, 40.647876871274072 ], [ -73.857594663582617, 40.64782222443668 ], [ -73.857605994299291, 40.647767572505067 ], [ -73.857619570209081, 40.647712920679204 ], [ -73.857630901611614, 40.64765741423173 ], [ -73.857645598876644, 40.647601912790243 ], [ -73.857670381961285, 40.647549840487066 ], [ -73.85770636871176, 40.647502053133366 ], [ -73.857763629035773, 40.647470519463212 ], [ -73.857788383556553, 40.647431258722968 ], [ -73.857809743405682, 40.647406515518611 ], [ -73.85784795091115, 40.647368977944055 ], [ -73.857905216513629, 40.647334883172476 ], [ -73.857940080375485, 40.647287948954329 ], [ -73.857963741235039, 40.647235873358241 ], [ -73.857980680294048, 40.647181228323305 ], [ -73.857989766603893, 40.647126574496419 ], [ -73.858019033078492, 40.647075359498729 ], [ -73.858050542159205, 40.647024150027057 ], [ -73.858085406369483, 40.646976360243904 ], [ -73.858115780760713, 40.646931125187578 ], [ -73.858116917895444, 40.646923439717604 ], [ -73.858125971942926, 40.646885015023827 ], [ -73.858119330897864, 40.646844006221137 ], [ -73.858112720756878, 40.646788477552207 ], [ -73.858110598569922, 40.646731246986654 ], [ -73.858109596549795, 40.646674871483484 ], [ -73.858104110234649, 40.646618489602716 ], [ -73.858089649783366, 40.646562951148098 ], [ -73.858080707861689, 40.64654927479215 ], [ -73.85804261006993, 40.646535560474739 ], [ -73.858004569290017, 40.646494514683916 ], [ -73.857975520888047, 40.646444082171271 ], [ -73.857945286745462, 40.646423545353713 ], [ -73.857912795318128, 40.646409838010456 ], [ -73.857875833080072, 40.646389293769651 ], [ -73.85782433299147, 40.646349084019747 ], [ -73.857782939872465, 40.646302909168433 ], [ -73.857754975929623, 40.64626956256577 ], [ -73.857727054042996, 40.646216570263945 ], [ -73.857691275822205, 40.646166983018183 ], [ -73.857666699188513, 40.646122536322373 ], [ -73.857636532147438, 40.646071250412433 ], [ -73.857604101259824, 40.646029355921762 ], [ -73.857571679422577, 40.645983191197431 ], [ -73.857560532063474, 40.645951573679739 ], [ -73.857515769203218, 40.645907954667244 ], [ -73.857481109138092, 40.6458592242615 ], [ -73.857447573394566, 40.64581049616077 ], [ -73.857431946037366, 40.645776311948225 ], [ -73.857401765455222, 40.645731001877884 ], [ -73.857367108485505, 40.645681419519285 ], [ -73.857336940667963, 40.645630132606435 ], [ -73.857301153906789, 40.645584818221685 ], [ -73.857275474179346, 40.645531826834834 ], [ -73.857248674211519, 40.645479691324773 ], [ -73.857222995189844, 40.645425845327388 ], [ -73.857202905147773, 40.645382260461417 ], [ -73.857187298254132, 40.645338677569278 ], [ -73.857167155937788, 40.645319006856198 ], [ -73.857145890944139, 40.645300188337963 ], [ -73.857114583316175, 40.645257442343059 ], [ -73.857079918278501, 40.64521127468241 ], [ -73.857050872850124, 40.645159989089308 ], [ -73.857031922801426, 40.645107006942219 ], [ -73.857042132771696, 40.645052352817885 ], [ -73.857038815726057, 40.645030141905814 ], [ -73.857015379593292, 40.644978008685349 ], [ -73.857013256682151, 40.644921631848035 ], [ -73.85700663226352, 40.644873791634822 ], [ -73.856977584111078, 40.644823358858801 ], [ -73.856965365845284, 40.644768677724798 ], [ -73.856954271491773, 40.644713142384958 ], [ -73.856934201530535, 40.644659305144792 ], [ -73.856919696028783, 40.644625976016385 ], [ -73.856897346149978, 40.644590073312322 ], [ -73.856872738828983, 40.644561002662336 ], [ -73.856826857240108, 40.644516527462926 ], [ -73.856780973245648, 40.644473763113965 ], [ -73.85674510501768, 40.644466883502481 ], [ -73.856719293901691, 40.644475393612595 ], [ -73.856704732385737, 40.64446768764531 ], [ -73.856685723323068, 40.644442893424127 ], [ -73.856667890826927, 40.644391623561262 ], [ -73.856650051017354, 40.644343767568266 ], [ -73.856617597597278, 40.644312977951977 ], [ -73.856584030197538, 40.644279623136619 ], [ -73.856568412937975, 40.644241167738116 ], [ -73.856568530530268, 40.644186499203535 ], [ -73.856574255396367, 40.644131840350127 ], [ -73.856568769377063, 40.644075459298016 ], [ -73.856562161428613, 40.644019076760109 ], [ -73.856555557008633, 40.643962693389518 ], [ -73.856550067342255, 40.643908021446592 ], [ -73.856556903268356, 40.643856781456677 ], [ -73.856561448599365, 40.643829451915025 ], [ -73.856561533116789, 40.64379016152548 ], [ -73.856563897039067, 40.643733790193778 ], [ -73.856574110858546, 40.643677427828983 ], [ -73.856594362829597, 40.643645850257144 ], [ -73.856643785169183, 40.643607475151803 ], [ -73.856692035964443, 40.643592159029815 ], [ -73.856760479148448, 40.643573452439831 ], [ -73.856825547913488, 40.643559868195361 ], [ -73.856898445900157, 40.643554834226961 ], [ -73.856971335812645, 40.643554070440288 ], [ -73.857046466654992, 40.643554163996328 ], [ -73.857121606649571, 40.643549985437836 ], [ -73.857195627038706, 40.643544099918728 ], [ -73.85726741460968, 40.643534793180152 ], [ -73.857340328252633, 40.643522925753537 ], [ -73.857415477320714, 40.643514478617931 ], [ -73.857486158738482, 40.643496628890929 ], [ -73.857555715615703, 40.643482193446808 ], [ -73.857626401708913, 40.643462634523665 ], [ -73.857694846428302, 40.643443074537167 ], [ -73.85776664281984, 40.643429496341355 ], [ -73.857837313123838, 40.64341677306215 ], [ -73.857910220465996, 40.643408320986573 ], [ -73.857983125483869, 40.643399868863256 ], [ -73.85805490358446, 40.643394833614728 ], [ -73.858131167691013, 40.643388947590807 ], [ -73.858204071938857, 40.643381349841867 ], [ -73.858275863425817, 40.643369483197027 ], [ -73.858342071758543, 40.643347356350453 ], [ -73.858358896538761, 40.643344814226616 ], [ -73.858406010920433, 40.6433354754204 ], [ -73.858477815016855, 40.643317626468658 ], [ -73.858536165416595, 40.64329976098216 ], [ -73.858586651663387, 40.643287009698369 ], [ -73.858658443477196, 40.643275996494268 ], [ -73.858708916303826, 40.64327007733408 ], [ -73.858725740934801, 40.643267537918007 ], [ -73.858796419334922, 40.643251393904237 ], [ -73.858864862787911, 40.643232685979228 ], [ -73.858936668454902, 40.643213984069256 ], [ -73.85900623314258, 40.643194423757237 ], [ -73.859075796095084, 40.643175717165143 ], [ -73.859142003359906, 40.643152736094244 ], [ -73.85920709358021, 40.64312804533742 ], [ -73.859227283925861, 40.643125509053419 ], [ -73.859295727724245, 40.643105946357203 ], [ -73.859366409416523, 40.64308809455553 ], [ -73.859437084367485, 40.643074516620509 ], [ -73.859507756989487, 40.643060935961415 ], [ -73.859578423481949, 40.643050773650536 ], [ -73.85965132430448, 40.64304402782188 ], [ -73.859726461763984, 40.643040702158409 ], [ -73.859799351084419, 40.643039936579456 ], [ -73.859873368911721, 40.6430366121308 ], [ -73.859948503935826, 40.643033286401746 ], [ -73.860020280394124, 40.643028250845298 ], [ -73.86009317149437, 40.643026628726787 ], [ -73.860166063276196, 40.643024155475338 ], [ -73.860238960938602, 40.643019974910601 ], [ -73.860314093558941, 40.643018355379041 ], [ -73.860386985841799, 40.643016736588649 ], [ -73.860461004884854, 40.643011702647541 ], [ -73.860535020239581, 40.643008374172148 ], [ -73.860609042835179, 40.643001630940596 ], [ -73.860683064206171, 40.642994887659924 ], [ -73.86075820978941, 40.642988146531238 ], [ -73.860831118757389, 40.642977985250141 ], [ -73.860904029952422, 40.642966114724736 ], [ -73.860975819944727, 40.64295509739604 ], [ -73.861047601477722, 40.642947496486023 ], [ -73.86112162928994, 40.642938190973872 ], [ -73.861193410215179, 40.642931444655048 ], [ -73.861260710103821, 40.642922129078542 ], [ -73.861333625912664, 40.642908553606325 ], [ -73.861407655423832, 40.642898390551508 ], [ -73.861478339199138, 40.642879685617714 ], [ -73.861547895809423, 40.642863540400803 ], [ -73.861581545980215, 40.64285845521519 ], [ -73.861652226120157, 40.642841458446959 ], [ -73.861724019963447, 40.642827877778899 ], [ -73.861794697059366, 40.642811733678393 ], [ -73.861865380183659, 40.642793882268833 ], [ -73.861936061954367, 40.642776029809028 ], [ -73.862000030516768, 40.64275048160733 ], [ -73.862067357818475, 40.642728354798749 ], [ -73.86213356890697, 40.642702809134221 ], [ -73.862171711257375, 40.64269431353096 ], [ -73.862204248187055, 40.642686664868556 ], [ -73.862276050571708, 40.642668813546045 ], [ -73.862344497194087, 40.642646688837942 ], [ -73.862415182762618, 40.642626273293637 ], [ -73.862484743505163, 40.642608418318503 ], [ -73.862549828988818, 40.642584580263247 ], [ -73.86260932542362, 40.642553047770768 ], [ -73.862668823562302, 40.642520660649147 ], [ -73.862681166256237, 40.642516403334206 ], [ -73.862737298042461, 40.6424848659152 ], [ -73.862800153548775, 40.642455901973165 ], [ -73.862865248656789, 40.642427790839129 ], [ -73.862924750177612, 40.642393697151114 ], [ -73.86297305010271, 40.642352755025669 ], [ -73.863025832338892, 40.642314380269326 ], [ -73.863084211662482, 40.642280283403529 ], [ -73.863139235175993, 40.642241912103913 ], [ -73.86319537998898, 40.642204395876739 ], [ -73.863225701980369, 40.64218136977783 ], [ -73.863260564667712, 40.642131870130342 ], [ -73.863306608251918, 40.642098612975296 ], [ -73.863362748143643, 40.642062804102146 ], [ -73.863379603909948, 40.642044886688581 ], [ -73.863400929675052, 40.642035516989189 ], [ -73.863436858621441, 40.642012497421064 ], [ -73.863488521914746, 40.641972413761536 ], [ -73.863533466640547, 40.641927195417523 ], [ -73.863545880182343, 40.64188877427479 ], [ -73.863573987836091, 40.641852931897702 ], [ -73.863590853978465, 40.641829889629321 ], [ -73.863620116112642, 40.641776967663908 ], [ -73.8636560978034, 40.64172917658238 ], [ -73.86369879791188, 40.641684811946874 ], [ -73.863737022190648, 40.641637024507084 ], [ -73.863783072043816, 40.641598640490315 ], [ -73.863829108017327, 40.64156880151539 ], [ -73.86388636438727, 40.64153470098551 ], [ -73.863949216758456, 40.641506590173805 ], [ -73.864005356454555, 40.641469925466438 ], [ -73.864043542499786, 40.641440075265933 ], [ -73.86409294272282, 40.641410239248806 ], [ -73.864155789107741, 40.641383833836301 ], [ -73.864223119953849, 40.641358290132096 ], [ -73.864279246560997, 40.641328460147527 ], [ -73.864287201696612, 40.641277221101817 ], [ -73.864307439393343, 40.64124991155429 ], [ -73.864356841099749, 40.64121921990472 ], [ -73.864416339995628, 40.641184269000874 ], [ -73.864480298080096, 40.641163846000637 ], [ -73.864546501600714, 40.641140860977373 ], [ -73.864579067515805, 40.641117838005307 ], [ -73.864590350383665, 40.641082830130451 ], [ -73.86462742231447, 40.64104956102733 ], [ -73.864683558877857, 40.641014607777052 ], [ -73.864744175841011, 40.640981367220824 ], [ -73.864809261239074, 40.640957527049956 ], [ -73.864868748868574, 40.640928554413911 ], [ -73.864918138483816, 40.640902989186493 ], [ -73.864985444344214, 40.640889401202202 ], [ -73.865054990486669, 40.640877525011426 ], [ -73.86512455278725, 40.640857105478048 ], [ -73.865192984521101, 40.640840957657637 ], [ -73.865251330376566, 40.640822235917319 ], [ -73.86525807135078, 40.640816262551574 ], [ -73.865276044613111, 40.640800055453852 ], [ -73.865312024523377, 40.640750557411586 ], [ -73.865351304487433, 40.640733518855718 ], [ -73.865408564013862, 40.640697712051583 ], [ -73.865469185674215, 40.640663617438129 ], [ -73.865535390591901, 40.640638924406574 ], [ -73.865591530478213, 40.640603114359749 ], [ -73.865652144895634, 40.64057072700087 ], [ -73.865710519630369, 40.64053748330997 ], [ -73.865752043632781, 40.640519595401656 ], [ -73.865789088881712, 40.640499138361463 ], [ -73.865846346252908, 40.640464185937134 ], [ -73.86590359782312, 40.640430940835735 ], [ -73.865959717753199, 40.640403670223705 ], [ -73.866018094411345, 40.640368719940604 ], [ -73.866067514057178, 40.64032777781842 ], [ -73.866110176860744, 40.640301348794544 ], [ -73.866171908690717, 40.640271525343536 ], [ -73.866229163953662, 40.640237426405022 ], [ -73.866287538115145, 40.64020417965996 ], [ -73.866347032989211, 40.640170936950199 ], [ -73.8664042897868, 40.640135984247024 ], [ -73.86646938001364, 40.640107872821197 ], [ -73.866529995972925, 40.64007548416339 ], [ -73.866537853991971, 40.640071224818783 ], [ -73.86658949100007, 40.64004138848675 ], [ -73.866650106838875, 40.640009000685538 ], [ -73.866710721519453, 40.639976613604894 ], [ -73.866775806448899, 40.639952770480328 ], [ -73.866835290507581, 40.639924653263215 ], [ -73.866898139413209, 40.639895685315764 ], [ -73.866962104634482, 40.639870134349422 ], [ -73.867030542826882, 40.639850567881524 ], [ -73.867092228467925, 40.639842950672673 ], [ -73.867141558561528, 40.639846427087505 ], [ -73.867198731804663, 40.639852470832274 ], [ -73.867263745512275, 40.639863650374238 ], [ -73.86732315911496, 40.639871406765884 ], [ -73.867391520152296, 40.639889423134967 ], [ -73.867438564831758, 40.639915101733123 ], [ -73.867500173993918, 40.639945922878269 ], [ -73.867548326329199, 40.639977582982958 ], [ -73.867589762501723, 40.640004107889737 ], [ -73.8676345568107, 40.640033202126233 ], [ -73.867692229087126, 40.640070850824742 ], [ -73.867746542101941, 40.640105934585733 ], [ -73.867775647748033, 40.640129885020357 ], [ -73.867806972246328, 40.640165795033298 ], [ -73.867856233832356, 40.640205142242436 ], [ -73.867903241549783, 40.64024790615651 ], [ -73.867936816579316, 40.640280402164898 ], [ -73.867989442613577, 40.640318044907943 ], [ -73.868025230423143, 40.640365065186671 ], [ -73.868070009473669, 40.640402699791871 ], [ -73.868113089948338, 40.640448020226849 ], [ -73.868150591739507, 40.640479667003497 ], [ -73.868200969225441, 40.640519870864999 ], [ -73.868253590533556, 40.640560076357644 ], [ -73.868294990227724, 40.640605393790707 ], [ -73.868338632531177, 40.640650714700463 ], [ -73.868392379278276, 40.640689213141123 ], [ -73.868448372015081, 40.640726005015402 ], [ -73.868499872958282, 40.640766210030257 ], [ -73.868550252555565, 40.640805559140084 ], [ -73.868593895635954, 40.640850026273334 ], [ -73.868603581958666, 40.640857111919985 ], [ -73.868646522014075, 40.64088852331151 ], [ -73.868673363418196, 40.640924427954921 ], [ -73.868692328248514, 40.640973990734224 ], [ -73.868712405487656, 40.641027825102583 ], [ -73.868729121551695, 40.641079950022338 ], [ -73.868759296064908, 40.641131233885488 ], [ -73.868792837242097, 40.641180811552047 ], [ -73.868807309887373, 40.641234642173664 ], [ -73.868813963668799, 40.641272231155405 ], [ -73.868804885804266, 40.641326888543553 ], [ -73.868813746877393, 40.641382418353679 ], [ -73.868838315635884, 40.641433695787235 ], [ -73.868855026969072, 40.64148838263899 ], [ -73.868868372802424, 40.641544771245577 ], [ -73.868887327247492, 40.641598605133389 ], [ -73.868925371816516, 40.641639648348466 ], [ -73.86895896709126, 40.641661893483814 ], [ -73.868983594337521, 40.641684129210709 ], [ -73.869017137165059, 40.6417337086502 ], [ -73.869031656352206, 40.64176276779029 ], [ -73.869059627389248, 40.641794405233057 ], [ -73.869089810865091, 40.641841417857123 ], [ -73.869120034047555, 40.641868783934903 ], [ -73.869140197393492, 40.641879057510501 ], [ -73.869168190680199, 40.641898735160524 ], [ -73.869217449900475, 40.641939789132131 ], [ -73.869257727990117, 40.64198510677182 ], [ -73.869285687508693, 40.642022722659448 ], [ -73.869320353100548, 40.642071449523591 ], [ -73.869331472368259, 40.642119295064248 ], [ -73.86932579558389, 40.642156015295001 ], [ -73.8692942979158, 40.64220637428371 ], [ -73.869274007745261, 40.642260164338687 ], [ -73.869276171179024, 40.642301165569393 ], [ -73.869292928189509, 40.642332789264081 ], [ -73.869315323228562, 40.642349897625309 ], [ -73.869372457083429, 40.642377296939294 ], [ -73.869424005485612, 40.642393584683653 ], [ -73.869456478356952, 40.642417536672269 ], [ -73.869474349141498, 40.642453432762302 ], [ -73.869491097925675, 40.642489326652566 ], [ -73.869508934744061, 40.642543159244404 ], [ -73.869516724910937, 40.642573061674177 ], [ -73.869520033069762, 40.642601254328525 ], [ -73.86953562685656, 40.64265593896527 ], [ -73.869570309668305, 40.642696123457739 ], [ -73.869594932314556, 40.642719213645272 ], [ -73.8696217844128, 40.642750848754581 ], [ -73.869627346950068, 40.64277306093372 ], [ -73.869640750928923, 40.642799556852268 ], [ -73.869667560243855, 40.642852544001684 ], [ -73.869698888703937, 40.642887600730596 ], [ -73.869740306305133, 40.642924375336676 ], [ -73.869780593114413, 40.642966276239925 ], [ -73.869814138846749, 40.643015000842297 ], [ -73.869845436877512, 40.643066286599485 ], [ -73.869867757104089, 40.643120123293855 ], [ -73.869896821029968, 40.643167136269874 ], [ -73.869911292131391, 40.643221815898947 ], [ -73.869912305731901, 40.643277337555389 ], [ -73.869926798979819, 40.643320063776017 ], [ -73.869935659693652, 40.643376448084034 ], [ -73.869938911424995, 40.64343367963221 ], [ -73.869946705854105, 40.643462730195694 ], [ -73.86995334217076, 40.643509715990803 ], [ -73.869949867628293, 40.64356608808032 ], [ -73.869943039133744, 40.643618185214812 ], [ -73.869936197232818, 40.643675403570903 ], [ -73.869932722213193, 40.643732628500764 ], [ -73.869941597412165, 40.643782180545465 ], [ -73.869944917936365, 40.64380353740804 ], [ -73.86994714347756, 40.643812935918255 ], [ -73.86996834153264, 40.643867625833366 ], [ -73.869974962453895, 40.643923152997928 ], [ -73.869989433884385, 40.643977837130606 ], [ -73.869993842145888, 40.644017987201103 ], [ -73.870017286302613, 40.644070972374081 ], [ -73.870048582227938, 40.644123109070023 ], [ -73.87008436807487, 40.644173547075539 ], [ -73.870123524045965, 40.644220568646467 ], [ -73.87016380190002, 40.644267593311284 ], [ -73.870193981826134, 40.644318024023342 ], [ -73.870224158174054, 40.644368452965345 ], [ -73.870262189731179, 40.644418037013075 ], [ -73.870302468364727, 40.644464207950158 ], [ -73.870331524880427, 40.6445154892779 ], [ -73.870361721998577, 40.644556522216142 ], [ -73.870388531833228, 40.64460865734722 ], [ -73.87041759345388, 40.644657377536937 ], [ -73.870457887926918, 40.644696713483533 ], [ -73.870499290019438, 40.644742886538744 ], [ -73.870537323008833, 40.644790760459266 ], [ -73.87055969698298, 40.644818119136033 ], [ -73.870614569558327, 40.644855764103561 ], [ -73.870672833664159, 40.644881454835861 ], [ -73.870707553550488, 40.64490284795712 ], [ -73.870751253739371, 40.64491997910131 ], [ -73.870806170299133, 40.644936270929499 ], [ -73.870862168374359, 40.644972207845733 ], [ -73.870877840354467, 40.644986746294009 ], [ -73.870930470211164, 40.645025243186105 ], [ -73.870942398430088, 40.645034549429404 ], [ -73.870983096268972, 40.645066301086658 ], [ -73.871036849745806, 40.64510394551354 ], [ -73.871097336355788, 40.64513903284081 ], [ -73.871157827982174, 40.645171558100721 ], [ -73.871175751581603, 40.64518097512159 ], [ -73.871217198913243, 40.645204083829306 ], [ -73.871258661668648, 40.645218650314128 ], [ -73.871325906401793, 40.645238373190345 ], [ -73.871395393778016, 40.645258096700289 ], [ -73.871464894040727, 40.645271840832045 ], [ -73.871533256246067, 40.645293269518305 ], [ -73.871603872389201, 40.645309577609204 ], [ -73.87167448889538, 40.645325031140842 ], [ -73.871745106748847, 40.645340485466889 ], [ -73.871814600488904, 40.645357646771672 ], [ -73.871888590081966, 40.645368833703209 ], [ -73.871946879391757, 40.64538000207375 ], [ -73.872002932913517, 40.645389459728811 ], [ -73.872034327726553, 40.645391204757516 ], [ -73.872055629620448, 40.645392936775856 ], [ -73.87207581372077, 40.645393812944896 ], [ -73.872103850312158, 40.645392135902114 ], [ -73.87217114908762, 40.645384524059089 ], [ -73.87221038734998, 40.645389690814767 ], [ -73.872235027841484, 40.645405093657125 ], [ -73.872280984553029, 40.64541539537538 ], [ -73.87232693800398, 40.64542740626888 ], [ -73.872359412292994, 40.645451357427334 ], [ -73.872387439872298, 40.645455659736776 ], [ -73.872442394862517, 40.645452303328675 ], [ -73.872477149920471, 40.645455759411703 ], [ -73.872496172343702, 40.645477988232678 ], [ -73.872524158017455, 40.645503643558087 ], [ -73.87253533567511, 40.645522447943037 ], [ -73.872543125372275, 40.645554061192094 ], [ -73.872564386626749, 40.645577146081536 ], [ -73.872571118048228, 40.645575446195693 ], [ -73.872584509071359, 40.645609626695197 ], [ -73.872616933371404, 40.645659203814439 ], [ -73.872647116991459, 40.645709631113498 ], [ -73.87267283267488, 40.645748951108416 ], [ -73.872731094413354, 40.645775496310272 ], [ -73.872750117013993, 40.645797724166961 ], [ -73.872784784256424, 40.645847304559695 ], [ -73.872803744970113, 40.645901990619734 ], [ -73.872813755174604, 40.645944712330021 ], [ -73.87281368021857, 40.64598400363721 ], [ -73.872828225585067, 40.646001955366657 ], [ -73.872856251539886, 40.64600540296081 ], [ -73.872887642989809, 40.646009709792786 ], [ -73.872916773693504, 40.646023407425012 ], [ -73.872927944617757, 40.646046481996756 ], [ -73.872922303514642, 40.646063559533921 ], [ -73.872882994662319, 40.646095120535435 ], [ -73.872873989930682, 40.646112194346067 ], [ -73.8728817945168, 40.646136118956981 ], [ -73.872889608876037, 40.646154919582081 ], [ -73.872900800985363, 40.646166889078764 ], [ -73.872950063231386, 40.646207942346948 ], [ -73.872976932289006, 40.646231036123417 ], [ -73.872995966490251, 40.646247285440133 ], [ -73.873025090129474, 40.646263546748365 ], [ -73.873051986360878, 40.646272971640904 ], [ -73.873069923118734, 40.646276408026921 ], [ -73.873109148964517, 40.646288410247799 ], [ -73.87313363433239, 40.646310232965995 ], [ -73.872941963040944, 40.646508493937162 ] ] ] ] } },
{ "type": "Feature", "properties": { "Borough": "QN", "Block": 14140, "Lot": 1, "CD": 410, "BCT2020": "4089202", "BCTCB2020": "40892021001", "CT2010": "892", "CB2010": "2013", "SchoolDist": "27", "Council": 32, "ZipCode": 11414, "FireComp": "L173", "PolicePrct": 106, "HealthCent": 45, "HealthArea": 3611, "Sanitboro": "4", "SanitDistr": "10", "SanitSub": "4C", "Address": "CROSS BAY BOULEVARD", "ZoneDist1": "PARK", "ZoneDist2": null, "ZoneDist3": null, "ZoneDist4": null, "Overlay1": null, "Overlay2": null, "SPDist1": null, "SPDist2": null, "SPDist3": null, "LtdHeight": null, "SplitZone": "N", "BldgClass": "Q0", "LandUse": "09", "Easements": 0, "OwnerType": "X", "OwnerName": "UNITED STATES OF AMERICA", "LotArea": 11600000, "BldgArea": 0, "ComArea": 0, "ResArea": 0, "OfficeArea": 0, "RetailArea": 0, "GarageArea": 0, "StrgeArea": 0, "FactryArea": 0, "OtherArea": 0, "AreaSource": "7", "NumBldgs": 0, "NumFloors": 0.0, "UnitsRes": 0, "UnitsTotal": 0, "LotFront": 999.0, "LotDepth": 999.0, "BldgFront": 0.0, "BldgDepth": 0.0, "Ext": null, "ProxCode": "0", "IrrLotCode": "Y", "LotType": "5", "BsmtCode": "5", "AssessLand": 279490050.0, "AssessTot": 279490050.0, "ExemptTot": 279490050.0, "YearBuilt": 0, "YearAlter1": 0, "YearAlter2": 0, "HistDist": null, "Landmark": null, "BuiltFAR": 0.0, "ResidFAR": 0.0, "CommFAR": 0.0, "FacilFAR": 0.0, "BoroCode": 4, "BBL": 4141400001.0, "CondoNo": 0, "Tract2010": "0892", "XCoord": 1026114, "YCoord": 175148, "ZoneMap": "24a", "ZMCode": "Y", "Sanborn": "418 063", "TaxMap": "45803", "EDesigNum": null, "APPBBL": 0.0, "APPDate": null, "PLUTOMapID": "1", "FIRM07_FLA": "1", "PFIRM15_FL": "1", "Version": "25v4", "DCPEdited": null, "Latitude": 40.6473185, "Longitude": -73.8491386, "Notes": null, "Shape_Leng": 0.0, "Shape_Area": 6857029.6403500009 }, "geometry": { "type": "MultiPolygon", "coordinates": [ [ [ [ -73.847281430658768, 40.649228889644661 ], [ -73.847052426842666, 40.648308158117395 ], [ -73.846970182372459, 40.647977482695218 ], [ -73.846892434880132, 40.647664877661335 ], [ -73.84645394826687, 40.647724137992356 ], [ -73.841465067490049, 40.648398241163179 ], [ -73.840834887777135, 40.648483375446752 ], [ -73.840150003613701, 40.648575895418091 ], [ -73.83998108727711, 40.648598714317103 ], [ -73.837570740287077, 40.648924285897877 ], [ -73.836693508393139, 40.645409354621144 ], [ -73.836728343432071, 40.645404016360757 ], [ -73.837498295481339, 40.645286020013266 ], [ -73.837534043140678, 40.645284369501219 ], [ -73.837606944693022, 40.64528020052088 ], [ -73.837679842714152, 40.645276034167161 ], [ -73.837751614082364, 40.64527528189808 ], [ -73.837775161912646, 40.645275315160504 ], [ -73.837826745623545, 40.645275388008109 ], [ -73.837898526395989, 40.64527121818184 ], [ -73.837970308662804, 40.645264485433451 ], [ -73.838003962064292, 40.64526026358714 ], [ -73.83804210065037, 40.645255191616123 ], [ -73.838072374629988, 40.645256088901618 ], [ -73.838113867735288, 40.645256147393667 ], [ -73.83814395509647, 40.645256189797877 ], [ -73.838188999255507, 40.645256253267057 ], [ -73.838261891349973, 40.645255501338383 ], [ -73.838335897873733, 40.645257311970049 ], [ -73.83841102645988, 40.645259127814434 ], [ -73.83848615908191, 40.645259233495224 ], [ -73.838559052039386, 40.645257625858648 ], [ -73.838633075449039, 40.645253460566479 ], [ -73.838709331850183, 40.645251858480279 ], [ -73.838781108164298, 40.645248544454113 ], [ -73.838855127430392, 40.64524608461538 ], [ -73.838930275440447, 40.645239357746739 ], [ -73.839002051630601, 40.645236039984589 ], [ -73.83907496721308, 40.645225039737923 ], [ -73.839146757798687, 40.645215744309212 ], [ -73.839219654807351, 40.645212428901139 ], [ -73.839290313464346, 40.645208258391989 ], [ -73.839360989537468, 40.645196397470713 ], [ -73.839431672847567, 40.645181976397097 ], [ -73.839503463088022, 40.645171826144697 ], [ -73.839574140176225, 40.645159967770475 ], [ -73.839644822303924, 40.645145546480535 ], [ -73.839693058422412, 40.645137925180606 ], [ -73.839762627855237, 40.645120084870342 ], [ -73.839803016289522, 40.645112454415433 ], [ -73.839875904947149, 40.645112556058656 ], [ -73.839929737279746, 40.64511006822017 ], [ -73.839955567067364, 40.645094730539981 ], [ -73.839950027357489, 40.645066534748388 ], [ -73.839948957497924, 40.645044323787062 ], [ -73.839965808257247, 40.645032390150092 ], [ -73.840014086553154, 40.645007686902787 ], [ -73.840081419212709, 40.644987280320898 ], [ -73.840150983077919, 40.644971149804491 ], [ -73.840212705164504, 40.64495159002135 ], [ -73.840278923937703, 40.64492776521687 ], [ -73.840347373092058, 40.644909066554291 ], [ -73.840397885672559, 40.644887784566841 ], [ -73.840409117544468, 40.64488011337815 ], [ -73.840388985499629, 40.644858730530594 ], [ -73.840375868754151, 40.644845023814113 ], [ -73.840441421534564, 40.644834976664107 ], [ -73.840501947555012, 40.644825696196136 ], [ -73.84054266233565, 40.644838016802396 ], [ -73.840609908730755, 40.644853057905031 ], [ -73.84068389744553, 40.644861701959179 ], [ -73.840756773857919, 40.644867783385607 ], [ -73.840828527237392, 40.644873861367927 ], [ -73.840904773231941, 40.644877382650897 ], [ -73.840976522563167, 40.644885168898902 ], [ -73.841050522632813, 40.644889544251321 ], [ -73.84112453420974, 40.644889646657674 ], [ -73.841201905983823, 40.644890607341715 ], [ -73.841275917452194, 40.644890709650483 ], [ -73.841351054665125, 40.644888249751098 ], [ -73.841425076283173, 40.644884082577754 ], [ -73.841497966728781, 40.644883327758826 ], [ -73.841571989155, 40.644878304971321 ], [ -73.841638160004365, 40.64487498059264 ], [ -73.841711057225496, 40.644870809927156 ], [ -73.841783960198384, 40.644865785544134 ], [ -73.841857989870647, 40.644858199785808 ], [ -73.841930902550374, 40.644848050402196 ], [ -73.842003808211672, 40.644841316683582 ], [ -73.84207671194396, 40.644835438435585 ], [ -73.842151859983446, 40.64482785494738 ], [ -73.842223648899903, 40.644819411276018 ], [ -73.842297680487576, 40.64481097239581 ], [ -73.842369467063236, 40.644802528630272 ], [ -73.842440144176592, 40.644789812138768 ], [ -73.842510822358832, 40.644777096526738 ], [ -73.84258149417164, 40.644766090897569 ], [ -73.842646563763438, 40.644753367514539 ], [ -73.842710544823177, 40.644726976286307 ], [ -73.84278346327396, 40.644714262653551 ], [ -73.842855253998025, 40.644704965747735 ], [ -73.842928157105604, 40.644698231439996 ], [ -73.842998833083783, 40.644686371044678 ], [ -73.843068394033622, 40.64467109152001 ], [ -73.84314131666909, 40.644657523987 ], [ -73.843210296899414, 40.644650358223707 ], [ -73.843284885540214, 40.644643198230639 ], [ -73.843358901657254, 40.644640737246611 ], [ -73.843391420122728, 40.644640781594234 ], [ -73.843431790903097, 40.644640836637798 ], [ -73.843504679052913, 40.644640935981307 ], [ -73.8435786922484, 40.644640183968043 ], [ -73.843652704346212, 40.644639431069329 ], [ -73.843725611718583, 40.644631841662736 ], [ -73.843798515756475, 40.644625106804739 ], [ -73.843871413883335, 40.644620936611915 ], [ -73.843945456249344, 40.644608224608369 ], [ -73.844016126862059, 40.644598070019292 ], [ -73.84408682009898, 40.644577665743661 ], [ -73.844154694587075, 40.644564519311764 ], [ -73.844232659208473, 40.644551384769279 ], [ -73.844303335698839, 40.644538668052697 ], [ -73.844376248753548, 40.644528518040254 ], [ -73.844450282632934, 40.644518369582165 ], [ -73.844524314503815, 40.644509072912726 ], [ -73.844597211571084, 40.644505755017747 ], [ -73.844671233457305, 40.644500729399255 ], [ -73.844745255217873, 40.644495706409487 ], [ -73.84481817345781, 40.644483845167663 ], [ -73.844893313941384, 40.644479676437179 ], [ -73.844965098276845, 40.644472939327791 ], [ -73.845039125940133, 40.644465352441465 ], [ -73.84511091817896, 40.644455199529752 ], [ -73.845186058616306, 40.644451028767797 ], [ -73.845260078411911, 40.644446859207129 ], [ -73.845332971523021, 40.644445248199006 ], [ -73.84540698723508, 40.644442785898029 ], [ -73.845482132916061, 40.644436906669938 ], [ -73.845555027875534, 40.644434443684567 ], [ -73.84562904961227, 40.644429417449572 ], [ -73.845703062553341, 40.644428662312777 ], [ -73.845773731494461, 40.644418509318513 ], [ -73.845839947752296, 40.644394681311702 ], [ -73.845882573023488, 40.644389611926954 ], [ -73.845918475728098, 40.644381117786537 ], [ -73.845963394508942, 40.644352992651733 ], [ -73.846028492638396, 40.644327453920575 ], [ -73.846098054492842, 40.644311318049041 ], [ -73.846165380647136, 40.644292617100568 ], [ -73.84622482998563, 40.644285009001209 ], [ -73.84629884396162, 40.644284256160468 ], [ -73.846357061128884, 40.644285675819859 ], [ -73.846372848530251, 40.644286060782932 ], [ -73.846447961267501, 40.644293849873463 ], [ -73.846512999417399, 40.644294789573877 ], [ -73.846584799104576, 40.644281220198131 ], [ -73.846659951901273, 40.64427107081049 ], [ -73.846732848600368, 40.644267752481923 ], [ -73.846806864518726, 40.644266142959829 ], [ -73.846883118389655, 40.644264534532432 ], [ -73.846956021060166, 40.644258654111411 ], [ -73.847028929485319, 40.644250210690366 ], [ -73.847101828966288, 40.64424518201303 ], [ -73.847174726825173, 40.644241862485899 ], [ -73.847247631403178, 40.644235126363256 ], [ -73.847322774625525, 40.644230099610212 ], [ -73.847394543547921, 40.644229343162138 ], [ -73.847467422584756, 40.644233710220128 ], [ -73.847543665146361, 40.644238081697125 ], [ -73.847616547008315, 40.644240739548223 ], [ -73.847689433875559, 40.644241689917649 ], [ -73.8477634302388, 40.644248622906588 ], [ -73.847839659932944, 40.644258120010704 ], [ -73.847913648183095, 40.644267614013394 ], [ -73.8479854034087, 40.644272832933844 ], [ -73.848060534308175, 40.644273786038376 ], [ -73.848134548633581, 40.644271321059122 ], [ -73.848207458866497, 40.644262023298147 ], [ -73.848279239483176, 40.644256137795161 ], [ -73.848355506529558, 40.644250259091748 ], [ -73.848430642754565, 40.644247797161164 ], [ -73.84850353546139, 40.644246185064738 ], [ -73.848577561852153, 40.644239449579089 ], [ -73.848651575278794, 40.644237838865244 ], [ -73.848725586144525, 40.644237936380108 ], [ -73.84879734223955, 40.644242300279551 ], [ -73.848870217506814, 40.644248376479503 ], [ -73.848944203120865, 40.644259578177646 ], [ -73.849013689983863, 40.644276752345299 ], [ -73.849084298229911, 40.64429307435045 ], [ -73.849153780089551, 40.644311957626471 ], [ -73.849223263814778, 40.644329984505873 ], [ -73.849292743820754, 40.6443497222958 ], [ -73.849359979152283, 40.644370309940733 ], [ -73.849432826512512, 40.64438834378317 ], [ -73.849503437397004, 40.644404664612452 ], [ -73.849569539452489, 40.644430376323278 ], [ -73.84963676531946, 40.644455235872066 ], [ -73.849706252454325, 40.644472409620541 ], [ -73.84977685349206, 40.644492146826536 ], [ -73.849848588056005, 40.644506760634961 ], [ -73.849919196035955, 40.644523936640063 ], [ -73.84999091913275, 40.64454367693844 ], [ -73.850055898034228, 40.644571094343561 ], [ -73.850118633092009, 40.64459851062351 ], [ -73.85018361292137, 40.644625073358164 ], [ -73.850249714639858, 40.644651637518855 ], [ -73.850313570595077, 40.644679054149705 ], [ -73.8503774260071, 40.644707323586978 ], [ -73.850421103599061, 40.644732152912667 ], [ -73.850463616319956, 40.644776624530714 ], [ -73.850517357287089, 40.644815131312228 ], [ -73.850548700289565, 40.644839089012322 ], [ -73.850606930573733, 40.644875893315593 ], [ -73.850667412790557, 40.644907574760168 ], [ -73.850727887805363, 40.64494352999796 ], [ -73.850789493893899, 40.64497435915969 ], [ -73.850843236723335, 40.645011157511739 ], [ -73.850896976886546, 40.645049665033177 ], [ -73.850954090619751, 40.64508475859369 ], [ -73.85101232083133, 40.64512070984712 ], [ -73.851068301979282, 40.645160073874045 ], [ -73.851123162444381, 40.645199436504328 ], [ -73.851178019161893, 40.645240507298972 ], [ -73.851231758608648, 40.645279013741295 ], [ -73.851288861979043, 40.645318379114762 ], [ -73.851325800756058, 40.64534832144124 ], [ -73.851371702793685, 40.645381694592992 ], [ -73.851410849291469, 40.645427868940892 ], [ -73.851464587123843, 40.645467228029901 ], [ -73.851507118926463, 40.64550315972734 ], [ -73.851546257979024, 40.645552752333678 ], [ -73.851589889039019, 40.645598932416434 ], [ -73.851636891345478, 40.645641701116674 ], [ -73.851693997163693, 40.645680212609321 ], [ -73.851747739568012, 40.64571871881131 ], [ -73.851796988472557, 40.645759782067465 ], [ -73.851847362509076, 40.645799993074789 ], [ -73.851895485087027, 40.645843615955641 ], [ -73.851941363096316, 40.645888092279023 ], [ -73.851980541416495, 40.645919747315219 ], [ -73.852030908106741, 40.645963373032266 ], [ -73.852077913946133, 40.64600528695513 ], [ -73.852118176377203, 40.646054026209463 ], [ -73.852150619096463, 40.646089088233907 ], [ -73.852199871622233, 40.646129297639362 ], [ -73.852240136217048, 40.646177183173933 ], [ -73.852283773844675, 40.646220799198879 ], [ -73.85232179649833, 40.646267827221436 ], [ -73.852359817313541, 40.646315708990073 ], [ -73.852396715415267, 40.646364443819309 ], [ -73.852429160320938, 40.646398652087377 ], [ -73.852451545630757, 40.646418327432997 ], [ -73.852478374767244, 40.646456798707412 ], [ -73.8525085392275, 40.646508085970041 ], [ -73.85253645897933, 40.64656022669876 ], [ -73.852568868850724, 40.646609809470363 ], [ -73.852596788808285, 40.646661947423631 ], [ -73.852619098629219, 40.646715789292053 ], [ -73.852639164630546, 40.646769627272725 ], [ -73.852659273287912, 40.646804672402524 ], [ -73.852679341122453, 40.646857657620494 ], [ -73.852697719178266, 40.646914056386322 ], [ -73.85271049839821, 40.646967028649954 ], [ -73.852717105948898, 40.64702170303373 ], [ -73.852715860645986, 40.647078077463775 ], [ -73.852705646151691, 40.647133582277142 ], [ -73.852694874906291, 40.647187381610365 ], [ -73.852694183894386, 40.647245464108984 ], [ -73.852696302129729, 40.647301842015345 ], [ -73.852696275713356, 40.647313799928796 ], [ -73.852695058697861, 40.647357359169149 ], [ -73.852692695572188, 40.647412876644111 ], [ -73.85268359449833, 40.647470094673452 ], [ -73.852665531342055, 40.647524736570425 ], [ -73.852642986464815, 40.647577667114113 ], [ -73.852620441444017, 40.647630595895215 ], [ -73.852588929007311, 40.647681804799042 ], [ -73.852572055284412, 40.647704845437978 ], [ -73.852551812717763, 40.647731298305651 ], [ -73.852510214148623, 40.647778223083662 ], [ -73.852468619715509, 40.647824295091873 ], [ -73.852429269231919, 40.647870368211862 ], [ -73.852384312460714, 40.647914726671182 ], [ -73.852353920611819, 40.647965937869962 ], [ -73.852322409703021, 40.648016293024043 ], [ -73.852298738491029, 40.648070928569503 ], [ -73.85227955795375, 40.648123860688422 ], [ -73.852253649535953, 40.648175933146739 ], [ -73.852236745288096, 40.648212638999979 ], [ -73.852215878146438, 40.648267917475714 ], [ -73.8521860655529, 40.648309947724719 ], [ -73.85215905065985, 40.648356036542715 ], [ -73.852156792285029, 40.648362012149164 ], [ -73.852119680183449, 40.648409797240369 ], [ -73.852097131469108, 40.648463582266871 ], [ -73.852082453346171, 40.648508834194637 ], [ -73.852065511019859, 40.64856262283714 ], [ -73.852063257243472, 40.648568598446246 ], [ -73.852046330042484, 40.648615556670684 ], [ -73.852020425048977, 40.648665918123363 ], [ -73.851987792337653, 40.648715418057414 ], [ -73.851963069963617, 40.648738447569656 ], [ -73.851954080907149, 40.648746977372127 ], [ -73.851943964826773, 40.648757215839879 ], [ -73.851904656542757, 40.648782790248958 ], [ -73.851870976087497, 40.648799828757461 ], [ -73.851851887476499, 40.648810052046201 ], [ -73.851836162315905, 40.64882199246636 ], [ -73.851804769006975, 40.648818533565787 ], [ -73.851794678267467, 40.648816812267299 ], [ -73.851776723450044, 40.648822769449794 ], [ -73.851754282566887, 40.648827867159028 ], [ -73.851748654524641, 40.648838107722234 ], [ -73.851746347816402, 40.648866291874285 ], [ -73.85172606157262, 40.648911537435744 ], [ -73.851697945793347, 40.648947375975304 ], [ -73.851673227037537, 40.648968695310785 ], [ -73.851658576498011, 40.649000281914262 ], [ -73.851630495955376, 40.649020745897509 ], [ -73.8516113818348, 40.649042929820212 ], [ -73.851588900142858, 40.649066816661616 ], [ -73.851586623781515, 40.64908133278626 ], [ -73.851591078341272, 40.649095860285314 ], [ -73.851571987004021, 40.649107793642798 ], [ -73.851555173421076, 40.649103500757434 ], [ -73.851542854471504, 40.649096225718672 ], [ -73.851533873465513, 40.64910005842529 ], [ -73.851521514841579, 40.649111144958788 ], [ -73.85150915078863, 40.649123088759204 ], [ -73.851501295502075, 40.649125211879777 ], [ -73.851456490956679, 40.649101666645109 ], [ -73.851437418518273, 40.649105056773884 ], [ -73.851398117963043, 40.649128068142169 ], [ -73.851385753886603, 40.649140011930612 ], [ -73.85137676038326, 40.649149395444418 ], [ -73.851387920574894, 40.64917418129658 ], [ -73.851372210486659, 40.649179284043946 ], [ -73.851337438834278, 40.649181801916427 ], [ -73.851327385443696, 40.649163852361816 ], [ -73.851325211167079, 40.649133099540798 ], [ -73.851324132251264, 40.649114307086798 ], [ -73.851308474989608, 40.649094641077092 ], [ -73.851295040019863, 40.649085228613217 ], [ -73.851247958189077, 40.64907662533335 ], [ -73.851216562987972, 40.649074023545282 ], [ -73.851187359050883, 40.649094484208689 ], [ -73.851195714969322, 40.649119691528426 ], [ -73.851188402918183, 40.649129504966183 ], [ -73.851126726063782, 40.64912857127203 ], [ -73.851107109402179, 40.649124701526283 ], [ -73.851061698294146, 40.649120800171062 ], [ -73.851019112890611, 40.649107933228855 ], [ -73.85101125472508, 40.649111337834704 ], [ -73.850999987096031, 40.649135239191828 ], [ -73.850957331053678, 40.649153976741914 ], [ -73.850941616609106, 40.649159934024894 ], [ -73.85090571267439, 40.649167575968342 ], [ -73.85089779076317, 40.649200023131762 ], [ -73.850898877198034, 40.649215399963623 ], [ -73.850915605530886, 40.649257275032546 ], [ -73.850932306053309, 40.649311108093016 ], [ -73.850934424776483, 40.649366632258108 ], [ -73.850927596126255, 40.649411894223256 ], [ -73.850911774664155, 40.649465686824996 ], [ -73.850903883979967, 40.649483613122328 ], [ -73.850884530349063, 40.649487432312277 ], [ -73.850862333229529, 40.649509183427035 ], [ -73.850830916820144, 40.649515976659337 ], [ -73.850827504166432, 40.649537326160896 ], [ -73.85080950320426, 40.649563782550175 ], [ -73.850806050410313, 40.649603067619097 ], [ -73.850804890152347, 40.649620150815103 ], [ -73.850795816733111, 40.649666262613771 ], [ -73.850792328705239, 40.649721778659213 ], [ -73.850791155173908, 40.649744839345374 ], [ -73.850770124389555, 40.649745665701275 ], [ -73.850772042375525, 40.649766166690512 ], [ -73.850786597918884, 40.649777292628123 ], [ -73.850782046818026, 40.649805472002527 ], [ -73.850706358599993, 40.649801958007274 ], [ -73.850682254587198, 40.64979765459649 ], [ -73.850660960199093, 40.64979164747816 ], [ -73.850610489384366, 40.649794145637038 ], [ -73.8505969965627, 40.649809503507761 ], [ -73.850581179674094, 40.649861584191719 ], [ -73.850585567077076, 40.649906007047122 ], [ -73.850600110750008, 40.649921401386841 ], [ -73.850588861864225, 40.649936762257774 ], [ -73.850576482685923, 40.649956390887539 ], [ -73.85057523693439, 40.650011056164871 ], [ -73.850587448196862, 40.650067446222359 ], [ -73.850594053217236, 40.650122120790641 ], [ -73.850606276703189, 40.650172531428474 ], [ -73.850607274349258, 40.650228054221472 ], [ -73.850602664908351, 40.65028271411694 ], [ -73.850586843371161, 40.65033736034794 ], [ -73.850576721810185, 40.65034930336774 ], [ -73.850555395918036, 40.650357817929283 ], [ -73.850538561412591, 40.650363776376103 ], [ -73.850527336232673, 40.650368032922117 ], [ -73.850520576957436, 40.650381689511228 ], [ -73.850498177588676, 40.650367994970658 ], [ -73.850470213671741, 40.650335498529451 ], [ -73.850427698502159, 40.650291027782266 ], [ -73.850396339066705, 40.650272194963456 ], [ -73.850377270177262, 40.650273879320636 ], [ -73.850377235677684, 40.650289253775377 ], [ -73.850421994192644, 40.650334582062854 ], [ -73.850436497572815, 40.650367914666624 ], [ -73.850436376874498, 40.650421724044982 ], [ -73.850445274892223, 40.650455047591322 ], [ -73.85042279695233, 40.650476374091973 ], [ -73.85039809528088, 40.650489154545731 ], [ -73.850370012519633, 40.650509616458912 ], [ -73.850338590938648, 40.650518971507083 ], [ -73.850315011990091, 40.650530899643691 ], [ -73.850269021829021, 40.650535965451162 ], [ -73.850242091749422, 40.650542762529881 ], [ -73.850218500445052, 40.650560669226834 ], [ -73.850197111825182, 40.650596515246761 ], [ -73.850174046221099, 40.650629371200907 ], [ -73.850155484035781, 40.650655399829709 ], [ -73.850110560861111, 40.650684380259108 ], [ -73.850061156414014, 40.650710794537922 ], [ -73.850049934984909, 40.65071334368524 ], [ -73.850037580474051, 40.650721869864448 ], [ -73.850020722777813, 40.650738077033985 ], [ -73.849970194288431, 40.650765341727961 ], [ -73.849915162655421, 40.650800292741664 ], [ -73.84985453203214, 40.650831816259007 ], [ -73.84978830999286, 40.650856501159815 ], [ -73.849728817424477, 40.650880340146195 ], [ -73.84969265229941, 40.65087858454536 ], [ -73.849686176038645, 40.650891386855506 ], [ -73.849688365129467, 40.650915306612447 ], [ -73.849683861890355, 40.650922989348516 ], [ -73.849610972271421, 40.650919477376164 ], [ -73.849571708565591, 40.650925402629298 ], [ -73.84954589838209, 40.650933056531827 ], [ -73.849520096730004, 40.650936440205811 ], [ -73.849492613213471, 40.650938966235167 ], [ -73.849468513321668, 40.650933808898074 ], [ -73.849452828455441, 40.650926956986979 ], [ -73.849425908497864, 40.650928629975525 ], [ -73.849371424818912, 40.650969985043297 ], [ -73.849345041140609, 40.650982336142611 ], [ -73.849328203346474, 40.650989146328719 ], [ -73.849302364874404, 40.651008759004341 ], [ -73.849257456535497, 40.651030907765438 ], [ -73.849223699773702, 40.651080404513522 ], [ -73.849214673239146, 40.651105164152753 ], [ -73.849205646326567, 40.651129068272056 ], [ -73.849216773207857, 40.6511683751066 ], [ -73.849239159898914, 40.651187193791174 ], [ -73.849251470177961, 40.651198315133833 ], [ -73.849251583819509, 40.651198432993851 ], [ -73.847818813036127, 40.651389388110793 ], [ -73.847281430658768, 40.649228889644661 ] ] ], [ [ [ -73.859355839280468, 40.652606491612033 ], [ -73.860501667610961, 40.654133559978483 ], [ -73.860020113039383, 40.654442012669065 ], [ -73.859866422797026, 40.654540454189323 ], [ -73.859844753727003, 40.654515615029894 ], [ -73.859819019355712, 40.654486540998022 ], [ -73.859793334709437, 40.65443440750439 ], [ -73.859769893820612, 40.654381420389768 ], [ -73.859749816883266, 40.654328438297938 ], [ -73.85973310557587, 40.654274606550985 ], [ -73.859725370659916, 40.65421993116685 ], [ -73.859722102006032, 40.654174654624839 ], [ -73.859717731014641, 40.654119983346789 ], [ -73.859699885715713, 40.654072984319072 ], [ -73.859694512826437, 40.654067582114209 ], [ -73.85967862151135, 40.654051604339337 ], [ -73.859619244732983, 40.654020782716998 ], [ -73.859578917350632, 40.653998523982096 ], [ -73.859531901171962, 40.653956613084105 ], [ -73.859482640252736, 40.653915553181939 ], [ -73.859442350790431, 40.653875359757699 ], [ -73.8594255799336, 40.653850566919552 ], [ -73.859416715903151, 40.653799306682977 ], [ -73.859417863811217, 40.653786496472264 ], [ -73.859422438163023, 40.653744647828873 ], [ -73.859415809932116, 40.653696807801794 ], [ -73.859395724479967, 40.653648094024135 ], [ -73.859371127254349, 40.653612190933593 ], [ -73.85933309365268, 40.653566018042 ], [ -73.859316385881755, 40.65351133255524 ], [ -73.85928059786238, 40.653463455958992 ], [ -73.859263826463206, 40.653439518530938 ], [ -73.859233643561836, 40.653392504307376 ], [ -73.85923366881137, 40.653380545479791 ], [ -73.859260695785267, 40.653328474614135 ], [ -73.85925962057172, 40.653306265614539 ], [ -73.859223800235952, 40.653273764370731 ], [ -73.859185733246676, 40.653242966882139 ], [ -73.859163400208203, 40.653197668699079 ], [ -73.859126454171019, 40.653166873401389 ], [ -73.85907382480751, 40.653128373819442 ], [ -73.859040250540687, 40.653095018918911 ], [ -73.859031364134751, 40.653054008363931 ], [ -73.859020251026138, 40.653005307285213 ], [ -73.859018237354263, 40.652999205665289 ], [ -73.859018176642195, 40.652926722917051 ], [ -73.859018261534047, 40.652886577050523 ], [ -73.859017233965588, 40.652841306744513 ], [ -73.859010650786274, 40.652772965663942 ], [ -73.858997322477464, 40.65271059472613 ], [ -73.858990205100241, 40.652694005437645 ], [ -73.85897165662972, 40.652650772434377 ], [ -73.858938090477466, 40.652613148115933 ], [ -73.858898956252233, 40.652556725900425 ], [ -73.858852023985321, 40.652476378043268 ], [ -73.858807348262857, 40.65238919991581 ], [ -73.858761520811967, 40.652316539328069 ], [ -73.858717947486809, 40.652238754822207 ], [ -73.858677721657031, 40.652168665806464 ], [ -73.858634124867734, 40.652101987339393 ], [ -73.858615191406216, 40.6520396104561 ], [ -73.858598541479168, 40.651957590568429 ], [ -73.858572927007458, 40.651873852364709 ], [ -73.858543947714068, 40.651788401648453 ], [ -73.858519424741232, 40.651717476394523 ], [ -73.8584848031213, 40.651649953488189 ], [ -73.858451223237878, 40.651619163034056 ], [ -73.85837836989549, 40.651598572972986 ], [ -73.858315579373837, 40.651592516934059 ], [ -73.858242756367147, 40.651558259686475 ], [ -73.858184517139335, 40.651521461041014 ], [ -73.858141994870806, 40.651476990474983 ], [ -73.858116298873654, 40.65143083424514 ], [ -73.858078317075112, 40.65136074778372 ], [ -73.858016690816328, 40.651335045530516 ], [ -73.857978620025037, 40.651306812259534 ], [ -73.857971941626275, 40.651283741798309 ], [ -73.858000128398217, 40.651212881600863 ], [ -73.857872455393391, 40.651129870593365 ], [ -73.857810813032216, 40.65111185508011 ], [ -73.857744776516427, 40.651050275153878 ], [ -73.857678818020304, 40.650952819537878 ], [ -73.857612894270858, 40.650839132154978 ], [ -73.857531344839899, 40.650689555874955 ], [ -73.857498963397802, 40.650622890038797 ], [ -73.857486720606104, 40.650580168665797 ], [ -73.857449942976018, 40.650471643935724 ], [ -73.857396371871417, 40.650350286720958 ], [ -73.857352861609542, 40.650244317393167 ], [ -73.857337134686759, 40.650256254963629 ], [ -73.857291062867304, 40.650299761099035 ], [ -73.857276456135708, 40.650312553731503 ], [ -73.85725961931432, 40.650319366836527 ], [ -73.857231555185379, 40.650332145412982 ], [ -73.857178354397831, 40.650362179132465 ], [ -73.857177691841628, 40.650347453941833 ], [ -73.857174373250402, 40.650326948562075 ], [ -73.857160946501466, 40.65031155644634 ], [ -73.8571644303629, 40.650256040297783 ], [ -73.857171277919306, 40.650200530926178 ], [ -73.857183732050487, 40.650145025011895 ], [ -73.857192768779839, 40.650115140849309 ], [ -73.857213070593659, 40.650060500209428 ], [ -73.857231131193643, 40.650006709536541 ], [ -73.857243586443161, 40.649951205373824 ], [ -73.857245950011375, 40.649894832308185 ], [ -73.857240461851219, 40.649838452161312 ], [ -73.857241680083305, 40.649794038291745 ], [ -73.857242732309928, 40.649790064940966 ], [ -73.859355839280468, 40.652606491612033 ] ] ], [ [ [ -73.859037068154436, 40.655071671364098 ], [ -73.857339728699131, 40.652809412361428 ], [ -73.857361950464821, 40.652810221272745 ], [ -73.857407923979309, 40.652814546751692 ], [ -73.857472996869276, 40.652802671425349 ], [ -73.857541449275232, 40.652783966143545 ], [ -73.85761102070316, 40.652766112287239 ], [ -73.857679482258277, 40.652743136702526 ], [ -73.857710895658798, 40.652737621193261 ], [ -73.857736625593247, 40.652767977137756 ], [ -73.857759025429147, 40.652782525696068 ], [ -73.857812794781097, 40.65281163306679 ], [ -73.857859866730919, 40.652827067666792 ], [ -73.857905809953024, 40.652845060127575 ], [ -73.857947294454846, 40.652850238116791 ], [ -73.85800668408254, 40.652874227517415 ], [ -73.858052649194946, 40.652881972042316 ], [ -73.858077298170727, 40.652893104923898 ], [ -73.858106387134242, 40.652926453729599 ], [ -73.858144415891971, 40.652974333546133 ], [ -73.858174669301135, 40.652987184366594 ], [ -73.858245295770388, 40.653000937773292 ], [ -73.858314792808144, 40.653018106382213 ], [ -73.858328217343811, 40.653034352032499 ], [ -73.858338200715849, 40.653086466498955 ], [ -73.858354908070851, 40.653140300209813 ], [ -73.858377282156411, 40.653167661234534 ], [ -73.858415327082199, 40.653206998593156 ], [ -73.85846795551636, 40.653246354830074 ], [ -73.858507111533939, 40.653292527553312 ], [ -73.858510364821015, 40.653344636388084 ], [ -73.858508005224039, 40.653400153105032 ], [ -73.85849779578291, 40.653453951872997 ], [ -73.858488765225871, 40.653482129614396 ], [ -73.858484186796332, 40.653525683817485 ], [ -73.858497612682839, 40.653540222092403 ], [ -73.858521071601544, 40.653584667190998 ], [ -73.858519861401689, 40.653625665346269 ], [ -73.858515315605686, 40.653653846857232 ], [ -73.858532069160972, 40.653687180355014 ], [ -73.858576834282772, 40.653732505361091 ], [ -73.858599166387791, 40.653778657417568 ], [ -73.858602516990487, 40.653785495568513 ], [ -73.858624861918599, 40.653825669042746 ], [ -73.858647242987587, 40.653848757949106 ], [ -73.858685302834104, 40.653882971238254 ], [ -73.858714425117768, 40.653900943595936 ], [ -73.85871775281386, 40.653918029619277 ], [ -73.858722121160213, 40.65397355636911 ], [ -73.858732119944051, 40.654017986705632 ], [ -73.858747784172976, 40.654035940658908 ], [ -73.858775755480309, 40.654067580559072 ], [ -73.858782435643576, 40.654090650967511 ], [ -73.858791291879044, 40.654145328715913 ], [ -73.858817031104195, 40.654171837350113 ], [ -73.858842795550117, 40.654186391669938 ], [ -73.858906667285183, 40.654212948063474 ], [ -73.858930179723956, 40.654231768908247 ], [ -73.858978316619755, 40.654273682263621 ], [ -73.859024261135218, 40.654291676115598 ], [ -73.859076923281648, 40.654315657535363 ], [ -73.859097050937777, 40.654343867497943 ], [ -73.859109330353164, 40.654371216910711 ], [ -73.859114911420178, 40.654384035370619 ], [ -73.859143988311956, 40.654422506964288 ], [ -73.859170840758566, 40.654453290712389 ], [ -73.859182008342998, 40.654476366682346 ], [ -73.859194228991825, 40.65453104843786 ], [ -73.85920981409312, 40.654586588078956 ], [ -73.859218667735874, 40.654642118461517 ], [ -73.859230965402787, 40.654660924660156 ], [ -73.859247733384251, 40.654686569442113 ], [ -73.859266752228137, 40.654709655024476 ], [ -73.859278976592876, 40.654762629418101 ], [ -73.85928670760245, 40.654819013018006 ], [ -73.859304561117995, 40.654862595646748 ], [ -73.859320249089436, 40.654890288625225 ], [ -73.859037068154436, 40.655071671364098 ] ] ], [ [ [ -73.85624481950326, 40.651350088183975 ], [ -73.856254803528572, 40.651350792222736 ], [ -73.856288422188896, 40.651361938557379 ], [ -73.856345544789178, 40.651396175650341 ], [ -73.856356703523005, 40.651422668448738 ], [ -73.85635772621815, 40.651468792377351 ], [ -73.856354881349745, 40.651496781592591 ], [ -73.85624481950326, 40.651350088183975 ] ] ], [ [ [ -73.852173252961236, 40.650808985639515 ], [ -73.851806980613674, 40.650857813401501 ], [ -73.851616106024878, 40.650883256045731 ], [ -73.851618516959221, 40.650875963906074 ], [ -73.851625288271919, 40.650856325160383 ], [ -73.851665755931563, 40.650814523167263 ], [ -73.851727502037065, 40.650785562094704 ], [ -73.851776874400016, 40.650772814200018 ], [ -73.851797071143437, 40.650768568189164 ], [ -73.851863288439461, 40.65074559316411 ], [ -73.851870973563678, 40.650743014265089 ], [ -73.851931749904594, 40.65072261915401 ], [ -73.851999088476546, 40.650700497418377 ], [ -73.852068668534301, 40.650677951608117 ], [ -73.852097880103713, 40.650653645499581 ], [ -73.852140596022906, 40.650609284277564 ], [ -73.852194508751367, 40.650571771480358 ], [ -73.85223381298421, 40.650547905165098 ], [ -73.852302265757871, 40.6505292012409 ], [ -73.852371834450722, 40.650512206987386 ], [ -73.852435791398051, 40.650496915516605 ], [ -73.852495303556111, 40.650463678166197 ], [ -73.852560347272231, 40.650463761684108 ], [ -73.852634349942662, 40.650470690691634 ], [ -73.852707243004204, 40.650472492476048 ], [ -73.85278237098548, 40.650476860874697 ], [ -73.852851886611859, 40.650483782234105 ], [ -73.852923623732863, 40.650500957817414 ], [ -73.852994245279461, 40.65051471453765 ], [ -73.853034601579253, 40.650522452974492 ], [ -73.853068231789706, 40.650528474514203 ], [ -73.853143337440486, 40.650543519154027 ], [ -73.853211723198584, 40.650555137763497 ], [ -73.853284583988909, 40.650570605360258 ], [ -73.853356320216321, 40.650587780757071 ], [ -73.853426939286948, 40.6506032454012 ], [ -73.853499801281288, 40.650618712026585 ], [ -73.853543007339894, 40.650626365322168 ], [ -73.852173252961236, 40.650808985639515 ] ] ], [ [ [ -73.850671359729091, 40.651009185973521 ], [ -73.850669455515728, 40.651006272506216 ], [ -73.850690805756244, 40.650987510130975 ], [ -73.850739023208774, 40.650990132918167 ], [ -73.850763795017158, 40.650996864862293 ], [ -73.850671359729091, 40.651009185973521 ] ] ] ] } }
]
}
