{
"type": "FeatureCollection",
"name": "pluto_Stuyvesant_Town-Peter_Cooper_Village",
"crs": { "type": "name", "properties": { "name": "urn:ogc:def:crs:OGC:1.3:CRS84" } },
"features": [
{ "type": "Feature", "properties": { "Borough": "MN", "Block": 316, "Lot": 200, "CD": 103, "BCT2020": "1001001", "BCTCB2020": "10010011014", "CT2010": "10.01", "CB2010": "1000", "SchoolDist": "01", "Council": 1, "ZipCode": 10002, "FireComp": "L018", "PolicePrct": 7, "HealthCent": 14, "HealthArea": 7600, "Sanitboro": "1", "SanitDistr": "03", "SanitSub": "2B", "Address": "GRAND STREET", "ZoneDist1": "PARK", "ZoneDist2": null, "ZoneDist3": null, "ZoneDist4": null, "Overlay1": null, "Overlay2": null, "SPDist1": null, "SPDist2": null, "SPDist3": null, "LtdHeight": null, "SplitZone": "N", "BldgClass": "Q1", "LandUse": "09", "Easements": 0, "OwnerType": "C", "OwnerName": "NYC DEPARTMENT OF PARKS AND RECREATION", "LotArea": 2232500, "BldgArea": 8750, "ComArea": 8750, "ResArea": 0, "OfficeArea": 0, "RetailArea": 0, "GarageArea": 0, "StrgeArea": 0, "FactryArea": 0, "OtherArea": 8750, "AreaSource": "2", "NumBldgs": 3, "NumFloors": 1.0, "UnitsRes": 0, "UnitsTotal": 1, "LotFront": 100.0, "LotDepth": 100.0, "BldgFront": 28.0, "BldgDepth": 70.0, "Ext": "N", "ProxCode": "0", "IrrLotCode": "Y", "LotType": "5", "BsmtCode": "0", "AssessLand": 49218750.0, "AssessTot": 58492350.0, "ExemptTot": 58492350.0, "YearBuilt": 1910, "YearAlter1": 0, "YearAlter2": 0, "HistDist": null, "Landmark": null, "BuiltFAR": 0.0, "ResidFAR": 0.0, "CommFAR": 0.0, "FacilFAR": 0.0, "BoroCode": 1, "BBL": 1003160200.0, "CondoNo": 0, "Tract2010": "001001", "XCoord": 991620, "YCoord": 201279, "ZoneMap": "12c", "ZMCode": "Y", "Sanborn": "101N111", "TaxMap": "10201", "EDesigNum": null, "APPBBL": 0.0, "APPDate": null, "PLUTOMapID": "1", "FIRM07_FLA": "1", "PFIRM15_FL": "1", "Version": "25v4", "DCPEdited": "t", "Latitude": 40.719138, "Longitude": -73.9734128, "Notes": null, "Shape_Leng": 0.0, "Shape_Area": 1469958.9921599999 }, "geometry": { "type": "MultiPolygon", "coordinates": [ [ [ [ -73.976347112729385, 40.712688324392211 ], [ -73.976367227827197, 40.712939779447623 ], [ -73.976321455776244, 40.713022485388692 ], [ -73.977049476267098, 40.713243903229774 ], [ -73.976852320453077, 40.713637308392528 ], [ -73.976277312963958, 40.714784642294099 ], [ -73.97613193782793, 40.715074708261206 ], [ -73.975464604709018, 40.716406204983819 ], [ -73.974946177321556, 40.717429108970187 ], [ -73.974832598473867, 40.717692979844138 ], [ -73.974788188092518, 40.717832044524869 ], [ -73.974741205715333, 40.718036242509925 ], [ -73.97464918768226, 40.718603994376068 ], [ -73.974600327599433, 40.718943049239179 ], [ -73.97448953821447, 40.719873352196934 ], [ -73.974344848550231, 40.721077232467614 ], [ -73.974265754045888, 40.721610773834385 ], [ -73.974173251657433, 40.722168115098135 ], [ -73.97413426241981, 40.722377323095152 ], [ -73.97407708010293, 40.722561142511864 ], [ -73.973934558992582, 40.722834206304988 ], [ -73.973597992220093, 40.723320662678198 ], [ -73.973210700402149, 40.723942163413611 ], [ -73.972340908854349, 40.725337905453728 ], [ -73.971948965599424, 40.725167280158374 ], [ -73.971842362923027, 40.725785419083429 ], [ -73.97182768931404, 40.725788325847006 ], [ -73.971892231884979, 40.725434361115781 ], [ -73.971912486624873, 40.725325888231652 ], [ -73.971961996781587, 40.725068800964998 ], [ -73.972010371102584, 40.72483477725887 ], [ -73.97205536213562, 40.724637479790061 ], [ -73.97208236788866, 40.724500823548901 ], [ -73.97214535551646, 40.724219822925008 ], [ -73.972212841634217, 40.723930282893043 ], [ -73.972286216037546, 40.723642880163446 ], [ -73.972461387250647, 40.722895113819469 ], [ -73.972558107062937, 40.722488562295155 ], [ -73.972695312341614, 40.72191204494586 ], [ -73.972941602733982, 40.720867478142111 ], [ -73.973139527336016, 40.720039000604423 ], [ -73.973313700931499, 40.719405586115187 ], [ -73.973476782613631, 40.718878289057407 ], [ -73.973722916922924, 40.718168548058166 ], [ -73.973902731152435, 40.717668058748302 ], [ -73.974143125016312, 40.716999601043163 ], [ -73.974324160449683, 40.716495404789477 ], [ -73.974601707025897, 40.715791647275886 ], [ -73.97467361643632, 40.715626812471172 ], [ -73.974869113101477, 40.715176717425116 ], [ -73.975117902112231, 40.714645577051691 ], [ -73.975140988340272, 40.714597665947977 ], [ -73.975145425809487, 40.714586690592725 ], [ -73.975165703203373, 40.714543005058395 ], [ -73.975172446188139, 40.714528484928181 ], [ -73.975179184900711, 40.714515673057747 ], [ -73.97519491372249, 40.714479804673886 ], [ -73.975205024675134, 40.714459305899801 ], [ -73.975225248729345, 40.714415749933735 ], [ -73.975229740006128, 40.714406355013196 ], [ -73.975253334417985, 40.714356819563143 ], [ -73.975256702709373, 40.714349986329623 ], [ -73.975336467069994, 40.714179172489033 ], [ -73.97569596081712, 40.713413078552755 ], [ -73.975971204717581, 40.712796439366045 ], [ -73.976070040028148, 40.712602257548959 ], [ -73.976347112729385, 40.712688324392211 ] ] ], [ [ [ -73.971686938177655, 40.726337715928764 ], [ -73.971646513774402, 40.726554787680044 ], [ -73.971617638855989, 40.72670982898682 ], [ -73.971617306920336, 40.726709686932537 ], [ -73.97165938620337, 40.72646355221778 ], [ -73.971681895944769, 40.726337144537844 ], [ -73.971721291292738, 40.726103970600562 ], [ -73.971769693876283, 40.725810156838982 ], [ -73.971784821563219, 40.725812119554192 ], [ -73.971686938177655, 40.726337715928764 ] ] ] ] } },
{ "type": "Feature", "properties": { "Borough": "MN", "Block": 978, "Lot": 1, "CD": 106, "BCT2020": "1006000", "BCTCB2020": "10060002000", "CT2010": "60", "CB2010": "2006", "SchoolDist": "02", "Council": 4, "ZipCode": 10010, "FireComp": "E005", "PolicePrct": 13, "HealthCent": 14, "HealthArea": 6000, "Sanitboro": "1", "SanitDistr": "06", "SanitSub": "1B", "Address": "342 1 AVENUE", "ZoneDist1": "R7-2", "ZoneDist2": null, "ZoneDist3": null, "ZoneDist4": null, "Overlay1": null, "Overlay2": null, "SPDist1": null, "SPDist2": null, "SPDist3": null, "LtdHeight": null, "SplitZone": "N", "BldgClass": "D6", "LandUse": "04", "Easements": 0, "OwnerType": null, "OwnerName": "BPP PCV OWNER LLC", "LotArea": 828650, "BldgArea": 3122165, "ComArea": 19609, "ResArea": 3102556, "OfficeArea": 3419, "RetailArea": 16190, "GarageArea": 0, "StrgeArea": 0, "FactryArea": 0, "OtherArea": 0, "AreaSource": "2", "NumBldgs": 23, "NumFloors": 15.0, "UnitsRes": 2491, "UnitsTotal": 2498, "LotFront": 650.0, "LotDepth": 547.42, "BldgFront": 71.5, "BldgDepth": 182.0, "Ext": "N", "ProxCode": "0", "IrrLotCode": "Y", "LotType": "5", "BsmtCode": "0", "AssessLand": 32941350.0, "AssessTot": 242411400.0, "ExemptTot": 0.0, "YearBuilt": 1947, "YearAlter1": 0, "YearAlter2": 0, "HistDist": null, "Landmark": null, "BuiltFAR": 3.77, "ResidFAR": 3.44, "CommFAR": 0.0, "FacilFAR": 6.5, "BoroCode": 1, "BBL": 1009780001.0000001, "CondoNo": 0, "Tract2010": "0060", "XCoord": 990629, "YCoord": 207012, "ZoneMap": "12c", "ZMCode": null, "Sanborn": "102 050", "TaxMap": "10310", "EDesigNum": null, "APPBBL": 0.0, "APPDate": null, "PLUTOMapID": "1", "FIRM07_FLA": "1", "PFIRM15_FL": "1", "Version": "25v4", "DCPEdited": null, "Latitude": 40.7348744, "Longitude": -73.9769824, "Notes": null, "Shape_Leng": 0.0, "Shape_Area": 839326.48048100004 }, "geometry": { "type": "MultiPolygon", "coordinates": [ [ [ [ -73.977588420774765, 40.73417982722502 ], [ -73.977640157056612, 40.73420166200949 ], [ -73.979566379285799, 40.735014524748841 ], [ -73.978784166384173, 40.736089687537543 ], [ -73.978754740546904, 40.736130131896211 ], [ -73.978424545337162, 40.736583979193767 ], [ -73.975241019690003, 40.735242729809677 ], [ -73.975080571995591, 40.734618159699096 ], [ -73.97506139958621, 40.734543527863948 ], [ -73.974649333386566, 40.732939434661937 ], [ -73.977588420774765, 40.73417982722502 ] ] ] ] } },
{ "type": "Feature", "properties": { "Borough": "MN", "Block": 988, "Lot": 1, "CD": 106, "BCT2020": "1004400", "BCTCB2020": "10044002002", "CT2010": "44", "CB2010": "5006", "SchoolDist": "02", "Council": 4, "ZipCode": 10009, "FireComp": "L011", "PolicePrct": 13, "HealthCent": 14, "HealthArea": 6000, "Sanitboro": "1", "SanitDistr": "06", "SanitSub": "1A", "Address": "230 AVENUE C", "ZoneDist1": "M3-2", "ZoneDist2": null, "ZoneDist3": null, "ZoneDist4": null, "Overlay1": null, "Overlay2": null, "SPDist1": null, "SPDist2": null, "SPDist3": null, "LtdHeight": null, "SplitZone": "N", "BldgClass": "U2", "LandUse": "07", "Easements": 0, "OwnerType": "X", "OwnerName": "CON EDISON", "LotArea": 220376, "BldgArea": 0, "ComArea": 0, "ResArea": 0, "OfficeArea": 0, "RetailArea": 0, "GarageArea": 0, "StrgeArea": 0, "FactryArea": 0, "OtherArea": 0, "AreaSource": "7", "NumBldgs": 2, "NumFloors": 0.0, "UnitsRes": 0, "UnitsTotal": 0, "LotFront": 206.5, "LotDepth": 1091.83, "BldgFront": 0.0, "BldgDepth": 0.0, "Ext": "N", "ProxCode": "0", "IrrLotCode": "Y", "LotType": "3", "BsmtCode": "0", "AssessLand": 0.0, "AssessTot": 0.0, "ExemptTot": 0.0, "YearBuilt": 0, "YearAlter1": 0, "YearAlter2": 0, "HistDist": null, "Landmark": null, "BuiltFAR": 0.0, "ResidFAR": 0.0, "CommFAR": 2.0, "FacilFAR": 0.0, "BoroCode": 1, "BBL": 1009880001.0000001, "CondoNo": 0, "Tract2010": "0044", "XCoord": 991552, "YCoord": 204529, "ZoneMap": "12c", "ZMCode": null, "Sanborn": "102 031", "TaxMap": "10310", "EDesigNum": null, "APPBBL": 0.0, "APPDate": null, "PLUTOMapID": "1", "FIRM07_FLA": "1", "PFIRM15_FL": "1", "Version": "25v4", "DCPEdited": "t", "Latitude": 40.7280585, "Longitude": -73.9736546, "Notes": null, "Shape_Leng": 0.0, "Shape_Area": 220376.085857 }, "geometry": { "type": "MultiPolygon", "coordinates": [ [ [ [ -73.975508526727026, 40.728514692561497 ], [ -73.975145188121061, 40.729014005678849 ], [ -73.971933034860328, 40.727669332280975 ], [ -73.972020235258327, 40.727054419733001 ], [ -73.975508526727026, 40.728514692561497 ] ] ] ] } },
{ "type": "Feature", "properties": { "Borough": "MN", "Block": 991, "Lot": 35, "CD": 106, "BCT2020": "1006000", "BCTCB2020": "10060000001", "CT2010": "60", "CB2010": "0001", "SchoolDist": null, "Council": 4, "ZipCode": 0, "FireComp": null, "PolicePrct": 0, "HealthCent": 0, "HealthArea": 0, "Sanitboro": null, "SanitDistr": null, "SanitSub": null, "Address": "F D R DRIVE", "ZoneDist1": "M1-1", "ZoneDist2": null, "ZoneDist3": null, "ZoneDist4": null, "Overlay1": null, "Overlay2": null, "SPDist1": null, "SPDist2": null, "SPDist3": null, "LtdHeight": null, "SplitZone": "N", "BldgClass": "T2", "LandUse": "07", "Easements": 0, "OwnerType": "C", "OwnerName": "NYC DEPARTMENT OF SMALL BUSINESS SERVICES", "LotArea": 165000, "BldgArea": 0, "ComArea": 0, "ResArea": 0, "OfficeArea": 0, "RetailArea": 0, "GarageArea": 0, "StrgeArea": 0, "FactryArea": 0, "OtherArea": 0, "AreaSource": "7", "NumBldgs": 0, "NumFloors": 0.0, "UnitsRes": 0, "UnitsTotal": 0, "LotFront": 308.83, "LotDepth": 604.25, "BldgFront": 0.0, "BldgDepth": 0.0, "Ext": "N", "ProxCode": "0", "IrrLotCode": "N", "LotType": "9", "BsmtCode": "0", "AssessLand": 9330300.0, "AssessTot": 9330300.0, "ExemptTot": 9330300.0, "YearBuilt": 0, "YearAlter1": 0, "YearAlter2": 0, "HistDist": null, "Landmark": null, "BuiltFAR": 0.0, "ResidFAR": 0.0, "CommFAR": 1.0, "FacilFAR": 2.4, "BoroCode": 1, "BBL": 1009910035.0, "CondoNo": 0, "Tract2010": "0060", "XCoord": 991757, "YCoord": 206300, "ZoneMap": "12c", "ZMCode": null, "Sanborn": "102 056", "TaxMap": "10310", "EDesigNum": null, "APPBBL": 0.0, "APPDate": null, "PLUTOMapID": "1", "FIRM07_FLA": "1", "PFIRM15_FL": "1", "Version": "25v4", "DCPEdited": "t", "Latitude": 40.7329193, "Longitude": -73.972913, "Notes": null, "Shape_Leng": 0.0, "Shape_Area": 4477.2404948000003 }, "geometry": { "type": "MultiPolygon", "coordinates": [ [ [ [ -73.973876249234465, 40.733205085041654 ], [ -73.973920837064142, 40.733364438290728 ], [ -73.973913395650811, 40.733358772052476 ], [ -73.973894312756215, 40.73334339239635 ], [ -73.973886454646319, 40.733337412169654 ], [ -73.973828080639876, 40.733299817965147 ], [ -73.973794403010075, 40.73327760201574 ], [ -73.973786545451404, 40.733273328197576 ], [ -73.973777564452277, 40.733269056881937 ], [ -73.973750618453835, 40.733260509346046 ], [ -73.973742758674518, 40.733258799287754 ], [ -73.973721425545861, 40.733255376126692 ], [ -73.973707953549649, 40.733250249103634 ], [ -73.97369504340972, 40.733242985360306 ], [ -73.973685501284336, 40.733235723310734 ], [ -73.973679891296854, 40.733229742664875 ], [ -73.973667545081355, 40.733212658103291 ], [ -73.973656324622667, 40.733195572041538 ], [ -73.973649593196996, 40.733178486928978 ], [ -73.973646232433268, 40.733160549006286 ], [ -73.973647925648763, 40.733138768816971 ], [ -73.973650734898015, 40.733129799508319 ], [ -73.973654669102274, 40.733122543231836 ], [ -73.973672080731248, 40.733104180574628 ], [ -73.973678818894584, 40.733098204523913 ], [ -73.973686682576215, 40.733093081561471 ], [ -73.973696789842208, 40.733087103607133 ], [ -73.973710266319827, 40.733081127344036 ], [ -73.973747325481469, 40.733068325219882 ], [ -73.973791123282183, 40.733054669200506 ], [ -73.973831275147788, 40.733044348530782 ], [ -73.973876249234465, 40.733205085041654 ] ] ] ] } },
{ "type": "Feature", "properties": { "Borough": "MN", "Block": 991, "Lot": 50, "CD": 106, "BCT2020": "1006000", "BCTCB2020": "10060001000", "CT2010": "60", "CB2010": "1000", "SchoolDist": "02", "Council": 4, "ZipCode": 10009, "FireComp": "E005", "PolicePrct": 13, "HealthCent": 14, "HealthArea": 6000, "Sanitboro": "1", "SanitDistr": "06", "SanitSub": "1B", "Address": "MARGINAL STREET", "ZoneDist1": "M1-1", "ZoneDist2": null, "ZoneDist3": null, "ZoneDist4": null, "Overlay1": null, "Overlay2": null, "SPDist1": null, "SPDist2": null, "SPDist3": null, "LtdHeight": null, "SplitZone": "N", "BldgClass": "T2", "LandUse": "07", "Easements": 0, "OwnerType": "C", "OwnerName": "NYC DEPARTMENT OF SMALL BUSINESS SERVICES", "LotArea": 395800, "BldgArea": 175000, "ComArea": 175000, "ResArea": 0, "OfficeArea": 0, "RetailArea": 0, "GarageArea": 175000, "StrgeArea": 0, "FactryArea": 0, "OtherArea": 0, "AreaSource": "2", "NumBldgs": 1, "NumFloors": 3.0, "UnitsRes": 0, "UnitsTotal": 1, "LotFront": 390.0, "LotDepth": 285.0, "BldgFront": 85.0, "BldgDepth": 40.0, "Ext": "N", "ProxCode": "1", "IrrLotCode": "Y", "LotType": "2", "BsmtCode": "0", "AssessLand": 19485450.0, "AssessTot": 27633150.0, "ExemptTot": 27633150.0, "YearBuilt": 1973, "YearAlter1": 1984, "YearAlter2": 0, "HistDist": null, "Landmark": null, "BuiltFAR": 0.44, "ResidFAR": 0.0, "CommFAR": 1.0, "FacilFAR": 2.4, "BoroCode": 1, "BBL": 1009910050.0, "CondoNo": 0, "Tract2010": "0060", "XCoord": 991626, "YCoord": 207108, "ZoneMap": "12c", "ZMCode": null, "Sanborn": "104 012", "TaxMap": "10310", "EDesigNum": null, "APPBBL": 0.0, "APPDate": null, "PLUTOMapID": "1", "FIRM07_FLA": "1", "PFIRM15_FL": "1", "Version": "25v4", "DCPEdited": "t", "Latitude": 40.7351372, "Longitude": -73.9733848, "Notes": null, "Shape_Leng": 0.0, "Shape_Area": 71545.853382899993 }, "geometry": { "type": "MultiPolygon", "coordinates": [ [ [ [ -73.974426697444613, 40.735172315033445 ], [ -73.974469653060652, 40.735325826679166 ], [ -73.974488855419096, 40.73540465675805 ], [ -73.974504195103009, 40.735488923210831 ], [ -73.97452839681003, 40.735641921915125 ], [ -73.974556021594609, 40.735923362369334 ], [ -73.974549822066194, 40.736125940641969 ], [ -73.974532402236022, 40.73624432090012 ], [ -73.974509178905294, 40.736357241878117 ], [ -73.974476883683451, 40.736466569635219 ], [ -73.972736550139189, 40.735781873054222 ], [ -73.972833332256016, 40.735774904484593 ], [ -73.972847929926559, 40.735775763453809 ], [ -73.972862527533593, 40.735777047412732 ], [ -73.972873755790303, 40.735778332413638 ], [ -73.972883860041946, 40.735780894972677 ], [ -73.972898456951128, 40.735783889859583 ], [ -73.972911932229209, 40.735787737311881 ], [ -73.972922033823806, 40.735791154454432 ], [ -73.972932139975697, 40.73579500110673 ], [ -73.972945051113982, 40.735800556676757 ], [ -73.97295459485602, 40.735804829108538 ], [ -73.973917885932877, 40.736212480133133 ], [ -73.97441637883837, 40.73642356765221 ], [ -73.974446887526042, 40.736336256923302 ], [ -73.974450102845537, 40.736327056286378 ], [ -73.974454595707471, 40.736317662261008 ], [ -73.974457866640407, 40.736308556170755 ], [ -73.974461238317616, 40.73629916197882 ], [ -73.97442541426841, 40.736285197056723 ], [ -73.974419795930004, 40.736293737998643 ], [ -73.974226686769953, 40.736212550029215 ], [ -73.974038068721299, 40.736133925678693 ], [ -73.974054922191826, 40.736106598247432 ], [ -73.974309781728721, 40.736212568696089 ], [ -73.974437772667272, 40.736266409842791 ], [ -73.974433279363794, 40.736274097369119 ], [ -73.974464617247946, 40.736286361984853 ], [ -73.974465841264589, 40.736277519303364 ], [ -73.974468152318181, 40.736267660225344 ], [ -73.974469217440344, 40.736259583750652 ], [ -73.974470579436485, 40.736248873471453 ], [ -73.974477096349347, 40.736212606100608 ], [ -73.974492852369792, 40.736116945300452 ], [ -73.974498641730705, 40.736066914425926 ], [ -73.97446704672511, 40.736064837134471 ], [ -73.974372732977372, 40.736036202479575 ], [ -73.97413919951893, 40.73595543406531 ], [ -73.974152683967816, 40.735933227947804 ], [ -73.97439070421548, 40.736022966369468 ], [ -73.974471546485873, 40.736043484484377 ], [ -73.974501355930158, 40.736043455987193 ], [ -73.974504119891833, 40.736019576080643 ], [ -73.974510895531836, 40.735923058604882 ], [ -73.974513176115167, 40.73582654104866 ], [ -73.974512789597611, 40.735809477315591 ], [ -73.974509119092758, 40.735801806875941 ], [ -73.974509429357056, 40.735792375021809 ], [ -73.974482310076013, 40.735794502315926 ], [ -73.974479465399781, 40.735773525586296 ], [ -73.974473912045056, 40.735732575325756 ], [ -73.974335797410333, 40.735725710519873 ], [ -73.974332434016318, 40.735713753734395 ], [ -73.974470551042984, 40.73571719935731 ], [ -73.974469445880175, 40.735666805866799 ], [ -73.974203315421889, 40.735673579260144 ], [ -73.974111250929639, 40.73563768319876 ], [ -73.973984386283732, 40.735580427351998 ], [ -73.973058154612872, 40.735181325000589 ], [ -73.972805363439363, 40.735522070844766 ], [ -73.972935586314037, 40.735603246286111 ], [ -73.972925477203304, 40.73561263892622 ], [ -73.972795253305478, 40.735528047798383 ], [ -73.972762697475687, 40.73551095658857 ], [ -73.972998638752884, 40.735188998600925 ], [ -73.972960465834618, 40.735174469884868 ], [ -73.97293462520183, 40.735208629816114 ], [ -73.972884102926201, 40.735187264213856 ], [ -73.972863879406532, 40.735216300775789 ], [ -73.972838056911627, 40.735206044118776 ], [ -73.972941419954751, 40.735067696858458 ], [ -73.972964996331669, 40.735078806546248 ], [ -73.972941402169354, 40.73511125791682 ], [ -73.972994170489244, 40.73513177035619 ], [ -73.97297506843627, 40.735159951693227 ], [ -73.973008749362435, 40.735172772930099 ], [ -73.973041330788988, 40.735132636050722 ], [ -73.973314453733408, 40.735248042262455 ], [ -73.973339985849123, 40.735218120812604 ], [ -73.973332127226897, 40.735212992376923 ], [ -73.973325392076049, 40.735207866962554 ], [ -73.973319219160373, 40.735202740673571 ], [ -73.973311717778344, 40.735195390808997 ], [ -73.973303777545041, 40.735187279952243 ], [ -73.973298453789283, 40.735181381259487 ], [ -73.973293964897408, 40.735174975782463 ], [ -73.973289924695919, 40.735168395809644 ], [ -73.973286112035979, 40.73516130606577 ], [ -73.973281846578615, 40.735152850213119 ], [ -73.973278918036527, 40.73514338974816 ], [ -73.97327601457269, 40.73513610578879 ], [ -73.973274892927137, 40.735128846507514 ], [ -73.973274012330535, 40.73512249056126 ], [ -73.973273777362465, 40.735114965864916 ], [ -73.973273780203598, 40.735107921183882 ], [ -73.973273783218318, 40.735100446070597 ], [ -73.973275475680907, 40.73508995916962 ], [ -73.973277476105238, 40.73508162190258 ], [ -73.973280570192358, 40.735071108305661 ], [ -73.973284715940039, 40.735062486007472 ], [ -73.973290606569435, 40.735051105926033 ], [ -73.973296331094389, 40.73504334669763 ], [ -73.973302210028891, 40.735034780604707 ], [ -73.973310346336746, 40.735026250257164 ], [ -73.973321959302424, 40.735015791767552 ], [ -73.973330243955218, 40.735009491916031 ], [ -73.973337661728991, 40.735003998763709 ], [ -73.973345596405352, 40.734999359398664 ], [ -73.973355507381925, 40.734993828090026 ], [ -73.973366363995297, 40.734988821967221 ], [ -73.973377595568834, 40.734984555318967 ], [ -73.973386008007552, 40.734981275789551 ], [ -73.973395511746304, 40.734978678259353 ], [ -73.97340405757042, 40.734976273175477 ], [ -73.973413319431074, 40.734974562552289 ], [ -73.973426141239415, 40.734972477287521 ], [ -73.973438339965838, 40.734971295070594 ], [ -73.973450971779698, 40.734970443411186 ], [ -73.97346079639027, 40.734970445687651 ], [ -73.97347009167585, 40.734970949382628 ], [ -73.973482772621239, 40.73497182046021 ], [ -73.973495363175815, 40.734973483022898 ], [ -73.973504662521904, 40.734975662595382 ], [ -73.973513569121792, 40.734977290924355 ], [ -73.973546494010378, 40.734938390391768 ], [ -73.974432526385669, 40.735314034203611 ], [ -73.974225668276617, 40.734453873279371 ], [ -73.974426697444613, 40.735172315033445 ] ] ], [ [ [ -73.974490703296141, 40.735865826924645 ], [ -73.974488453260804, 40.735876927867572 ], [ -73.974452521431346, 40.735872650600314 ], [ -73.974464890396106, 40.735832508810965 ], [ -73.974251551906036, 40.735800003194385 ], [ -73.974258299465191, 40.735773525287229 ], [ -73.974472763226103, 40.735804323807493 ], [ -73.974475011505007, 40.735794928444079 ], [ -73.974482310076013, 40.735794502315926 ], [ -73.974509119092758, 40.735801806875941 ], [ -73.974490703296141, 40.735865826924645 ] ] ] ] } },
{ "type": "Feature", "properties": { "Borough": "MN", "Block": 972, "Lot": 1, "CD": 106, "BCT2020": "1004400", "BCTCB2020": "10044009000", "CT2010": "44", "CB2010": "7001", "SchoolDist": "02", "Council": 4, "ZipCode": 10009, "FireComp": "E005", "PolicePrct": 13, "HealthCent": 14, "HealthArea": 6000, "Sanitboro": "1", "SanitDistr": "06", "SanitSub": "1A", "Address": "240 1 AVENUE", "ZoneDist1": "R7-2", "ZoneDist2": null, "ZoneDist3": null, "ZoneDist4": null, "Overlay1": "C1-5", "Overlay2": null, "SPDist1": null, "SPDist2": null, "SPDist3": null, "LtdHeight": null, "SplitZone": "N", "BldgClass": "D7", "LandUse": "04", "Easements": 0, "OwnerType": null, "OwnerName": "BPP ST OWNER LLC", "LotArea": 2675000, "BldgArea": 8942176, "ComArea": 574234, "ResArea": 8367942, "OfficeArea": 16820, "RetailArea": 77414, "GarageArea": 480000, "StrgeArea": 0, "FactryArea": 0, "OtherArea": 0, "AreaSource": "2", "NumBldgs": 39, "NumFloors": 13.0, "UnitsRes": 8764, "UnitsTotal": 8812, "LotFront": 1362.0, "LotDepth": 2023.0, "BldgFront": 1362.0, "BldgDepth": 2023.0, "Ext": "N", "ProxCode": "0", "IrrLotCode": "Y", "LotType": "1", "BsmtCode": "0", "AssessLand": 117450000.0, "AssessTot": 790924050.0, "ExemptTot": 0.0, "YearBuilt": 1945, "YearAlter1": 0, "YearAlter2": 0, "HistDist": null, "Landmark": null, "BuiltFAR": 3.34, "ResidFAR": 3.44, "CommFAR": 0.0, "FacilFAR": 6.5, "BoroCode": 1, "BBL": 1009720001.0000001, "CondoNo": 0, "Tract2010": "0044", "XCoord": 990376, "YCoord": 205864, "ZoneMap": "12c", "ZMCode": null, "Sanborn": "102 040", "TaxMap": "10310", "EDesigNum": null, "APPBBL": 0.0, "APPDate": null, "PLUTOMapID": "1", "FIRM07_FLA": "1", "PFIRM15_FL": "1", "Version": "25v4", "DCPEdited": null, "Latitude": 40.7317236, "Longitude": -73.9778964, "Notes": null, "Shape_Leng": 0.0, "Shape_Area": 2697661.4753800002 }, "geometry": { "type": "MultiPolygon", "coordinates": [ [ [ [ -73.974161232486537, 40.73095505289254 ], [ -73.975782624428959, 40.728731632523449 ], [ -73.98217712653468, 40.731427601478657 ], [ -73.980508653998697, 40.733715880891609 ], [ -73.980469032295204, 40.733770218735884 ], [ -73.979774821427156, 40.734722260098941 ], [ -73.975544561728356, 40.732938790079075 ], [ -73.975473118764455, 40.732908667274287 ], [ -73.974563056298621, 40.732524952872652 ], [ -73.974207683767688, 40.731136538876598 ], [ -73.974189560688274, 40.731065734297999 ], [ -73.974161232486537, 40.73095505289254 ] ] ] ] } },
{ "type": "Feature", "properties": { "Borough": "MN", "Block": 990, "Lot": 70, "CD": 106, "BCT2020": "1004400", "BCTCB2020": "10044002002", "CT2010": "44", "CB2010": "5004", "SchoolDist": "02", "Council": 4, "ZipCode": 10009, "FireComp": "L011", "PolicePrct": 13, "HealthCent": 14, "HealthArea": 6000, "Sanitboro": "1", "SanitDistr": "06", "SanitSub": "1A", "Address": "292 AVENUE C", "ZoneDist1": "PARK", "ZoneDist2": null, "ZoneDist3": null, "ZoneDist4": null, "Overlay1": null, "Overlay2": null, "SPDist1": null, "SPDist2": null, "SPDist3": null, "LtdHeight": null, "SplitZone": "N", "BldgClass": "Q1", "LandUse": "09", "Easements": 0, "OwnerType": "C", "OwnerName": "NYC DEPARTMENT OF PARKS AND RECREATION", "LotArea": 44000, "BldgArea": 750, "ComArea": 750, "ResArea": 0, "OfficeArea": 750, "RetailArea": 0, "GarageArea": 0, "StrgeArea": 0, "FactryArea": 0, "OtherArea": 0, "AreaSource": "2", "NumBldgs": 1, "NumFloors": 1.0, "UnitsRes": 0, "UnitsTotal": 1, "LotFront": 171.5, "LotDepth": 324.67, "BldgFront": 25.0, "BldgDepth": 30.0, "Ext": "N", "ProxCode": "0", "IrrLotCode": "Y", "LotType": "3", "BsmtCode": "0", "AssessLand": 3096000.0, "AssessTot": 3790350.0, "ExemptTot": 3790350.0, "YearBuilt": 1920, "YearAlter1": 0, "YearAlter2": 0, "HistDist": null, "Landmark": null, "BuiltFAR": 0.02, "ResidFAR": 0.0, "CommFAR": 0.0, "FacilFAR": 0.0, "BoroCode": 1, "BBL": 1009900070.0, "CondoNo": 0, "Tract2010": "0044", "XCoord": 991581, "YCoord": 205356, "ZoneMap": "12c", "ZMCode": null, "Sanborn": "102 032", "TaxMap": "10310", "EDesigNum": null, "APPBBL": 0.0, "APPDate": null, "PLUTOMapID": "1", "FIRM07_FLA": "1", "PFIRM15_FL": "1", "Version": "25v4", "DCPEdited": "t", "Latitude": 40.7303284, "Longitude": -73.9735491, "Notes": null, "Shape_Leng": 0.0, "Shape_Area": 43312.580579499998 }, "geometry": { "type": "MultiPolygon", "coordinates": [ [ [ [ -73.973404751031111, 40.730458104307232 ], [ -73.972897602719755, 40.73011453930863 ], [ -73.973111794755354, 40.729931348349432 ], [ -73.974128911175185, 40.730360455395406 ], [ -73.973834481414215, 40.730763763304566 ], [ -73.973769533628811, 40.730768896642232 ], [ -73.973579072727716, 40.730598946117418 ], [ -73.973553255069206, 40.730574986667527 ], [ -73.973501059786884, 40.730530168984501 ], [ -73.973451720832912, 40.730491689697693 ], [ -73.973404751031111, 40.730458104307232 ] ] ] ] } },
{ "type": "Feature", "properties": { "Borough": "MN", "Block": 991, "Lot": 29, "CD": 106, "BCT2020": "1004400", "BCTCB2020": "10044002002", "CT2010": "44", "CB2010": "5004", "SchoolDist": "02", "Council": 4, "ZipCode": 10009, "FireComp": "L011", "PolicePrct": 13, "HealthCent": 14, "HealthArea": 6000, "Sanitboro": "1", "SanitDistr": "06", "SanitSub": "1A", "Address": "F D R DRIVE", "ZoneDist1": "M1-1", "ZoneDist2": null, "ZoneDist3": null, "ZoneDist4": null, "Overlay1": null, "Overlay2": null, "SPDist1": null, "SPDist2": null, "SPDist3": null, "LtdHeight": null, "SplitZone": "N", "BldgClass": "T2", "LandUse": "07", "Easements": 0, "OwnerType": "C", "OwnerName": "NYC DEPARTMENT OF SMALL BUSINESS SERVICES", "LotArea": 232000, "BldgArea": 0, "ComArea": 0, "ResArea": 0, "OfficeArea": 0, "RetailArea": 0, "GarageArea": 0, "StrgeArea": 0, "FactryArea": 0, "OtherArea": 0, "AreaSource": "7", "NumBldgs": 0, "NumFloors": 0.0, "UnitsRes": 0, "UnitsTotal": 0, "LotFront": 1388.83, "LotDepth": 560.0, "BldgFront": 0.0, "BldgDepth": 0.0, "Ext": "N", "ProxCode": "0", "IrrLotCode": "N", "LotType": "2", "BsmtCode": "0", "AssessLand": 13695750.0, "AssessTot": 13695750.0, "ExemptTot": 13695750.0, "YearBuilt": 0, "YearAlter1": 0, "YearAlter2": 0, "HistDist": null, "Landmark": null, "BuiltFAR": 0.0, "ResidFAR": 0.0, "CommFAR": 1.0, "FacilFAR": 2.4, "BoroCode": 1, "BBL": 1009910029.0, "CondoNo": 0, "Tract2010": "0044", "XCoord": 991898, "YCoord": 205576, "ZoneMap": "12c", "ZMCode": null, "Sanborn": "102 055", "TaxMap": "10310", "EDesigNum": null, "APPBBL": 0.0, "APPDate": null, "PLUTOMapID": "1", "FIRM07_FLA": "1", "PFIRM15_FL": "1", "Version": "25v4", "DCPEdited": "t", "Latitude": 40.730932, "Longitude": -73.9724051, "Notes": null, "Shape_Leng": 0.0, "Shape_Area": 194.0933645 }, "geometry": { "type": "MultiPolygon", "coordinates": [ [ [ [ -73.972964819837131, 40.730792784576423 ], [ -73.973037962532658, 40.730852793591879 ], [ -73.973112387501658, 40.730918377890298 ], [ -73.973200973869737, 40.73101333008254 ], [ -73.973258667791356, 40.731081866668134 ], [ -73.973266473376398, 40.731095932597668 ], [ -73.973237236977099, 40.73106095900674 ], [ -73.973214788248029, 40.731037037163361 ], [ -73.97318785352779, 40.731006282158845 ], [ -73.973151939110053, 40.730968691096585 ], [ -73.973105921733023, 40.730924265544523 ], [ -73.973054292613412, 40.730873002866588 ], [ -73.973000416937637, 40.730824305158869 ], [ -73.97296674396847, 40.73079440042342 ], [ -73.972964683176457, 40.730792690258305 ], [ -73.972964819837131, 40.730792784576423 ] ] ] ] } },
{ "type": "Feature", "properties": { "Borough": "MN", "Block": 992, "Lot": 50, "CD": 106, "BCT2020": "1006200", "BCTCB2020": "10062000001", "CT2010": "62", "CB2010": "0001", "SchoolDist": null, "Council": 4, "ZipCode": 0, "FireComp": null, "PolicePrct": 0, "HealthCent": 0, "HealthArea": 0, "Sanitboro": null, "SanitDistr": null, "SanitSub": null, "Address": "MARGINAL STREET", "ZoneDist1": "PARK", "ZoneDist2": null, "ZoneDist3": null, "ZoneDist4": null, "Overlay1": null, "Overlay2": null, "SPDist1": null, "SPDist2": null, "SPDist3": null, "LtdHeight": null, "SplitZone": "N", "BldgClass": "T2", "LandUse": "07", "Easements": 0, "OwnerType": "C", "OwnerName": "NYC DEPARTMENT OF SMALL BUSINESS SERVICES", "LotArea": 12284, "BldgArea": 0, "ComArea": 0, "ResArea": 0, "OfficeArea": 0, "RetailArea": 0, "GarageArea": 0, "StrgeArea": 0, "FactryArea": 0, "OtherArea": 0, "AreaSource": "7", "NumBldgs": 0, "NumFloors": 0.0, "UnitsRes": 0, "UnitsTotal": 0, "LotFront": 353.5, "LotDepth": 34.75, "BldgFront": 0.0, "BldgDepth": 0.0, "Ext": "N", "ProxCode": "0", "IrrLotCode": "Y", "LotType": "2", "BsmtCode": "0", "AssessLand": 730800.0, "AssessTot": 730800.0, "ExemptTot": 730800.0, "YearBuilt": 0, "YearAlter1": 0, "YearAlter2": 0, "HistDist": null, "Landmark": null, "BuiltFAR": 0.0, "ResidFAR": 0.0, "CommFAR": 0.0, "FacilFAR": 0.0, "BoroCode": 1, "BBL": 1009920050.0, "CondoNo": 0, "Tract2010": "0062", "XCoord": 993249, "YCoord": 207220, "ZoneMap": "12c", "ZMCode": "Y", "Sanborn": "102 055", "TaxMap": "10310", "EDesigNum": null, "APPBBL": 0.0, "APPDate": null, "PLUTOMapID": "1", "FIRM07_FLA": "1", "PFIRM15_FL": "1", "Version": "25v4", "DCPEdited": "t", "Latitude": 40.7354431, "Longitude": -73.9675283, "Notes": null, "Shape_Leng": 0.0, "Shape_Area": 10270.879084599999 }, "geometry": { "type": "MultiPolygon", "coordinates": [ [ [ [ -73.971617638855989, 40.72670982898682 ], [ -73.971514150735473, 40.727303062278757 ], [ -73.971535582420998, 40.727166484555894 ], [ -73.971605358909727, 40.726779574540814 ], [ -73.971617306920336, 40.726709686932537 ], [ -73.971617638855989, 40.72670982898682 ] ] ], [ [ [ -73.971563215019614, 40.727703837660563 ], [ -73.971551054841626, 40.727774285305856 ], [ -73.971561175070704, 40.72770460699526 ], [ -73.971561414468241, 40.727703086446958 ], [ -73.971563215019614, 40.727703837660563 ] ] ], [ [ [ -73.97242150490392, 40.740029486866803 ], [ -73.972218580620165, 40.740717617670789 ], [ -73.972196258189072, 40.740715853556424 ], [ -73.97218432746881, 40.740710653782948 ], [ -73.972177107707566, 40.740705171628555 ], [ -73.972170344283299, 40.740695809181744 ], [ -73.972167635787031, 40.740683637326178 ], [ -73.97222390260454, 40.740403383899952 ], [ -73.972241907931192, 40.74031284785012 ], [ -73.972298919350933, 40.740036972819077 ], [ -73.972302526185672, 40.740029819166537 ], [ -73.972309033942679, 40.740022073651666 ], [ -73.972315866965459, 40.74001768624575 ], [ -73.972325132793955, 40.740014011708368 ], [ -73.97233636319018, 40.740011855906857 ], [ -73.972348153709675, 40.740012214474177 ], [ -73.972423619679304, 40.740021856157362 ], [ -73.97242150490392, 40.740029486866803 ] ] ], [ [ [ -73.96387158016897, 40.732879564018106 ], [ -73.96386095883885, 40.732776363799054 ], [ -73.964034765116594, 40.73276018810887 ], [ -73.964043464850661, 40.732762255737114 ], [ -73.964050794173389, 40.732765887963936 ], [ -73.964057838040361, 40.732771870448033 ], [ -73.964062171039686, 40.732780091582136 ], [ -73.964084083019458, 40.732922492853064 ], [ -73.964082394697357, 40.732929466818057 ], [ -73.964078585529279, 40.732935445819351 ], [ -73.964073404834821, 40.732940569049113 ], [ -73.964066479932043, 40.732944362457488 ], [ -73.964056371977222, 40.732947823573163 ], [ -73.963881232091296, 40.732964732992947 ], [ -73.96387158016897, 40.732879564018106 ] ] ] ] } },
{ "type": "Feature", "properties": { "Borough": "MN", "Block": 988, "Lot": 75, "CD": 103, "BCT2020": "1002400", "BCTCB2020": "10024002000", "CT2010": "24", "CB2010": "1000", "SchoolDist": "01", "Council": 2, "ZipCode": 10002, "FireComp": "L011", "PolicePrct": 9, "HealthCent": 14, "HealthArea": 6300, "Sanitboro": "1", "SanitDistr": "03", "SanitSub": "4A", "Address": "AVENUE C", "ZoneDist1": "M3-2", "ZoneDist2": "R7-2", "ZoneDist3": null, "ZoneDist4": null, "Overlay1": null, "Overlay2": null, "SPDist1": null, "SPDist2": null, "SPDist3": null, "LtdHeight": null, "SplitZone": "Y", "BldgClass": "T2", "LandUse": "07", "Easements": 0, "OwnerType": "C", "OwnerName": "NYC DEPARTMENT OF SMALL BUSINESS SERVICES", "LotArea": 37225, "BldgArea": 0, "ComArea": 0, "ResArea": 0, "OfficeArea": 0, "RetailArea": 0, "GarageArea": 0, "StrgeArea": 0, "FactryArea": 0, "OtherArea": 0, "AreaSource": "0", "NumBldgs": 2, "NumFloors": 0.0, "UnitsRes": 0, "UnitsTotal": 0, "LotFront": 668.83, "LotDepth": 99.0, "BldgFront": 0.0, "BldgDepth": 0.0, "Ext": "N", "ProxCode": "0", "IrrLotCode": "Y", "LotType": "2", "BsmtCode": "0", "AssessLand": 2552850.0, "AssessTot": 2552850.0, "ExemptTot": 2552850.0, "YearBuilt": 0, "YearAlter1": 0, "YearAlter2": 0, "HistDist": null, "Landmark": null, "BuiltFAR": 0.0, "ResidFAR": 0.0, "CommFAR": 2.0, "FacilFAR": 0.0, "BoroCode": 1, "BBL": 1009880075.0, "CondoNo": 0, "Tract2010": "0024", "XCoord": 992084, "YCoord": 204026, "ZoneMap": "12c", "ZMCode": null, "Sanborn": "102 031", "TaxMap": "10310", "EDesigNum": null, "APPBBL": 0.0, "APPDate": null, "PLUTOMapID": "1", "FIRM07_FLA": "1", "PFIRM15_FL": "1", "Version": "25v4", "DCPEdited": "t", "Latitude": 40.7266774, "Longitude": -73.9717357, "Notes": null, "Shape_Leng": 0.0, "Shape_Area": 34239.350948400002 }, "geometry": { "type": "MultiPolygon", "coordinates": [ [ [ [ -73.971561414468241, 40.727703086446958 ], [ -73.971570182758313, 40.727647381059448 ], [ -73.971635299048003, 40.727654228472829 ], [ -73.971672444867025, 40.727435577363252 ], [ -73.971496178085587, 40.727417596477373 ], [ -73.971514150735473, 40.727303062278757 ], [ -73.971617638855989, 40.72670982898682 ], [ -73.971646513774402, 40.726554787680044 ], [ -73.971686938177655, 40.726337715928764 ], [ -73.971784821563219, 40.725812119554192 ], [ -73.971822460282937, 40.725817002946684 ], [ -73.97182768931404, 40.725788325847006 ], [ -73.971842362923027, 40.725785419083429 ], [ -73.972016001398572, 40.725859261822691 ], [ -73.972106596990727, 40.725899481647019 ], [ -73.972060887822877, 40.725976237868011 ], [ -73.972000243697082, 40.726087714846031 ], [ -73.97196296017519, 40.726166165113717 ], [ -73.971928799967159, 40.726245432908755 ], [ -73.971897798638366, 40.72632544353246 ], [ -73.97186998931663, 40.726406147388033 ], [ -73.971845492935117, 40.726487132981596 ], [ -73.971822583931484, 40.726562067564679 ], [ -73.971802561652737, 40.726637798044415 ], [ -73.971785557569078, 40.726713956013199 ], [ -73.97177158348677, 40.726790469612943 ], [ -73.97176069169781, 40.72686696857599 ], [ -73.971746943730224, 40.726962907957976 ], [ -73.971740070887421, 40.727010876267371 ], [ -73.971733195614917, 40.727058842819055 ], [ -73.971719435693501, 40.727154779514521 ], [ -73.971712561599233, 40.727202749577138 ], [ -73.971705687497547, 40.727250717882647 ], [ -73.971698099701214, 40.727304048630053 ], [ -73.971690513113174, 40.727357357624605 ], [ -73.97168292650781, 40.727410674816596 ], [ -73.971667753271831, 40.727517291128677 ], [ -73.971660165420246, 40.72757060915535 ], [ -73.971645031229372, 40.727677041754298 ], [ -73.971635475629554, 40.72773398654509 ], [ -73.971563215019614, 40.727703837660563 ], [ -73.971561414468241, 40.727703086446958 ] ] ] ] } },
{ "type": "Feature", "properties": { "Borough": "MN", "Block": 990, "Lot": 1, "CD": 106, "BCT2020": "1004400", "BCTCB2020": "10044002002", "CT2010": "44", "CB2010": "5004", "SchoolDist": "02", "Council": 4, "ZipCode": 10009, "FireComp": "L011", "PolicePrct": 13, "HealthCent": 14, "HealthArea": 6000, "Sanitboro": "1", "SanitDistr": "06", "SanitSub": "1A", "Address": "276 AVENUE C", "ZoneDist1": "M3-2", "ZoneDist2": null, "ZoneDist3": null, "ZoneDist4": null, "Overlay1": null, "Overlay2": null, "SPDist1": null, "SPDist2": null, "SPDist3": null, "LtdHeight": null, "SplitZone": "N", "BldgClass": "U2", "LandUse": "07", "Easements": 0, "OwnerType": "X", "OwnerName": "POWER AUTHORITY OF THE STATE OF NEW YORK", "LotArea": 370537, "BldgArea": 0, "ComArea": 0, "ResArea": 0, "OfficeArea": 0, "RetailArea": 0, "GarageArea": 0, "StrgeArea": 0, "FactryArea": 0, "OtherArea": 0, "AreaSource": "7", "NumBldgs": 13, "NumFloors": 0.0, "UnitsRes": 0, "UnitsTotal": 0, "LotFront": 244.0, "LotDepth": 906.0, "BldgFront": 0.0, "BldgDepth": 0.0, "Ext": "N", "ProxCode": "0", "IrrLotCode": "Y", "LotType": "3", "BsmtCode": "0", "AssessLand": 0.0, "AssessTot": 0.0, "ExemptTot": 0.0, "YearBuilt": 0, "YearAlter1": 0, "YearAlter2": 0, "HistDist": null, "Landmark": null, "BuiltFAR": 0.0, "ResidFAR": 0.0, "CommFAR": 2.0, "FacilFAR": 0.0, "BoroCode": 1, "BBL": 1009900001.0000001, "CondoNo": 0, "Tract2010": "0044", "XCoord": 991643, "YCoord": 204932, "ZoneMap": "12c", "ZMCode": null, "Sanborn": "102 032", "TaxMap": "10310", "EDesigNum": null, "APPBBL": 0.0, "APPDate": null, "PLUTOMapID": "1", "FIRM07_FLA": "1", "PFIRM15_FL": "1", "Version": "25v4", "DCPEdited": "t", "Latitude": 40.7291646, "Longitude": -73.9733258, "Notes": null, "Shape_Leng": 0.0, "Shape_Area": 370536.80522699998 }, "geometry": { "type": "MultiPolygon", "coordinates": [ [ [ [ -73.973111794755354, 40.729931348349432 ], [ -73.972438677451564, 40.729647361215953 ], [ -73.97233300414068, 40.729493333770137 ], [ -73.972310320243011, 40.729459188246871 ], [ -73.972280554871162, 40.729411617146212 ], [ -73.972265685893291, 40.72938651374016 ], [ -73.972236444655948, 40.729334098077317 ], [ -73.972214381175405, 40.729291400607451 ], [ -73.972191336296575, 40.729243266489917 ], [ -73.972160689700885, 40.729172060475371 ], [ -73.972146296884105, 40.729134939885732 ], [ -73.972138965074961, 40.729114884676243 ], [ -73.972130972640869, 40.729092006275359 ], [ -73.972121170993717, 40.729061948554701 ], [ -73.972116076978011, 40.729045939860278 ], [ -73.97209664558855, 40.728976719469252 ], [ -73.972091313185231, 40.728953611145847 ], [ -73.972081328751798, 40.728910614075673 ], [ -73.972072460821892, 40.728864360050864 ], [ -73.972066099459823, 40.728824993709466 ], [ -73.972059484943273, 40.728774154902773 ], [ -73.972058111246596, 40.728761454700795 ], [ -73.972055908641551, 40.728738435401205 ], [ -73.972054451671227, 40.728718228602439 ], [ -73.972053384576, 40.728702663031868 ], [ -73.972050708555741, 40.728645709791103 ], [ -73.972049718956981, 40.728567109723265 ], [ -73.972050269665601, 40.728532749199559 ], [ -73.972052509664721, 40.728475658532737 ], [ -73.972057786628966, 40.72840266020539 ], [ -73.972062310483466, 40.728358403148114 ], [ -73.972065603324424, 40.728331078945821 ], [ -73.972107847759744, 40.728001954847187 ], [ -73.972208236132658, 40.72796221104344 ], [ -73.975015158796381, 40.729146442883227 ], [ -73.974654788682258, 40.729640097210414 ], [ -73.973535082923874, 40.729167710845061 ], [ -73.973429978332888, 40.729311683817734 ], [ -73.974549684663444, 40.72978407127858 ], [ -73.974128911175185, 40.730360455395406 ], [ -73.973111794755354, 40.729931348349432 ] ] ] ] } },
{ "type": "Feature", "properties": { "Borough": "MN", "Block": 990, "Lot": 90, "CD": 106, "BCT2020": "1004400", "BCTCB2020": "10044002002", "CT2010": "44", "CB2010": "5004", "SchoolDist": "02", "Council": 4, "ZipCode": 10009, "FireComp": "L011", "PolicePrct": 13, "HealthCent": 14, "HealthArea": 6000, "Sanitboro": "1", "SanitDistr": "06", "SanitSub": "1A", "Address": "F D R DRIVE", "ZoneDist1": "M3-2", "ZoneDist2": null, "ZoneDist3": null, "ZoneDist4": null, "Overlay1": null, "Overlay2": null, "SPDist1": null, "SPDist2": null, "SPDist3": null, "LtdHeight": null, "SplitZone": "N", "BldgClass": "V1", "LandUse": "11", "Easements": 0, "OwnerType": "C", "OwnerName": "NYC DEPARTMENT OF PARKS AND RECREATION", "LotArea": 10000, "BldgArea": 0, "ComArea": 0, "ResArea": 0, "OfficeArea": 0, "RetailArea": 0, "GarageArea": 0, "StrgeArea": 0, "FactryArea": 0, "OtherArea": 0, "AreaSource": "7", "NumBldgs": 0, "NumFloors": 0.0, "UnitsRes": 0, "UnitsTotal": 0, "LotFront": 212.92, "LotDepth": 90.0, "BldgFront": 0.0, "BldgDepth": 0.0, "Ext": null, "ProxCode": "0", "IrrLotCode": "Y", "LotType": "5", "BsmtCode": "5", "AssessLand": 1291500.0, "AssessTot": 1291500.0, "ExemptTot": 1291500.0, "YearBuilt": 0, "YearAlter1": 0, "YearAlter2": 0, "HistDist": null, "Landmark": null, "BuiltFAR": 0.0, "ResidFAR": 0.0, "CommFAR": 2.0, "FacilFAR": 0.0, "BoroCode": 1, "BBL": 1009900090.0, "CondoNo": 0, "Tract2010": "0044", "XCoord": 991789, "YCoord": 205198, "ZoneMap": "12c", "ZMCode": null, "Sanborn": "102 055", "TaxMap": "10310", "EDesigNum": null, "APPBBL": 0.0, "APPDate": null, "PLUTOMapID": "1", "FIRM07_FLA": "1", "PFIRM15_FL": "1", "Version": "25v4", "DCPEdited": "t", "Latitude": 40.7298945, "Longitude": -73.9727988, "Notes": null, "Shape_Leng": 0.0, "Shape_Area": 10710.943085700001 }, "geometry": { "type": "MultiPolygon", "coordinates": [ [ [ [ -73.972845640648544, 40.730077424388924 ], [ -73.972806380919423, 40.730047436292857 ], [ -73.972768254442798, 40.730016541660461 ], [ -73.972744267131446, 40.729996134922153 ], [ -73.972690471718636, 40.729947347062819 ], [ -73.972646030582865, 40.729903548394574 ], [ -73.972610923818863, 40.729867591818973 ], [ -73.972580260842463, 40.729834207172864 ], [ -73.972558817971674, 40.729809636234279 ], [ -73.972514693983243, 40.729755433111478 ], [ -73.972469934708357, 40.729694444559151 ], [ -73.972452044322992, 40.729667147633776 ], [ -73.972438677451564, 40.729647361215953 ], [ -73.973111794755354, 40.729931348349432 ], [ -73.972897602719755, 40.73011453930863 ], [ -73.972845640648544, 40.730077424388924 ] ] ] ] } },
{ "type": "Feature", "properties": { "Borough": "BK", "Block": 2294, "Lot": 1, "CD": 301, "BCT2020": "3055700", "BCTCB2020": "30557002001", "CT2010": "557", "CB2010": "2009", "SchoolDist": "14", "Council": 33, "ZipCode": 11249, "FireComp": "L106", "PolicePrct": 94, "HealthCent": 30, "HealthArea": 400, "Sanitboro": "3", "SanitDistr": "01", "SanitSub": "1A", "Address": "16 NORTH 11 STREET", "ZoneDist1": "PARK", "ZoneDist2": null, "ZoneDist3": null, "ZoneDist4": null, "Overlay1": null, "Overlay2": null, "SPDist1": null, "SPDist2": null, "SPDist3": null, "LtdHeight": null, "SplitZone": "N", "BldgClass": "E1", "LandUse": "06", "Easements": 0, "OwnerType": "C", "OwnerName": "NYC DEPARTMENT OF PARKS AND RECREATION", "LotArea": 147343, "BldgArea": 97300, "ComArea": 97300, "ResArea": 0, "OfficeArea": 0, "RetailArea": 0, "GarageArea": 0, "StrgeArea": 97300, "FactryArea": 0, "OtherArea": 0, "AreaSource": "2", "NumBldgs": 1, "NumFloors": 1.0, "UnitsRes": 0, "UnitsTotal": 1, "LotFront": 77.0, "LotDepth": 796.0, "BldgFront": 698.0, "BldgDepth": 200.0, "Ext": "E", "ProxCode": "1", "IrrLotCode": "Y", "LotType": "1", "BsmtCode": "0", "AssessLand": 1012500.0, "AssessTot": 4566150.0, "ExemptTot": 4566150.0, "YearBuilt": 1999, "YearAlter1": 0, "YearAlter2": 0, "HistDist": null, "Landmark": null, "BuiltFAR": 0.66, "ResidFAR": 0.0, "CommFAR": 0.0, "FacilFAR": 0.0, "BoroCode": 3, "BBL": 3022940001.0, "CondoNo": 0, "Tract2010": "0557", "XCoord": 994764, "YCoord": 202968, "ZoneMap": "12c", "ZMCode": null, "Sanborn": "304 003", "TaxMap": "30804", "EDesigNum": null, "APPBBL": 3022940001.0, "APPDate": "12/19/2000", "PLUTOMapID": "1", "FIRM07_FLA": "1", "PFIRM15_FL": "1", "Version": "25v4", "DCPEdited": "t", "Latitude": 40.7237707, "Longitude": -73.9620682, "Notes": null, "Shape_Leng": 0.0, "Shape_Area": 138923.88407599999 }, "geometry": { "type": "MultiPolygon", "coordinates": [ [ [ [ -73.959502837684454, 40.72249671908866 ], [ -73.959682307221016, 40.722329998380467 ], [ -73.959984322144862, 40.722516592059229 ], [ -73.960037543007786, 40.722468149820727 ], [ -73.960878503173319, 40.72298770773012 ], [ -73.961090450769134, 40.72279404358919 ], [ -73.961715294183549, 40.723181747824931 ], [ -73.961840587881127, 40.723066774888984 ], [ -73.96232864259116, 40.723369205071457 ], [ -73.962306387776039, 40.72341069315825 ], [ -73.962246823279656, 40.723520005127376 ], [ -73.962242326764326, 40.723530252362622 ], [ -73.962098453074674, 40.723824031565606 ], [ -73.962066980312343, 40.72388808415856 ], [ -73.962016397535876, 40.723993553865036 ], [ -73.961959719178182, 40.723964065926886 ], [ -73.961947371058372, 40.723960647071337 ], [ -73.961935023173083, 40.7239589338784 ], [ -73.961925477793159, 40.723959785215243 ], [ -73.961912004553511, 40.723961488164647 ], [ -73.961901339029438, 40.72396319288017 ], [ -73.961890527953145, 40.723968848067045 ], [ -73.961884490145778, 40.723977280184243 ], [ -73.961881679090681, 40.723985394628386 ], [ -73.961878651339333, 40.723997648090389 ], [ -73.961735483056131, 40.723907204520565 ], [ -73.961734556615994, 40.723906618923849 ], [ -73.959502837684454, 40.72249671908866 ] ] ] ] } }
]
}
