{
"type": "FeatureCollection",
"name": "pluto_Calvert_Vaux_Park",
"crs": { "type": "name", "properties": { "name": "urn:ogc:def:crs:OGC:1.3:CRS84" } },
"features": [
{ "type": "Feature", "properties": { "Borough": "BK", "Block": 6944, "Lot": 165, "CD": 313, "BCT2020": "3031402", "BCTCB2020": "30314021000", "CT2010": "314", "CB2010": "2002", "SchoolDist": "21", "Council": 47, "ZipCode": 11214, "FireComp": "L166", "PolicePrct": 60, "HealthCent": 37, "HealthArea": 8620, "Sanitboro": "3", "SanitDistr": "13", "SanitSub": "1C", "Address": "2000 SHORE PARKWAY", "ZoneDist1": "PARK", "ZoneDist2": null, "ZoneDist3": null, "ZoneDist4": null, "Overlay1": null, "Overlay2": null, "SPDist1": null, "SPDist2": null, "SPDist3": null, "LtdHeight": null, "SplitZone": "N", "BldgClass": "Q1", "LandUse": "09", "Easements": 0, "OwnerType": "C", "OwnerName": "NYC DEPARTMENT OF PARKS AND RECREATION", "LotArea": 3284360, "BldgArea": 3514, "ComArea": 3514, "ResArea": 0, "OfficeArea": 200, "RetailArea": 0, "GarageArea": 0, "StrgeArea": 0, "FactryArea": 0, "OtherArea": 3314, "AreaSource": "2", "NumBldgs": 3, "NumFloors": 1.0, "UnitsRes": 0, "UnitsTotal": 2, "LotFront": 945.5, "LotDepth": 173.17, "BldgFront": 20.0, "BldgDepth": 10.0, "Ext": "N", "ProxCode": "1", "IrrLotCode": "Y", "LotType": "5", "BsmtCode": "0", "AssessLand": 13844217.0, "AssessTot": 17791200.0, "ExemptTot": 17791200.0, "YearBuilt": 1960, "YearAlter1": 0, "YearAlter2": 0, "HistDist": null, "Landmark": null, "BuiltFAR": 0.0, "ResidFAR": 0.0, "CommFAR": 0.0, "FacilFAR": 0.0, "BoroCode": 3, "BBL": 3069440165.0000005, "CondoNo": 0, "Tract2010": "0314", "XCoord": 985588, "YCoord": 152288, "ZoneMap": "28c", "ZMCode": "Y", "Sanborn": "312 019", "TaxMap": "32102", "EDesigNum": null, "APPBBL": 0.0, "APPDate": null, "PLUTOMapID": "1", "FIRM07_FLA": "1", "PFIRM15_FL": "1", "Version": "25v4", "DCPEdited": "t", "Latitude": 40.5846713, "Longitude": -73.9951829, "Notes": null, "Shape_Leng": 0.0, "Shape_Area": 3223456.2318199999 }, "geometry": { "type": "MultiPolygon", "coordinates": [ [ [ [ -73.992594062392428, 40.583606964553475 ], [ -73.992669691321055, 40.583581062850605 ], [ -73.99274251899503, 40.583548610131494 ], [ -73.992804141617455, 40.58352042873333 ], [ -73.992841114931991, 40.583501637224778 ], [ -73.992850078233161, 40.583494806418898 ], [ -73.992859040512613, 40.583486264649608 ], [ -73.992863309275592, 40.583477844638331 ], [ -73.994624667101945, 40.582633169016319 ], [ -73.994642700572555, 40.582629639631911 ], [ -73.994675191775087, 40.58262280807287 ], [ -73.994711043669611, 40.582612560097097 ], [ -73.994742413200726, 40.582601457291261 ], [ -73.994755858609736, 40.582594625629952 ], [ -73.994768183107524, 40.582587792157064 ], [ -73.994777143785541, 40.58258095852247 ], [ -73.994786107970526, 40.582574125808733 ], [ -73.994801794799557, 40.582557043615232 ], [ -73.994807397603779, 40.58254850153385 ], [ -73.99480976198619, 40.5825444049892 ], [ -73.995007050610198, 40.582449793445768 ], [ -73.995007673992774, 40.582449804015489 ], [ -73.995110065646855, 40.582472027989219 ], [ -73.995313757131314, 40.582516240025321 ], [ -73.995415449397044, 40.582465040632925 ], [ -73.995386348546234, 40.582332931013383 ], [ -73.995367686072527, 40.582248208242554 ], [ -73.995372064263819, 40.582246154202835 ], [ -73.995388869828275, 40.582239320853688 ], [ -73.995404554535583, 40.582233343814998 ], [ -73.995420238948597, 40.582229926985114 ], [ -73.995434804872673, 40.582226511946338 ], [ -73.995454970523383, 40.582223949902257 ], [ -73.995475136062737, 40.582221386934535 ], [ -73.99549306075771, 40.582223951488189 ], [ -73.995508746013982, 40.582225660423859 ], [ -73.995525549817486, 40.582226515719711 ], [ -73.995540115322129, 40.582229078287398 ], [ -73.995561399104005, 40.582231642046814 ], [ -73.995581566705653, 40.582234205758212 ], [ -73.995599490199794, 40.582236767617346 ], [ -73.995614054735029, 40.582235915362119 ], [ -73.995628619501716, 40.582231644774815 ], [ -73.995640944070473, 40.582223102003113 ], [ -73.995655508199761, 40.582210292662772 ], [ -73.9956734341105, 40.582211146225511 ], [ -73.995692478447097, 40.582214563555034 ], [ -73.995704803816523, 40.582210294626798 ], [ -73.995720489983213, 40.582198334570833 ], [ -73.995735053584511, 40.582193212045283 ], [ -73.995746256666408, 40.582193212485734 ], [ -73.995765302323292, 40.582193213231996 ], [ -73.995782107440718, 40.582192359285337 ], [ -73.995796670922928, 40.582190650645352 ], [ -73.995814595956546, 40.582186381086295 ], [ -73.995830281488892, 40.582183820644516 ], [ -73.995843725438505, 40.582179549988034 ], [ -73.995860530938032, 40.582172715649783 ], [ -73.995873974939684, 40.582165883021027 ], [ -73.995887417894508, 40.582158196624498 ], [ -73.995901984160241, 40.582148800226264 ], [ -73.995915429522285, 40.582139407381774 ], [ -73.995931114321309, 40.582130866546038 ], [ -73.995947918537254, 40.582124886797459 ], [ -73.995965843599848, 40.582121470897221 ], [ -73.995987131141078, 40.582119763405473 ], [ -73.996002815180447, 40.582121472272362 ], [ -73.996021859506627, 40.582124889547337 ], [ -73.996039786447824, 40.582128306778088 ], [ -73.996055469177108, 40.582131723924014 ], [ -73.996073393818122, 40.582135141233209 ], [ -73.996090198708856, 40.582137704732816 ], [ -73.996104762957174, 40.58214112091003 ], [ -73.99611708672299, 40.582144537926069 ], [ -73.996138370186287, 40.582150518151167 ], [ -73.996151815798356, 40.582156498091166 ], [ -73.996165260360925, 40.58215991606221 ], [ -73.996182064166291, 40.58216247770811 ], [ -73.996198869068124, 40.582165040354162 ], [ -73.99621455333255, 40.582165040907164 ], [ -73.996227996994705, 40.582163335772385 ], [ -73.996247042743164, 40.582161627232423 ], [ -73.996264968756549, 40.582162480619125 ], [ -73.996284013098659, 40.582164191405823 ], [ -73.996306417739106, 40.582167606992016 ], [ -73.996327704945045, 40.582171879733536 ], [ -73.996345629560253, 40.582176151519008 ], [ -73.996362435583222, 40.582180422427442 ], [ -73.996380360093028, 40.582184695127587 ], [ -73.996398284716918, 40.582188964144528 ], [ -73.996412849087932, 40.582190672917804 ], [ -73.996433014342145, 40.58219238279721 ], [ -73.996445338168485, 40.582193237809321 ], [ -73.996446833799126, 40.582193237858938 ], [ -73.99745016056039, 40.582418314109979 ], [ -73.997467062825962, 40.582425599186251 ], [ -73.997489469680943, 40.582434995757893 ], [ -73.997511874202942, 40.582445245088699 ], [ -73.99753316140486, 40.582453787106303 ], [ -73.997555567214931, 40.582462329062515 ], [ -73.997577974127665, 40.582470871934468 ], [ -73.997600379914772, 40.582480268485696 ], [ -73.997621665802569, 40.58249222613783 ], [ -73.997645191271147, 40.582502477308488 ], [ -73.997668717985604, 40.582511873870537 ], [ -73.99769224701042, 40.582521271349208 ], [ -73.997714652689382, 40.582531521560504 ], [ -73.997733697004648, 40.582540915333418 ], [ -73.997750501845502, 40.582549458048426 ], [ -73.997766184717932, 40.582557146134164 ], [ -73.99778075025884, 40.582563126828923 ], [ -73.997797553996847, 40.582569105811984 ], [ -73.997816599629346, 40.582575940280414 ], [ -73.997839006702662, 40.582581917453659 ], [ -73.997864772960639, 40.582588752054022 ], [ -73.997889421856428, 40.582594732944507 ], [ -73.997911827764398, 40.582599859181428 ], [ -73.997934233812487, 40.58260412813236 ], [ -73.997961122179007, 40.582608400767825 ], [ -73.997973444947064, 40.582610963900784 ], [ -73.997988008215799, 40.582613524317729 ], [ -73.99800257387156, 40.582616943935832 ], [ -73.998017137252518, 40.582619507109392 ], [ -73.998042904721373, 40.582623777862324 ], [ -73.998064189878235, 40.582628049444132 ], [ -73.998085476161322, 40.582631465499425 ], [ -73.998110125204306, 40.582637443664652 ], [ -73.998123567548404, 40.582640863163988 ], [ -73.998138133243017, 40.582643424564466 ], [ -73.998153816336028, 40.582645986821234 ], [ -73.99817062141129, 40.582649405455115 ], [ -73.998199750505194, 40.582654529079932 ], [ -73.998225518023887, 40.582657947949713 ], [ -73.998252405332138, 40.582662216835267 ], [ -73.998278172856487, 40.582665635693239 ], [ -73.998292737465476, 40.582668197911737 ], [ -73.998307301989371, 40.5826699064447 ], [ -73.998335310131054, 40.582673324407786 ], [ -73.998355475690033, 40.582675033028224 ], [ -73.998368919308689, 40.582676739779657 ], [ -73.998391326731578, 40.582676740145764 ], [ -73.998405891282303, 40.582677594063789 ], [ -73.998421575557202, 40.582677594315449 ], [ -73.998449583839673, 40.582680159404617 ], [ -73.998473109564074, 40.582683576427129 ], [ -73.9984921553623, 40.582687846974707 ], [ -73.998514562512497, 40.582694680457443 ], [ -73.998536967382563, 40.582700658498318 ], [ -73.998559374541585, 40.582707493730069 ], [ -73.998572819338193, 40.58271091058274 ], [ -73.998586264156273, 40.582713473583937 ], [ -73.998601947261278, 40.582716889544315 ], [ -73.998628835786562, 40.582722871144604 ], [ -73.998653482386658, 40.58272884919446 ], [ -73.998675889713184, 40.582733974360892 ], [ -73.998698296935004, 40.582739099522939 ], [ -73.998720701854737, 40.582744226522095 ], [ -73.99874198938069, 40.582749349904198 ], [ -73.998758793285617, 40.582753622134383 ], [ -73.998777839123775, 40.582757892718298 ], [ -73.998791281526337, 40.582761309461596 ], [ -73.998810329708718, 40.582763873511752 ], [ -73.998831614976268, 40.582767289428723 ], [ -73.998852901342914, 40.582770707181936 ], [ -73.998875307526589, 40.582774121346745 ], [ -73.998888752383493, 40.582775831550251 ], [ -73.998904436633282, 40.582778394624597 ], [ -73.998921241937666, 40.582779248503606 ], [ -73.998944767752192, 40.582780956223239 ], [ -73.998972776081203, 40.582784373947085 ], [ -73.99899630306102, 40.582788644544792 ], [ -73.999017588331327, 40.582792916871256 ], [ -73.999039995627797, 40.582796331840271 ], [ -73.999060162420591, 40.582799750463316 ], [ -73.999080327884997, 40.582804020004872 ], [ -73.99909825516481, 40.582807437678149 ], [ -73.999113938306351, 40.582811709010009 ], [ -73.999141945398023, 40.582818543345994 ], [ -73.999163232967177, 40.582824522090085 ], [ -73.99918563904825, 40.582829645400558 ], [ -73.999199082804466, 40.58283306393632 ], [ -73.999225970111567, 40.582839044560409 ], [ -73.999250618136259, 40.582844167794548 ], [ -73.999275266043512, 40.58285014838745 ], [ -73.999302154693709, 40.582855272549764 ], [ -73.999315598349483, 40.582858689315408 ], [ -73.999342485788915, 40.582864669828474 ], [ -73.999369374328438, 40.582870646821036 ], [ -73.999395142041507, 40.582879190284103 ], [ -73.99941866784647, 40.582886022679972 ], [ -73.999432111625964, 40.582889441188414 ], [ -73.999445555295296, 40.582892855178535 ], [ -73.99946011987079, 40.582897127373968 ], [ -73.99947580537075, 40.582900544052634 ], [ -73.999491488556558, 40.582904816251684 ], [ -73.999508294963888, 40.58290908569559 ], [ -73.999525099075967, 40.582912504215024 ], [ -73.999540784582862, 40.582915919044602 ], [ -73.999567673153152, 40.582922753271021 ], [ -73.999581116955085, 40.582925314481706 ], [ -73.999609125246153, 40.582931295022654 ], [ -73.99962368984734, 40.582934711674767 ], [ -73.999638253359734, 40.582937274642696 ], [ -73.999653937663254, 40.582941544979349 ], [ -73.999670742999456, 40.582944962557342 ], [ -73.99968754822585, 40.582948377371252 ], [ -73.999705473161796, 40.582951795869832 ], [ -73.999724519115247, 40.582956066214216 ], [ -73.999745804377284, 40.582960338404362 ], [ -73.999767092054, 40.582964607914015 ], [ -73.999787257723199, 40.582968880007932 ], [ -73.999805183872056, 40.582973149496723 ], [ -73.999826469252852, 40.582977421671906 ], [ -73.999851117264768, 40.582982545697206 ], [ -73.999872402651491, 40.582986817865184 ], [ -73.999894811260091, 40.582991089111346 ], [ -73.999918337274678, 40.582995358516222 ], [ -73.999944105012759, 40.582998775160171 ], [ -74.000046055383223, 40.583017567454036 ], [ -74.000062859584773, 40.583020982183172 ], [ -74.000081906719785, 40.583024400592336 ], [ -74.000105432806635, 40.583028670837209 ], [ -74.000126719365227, 40.583032942918912 ], [ -74.000148006038117, 40.583037212320136 ], [ -74.000167050766919, 40.583042337158489 ], [ -74.000186097913655, 40.583046607391182 ], [ -74.00020402304834, 40.583050025780082 ], [ -74.00021970744686, 40.583054296011611 ], [ -74.000244356780371, 40.583063691083375 ], [ -74.000265642270136, 40.583073087996304 ], [ -74.000286928867794, 40.583084191432327 ], [ -74.000303733111267, 40.58309358742715 ], [ -74.000319417538591, 40.58310298434219 ], [ -74.000332862552369, 40.583114087703848 ], [ -74.000343308242336, 40.58312311333804 ], [ -74.000352731557712, 40.583398956261235 ], [ -74.000350788527328, 40.583403646917837 ], [ -74.000350788563878, 40.583416461358787 ], [ -74.000353029241936, 40.583429272195936 ], [ -74.000353931591306, 40.583434086079798 ], [ -74.000377652118416, 40.584128449633653 ], [ -74.000370956609132, 40.584139935128846 ], [ -74.000366476523951, 40.584151894057364 ], [ -74.000356392969167, 40.584165559530021 ], [ -74.000348551265176, 40.584173248213801 ], [ -74.000339587418921, 40.584181789661997 ], [ -74.000319420154966, 40.584200582687522 ], [ -74.000300375123999, 40.58421510277779 ], [ -74.000290292631533, 40.584221936859969 ], [ -74.0002802102467, 40.584229622867056 ], [ -74.000257801178179, 40.584243290109512 ], [ -74.000237635069624, 40.584253539854771 ], [ -74.000216349334991, 40.584264645120491 ], [ -74.000196182116326, 40.584277456909028 ], [ -74.000177134512455, 40.584289414928129 ], [ -74.000158088220118, 40.584303936751056 ], [ -74.000142404624313, 40.584318456810564 ], [ -74.000124478046061, 40.584332976786804 ], [ -74.000106552666864, 40.584347497764107 ], [ -74.000089746902944, 40.584362873256815 ], [ -74.000075183121794, 40.584376540462102 ], [ -74.000066218004065, 40.58438678841685 ], [ -74.000057257602847, 40.584397039048739 ], [ -74.000049413530647, 40.584406435076346 ], [ -74.000042692587257, 40.58441839315541 ], [ -74.00003709027601, 40.584430352071855 ], [ -74.000030368234363, 40.584440601780528 ], [ -74.000021404311568, 40.584449144124996 ], [ -74.000009081181503, 40.584459392074152 ], [ -73.999996757930475, 40.584474767548919 ], [ -73.999987794008447, 40.584486726529278 ], [ -73.999987686797624, 40.584486849092229 ], [ -73.999671688279747, 40.584634883262829 ], [ -73.999669609677781, 40.584635349247392 ], [ -73.999647203946196, 40.58464389055613 ], [ -73.999624794689623, 40.584653285542707 ], [ -73.999602387746549, 40.584660974081899 ], [ -73.999576619265582, 40.584671224562314 ], [ -73.999556452964896, 40.584681474236163 ], [ -73.999538527461269, 40.584690016470979 ], [ -73.999518359909402, 40.584703682624713 ], [ -73.999510576452309, 40.584710358431565 ], [ -73.997716846764732, 40.585550657283648 ], [ -73.997499913982523, 40.585652277966467 ], [ -73.995441919517845, 40.586616295205488 ], [ -73.992606631305009, 40.587944310843426 ], [ -73.992554328863619, 40.58784974991714 ], [ -73.992517068663147, 40.587783708519837 ], [ -73.992478427830093, 40.587716335208071 ], [ -73.992444051590226, 40.587657309084427 ], [ -73.992412441093265, 40.587603768238893 ], [ -73.99238649225866, 40.587560320783737 ], [ -73.992363012949355, 40.587521392300594 ], [ -73.992344850365342, 40.587491530662767 ], [ -73.992324270344881, 40.587457940731291 ], [ -73.99229505721118, 40.58741071621229 ], [ -73.992265609039478, 40.587363633141003 ], [ -73.992244049959666, 40.587329491964056 ], [ -73.992209702917208, 40.587275652783667 ], [ -73.992161473330356, 40.587201163612406 ], [ -73.992110488326404, 40.587123785392656 ], [ -73.992070033023566, 40.587063344925468 ], [ -73.992016239566738, 40.586984241947761 ], [ -73.992001078943161, 40.586962666222767 ], [ -73.991957089840611, 40.586901125898599 ], [ -73.991870044391561, 40.586783706807815 ], [ -73.991768559422368, 40.586653460518811 ], [ -73.991670176622335, 40.586533328128979 ], [ -73.991587088903344, 40.586436128602976 ], [ -73.991498933234283, 40.586336907869779 ], [ -73.991366085690899, 40.58619431891389 ], [ -73.991274642646516, 40.5861006098757 ], [ -73.99116222522963, 40.585989948524599 ], [ -73.991073361149674, 40.58590577326148 ], [ -73.990979804604962, 40.585820098252938 ], [ -73.990898803663967, 40.585748224579717 ], [ -73.990815253955432, 40.585676216531134 ], [ -73.99073822347934, 40.585611648228557 ], [ -73.990652124789463, 40.585541454382323 ], [ -73.990590578919637, 40.585492504959987 ], [ -73.990503962812824, 40.585425282701031 ], [ -73.990440481067125, 40.585377207462976 ], [ -73.990358663362215, 40.585316679932703 ], [ -73.990291051366583, 40.585267840594113 ], [ -73.990203758045482, 40.585206307535174 ], [ -73.990123541649695, 40.585151223666657 ], [ -73.990039101770577, 40.585094703063831 ], [ -73.989977023932028, 40.585054075913931 ], [ -73.989913884355744, 40.585013538654138 ], [ -73.989866222524824, 40.584983451501252 ], [ -73.989805086065189, 40.584944444364695 ], [ -73.992594062392428, 40.583606964553475 ] ] ] ] } },
{ "type": "Feature", "properties": { "Borough": "BK", "Block": 6944, "Lot": 333, "CD": 313, "BCT2020": "3031401", "BCTCB2020": "30314013003", "CT2010": "314", "CB2010": "2003", "SchoolDist": "21", "Council": 47, "ZipCode": 11214, "FireComp": "L166", "PolicePrct": 60, "HealthCent": 37, "HealthArea": 8620, "Sanitboro": "3", "SanitDistr": "13", "SanitSub": "1C", "Address": "HUNTER AVENUE", "ZoneDist1": "C3", "ZoneDist2": null, "ZoneDist3": null, "ZoneDist4": null, "Overlay1": null, "Overlay2": null, "SPDist1": null, "SPDist2": null, "SPDist3": null, "LtdHeight": null, "SplitZone": "N", "BldgClass": "V1", "LandUse": "11", "Easements": 0, "OwnerType": null, "OwnerName": "WATERSHORE VIEWS, LLC", "LotArea": 36080, "BldgArea": 0, "ComArea": 0, "ResArea": 0, "OfficeArea": 0, "RetailArea": 0, "GarageArea": 0, "StrgeArea": 0, "FactryArea": 0, "OtherArea": 0, "AreaSource": "7", "NumBldgs": 0, "NumFloors": 0.0, "UnitsRes": 0, "UnitsTotal": 0, "LotFront": 54.67, "LotDepth": 660.0, "BldgFront": 0.0, "BldgDepth": 0.0, "Ext": null, "ProxCode": "0", "IrrLotCode": "N", "LotType": "3", "BsmtCode": "5", "AssessLand": 864000.0, "AssessTot": 864000.0, "ExemptTot": 0.0, "YearBuilt": 0, "YearAlter1": 0, "YearAlter2": 0, "HistDist": null, "Landmark": null, "BuiltFAR": 0.0, "ResidFAR": 0.75, "CommFAR": 0.5, "FacilFAR": 1.0, "BoroCode": 3, "BBL": 3069440333.0, "CondoNo": 0, "Tract2010": "0314", "XCoord": 985184, "YCoord": 152876, "ZoneMap": "28c", "ZMCode": null, "Sanborn": "312 021", "TaxMap": "32102", "EDesigNum": null, "APPBBL": 3069440333.0, "APPDate": "01/03/1992", "PLUTOMapID": "1", "FIRM07_FLA": "1", "PFIRM15_FL": "1", "Version": "25v4", "DCPEdited": null, "Latitude": 40.5862853, "Longitude": -73.9966373, "Notes": null, "Shape_Leng": 0.0, "Shape_Area": 38702.42978060001 }, "geometry": { "type": "MultiPolygon", "coordinates": [ [ [ [ -73.995604893505487, 40.586817061482776 ], [ -73.995521306397876, 40.586714090635169 ], [ -73.99757930152245, 40.585750072903572 ], [ -73.997611318554235, 40.585789511024359 ], [ -73.997693240020453, 40.585890425343216 ], [ -73.996103938660781, 40.586634901415181 ], [ -73.996073555552272, 40.586597473741712 ], [ -73.995759395754874, 40.586744677398372 ], [ -73.99578975044524, 40.586782070936849 ], [ -73.99563524089983, 40.586854446025441 ], [ -73.995604893505487, 40.586817061482776 ] ] ] ] } },
{ "type": "Feature", "properties": { "Borough": "BK", "Block": 6944, "Lot": 500, "CD": 313, "BCT2020": "3031402", "BCTCB2020": "30314021000", "CT2010": "314", "CB2010": "2002", "SchoolDist": "21", "Council": 47, "ZipCode": 11214, "FireComp": "L166", "PolicePrct": 60, "HealthCent": 37, "HealthArea": 8620, "Sanitboro": "3", "SanitDistr": "13", "SanitSub": "1C", "Address": "HUNTER AVENUE", "ZoneDist1": "C3", "ZoneDist2": null, "ZoneDist3": null, "ZoneDist4": null, "Overlay1": null, "Overlay2": null, "SPDist1": null, "SPDist2": null, "SPDist3": null, "LtdHeight": null, "SplitZone": "N", "BldgClass": "V1", "LandUse": "11", "Easements": 0, "OwnerType": "C", "OwnerName": "NYC DEPARTMENT OF PARKS AND RECREATION", "LotArea": 14286, "BldgArea": 0, "ComArea": 0, "ResArea": 0, "OfficeArea": 0, "RetailArea": 0, "GarageArea": 0, "StrgeArea": 0, "FactryArea": 0, "OtherArea": 0, "AreaSource": "7", "NumBldgs": 0, "NumFloors": 0.0, "UnitsRes": 0, "UnitsTotal": 0, "LotFront": 40.58, "LotDepth": 55.58, "BldgFront": 0.0, "BldgDepth": 0.0, "Ext": null, "ProxCode": "0", "IrrLotCode": "Y", "LotType": "5", "BsmtCode": "5", "AssessLand": 333450.0, "AssessTot": 333450.0, "ExemptTot": 333450.0, "YearBuilt": 0, "YearAlter1": 0, "YearAlter2": 0, "HistDist": null, "Landmark": null, "BuiltFAR": 0.0, "ResidFAR": 0.75, "CommFAR": 0.5, "FacilFAR": 1.0, "BoroCode": 3, "BBL": 3069440500.0, "CondoNo": 0, "Tract2010": "0314", "XCoord": 984907, "YCoord": 152653, "ZoneMap": "28c", "ZMCode": null, "Sanborn": "312 021", "TaxMap": "32102", "EDesigNum": null, "APPBBL": 0.0, "APPDate": null, "PLUTOMapID": "1", "FIRM07_FLA": "1", "PFIRM15_FL": "1", "Version": "25v4", "DCPEdited": "t", "Latitude": 40.5856733, "Longitude": -73.9976346, "Notes": null, "Shape_Leng": 0.0, "Shape_Area": 3145.4977761 }, "geometry": { "type": "MultiPolygon", "coordinates": [ [ [ [ -73.99757930152245, 40.585750072903572 ], [ -73.997499913982523, 40.585652277966467 ], [ -73.997716846764732, 40.585550657283648 ], [ -73.997722585201075, 40.58573738954771 ], [ -73.997611318554235, 40.585789511024359 ], [ -73.99757930152245, 40.585750072903572 ] ] ] ] } },
{ "type": "Feature", "properties": { "Borough": "BK", "Block": 6944, "Lot": 440, "CD": 313, "BCT2020": "3031402", "BCTCB2020": "30314021000", "CT2010": "314", "CB2010": "2002", "SchoolDist": "21", "Council": 47, "ZipCode": 11214, "FireComp": "L166", "PolicePrct": 60, "HealthCent": 37, "HealthArea": 8620, "Sanitboro": "3", "SanitDistr": "13", "SanitSub": "1C", "Address": "HUNTER AVENUE", "ZoneDist1": "C3", "ZoneDist2": null, "ZoneDist3": null, "ZoneDist4": null, "Overlay1": null, "Overlay2": null, "SPDist1": null, "SPDist2": null, "SPDist3": null, "LtdHeight": null, "SplitZone": "N", "BldgClass": "V1", "LandUse": "11", "Easements": 0, "OwnerType": "C", "OwnerName": "NYC DEPARTMENT OF PARKS AND RECREATION", "LotArea": 57858, "BldgArea": 0, "ComArea": 0, "ResArea": 0, "OfficeArea": 0, "RetailArea": 0, "GarageArea": 0, "StrgeArea": 0, "FactryArea": 0, "OtherArea": 0, "AreaSource": "7", "NumBldgs": 0, "NumFloors": 0.0, "UnitsRes": 0, "UnitsTotal": 0, "LotFront": 103.0, "LotDepth": 660.0, "BldgFront": 0.0, "BldgDepth": 0.0, "Ext": null, "ProxCode": "0", "IrrLotCode": "Y", "LotType": "3", "BsmtCode": "5", "AssessLand": 1457550.0, "AssessTot": 1457550.0, "ExemptTot": 1457550.0, "YearBuilt": 0, "YearAlter1": 0, "YearAlter2": 0, "HistDist": null, "Landmark": null, "BuiltFAR": 0.0, "ResidFAR": 0.75, "CommFAR": 0.5, "FacilFAR": 1.0, "BoroCode": 3, "BBL": 3069440440.0, "CondoNo": 0, "Tract2010": "0314", "XCoord": 985219, "YCoord": 152838, "ZoneMap": "28c", "ZMCode": null, "Sanborn": "312 021", "TaxMap": "32102", "EDesigNum": null, "APPBBL": 0.0, "APPDate": null, "PLUTOMapID": "1", "FIRM07_FLA": "1", "PFIRM15_FL": "1", "Version": "25v4", "DCPEdited": "t", "Latitude": 40.586181, "Longitude": -73.9965113, "Notes": null, "Shape_Leng": 0.0, "Shape_Area": 28110.709147400001 }, "geometry": { "type": "MultiPolygon", "coordinates": [ [ [ [ -73.99757930152245, 40.585750072903572 ], [ -73.995521306397876, 40.586714090635169 ], [ -73.995441919517845, 40.586616295205488 ], [ -73.997499913982523, 40.585652277966467 ], [ -73.99757930152245, 40.585750072903572 ] ] ] ] } },
{ "type": "Feature", "properties": { "Borough": "BK", "Block": 6947, "Lot": 500, "CD": 313, "BCT2020": "3034800", "BCTCB2020": "30348001023", "CT2010": "348", "CB2010": "1007", "SchoolDist": "21", "Council": 47, "ZipCode": 11214, "FireComp": "L166", "PolicePrct": 60, "HealthCent": 37, "HealthArea": 9020, "Sanitboro": "3", "SanitDistr": "13", "SanitSub": "1C", "Address": "2970 CROPSEY AVENUE", "ZoneDist1": "C8-1", "ZoneDist2": null, "ZoneDist3": null, "ZoneDist4": null, "Overlay1": null, "Overlay2": null, "SPDist1": null, "SPDist2": null, "SPDist3": null, "LtdHeight": null, "SplitZone": "N", "BldgClass": "K8", "LandUse": "05", "Easements": 0, "OwnerType": null, "OwnerName": "HOME DEPOT USA INC", "LotArea": 596792, "BldgArea": 148861, "ComArea": 148861, "ResArea": 0, "OfficeArea": 0, "RetailArea": 148861, "GarageArea": 0, "StrgeArea": 0, "FactryArea": 0, "OtherArea": 0, "AreaSource": "2", "NumBldgs": 1, "NumFloors": 1.0, "UnitsRes": 0, "UnitsTotal": 1, "LotFront": 723.0, "LotDepth": 677.0, "BldgFront": 588.0, "BldgDepth": 246.0, "Ext": "N", "ProxCode": "1", "IrrLotCode": "Y", "LotType": "3", "BsmtCode": "0", "AssessLand": 2841300.0, "AssessTot": 19214100.0, "ExemptTot": 1054710.0, "YearBuilt": 2002, "YearAlter1": 0, "YearAlter2": 0, "HistDist": null, "Landmark": null, "BuiltFAR": 0.25, "ResidFAR": 0.0, "CommFAR": 1.0, "FacilFAR": 2.4, "BoroCode": 3, "BBL": 3069470500.0000005, "CondoNo": 0, "Tract2010": "0348", "XCoord": 987557, "YCoord": 151105, "ZoneMap": "28d", "ZMCode": "Y", "Sanborn": "318 059", "TaxMap": "32102", "EDesigNum": null, "APPBBL": 3069470500.0000005, "APPDate": "04/11/2017", "PLUTOMapID": "1", "FIRM07_FLA": "1", "PFIRM15_FL": "1", "Version": "25v4", "DCPEdited": null, "Latitude": 40.5814237, "Longitude": -73.9880946, "Notes": null, "Shape_Leng": 0.0, "Shape_Area": 574284.10447200004 }, "geometry": { "type": "MultiPolygon", "coordinates": [ [ [ [ -73.986408772877098, 40.582529245560352 ], [ -73.986413120112815, 40.582531877407519 ], [ -73.986417525272032, 40.582534052721122 ], [ -73.986421441590466, 40.582535637240625 ], [ -73.986429351205047, 40.582537994856075 ], [ -73.986433617277441, 40.582538850808334 ], [ -73.986438466944946, 40.5825394997686 ], [ -73.986446841027657, 40.582539851987178 ], [ -73.986456136746128, 40.582539116464332 ], [ -73.986461022061448, 40.582538236345371 ], [ -73.986466227664621, 40.58253689704646 ], [ -73.986470243782378, 40.582535550326213 ], [ -73.98647343547448, 40.582534267508287 ], [ -73.986477168242331, 40.582532495669668 ], [ -73.98648133336421, 40.582530117920882 ], [ -73.986485447890587, 40.582527261957992 ], [ -73.986488527588321, 40.582524696761638 ], [ -73.98659610684831, 40.582301921346932 ], [ -73.986909243444089, 40.582266103815755 ], [ -73.987154900264954, 40.582238004320537 ], [ -73.987119583972969, 40.582058888220267 ], [ -73.987010803842537, 40.58199073320916 ], [ -73.986851630794192, 40.582008482038887 ], [ -73.986700519222524, 40.581326853438547 ], [ -73.9867491193163, 40.581298198379258 ], [ -73.986824190667832, 40.581252082461162 ], [ -73.986867887965474, 40.581223900303087 ], [ -73.986907103824819, 40.581196571372672 ], [ -73.986939597742293, 40.581170950773945 ], [ -73.986974334076478, 40.581141912011987 ], [ -73.98702363522122, 40.581097502185905 ], [ -73.987052768446134, 40.581067609992019 ], [ -73.98707069708388, 40.581046257097647 ], [ -73.987115522900339, 40.580983908253579 ], [ -73.987146898374036, 40.58093864255568 ], [ -73.987174915012503, 40.580891667344972 ], [ -73.987217501732943, 40.580820775854839 ], [ -73.987251121291223, 40.580762696022418 ], [ -73.987260087322923, 40.580749029745682 ], [ -73.987283617718703, 40.580721700667823 ], [ -73.987293704450735, 40.580708889202739 ], [ -73.987309392094687, 40.580683265679291 ], [ -73.987317238704975, 40.580661911609013 ], [ -73.987326208588399, 40.580621767355858 ], [ -73.987338540415976, 40.580573081968275 ], [ -73.987349749013404, 40.580542332240292 ], [ -73.98735759751797, 40.580523543734408 ], [ -73.987382251706734, 40.580474004284419 ], [ -73.987411391344381, 40.580408235149292 ], [ -73.987436049439268, 40.580351010617477 ], [ -73.987448376316522, 40.580327095069578 ], [ -73.987455063606447, 40.580315921471644 ], [ -73.987477513787383, 40.580278410617133 ], [ -73.987497686728247, 40.580241684167142 ], [ -73.987499928551145, 40.580234851271996 ], [ -73.987501048623187, 40.580226309966861 ], [ -73.987505537195887, 40.580192998344636 ], [ -73.987514508595197, 40.580150290267078 ], [ -73.987522355034969, 40.580116979936527 ], [ -73.987530201673806, 40.580094772084252 ], [ -73.987547011850282, 40.580064879318044 ], [ -73.987567184367052, 40.580029858464016 ], [ -73.987587354316858, 40.580002528951063 ], [ -73.987595198188259, 40.579994842905229 ], [ -73.987625449131244, 40.579971356152704 ], [ -73.987632172051704, 40.579964096823076 ], [ -73.987662428069072, 40.579925661409106 ], [ -73.987670832091482, 40.57991028675098 ], [ -73.987683720336292, 40.5798966218751 ], [ -73.987699405618415, 40.579881249853173 ], [ -73.987736895138084, 40.579833123850925 ], [ -73.988563085961289, 40.580191381087552 ], [ -73.988601317701423, 40.580404406197331 ], [ -73.988707269869579, 40.580393646641596 ], [ -73.988720689681557, 40.580461066512349 ], [ -73.989267407665537, 40.580579576639614 ], [ -73.989585224864925, 40.580648466781028 ], [ -73.989796265678351, 40.58073694359372 ], [ -73.989333814822189, 40.581972849191629 ], [ -73.988877445735937, 40.582702200769532 ], [ -73.988699073870578, 40.582633255201749 ], [ -73.987809577886935, 40.582729427125024 ], [ -73.987752396046403, 40.582446213032725 ], [ -73.987638635324174, 40.582458513487076 ], [ -73.987567340677145, 40.582466221238128 ], [ -73.98749604711233, 40.582473929030172 ], [ -73.98738910514291, 40.582485490676945 ], [ -73.987285312051114, 40.582496712076896 ], [ -73.987214018421227, 40.582504419693905 ], [ -73.987139170829252, 40.582512511369039 ], [ -73.987069024101302, 40.582520095626158 ], [ -73.986997729324571, 40.582527803108853 ], [ -73.986900503340578, 40.582538313543225 ], [ -73.986782904692433, 40.582551027748288 ], [ -73.986777252655344, 40.582523037104032 ], [ -73.986617034666693, 40.582858353677445 ], [ -73.986510786437051, 40.58286983979518 ], [ -73.986405773264963, 40.582527083968706 ], [ -73.986408772877098, 40.582529245560352 ] ], [ [ -73.98789821144949, 40.580355284842362 ], [ -73.988190011980564, 40.580440689001293 ], [ -73.988428473863721, 40.580510481793766 ], [ -73.988470499218465, 40.580405497767522 ], [ -73.988535296373186, 40.580243630187354 ], [ -73.988476638752616, 40.580228943836836 ], [ -73.988499315238542, 40.580170735515118 ], [ -73.988036784173545, 40.580033204477722 ], [ -73.98789821144949, 40.580355284842362 ] ] ], [ [ [ -73.986642245054696, 40.581369383022931 ], [ -73.986642219043318, 40.581369404604899 ], [ -73.986640427342934, 40.58136091048322 ], [ -73.986649400423758, 40.581356270336883 ], [ -73.986671870348857, 40.58134342466888 ], [ -73.986642245054696, 40.581369383022931 ] ] ] ] } },
{ "type": "Feature", "properties": { "Borough": "BK", "Block": 6944, "Lot": 160, "CD": 313, "BCT2020": "3031402", "BCTCB2020": "30314021000", "CT2010": "314", "CB2010": "2002", "SchoolDist": "21", "Council": 47, "ZipCode": 11214, "FireComp": "L166", "PolicePrct": 60, "HealthCent": 37, "HealthArea": 8620, "Sanitboro": "3", "SanitDistr": "13", "SanitSub": "1C", "Address": "BAY 43 STREET", "ZoneDist1": "R4", "ZoneDist2": null, "ZoneDist3": null, "ZoneDist4": null, "Overlay1": null, "Overlay2": null, "SPDist1": null, "SPDist2": null, "SPDist3": null, "LtdHeight": null, "SplitZone": "N", "BldgClass": "V0", "LandUse": "11", "Easements": 0, "OwnerType": "C", "OwnerName": "NYC DEPARTMENT OF TRANSPORTATION", "LotArea": 32130, "BldgArea": 0, "ComArea": 0, "ResArea": 0, "OfficeArea": 0, "RetailArea": 0, "GarageArea": 0, "StrgeArea": 0, "FactryArea": 0, "OtherArea": 0, "AreaSource": "7", "NumBldgs": 0, "NumFloors": 0.0, "UnitsRes": 0, "UnitsTotal": 0, "LotFront": 35.0, "LotDepth": 918.0, "BldgFront": 0.0, "BldgDepth": 0.0, "Ext": null, "ProxCode": "0", "IrrLotCode": "Y", "LotType": "3", "BsmtCode": "5", "AssessLand": 305520.0, "AssessTot": 305520.0, "ExemptTot": 305520.0, "YearBuilt": 0, "YearAlter1": 0, "YearAlter2": 0, "HistDist": null, "Landmark": null, "BuiltFAR": 0.0, "ResidFAR": 1.0, "CommFAR": 0.0, "FacilFAR": 2.0, "BoroCode": 3, "BBL": 3069440160.0, "CondoNo": 0, "Tract2010": "0314", "XCoord": 985900, "YCoord": 153257, "ZoneMap": "28c", "ZMCode": null, "Sanborn": "312 019", "TaxMap": "32102", "EDesigNum": null, "APPBBL": 0.0, "APPDate": null, "PLUTOMapID": "1", "FIRM07_FLA": "1", "PFIRM15_FL": "1", "Version": "25v4", "DCPEdited": "t", "Latitude": 40.587331, "Longitude": -73.9940594, "Notes": null, "Shape_Leng": 0.0, "Shape_Area": 38871.717806400011 }, "geometry": { "type": "MultiPolygon", "coordinates": [ [ [ [ -73.992606631305009, 40.587944310843426 ], [ -73.995441919517845, 40.586616295205488 ], [ -73.995521306397876, 40.586714090635169 ], [ -73.992664739219194, 40.588052071993786 ], [ -73.992606631305009, 40.587944310843426 ] ] ] ] } },
{ "type": "Feature", "properties": { "Borough": "BK", "Block": 6944, "Lot": 480, "CD": 313, "BCT2020": "3031401", "BCTCB2020": "30314013003", "CT2010": "314", "CB2010": "2003", "SchoolDist": "21", "Council": 47, "ZipCode": 11214, "FireComp": "L166", "PolicePrct": 60, "HealthCent": 37, "HealthArea": 8620, "Sanitboro": "3", "SanitDistr": "13", "SanitSub": "1C", "Address": "4302 WESTSHORE AVENUE", "ZoneDist1": "C3", "ZoneDist2": null, "ZoneDist3": null, "ZoneDist4": null, "Overlay1": null, "Overlay2": null, "SPDist1": null, "SPDist2": null, "SPDist3": null, "LtdHeight": null, "SplitZone": "N", "BldgClass": "V1", "LandUse": "11", "Easements": 1, "OwnerType": null, "OwnerName": "WATERSHORE VIEWS, LLC", "LotArea": 443910, "BldgArea": 0, "ComArea": 0, "ResArea": 0, "OfficeArea": 0, "RetailArea": 0, "GarageArea": 0, "StrgeArea": 0, "FactryArea": 0, "OtherArea": 0, "AreaSource": "7", "NumBldgs": 0, "NumFloors": 0.0, "UnitsRes": 0, "UnitsTotal": 0, "LotFront": 900.0, "LotDepth": 550.0, "BldgFront": 0.0, "BldgDepth": 0.0, "Ext": null, "ProxCode": "0", "IrrLotCode": "Y", "LotType": "5", "BsmtCode": "0", "AssessLand": 3664350.0, "AssessTot": 3664350.0, "ExemptTot": 0.0, "YearBuilt": 0, "YearAlter1": 0, "YearAlter2": 0, "HistDist": null, "Landmark": null, "BuiltFAR": 0.0, "ResidFAR": 0.75, "CommFAR": 0.5, "FacilFAR": 1.0, "BoroCode": 3, "BBL": 3069440480.0, "CondoNo": 0, "Tract2010": "0314", "XCoord": 984465, "YCoord": 152669, "ZoneMap": "28c", "ZMCode": null, "Sanborn": "312 021", "TaxMap": "32102", "EDesigNum": null, "APPBBL": 0.0, "APPDate": null, "PLUTOMapID": "1", "FIRM07_FLA": "1", "PFIRM15_FL": "1", "Version": "25v4", "DCPEdited": null, "Latitude": 40.5857172, "Longitude": -73.9992259, "Notes": null, "Shape_Leng": 0.0, "Shape_Area": 188633.21048199999 }, "geometry": { "type": "MultiPolygon", "coordinates": [ [ [ [ -73.99838649657228, 40.586744385369862 ], [ -73.998340914111694, 40.586688238028188 ], [ -73.998277397954482, 40.586609999616954 ], [ -73.998250779278308, 40.586577209859605 ], [ -73.998253414537544, 40.586576844554841 ], [ -73.998265739244331, 40.58657599108674 ], [ -73.998276942927191, 40.586576844962167 ], [ -73.998289267585889, 40.586577698019333 ], [ -73.998312795942269, 40.586582825031051 ], [ -73.998334082199463, 40.58658965769196 ], [ -73.998348616647576, 40.586594873644941 ], [ -73.998353129032907, 40.586596492988427 ], [ -73.998376657133107, 40.586607596766676 ], [ -73.998393463168085, 40.586616991309548 ], [ -73.998412509704451, 40.5866315134177 ], [ -73.99843267591028, 40.586650304034485 ], [ -73.998446121339001, 40.586663972366026 ], [ -73.998455084033694, 40.586675075897979 ], [ -73.998477490600521, 40.586710098470071 ], [ -73.998514462085851, 40.586772452057737 ], [ -73.998549192993778, 40.586830535264397 ], [ -73.998555354999496, 40.586845482241856 ], [ -73.998555354784045, 40.586854452347289 ], [ -73.998552275139446, 40.586865770953153 ], [ -73.99854695119113, 40.586874097121097 ], [ -73.998540228813027, 40.586879223631307 ], [ -73.998529024773418, 40.586886268266717 ], [ -73.998516138904876, 40.586887763856652 ], [ -73.998500129008448, 40.586884356832378 ], [ -73.998484235075438, 40.586864778619457 ], [ -73.99838649657228, 40.586744385369862 ] ] ], [ [ [ -73.998207370328601, 40.58652373741149 ], [ -73.998138437806787, 40.586438827822519 ], [ -73.997972736954893, 40.586234714184897 ], [ -73.99777783810616, 40.585994636511202 ], [ -73.997693240020453, 40.585890425343216 ], [ -73.997611318554235, 40.585789511024359 ], [ -73.997722585201075, 40.58573738954771 ], [ -73.997716846764732, 40.585550657283648 ], [ -73.999510576452309, 40.584710358431565 ], [ -73.999500434327501, 40.584719057157898 ], [ -73.999491470318077, 40.584727597603688 ], [ -73.999481388875807, 40.584736139882814 ], [ -73.999463462043124, 40.584754077296985 ], [ -73.999456739912731, 40.584762617755501 ], [ -73.999447778296442, 40.58477201380537 ], [ -73.9994376933018, 40.584783118047291 ], [ -73.999428729257019, 40.584793368614164 ], [ -73.999418646588254, 40.584801909966288 ], [ -73.999408564017187, 40.584811305083491 ], [ -73.999397360508695, 40.584819845505351 ], [ -73.999388397569518, 40.58482838778459 ], [ -73.999377192848726, 40.58483692912457 ], [ -73.999365989330173, 40.584845471467318 ], [ -73.999354787017339, 40.584854013726556 ], [ -73.999333497336266, 40.584867678917433 ], [ -73.999314451895117, 40.58487707395404 ], [ -73.999293163471762, 40.584885616960499 ], [ -73.999270757617779, 40.58489330459728 ], [ -73.999249469207001, 40.584900135713191 ], [ -73.999230423792284, 40.584906115922003 ], [ -73.999210257513852, 40.584913804404593 ], [ -73.999190091096168, 40.584923198490237 ], [ -73.999172165493505, 40.584930886065472 ], [ -73.999151996761441, 40.58494028098076 ], [ -73.999130710587878, 40.584949677723074 ], [ -73.999109423311367, 40.58495907270369 ], [ -73.999089256865801, 40.584968468529354 ], [ -73.999079173071678, 40.584974447883603 ], [ -73.999066849793721, 40.584980426295012 ], [ -73.999052283384117, 40.58498811304986 ], [ -73.999037718053799, 40.584996654321408 ], [ -73.999023154036465, 40.585005197432622 ], [ -73.999009709648007, 40.585013738712625 ], [ -73.99899626418717, 40.585020570785154 ], [ -73.998982819915355, 40.585028258463574 ], [ -73.998958171974394, 40.585041923548808 ], [ -73.998938005529908, 40.585054738678444 ], [ -73.998917836695753, 40.585065841838329 ], [ -73.998897670158769, 40.585076945998544 ], [ -73.998876382776118, 40.585088049136594 ], [ -73.998855096466698, 40.585100006875606 ], [ -73.998843894077837, 40.585106839041345 ], [ -73.998822606515532, 40.585120506898967 ], [ -73.998800196878861, 40.585135026664155 ], [ -73.99878227103531, 40.585149547318885 ], [ -73.998768826514137, 40.585161506060921 ], [ -73.998756503050004, 40.585173463895927 ], [ -73.998741937660739, 40.585186274545883 ], [ -73.998731853766117, 40.585193963075419 ], [ -73.998721770966199, 40.585201649763846 ], [ -73.998709446351839, 40.585210191107294 ], [ -73.998698242705785, 40.585217877778575 ], [ -73.998676953924445, 40.585234106740657 ], [ -73.998665749042928, 40.585242648931128 ], [ -73.998653425483639, 40.585252472548902 ], [ -73.998644462530322, 40.585259731485607 ], [ -73.998623174968742, 40.58527425215064 ], [ -73.998607489716392, 40.585285357159684 ], [ -73.99859404411967, 40.585293899312241 ], [ -73.998577239132558, 40.585304147857158 ], [ -73.998561552787294, 40.585314397421278 ], [ -73.998549229381396, 40.58532123213574 ], [ -73.998534665162595, 40.585328064222551 ], [ -73.998515618464964, 40.585334043392606 ], [ -73.998490969410682, 40.585340020634725 ], [ -73.998468561029682, 40.585342585016669 ], [ -73.998452876083832, 40.585344293056103 ], [ -73.998434950439517, 40.585345999217758 ], [ -73.998417024704906, 40.585346853535938 ], [ -73.998397978126548, 40.58534770691179 ], [ -73.998380051208642, 40.585347706620624 ], [ -73.99835988606705, 40.585349415494264 ], [ -73.998341960330563, 40.585350269800742 ], [ -73.998309467182722, 40.585349414651482 ], [ -73.998289302024645, 40.585347705103707 ], [ -73.998268016000111, 40.585346851055348 ], [ -73.998250087983706, 40.585346850743882 ], [ -73.998241126156699, 40.585351121759572 ], [ -73.998231042080974, 40.585362225058766 ], [ -73.998227680080007, 40.5853741829944 ], [ -73.99823104148912, 40.585382725398532 ], [ -73.998236643403359, 40.585398101065969 ], [ -73.998242243187974, 40.585407496272396 ], [ -73.998257928897118, 40.585422018349064 ], [ -73.998278094933283, 40.585432267570617 ], [ -73.998294900706412, 40.585439955601117 ], [ -73.998312827444778, 40.585443371555584 ], [ -73.998335234293876, 40.585450204236132 ], [ -73.998358762281455, 40.585454477555679 ], [ -73.998381169250962, 40.585457039891196 ], [ -73.998399094903007, 40.585460456752315 ], [ -73.99841814383818, 40.585463019945102 ], [ -73.998436068175295, 40.585466435964065 ], [ -73.998453993876296, 40.585468144532179 ], [ -73.998469679969901, 40.585469853061426 ], [ -73.998486484715656, 40.585471563447236 ], [ -73.998503290582235, 40.585472416466764 ], [ -73.998520095219703, 40.585474124086062 ], [ -73.998538022090258, 40.585477542765688 ], [ -73.998561548802471, 40.585480959685007 ], [ -73.998585078042439, 40.585484374843091 ], [ -73.998607485012457, 40.585487794413247 ], [ -73.998631013087703, 40.585489501192434 ], [ -73.998644457299037, 40.585490355147613 ], [ -73.998659022466299, 40.585491209954412 ], [ -73.99867470749254, 40.585492064689717 ], [ -73.998689271472514, 40.585492064889138 ], [ -73.998704957596303, 40.585492920624183 ], [ -73.99872064260515, 40.585494629120433 ], [ -73.998736328713505, 40.585496336693147 ], [ -73.998753134587787, 40.585497190680002 ], [ -73.998775541696617, 40.585499752938574 ], [ -73.998797949905835, 40.585502317033011 ], [ -73.998819237176406, 40.585504025585415 ], [ -73.998839403585237, 40.585506586883412 ], [ -73.998859569902351, 40.585508295414513 ], [ -73.998878615374437, 40.585510004850057 ], [ -73.998897661944468, 40.585511715117512 ], [ -73.998913346978625, 40.585512568147543 ], [ -73.998929033125862, 40.585512568329662 ], [ -73.998945840215271, 40.585513422205864 ], [ -73.998963765847364, 40.585514276090883 ], [ -73.998980570647106, 40.585514276278509 ], [ -73.998996255573019, 40.58551513105369 ], [ -73.999025386052097, 40.585515985051323 ], [ -73.999051153662123, 40.585516840847866 ], [ -73.999072440957704, 40.585517694751097 ], [ -73.999095410293904, 40.585518549587455 ], [ -73.999112215081354, 40.585519403438006 ], [ -73.999139663525369, 40.585520258311291 ], [ -73.999162072973377, 40.585521965054646 ], [ -73.99918223930338, 40.585523673529089 ], [ -73.999197923112462, 40.585526238318849 ], [ -73.999212489465165, 40.585529653265588 ], [ -73.999233775514355, 40.585533925465441 ], [ -73.999255062869736, 40.585539050590924 ], [ -73.999272989662799, 40.585544176521438 ], [ -73.999292035087421, 40.585551008902698 ], [ -73.999306600221644, 40.585556133878328 ], [ -73.999330128156359, 40.585563820976198 ], [ -73.999341332849809, 40.585568092238155 ], [ -73.999353656165127, 40.585574926395743 ], [ -73.999367099133465, 40.585580905958409 ], [ -73.999379424749435, 40.585588591953858 ], [ -73.999402952746067, 40.58560225849476 ], [ -73.999419759748804, 40.585613364687028 ], [ -73.999433202658182, 40.585626175624277 ], [ -73.999448887589637, 40.585639843855809 ], [ -73.999465693367085, 40.585654364938648 ], [ -73.999481379410554, 40.585668029567735 ], [ -73.999495942194315, 40.585681696865102 ], [ -73.999510508488186, 40.585696218762841 ], [ -73.999522831805436, 40.585707322234228 ], [ -73.999537396911833, 40.585720989608753 ], [ -73.999549161426643, 40.585735509643804 ], [ -73.99955756308816, 40.585747466853142 ], [ -73.999569887450036, 40.58576626082197 ], [ -73.999581092184215, 40.585784198340441 ], [ -73.999591173414743, 40.585804697902837 ], [ -73.999595657160569, 40.585816655002859 ], [ -73.999600137291125, 40.585827759424397 ], [ -73.999604618624616, 40.585839718364205 ], [ -73.999609101166627, 40.585851676383761 ], [ -73.999612461534511, 40.585864489082816 ], [ -73.999618062647684, 40.585887550500232 ], [ -73.999623665999863, 40.585905488066935 ], [ -73.999632627630817, 40.585924280169998 ], [ -73.999641590370402, 40.585942218673992 ], [ -73.999647193869606, 40.585956738665622 ], [ -73.99965055304321, 40.585969550443338 ], [ -73.99965503436772, 40.585984925030857 ], [ -73.999658395919511, 40.58600286258396 ], [ -73.999659516755713, 40.586019946358171 ], [ -73.999658395643749, 40.586039593009836 ], [ -73.999653914047812, 40.586059236966094 ], [ -73.999650552222533, 40.586077176240387 ], [ -73.999646070641475, 40.58609425914868 ], [ -73.999639349524884, 40.586113048490212 ], [ -73.999634868000669, 40.586122445412478 ], [ -73.99962478274945, 40.586143800299233 ], [ -73.999616939442888, 40.586163445155499 ], [ -73.999607977494932, 40.586179673435026 ], [ -73.999599014438431, 40.586196758993864 ], [ -73.999592292136654, 40.58621042431465 ], [ -73.999585569846815, 40.586222383189657 ], [ -73.999577726584803, 40.586234339381114 ], [ -73.999571004180041, 40.586246300095439 ], [ -73.999562041151066, 40.586258256279145 ], [ -73.999549717609284, 40.586271923403686 ], [ -73.999538512659072, 40.586281318440427 ], [ -73.99952842865855, 40.586292423608938 ], [ -73.999519464441605, 40.586300965059635 ], [ -73.999506021029276, 40.586312922967899 ], [ -73.999491454369434, 40.586321464295999 ], [ -73.999474649305313, 40.586327444560858 ], [ -73.999464566583029, 40.586330005621967 ], [ -73.999452240614104, 40.586341965370487 ], [ -73.999441038078075, 40.586348798431359 ], [ -73.999425351511931, 40.586359048028704 ], [ -73.999409666248141, 40.586370150469612 ], [ -73.999392861105576, 40.586381256496658 ], [ -73.999378294438088, 40.586388088606029 ], [ -73.999361489455254, 40.586394067012783 ], [ -73.999342442529425, 40.586400047240801 ], [ -73.999327876981567, 40.586404318296232 ], [ -73.999311070783264, 40.586410295859274 ], [ -73.999296505341064, 40.586414567832158 ], [ -73.999279700292348, 40.586416275975068 ], [ -73.999267374409669, 40.586417983233993 ], [ -73.999251690417168, 40.586421400588094 ], [ -73.999234884135078, 40.586424815169792 ], [ -73.999214717459211, 40.586428233399076 ], [ -73.99919903106013, 40.586430795223677 ], [ -73.999178864320939, 40.586430795036676 ], [ -73.999162059347768, 40.586434211447958 ], [ -73.999075788746822, 40.58644702419506 ], [ -73.999010804611032, 40.586460688869167 ], [ -73.998941338815726, 40.586476918182022 ], [ -73.998865153168438, 40.586494000218856 ], [ -73.998814735558994, 40.586507665039704 ], [ -73.998783363861605, 40.586514498702023 ], [ -73.998760953981346, 40.586517915819044 ], [ -73.998690369750832, 40.586523037977543 ], [ -73.998605220076897, 40.586529015323059 ], [ -73.99852791237528, 40.586534995485174 ], [ -73.998456207309161, 40.586537555432926 ], [ -73.998400186258948, 40.58653840914473 ], [ -73.998348616881415, 40.586537679943731 ], [ -73.998339684980081, 40.586537553550329 ], [ -73.998302713212226, 40.586539260376199 ], [ -73.998261258683684, 40.586543531756668 ], [ -73.99823997199681, 40.58654865716089 ], [ -73.998229854290869, 40.586551433876025 ], [ -73.998207370328601, 40.58652373741149 ] ] ], [ [ [ -73.999987686797624, 40.584486849092229 ], [ -73.999978831296417, 40.584496976217899 ], [ -73.999963146574302, 40.584503809319799 ], [ -73.99995306282392, 40.584508078709952 ], [ -73.999940737279644, 40.584519185666842 ], [ -73.999932895485074, 40.584531995566572 ], [ -73.999926173425052, 40.584543955384667 ], [ -73.999919452566402, 40.584556767126848 ], [ -73.999909368789218, 40.584565308522166 ], [ -73.999890322435476, 40.584570433319378 ], [ -73.999870155131163, 40.584577267312994 ], [ -73.999854471499518, 40.584578974625025 ], [ -73.999834304205606, 40.584582392963384 ], [ -73.999821979873644, 40.584585809487869 ], [ -73.999806295000255, 40.584593497170623 ], [ -73.999787248611497, 40.58460203768346 ], [ -73.999767082389127, 40.584608017057988 ], [ -73.999743553427351, 40.584617412983071 ], [ -73.999724508241755, 40.584624246037293 ], [ -73.999704343233105, 40.584627660756205 ], [ -73.999688657267782, 40.584631079006648 ], [ -73.999671688279747, 40.584634883262829 ], [ -73.999987686797624, 40.584486849092229 ] ] ] ] } },
{ "type": "Feature", "properties": { "Borough": "BK", "Block": 6946, "Lot": 705, "CD": 313, "BCT2020": "3031402", "BCTCB2020": "30314021000", "CT2010": "314", "CB2010": "2002", "SchoolDist": "21", "Council": 47, "ZipCode": 11214, "FireComp": "L166", "PolicePrct": 60, "HealthCent": 37, "HealthArea": 8620, "Sanitboro": "3", "SanitDistr": "13", "SanitSub": "1C", "Address": "2690 BAY 49 STREET", "ZoneDist1": "PARK", "ZoneDist2": null, "ZoneDist3": null, "ZoneDist4": null, "Overlay1": null, "Overlay2": null, "SPDist1": null, "SPDist2": null, "SPDist3": null, "LtdHeight": null, "SplitZone": "N", "BldgClass": "Q1", "LandUse": "09", "Easements": 0, "OwnerType": "C", "OwnerName": "NYC DEPARTMENT OF PARKS AND RECREATION", "LotArea": 2490, "BldgArea": 0, "ComArea": 0, "ResArea": 0, "OfficeArea": 0, "RetailArea": 0, "GarageArea": 0, "StrgeArea": 0, "FactryArea": 0, "OtherArea": 0, "AreaSource": "7", "NumBldgs": 0, "NumFloors": 0.0, "UnitsRes": 0, "UnitsTotal": 0, "LotFront": 83.0, "LotDepth": 30.0, "BldgFront": 0.0, "BldgDepth": 0.0, "Ext": "N", "ProxCode": "0", "IrrLotCode": "Y", "LotType": "5", "BsmtCode": "0", "AssessLand": 94500.0, "AssessTot": 94500.0, "ExemptTot": 94500.0, "YearBuilt": 0, "YearAlter1": 0, "YearAlter2": 0, "HistDist": null, "Landmark": null, "BuiltFAR": 0.0, "ResidFAR": 0.0, "CommFAR": 0.0, "FacilFAR": 0.0, "BoroCode": 3, "BBL": 3069460705.0, "CondoNo": 0, "Tract2010": "0314", "XCoord": 985556, "YCoord": 151475, "ZoneMap": "28c", "ZMCode": null, "Sanborn": "312 024", "TaxMap": "32102", "EDesigNum": null, "APPBBL": 0.0, "APPDate": null, "PLUTOMapID": "1", "FIRM07_FLA": "1", "PFIRM15_FL": "1", "Version": "25v4", "DCPEdited": "t", "Latitude": 40.5824398, "Longitude": -73.9952983, "Notes": null, "Shape_Leng": 0.0, "Shape_Area": 2806.8647321 }, "geometry": { "type": "MultiPolygon", "coordinates": [ [ [ [ -73.995386348546234, 40.582332931013383 ], [ -73.995415449397044, 40.582465040632925 ], [ -73.995313757131314, 40.582516240025321 ], [ -73.995110065646855, 40.582472027989219 ], [ -73.995386348546234, 40.582332931013383 ] ] ] ] } },
{ "type": "Feature", "properties": { "Borough": "BK", "Block": 6946, "Lot": 900, "CD": 313, "BCT2020": "3031402", "BCTCB2020": "30314020001", "CT2010": "314", "CB2010": "0001", "SchoolDist": null, "Council": 47, "ZipCode": 0, "FireComp": null, "PolicePrct": 0, "HealthCent": 0, "HealthArea": 0, "Sanitboro": null, "SanitDistr": null, "SanitSub": null, "Address": "2692 BAY 49 STREET", "ZoneDist1": "PARK", "ZoneDist2": null, "ZoneDist3": null, "ZoneDist4": null, "Overlay1": null, "Overlay2": null, "SPDist1": null, "SPDist2": null, "SPDist3": null, "LtdHeight": null, "SplitZone": "N", "BldgClass": "Q1", "LandUse": "09", "Easements": 0, "OwnerType": "C", "OwnerName": "NYC DEPARTMENT OF PARKS AND RECREATION", "LotArea": 2386315, "BldgArea": 0, "ComArea": 0, "ResArea": 0, "OfficeArea": 0, "RetailArea": 0, "GarageArea": 0, "StrgeArea": 0, "FactryArea": 0, "OtherArea": 0, "AreaSource": "7", "NumBldgs": 0, "NumFloors": 0.0, "UnitsRes": 0, "UnitsTotal": 0, "LotFront": 364.0, "LotDepth": 173.17, "BldgFront": 0.0, "BldgDepth": 0.0, "Ext": null, "ProxCode": "0", "IrrLotCode": "Y", "LotType": "3", "BsmtCode": "5", "AssessLand": 85811400.0, "AssessTot": 85811400.0, "ExemptTot": 85811400.0, "YearBuilt": 0, "YearAlter1": 0, "YearAlter2": 0, "HistDist": null, "Landmark": null, "BuiltFAR": 0.0, "ResidFAR": 0.0, "CommFAR": 0.0, "FacilFAR": 0.0, "BoroCode": 3, "BBL": 3069460900.0000005, "CondoNo": 0, "Tract2010": "0314", "XCoord": 986642, "YCoord": 151570, "ZoneMap": "28c", "ZMCode": "Y", "Sanborn": "312 059", "TaxMap": "32102", "EDesigNum": null, "APPBBL": 0.0, "APPDate": null, "PLUTOMapID": "1", "FIRM07_FLA": "1", "PFIRM15_FL": "1", "Version": "25v4", "DCPEdited": "t", "Latitude": 40.5827004, "Longitude": -73.9913885, "Notes": null, "Shape_Leng": 0.0, "Shape_Area": 810998.68291600002 }, "geometry": { "type": "MultiPolygon", "coordinates": [ [ [ [ -73.995386348546234, 40.582332931013383 ], [ -73.995110065646855, 40.582472027989219 ], [ -73.995007673992774, 40.582449804015489 ], [ -73.995035952366564, 40.58245028409965 ], [ -73.995052756351086, 40.58244943117969 ], [ -73.995068440812432, 40.582447723602897 ], [ -73.995085244992268, 40.582444307789451 ], [ -73.995111014380996, 40.582435768439488 ], [ -73.995131181635628, 40.582428934358532 ], [ -73.995158069886784, 40.582415268351603 ], [ -73.995182718842727, 40.582401604914708 ], [ -73.995207365565079, 40.582385376744774 ], [ -73.995233135673175, 40.582366584893556 ], [ -73.99527234907697, 40.582336692901137 ], [ -73.995279070105951, 40.582330713733917 ], [ -73.995284673850065, 40.582324733596515 ], [ -73.995289155608532, 40.582317045125379 ], [ -73.99529363730359, 40.582310213096797 ], [ -73.995296998529085, 40.58229740147722 ], [ -73.995308202374488, 40.582287151326653 ], [ -73.995318286348024, 40.582277756567059 ], [ -73.995333971331078, 40.582266652924133 ], [ -73.995344056258574, 40.58226067297575 ], [ -73.995357500392089, 40.582252986725052 ], [ -73.995367686072527, 40.582248208242554 ], [ -73.995386348546234, 40.582332931013383 ] ] ], [ [ [ -73.99480976198619, 40.5825444049892 ], [ -73.99481972204147, 40.58252714808841 ], [ -73.9948264446096, 40.58251775321299 ], [ -73.994842130180444, 40.582502379383833 ], [ -73.994848853744244, 40.582495548314675 ], [ -73.99485669687148, 40.582490421987345 ], [ -73.994875742216848, 40.582480173167539 ], [ -73.994898150313716, 40.582470778183911 ], [ -73.994926159201242, 40.582461383457215 ], [ -73.994948565878076, 40.582454550432317 ], [ -73.994967611874884, 40.582451135575994 ], [ -73.994985538149635, 40.582449428115012 ], [ -73.995007050610198, 40.582449793445768 ], [ -73.99480976198619, 40.5825444049892 ] ] ], [ [ [ -73.992863309275592, 40.583477844638331 ], [ -73.992863803949703, 40.583476868925878 ], [ -73.992868008837235, 40.583444410769587 ], [ -73.992868011447314, 40.583420494690905 ], [ -73.992870253295294, 40.583409391439965 ], [ -73.992872496163159, 40.583399995471275 ], [ -73.992877911778976, 40.583389176120157 ], [ -73.992889303666047, 40.583380348966855 ], [ -73.992901627402603, 40.583373516615872 ], [ -73.992916191661351, 40.583366686161888 ], [ -73.992937479203547, 40.583359213195891 ], [ -73.992952042926063, 40.58335729065994 ], [ -73.992987894197014, 40.583359002056149 ], [ -73.9930562363744, 40.583361569248098 ], [ -73.993077523089354, 40.583360716897822 ], [ -73.993086485915057, 40.5833590082513 ], [ -73.993098810318202, 40.583356020210793 ], [ -73.99311290940237, 40.583347051899693 ], [ -73.993139149454649, 40.583294950195459 ], [ -73.993148112656385, 40.583277012373067 ], [ -73.993154836829618, 40.58326676399745 ], [ -73.993160999492048, 40.583260783998568 ], [ -73.993171082439702, 40.583253950558827 ], [ -73.993186207907343, 40.583246263746254 ], [ -73.993196290404896, 40.583243703234125 ], [ -73.993236622557546, 40.583236871644857 ], [ -73.993269113780258, 40.583235167179602 ], [ -73.993280318223597, 40.583234312337929 ], [ -73.993290400628069, 40.583232604663579 ], [ -73.993300485621049, 40.583229188704955 ], [ -73.99332513249243, 40.583218940481679 ], [ -73.993341938772232, 40.583209546301511 ], [ -73.993348661092838, 40.583205274611061 ], [ -73.993354263789001, 40.583200151012107 ], [ -73.993401323051941, 40.583153175437197 ], [ -73.993436056917062, 40.583119010792011 ], [ -73.993453984586111, 40.583104491804804 ], [ -73.993480872953043, 40.5830848458099 ], [ -73.993510004087284, 40.583067763750442 ], [ -73.993538013926326, 40.583053245341674 ], [ -73.993572745648436, 40.583039581921128 ], [ -73.993618680804516, 40.58302249896893 ], [ -73.993704949680406, 40.58299260930179 ], [ -73.99375200480273, 40.582972111630625 ], [ -73.993855081705021, 40.582924283503168 ], [ -73.99388645302254, 40.58290891151421 ], [ -73.993912222205921, 40.58289439205349 ], [ -73.993971602856192, 40.582855959187121 ], [ -73.994019779653428, 40.582825211754248 ], [ -73.994047789391686, 40.582810692300875 ], [ -73.994095965192727, 40.582790194549155 ], [ -73.994136300317322, 40.582773112845807 ], [ -73.994169910785189, 40.582760302950902 ], [ -73.994272114859399, 40.582725534808766 ], [ -73.994305475179999, 40.582714186178102 ], [ -73.994404067756932, 40.582679168169328 ], [ -73.99443655699676, 40.582668920944194 ], [ -73.994467927442997, 40.582662088466876 ], [ -73.994559796454411, 40.582645864807596 ], [ -73.994624667101945, 40.582633169016319 ], [ -73.992863309275592, 40.583477844638331 ] ] ], [ [ [ -73.989805086065189, 40.584944444364695 ], [ -73.989285753980525, 40.58461308943405 ], [ -73.989271781344357, 40.58460224497572 ], [ -73.98925448881127, 40.584588621128965 ], [ -73.98923585235984, 40.584573679648493 ], [ -73.989225068513448, 40.584564906616684 ], [ -73.989203673356073, 40.584547221937619 ], [ -73.989148916125785, 40.584500179705991 ], [ -73.98908285754824, 40.584439723059255 ], [ -73.989021769209415, 40.584379763057754 ], [ -73.988957175480522, 40.584311513407307 ], [ -73.988862059077192, 40.584190099216798 ], [ -73.988752691031365, 40.584040839446537 ], [ -73.988730720824506, 40.584009726021939 ], [ -73.988707891482264, 40.58397505814446 ], [ -73.988686571596403, 40.583940119351013 ], [ -73.988671413608657, 40.583913483914422 ], [ -73.98866012891213, 40.583892523130096 ], [ -73.988653064421214, 40.583878840824063 ], [ -73.988636699274551, 40.583845242528746 ], [ -73.98862806596658, 40.583826273068702 ], [ -73.988618435115271, 40.583803904004355 ], [ -73.988610845575664, 40.58378001961789 ], [ -73.988602935673043, 40.583751383973038 ], [ -73.988597087353611, 40.583726459681415 ], [ -73.988591723748797, 40.583698897756165 ], [ -73.988587624996896, 40.583672251801282 ], [ -73.988584326470715, 40.58364278184925 ], [ -73.988582432972791, 40.58361584347093 ], [ -73.988581599073413, 40.583574894816756 ], [ -73.988582581217102, 40.583544315026529 ], [ -73.98858443889219, 40.583518955554773 ], [ -73.988590165843121, 40.583473419483113 ], [ -73.988599143508949, 40.583427282129499 ], [ -73.988610303228128, 40.583384787621576 ], [ -73.988621944942935, 40.583348909285121 ], [ -73.98863658008689, 40.583310871860483 ], [ -73.988652692413879, 40.583274872412062 ], [ -73.988668716507306, 40.583243280997216 ], [ -73.988682058169019, 40.583219388850935 ], [ -73.989452830807679, 40.582032556911038 ], [ -73.98990619020627, 40.580725688017878 ], [ -73.991698863435275, 40.58112793395258 ], [ -73.991719945650772, 40.581155175396049 ], [ -73.99173450286915, 40.581201302116355 ], [ -73.991734497591523, 40.581243156582147 ], [ -73.991726649327148, 40.581297822146873 ], [ -73.991714323351175, 40.581315757855251 ], [ -73.991706478717717, 40.581331987365935 ], [ -73.991696393420455, 40.581357610064821 ], [ -73.991685185603359, 40.581396900804272 ], [ -73.991679579663625, 40.581418255421809 ], [ -73.991676218236577, 40.581437044556047 ], [ -73.99167621693519, 40.581447294270674 ], [ -73.991677895100338, 40.581457971871437 ], [ -73.991681255637559, 40.581465233947576 ], [ -73.991687042386857, 40.581470929306285 ], [ -73.991695818810612, 40.581474202467682 ], [ -73.991704781040042, 40.581475485416107 ], [ -73.991714303323988, 40.581474203843776 ], [ -73.991740071508673, 40.581466092925929 ], [ -73.991762480807466, 40.581457553156945 ], [ -73.991814015269767, 40.581437909370372 ], [ -73.991876754153608, 40.58143449914926 ], [ -73.991920440486666, 40.581478917003068 ], [ -73.991959643792768, 40.581529315734635 ], [ -73.991966359383682, 40.581589107306904 ], [ -73.991954028172998, 40.581649753862422 ], [ -73.991910326100054, 40.581731749494871 ], [ -73.991811728918734, 40.5818043468986 ], [ -73.991752350217652, 40.581824842029206 ], [ -73.991731623839001, 40.581834236524791 ], [ -73.991712014427037, 40.581856442864087 ], [ -73.991693525099848, 40.581893597935071 ], [ -73.991654853182268, 40.582058022244212 ], [ -73.991624593375491, 40.582145143712388 ], [ -73.99161002586186, 40.58217760104656 ], [ -73.991583131717476, 40.582222867291343 ], [ -73.99155735953758, 40.582258741263523 ], [ -73.991548395278912, 40.582273262392263 ], [ -73.991540550160622, 40.582292053022634 ], [ -73.991523738560872, 40.582342445877771 ], [ -73.991506928374264, 40.582380882489247 ], [ -73.99149011894157, 40.582414193319217 ], [ -73.991471070096566, 40.582447504813068 ], [ -73.991440816115627, 40.582486793231723 ], [ -73.991389272068915, 40.582544872897259 ], [ -73.991357899727674, 40.582582452837428 ], [ -73.991337729782288, 40.582607223714582 ], [ -73.991319801188581, 40.582634554973431 ], [ -73.991280579862064, 40.582701175302077 ], [ -73.991231276139786, 40.582777194370593 ], [ -73.991185331191616, 40.582854918369705 ], [ -73.991171884049095, 40.582879687990051 ], [ -73.991143868003917, 40.582936914884293 ], [ -73.991131539555965, 40.582960830822323 ], [ -73.991113611642746, 40.582990725857087 ], [ -73.991095681759489, 40.583018055239798 ], [ -73.991069910798927, 40.583049658846917 ], [ -73.991062066269237, 40.583062468981105 ], [ -73.991029567128265, 40.583123112977574 ], [ -73.991009396942417, 40.583155568862715 ], [ -73.991001554452382, 40.583170944640472 ], [ -73.990984740554524, 40.58322390122153 ], [ -73.990961203234349, 40.583297356682159 ], [ -73.990952239089864, 40.583317855381281 ], [ -73.990929827820864, 40.583352875800514 ], [ -73.990909654975226, 40.583387039952129 ], [ -73.990893967335609, 40.583410101073042 ], [ -73.990865953811166, 40.583445118261288 ], [ -73.990815530772338, 40.583502343237832 ], [ -73.990771831011045, 40.583549318950645 ], [ -73.990755022841441, 40.583568964225186 ], [ -73.990739334030025, 40.583590316117025 ], [ -73.990697874071515, 40.583650956514077 ], [ -73.990644087216623, 40.583721849174495 ], [ -73.990621673711104, 40.583754305722344 ], [ -73.990604865322979, 40.58378249248485 ], [ -73.990547712609398, 40.583890110818068 ], [ -73.990515213572763, 40.583951608347164 ], [ -73.990492800516691, 40.583988334203632 ], [ -73.990471510456089, 40.584018229686237 ], [ -73.99043453136288, 40.584062642117487 ], [ -73.990397552607874, 40.58410363972235 ], [ -73.99038298643093, 40.584120721324076 ], [ -73.990368418163428, 40.584143782466718 ], [ -73.990352728920911, 40.584174532174863 ], [ -73.990337039397588, 40.584207841088762 ], [ -73.990329192580376, 40.584234319377046 ], [ -73.990328070514494, 40.584242007944049 ], [ -73.990328069257757, 40.584250548449994 ], [ -73.990330310969412, 40.584259090071122 ], [ -73.990332550375953, 40.584267632694555 ], [ -73.990344868767565, 40.584300091261376 ], [ -73.99035942797731, 40.584330841735088 ], [ -73.990377350495052, 40.584359032285555 ], [ -73.99038183045424, 40.584368429620504 ], [ -73.990388549584779, 40.584388074181767 ], [ -73.990393027298467, 40.584412845245765 ], [ -73.990395265055511, 40.584441034445732 ], [ -73.990394140622058, 40.584464949506156 ], [ -73.990388534844442, 40.584488866021928 ], [ -73.990385171734047, 40.584499113604785 ], [ -73.990380689015012, 40.58450850933167 ], [ -73.990371722991924, 40.584523030365716 ], [ -73.99036051884714, 40.58453584200155 ], [ -73.99031009372473, 40.584590505619076 ], [ -73.990271994598046, 40.584634062375123 ], [ -73.990324657316165, 40.584600755754295 ], [ -73.990364994433179, 40.584575134871073 ], [ -73.990421018694491, 40.584534138910143 ], [ -73.990451272444531, 40.584514495671861 ], [ -73.990473681012048, 40.584502539585316 ], [ -73.990550990903472, 40.584469233114746 ], [ -73.990614854871367, 40.584441053081562 ], [ -73.990646226073508, 40.584428241269137 ], [ -73.990692164138963, 40.584411162250156 ], [ -73.990784038269965, 40.584382128927153 ], [ -73.990826613337461, 40.584365903175602 ], [ -73.990857984930003, 40.584350531178579 ], [ -73.990909525367485, 40.584323200893429 ], [ -73.99097002924529, 40.584289893693644 ], [ -73.990977871431312, 40.584287332358898 ], [ -73.990987956474783, 40.584284769364345 ], [ -73.991028289364706, 40.584278794073036 ], [ -73.991114558941618, 40.584264281840575 ], [ -73.991135847635874, 40.584260010602861 ], [ -73.991156015732159, 40.584254034499338 ], [ -73.991175061803332, 40.584246348262468 ], [ -73.991192988365128, 40.584237808251835 ], [ -73.991274781075703, 40.584188271557274 ], [ -73.991315117236738, 40.584166068750676 ], [ -73.991340887238096, 40.584153258990256 ], [ -73.991372258050987, 40.584142156185465 ], [ -73.991411471767634, 40.584130200292542 ], [ -73.991490115011914, 40.58411131696338 ], [ -73.991493260416235, 40.584110561655088 ], [ -73.991534714860279, 40.584098604972169 ], [ -73.991575050880485, 40.584085797184017 ], [ -73.991607542664994, 40.584072987035064 ], [ -73.991638912842376, 40.584056761057056 ], [ -73.991711742272869, 40.584008932584403 ], [ -73.991744233325434, 40.583992705824599 ], [ -73.991772243830553, 40.583979040694494 ], [ -73.991849554352967, 40.583950005442546 ], [ -73.991899972728362, 40.583926946724937 ], [ -73.991924622798578, 40.583913282231983 ], [ -73.99199632810712, 40.583868869146357 ], [ -73.992017617243235, 40.583859475482463 ], [ -73.992065794423056, 40.58383898033982 ], [ -73.992083723067353, 40.583830439268752 ], [ -73.992148705725697, 40.583790299544248 ], [ -73.992199126690139, 40.58376296868574 ], [ -73.992238341951818, 40.583745034808878 ], [ -73.992257387762194, 40.583738202994802 ], [ -73.992297720811834, 40.583727101397045 ], [ -73.992313407141808, 40.583721976706869 ], [ -73.99238735214935, 40.583692085421141 ], [ -73.992459059857893, 40.583663051132476 ], [ -73.99259238659107, 40.58360753844471 ], [ -73.992594062392428, 40.583606964553475 ], [ -73.989805086065189, 40.584944444364695 ] ] ] ] } }
]
}
