{
"type": "FeatureCollection",
"name": "pluto_St._John_Cemetery",
"crs": { "type": "name", "properties": { "name": "urn:ogc:def:crs:OGC:1.3:CRS84" } },
"features": [
{ "type": "Feature", "properties": { "Borough": "QN", "Block": 3071, "Lot": 1, "CD": 405, "BCT2020": "4065501", "BCTCB2020": "40655011000", "CT2010": "655.01", "CB2010": "1000", "SchoolDist": "24", "Council": 30, "ZipCode": 11379, "FireComp": "E319", "PolicePrct": 104, "HealthCent": 46, "HealthArea": 1822, "Sanitboro": "4", "SanitDistr": "05", "SanitSub": "5C", "Address": "80-01 METROPOLITAN AVENUE", "ZoneDist1": "R3-2", "ZoneDist2": null, "ZoneDist3": null, "ZoneDist4": null, "Overlay1": null, "Overlay2": null, "SPDist1": null, "SPDist2": null, "SPDist3": null, "LtdHeight": null, "SplitZone": "N", "BldgClass": "Z8", "LandUse": "09", "Easements": 0, "OwnerType": "X", "OwnerName": "ST JOHNS CEMETERY", "LotArea": 9150700, "BldgArea": 1000, "ComArea": 1000, "ResArea": 0, "OfficeArea": 0, "RetailArea": 0, "GarageArea": 0, "StrgeArea": 0, "FactryArea": 0, "OtherArea": 1000, "AreaSource": "2", "NumBldgs": 19, "NumFloors": 0.0, "UnitsRes": 0, "UnitsTotal": 0, "LotFront": 981.0, "LotDepth": 2663.0, "BldgFront": 0.0, "BldgDepth": 0.0, "Ext": "N", "ProxCode": "0", "IrrLotCode": "Y", "LotType": "3", "BsmtCode": "0", "AssessLand": 35207100.0, "AssessTot": 64599750.0, "ExemptTot": 64599750.0, "YearBuilt": 0, "YearAlter1": 2019, "YearAlter2": 2019, "HistDist": null, "Landmark": null, "BuiltFAR": 0.0, "ResidFAR": 0.75, "CommFAR": 0.0, "FacilFAR": 1.0, "BoroCode": 4, "BBL": 4030710000.9999995, "CondoNo": 0, "Tract2010": "065501", "XCoord": 1021312, "YCoord": 200069, "ZoneMap": "14b", "ZMCode": "Y", "Sanborn": "420 033", "TaxMap": "41603", "EDesigNum": null, "APPBBL": 0.0, "APPDate": null, "PLUTOMapID": "1", "FIRM07_FLA": null, "PFIRM15_FL": null, "Version": "25v4", "DCPEdited": null, "Latitude": 40.7157423, "Longitude": -73.8663061, "Notes": null, "Shape_Leng": 0.0, "Shape_Area": 6124782.9268899998 }, "geometry": { "type": "MultiPolygon", "coordinates": [ [ [ [ -73.865030022651766, 40.719439755809042 ], [ -73.864970636858075, 40.719377586876838 ], [ -73.864968537297855, 40.719378748797688 ], [ -73.863113246898905, 40.717457646875133 ], [ -73.861897091619781, 40.716325584178826 ], [ -73.860541187716834, 40.715055658173256 ], [ -73.860171441989635, 40.714706978201008 ], [ -73.860147380184259, 40.71466555874396 ], [ -73.860114121790318, 40.714603745049274 ], [ -73.86008269264012, 40.714539279775515 ], [ -73.860059527268675, 40.714486913994953 ], [ -73.86002322566577, 40.714393344561998 ], [ -73.859995075376943, 40.714306170596707 ], [ -73.859971623030049, 40.714216434971149 ], [ -73.859957955655531, 40.714150926874026 ], [ -73.859949566592675, 40.714101676758936 ], [ -73.859945368440492, 40.714072605809619 ], [ -73.859940719116835, 40.714034621120476 ], [ -73.859937050083104, 40.713997059943466 ], [ -73.859935108780789, 40.713971939681507 ], [ -73.85993306627438, 40.713936439955759 ], [ -73.859931737706944, 40.713896264726593 ], [ -73.859931427127322, 40.713863836948931 ], [ -73.859931756215801, 40.713833400149767 ], [ -73.85993265168733, 40.713803778892945 ], [ -73.85993572320298, 40.713750122112756 ], [ -73.859940429118296, 40.713698644753414 ], [ -73.859945979810647, 40.713653518842754 ], [ -73.859951791223821, 40.713614908394298 ], [ -73.85996033667989, 40.713567202524715 ], [ -73.859968668292368, 40.71352722913565 ], [ -73.859976990535657, 40.713491655608088 ], [ -73.859991557368673, 40.713436652082045 ], [ -73.860011410620032, 40.713372034029895 ], [ -73.860021111538629, 40.713343269968355 ], [ -73.861976657518866, 40.71237622510403 ], [ -73.862100422564794, 40.712315020900796 ], [ -73.869605001136335, 40.713406537461537 ], [ -73.871494707774019, 40.713482198848347 ], [ -73.871549474043618, 40.714247020309436 ], [ -73.871907171653064, 40.71585118846545 ], [ -73.871935688102795, 40.716158237481771 ], [ -73.871945873156065, 40.71626790116968 ], [ -73.87195336474889, 40.71634857275216 ], [ -73.871976895806782, 40.716601928593533 ], [ -73.872079883929302, 40.716991820028703 ], [ -73.872213790020211, 40.717723047034077 ], [ -73.872215169787054, 40.717730577673727 ], [ -73.870353164319454, 40.718121264415494 ], [ -73.866726474851845, 40.719710709396807 ], [ -73.866708222845645, 40.719692511425301 ], [ -73.8656639040626, 40.720106698761384 ], [ -73.865393966574459, 40.719822684660727 ], [ -73.86526545736335, 40.719687471262681 ], [ -73.865030022651766, 40.719439755809042 ] ] ] ] } },
{ "type": "Feature", "properties": { "Borough": "QN", "Block": 3072, "Lot": 1, "CD": 405, "BCT2020": "4065501", "BCTCB2020": "40655011001", "CT2010": "655.01", "CB2010": "1001", "SchoolDist": "24", "Council": 30, "ZipCode": 11379, "FireComp": "E319", "PolicePrct": 104, "HealthCent": 46, "HealthArea": 1822, "Sanitboro": "4", "SanitDistr": "05", "SanitSub": "4D", "Address": "80-01A METROPOLITAN AVENUE", "ZoneDist1": "R3-2", "ZoneDist2": null, "ZoneDist3": null, "ZoneDist4": null, "Overlay1": null, "Overlay2": null, "SPDist1": null, "SPDist2": null, "SPDist3": null, "LtdHeight": null, "SplitZone": "N", "BldgClass": "Z8", "LandUse": "09", "Easements": 0, "OwnerType": "X", "OwnerName": "ST JOHNS CEMETERY", "LotArea": 2748800, "BldgArea": 0, "ComArea": 0, "ResArea": 0, "OfficeArea": 0, "RetailArea": 0, "GarageArea": 0, "StrgeArea": 0, "FactryArea": 0, "OtherArea": 0, "AreaSource": "7", "NumBldgs": 1, "NumFloors": 0.0, "UnitsRes": 0, "UnitsTotal": 0, "LotFront": 1412.0, "LotDepth": 2532.0, "BldgFront": 0.0, "BldgDepth": 0.0, "Ext": "N", "ProxCode": "0", "IrrLotCode": "Y", "LotType": "3", "BsmtCode": "0", "AssessLand": 13136400.0, "AssessTot": 19332450.0, "ExemptTot": 19332450.0, "YearBuilt": 0, "YearAlter1": 0, "YearAlter2": 0, "HistDist": null, "Landmark": null, "BuiltFAR": 0.0, "ResidFAR": 0.75, "CommFAR": 0.0, "FacilFAR": 1.0, "BoroCode": 4, "BBL": 4030720001.0, "CondoNo": 0, "Tract2010": "065501", "XCoord": 1020884, "YCoord": 198570, "ZoneMap": "13d", "ZMCode": "Y", "Sanborn": "403 091", "TaxMap": "41603", "EDesigNum": null, "APPBBL": 0.0, "APPDate": null, "PLUTOMapID": "1", "FIRM07_FLA": null, "PFIRM15_FL": null, "Version": "25v4", "DCPEdited": null, "Latitude": 40.7116296, "Longitude": -73.8678581, "Notes": null, "Shape_Leng": 0.0, "Shape_Area": 1878813.5912299999 }, "geometry": { "type": "MultiPolygon", "coordinates": [ [ [ [ -73.862414376844711, 40.712152422517313 ], [ -73.862470007982239, 40.712124714610937 ], [ -73.864925901111036, 40.710901478528136 ], [ -73.866227608743358, 40.710619305220092 ], [ -73.869552635432356, 40.709582975280789 ], [ -73.869847422846533, 40.709495106143372 ], [ -73.870040879882168, 40.70947769385527 ], [ -73.870104558399632, 40.709748614298825 ], [ -73.870298498991161, 40.710201494877957 ], [ -73.870901006439752, 40.711462352194488 ], [ -73.871319762544388, 40.712325599082249 ], [ -73.871436127518734, 40.712948408013887 ], [ -73.871412113493932, 40.713195235344799 ], [ -73.869689130948387, 40.713210364807452 ], [ -73.862414376844711, 40.712152422517313 ] ] ] ] } }
]
}
