{
"type": "FeatureCollection",
"name": "pluto_The_Evergreens_Cemetery",
"crs": { "type": "name", "properties": { "name": "urn:ogc:def:crs:OGC:1.3:CRS84" } },
"features": [
{ "type": "Feature", "properties": { "Borough": "BK", "Block": 3448, "Lot": 1, "CD": 304, "BCT2020": "3040900", "BCTCB2020": "30409001004", "CT2010": "409", "CB2010": "1004", "SchoolDist": "32", "Council": 37, "ZipCode": 11207, "FireComp": "E233", "PolicePrct": 83, "HealthCent": 34, "HealthArea": 3500, "Sanitboro": "3", "SanitDistr": "04", "SanitSub": "3B", "Address": "WILSON AVENUE", "ZoneDist1": "M1-1", "ZoneDist2": null, "ZoneDist3": null, "ZoneDist4": null, "Overlay1": null, "Overlay2": null, "SPDist1": null, "SPDist2": null, "SPDist3": null, "LtdHeight": null, "SplitZone": "N", "BldgClass": "U0", "LandUse": "07", "Easements": 0, "OwnerType": "X", "OwnerName": "UNAVAILABLE OWNER", "LotArea": 174000, "BldgArea": 0, "ComArea": 0, "ResArea": 0, "OfficeArea": 0, "RetailArea": 0, "GarageArea": 0, "StrgeArea": 0, "FactryArea": 0, "OtherArea": 0, "AreaSource": "7", "NumBldgs": 0, "NumFloors": 0.0, "UnitsRes": 0, "UnitsTotal": 0, "LotFront": 130.0, "LotDepth": 1066.0, "BldgFront": 0.0, "BldgDepth": 0.0, "Ext": null, "ProxCode": "0", "IrrLotCode": "Y", "LotType": "6", "BsmtCode": "5", "AssessLand": 0.0, "AssessTot": 0.0, "ExemptTot": 0.0, "YearBuilt": 0, "YearAlter1": 0, "YearAlter2": 0, "HistDist": null, "Landmark": null, "BuiltFAR": 0.0, "ResidFAR": 0.0, "CommFAR": 1.0, "FacilFAR": 2.4, "BoroCode": 3, "BBL": 3034480001.0, "CondoNo": 0, "Tract2010": "0409", "XCoord": 1011152, "YCoord": 190757, "ZoneMap": "17c", "ZMCode": null, "Sanborn": "309 022", "TaxMap": "31109", "EDesigNum": null, "APPBBL": 0.0, "APPDate": null, "PLUTOMapID": "1", "FIRM07_FLA": null, "PFIRM15_FL": null, "Version": "25v4", "DCPEdited": null, "Latitude": 40.6902197, "Longitude": -73.9029934, "Notes": null, "Shape_Leng": 0.0, "Shape_Area": 191051.62912100001 }, "geometry": { "type": "MultiPolygon", "coordinates": [ [ [ [ -73.901358656399992, 40.691569446586051 ], [ -73.901890220150989, 40.691035136958554 ], [ -73.901897216871234, 40.691049488984582 ], [ -73.90224930816855, 40.690689507577645 ], [ -73.902366951084062, 40.690573024618928 ], [ -73.902657457538695, 40.690302209696831 ], [ -73.902752567248172, 40.690208159681262 ], [ -73.902857284930789, 40.690087629984163 ], [ -73.902917504494852, 40.690019937152272 ], [ -73.902918187044861, 40.690019169556123 ], [ -73.903250228053267, 40.689643737897725 ], [ -73.903743222279772, 40.689068198543708 ], [ -73.903796113284812, 40.689004029083648 ], [ -73.90417051889527, 40.68854785329075 ], [ -73.904229418949967, 40.688483526590126 ], [ -73.904349622371697, 40.688550994109896 ], [ -73.904334602166401, 40.688567924734478 ], [ -73.904286909936204, 40.688621681597013 ], [ -73.904594006326761, 40.688794044871877 ], [ -73.904427420788977, 40.688964027657462 ], [ -73.904373519145068, 40.689019030198466 ], [ -73.904317192285518, 40.689076505376363 ], [ -73.904102747889084, 40.689295320383174 ], [ -73.904166538325697, 40.689331124846092 ], [ -73.903630188516715, 40.689883100143696 ], [ -73.903408882425211, 40.690110851077158 ], [ -73.903293525963406, 40.690225347829433 ], [ -73.903227421588738, 40.690290959356965 ], [ -73.903188579522975, 40.690329511773072 ], [ -73.902976442700904, 40.690561254435913 ], [ -73.90280016486534, 40.690751094642394 ], [ -73.902792971427573, 40.690758680762606 ], [ -73.902654773277931, 40.690904344983345 ], [ -73.902516408074845, 40.691053871173779 ], [ -73.902356330327905, 40.691228607539671 ], [ -73.902153984713479, 40.691484614988653 ], [ -73.902082346485201, 40.691573178797462 ], [ -73.902030156859269, 40.691645500366285 ], [ -73.901990092386768, 40.691708123852983 ], [ -73.90194657252907, 40.691792941058303 ], [ -73.901875752984424, 40.691755872204403 ], [ -73.901871610074949, 40.691783044328581 ], [ -73.901868253025128, 40.691812455801504 ], [ -73.90186494973743, 40.691841407184199 ], [ -73.901863463724894, 40.691857526908002 ], [ -73.901459723227774, 40.691627121983373 ], [ -73.901358656399992, 40.691569446586051 ] ] ] ] } },
{ "type": "Feature", "properties": { "Borough": "BK", "Block": 3448, "Lot": 155, "CD": 304, "BCT2020": "3040700", "BCTCB2020": "30407001000", "CT2010": "407", "CB2010": "1000", "SchoolDist": "19", "Council": 37, "ZipCode": 11207, "FireComp": "E233", "PolicePrct": 83, "HealthCent": 34, "HealthArea": 3820, "Sanitboro": "3", "SanitDistr": "04", "SanitSub": "3B", "Address": "312A MOFFAT STREET", "ZoneDist1": "R3-2", "ZoneDist2": "M1-1", "ZoneDist3": null, "ZoneDist4": null, "Overlay1": null, "Overlay2": null, "SPDist1": null, "SPDist2": null, "SPDist3": null, "LtdHeight": null, "SplitZone": "Y", "BldgClass": "V1", "LandUse": "11", "Easements": 0, "OwnerType": "C", "OwnerName": "NYC TRANSIT AUTHORITY", "LotArea": 1689, "BldgArea": 0, "ComArea": 0, "ResArea": 0, "OfficeArea": 0, "RetailArea": 0, "GarageArea": 0, "StrgeArea": 0, "FactryArea": 0, "OtherArea": 0, "AreaSource": "7", "NumBldgs": 0, "NumFloors": 0.0, "UnitsRes": 0, "UnitsTotal": 0, "LotFront": 11.0, "LotDepth": 307.0, "BldgFront": 0.0, "BldgDepth": 0.0, "Ext": null, "ProxCode": "0", "IrrLotCode": "Y", "LotType": "6", "BsmtCode": "5", "AssessLand": 38700.0, "AssessTot": 38700.0, "ExemptTot": 38700.0, "YearBuilt": 0, "YearAlter1": 0, "YearAlter2": 0, "HistDist": null, "Landmark": null, "BuiltFAR": 0.0, "ResidFAR": 0.75, "CommFAR": 0.0, "FacilFAR": 1.0, "BoroCode": 3, "BBL": 3034480154.9999995, "CondoNo": 0, "Tract2010": "0407", "XCoord": 1011384, "YCoord": 190959, "ZoneMap": "17c", "ZMCode": null, "Sanborn": "309 022", "TaxMap": "31109", "EDesigNum": null, "APPBBL": 0.0, "APPDate": null, "PLUTOMapID": "1", "FIRM07_FLA": null, "PFIRM15_FL": null, "Version": "25v4", "DCPEdited": "t", "Latitude": 40.6907735, "Longitude": -73.9021561, "Notes": null, "Shape_Leng": 0.0, "Shape_Area": 1844.7960161000001 }, "geometry": { "type": "MultiPolygon", "coordinates": [ [ [ [ -73.901890220150989, 40.691035136958554 ], [ -73.901881843399224, 40.691017952510407 ], [ -73.902064793073933, 40.690842034178942 ], [ -73.902192065045327, 40.690721015579733 ], [ -73.902315564186381, 40.690602886951559 ], [ -73.902358811657507, 40.690561022849522 ], [ -73.902387989700273, 40.690534018804129 ], [ -73.902657457538695, 40.690302209696831 ], [ -73.902366951084062, 40.690573024618928 ], [ -73.90224930816855, 40.690689507577645 ], [ -73.901897216871234, 40.691049488984582 ], [ -73.901890220150989, 40.691035136958554 ] ] ] ] } },
{ "type": "Feature", "properties": { "Borough": "BK", "Block": 3469, "Lot": 27, "CD": 304, "BCT2020": "3040500", "BCTCB2020": "30405001000", "CT2010": "405", "CB2010": "1002", "SchoolDist": "32", "Council": 37, "ZipCode": 11207, "FireComp": "E233", "PolicePrct": 83, "HealthCent": 34, "HealthArea": 3810, "Sanitboro": "3", "SanitDistr": "04", "SanitSub": "3A", "Address": "92 ABERDEEN STREET", "ZoneDist1": "R6", "ZoneDist2": null, "ZoneDist3": null, "ZoneDist4": null, "Overlay1": null, "Overlay2": null, "SPDist1": null, "SPDist2": null, "SPDist3": null, "LtdHeight": null, "SplitZone": "N", "BldgClass": "A9", "LandUse": "01", "Easements": 0, "OwnerType": null, "OwnerName": "W WILKINS", "LotArea": 1908, "BldgArea": 1718, "ComArea": 0, "ResArea": 1718, "OfficeArea": 0, "RetailArea": 0, "GarageArea": 0, "StrgeArea": 0, "FactryArea": 0, "OtherArea": 0, "AreaSource": "2", "NumBldgs": 1, "NumFloors": 2.0, "UnitsRes": 1, "UnitsTotal": 1, "LotFront": 19.08, "LotDepth": 100.0, "BldgFront": 19.08, "BldgDepth": 45.0, "Ext": "N", "ProxCode": "2", "IrrLotCode": "N", "LotType": "5", "BsmtCode": "2", "AssessLand": 6120.0, "AssessTot": 65280.0, "ExemptTot": 0.0, "YearBuilt": 1905, "YearAlter1": 0, "YearAlter2": 0, "HistDist": null, "Landmark": null, "BuiltFAR": 0.9, "ResidFAR": 2.43, "CommFAR": 0.0, "FacilFAR": 4.8, "BoroCode": 3, "BBL": 3034690027.0, "CondoNo": 0, "Tract2010": "0405", "XCoord": 1010755, "YCoord": 188209, "ZoneMap": "17c", "ZMCode": null, "Sanborn": "305 073", "TaxMap": "31109", "EDesigNum": null, "APPBBL": 0.0, "APPDate": null, "PLUTOMapID": "1", "FIRM07_FLA": null, "PFIRM15_FL": null, "Version": "25v4", "DCPEdited": null, "Latitude": 40.6832273, "Longitude": -73.904435, "Notes": null, "Shape_Leng": 0.0, "Shape_Area": 1974.1658699 }, "geometry": { "type": "MultiPolygon", "coordinates": [ [ [ [ -73.904267228774145, 40.683163885565435 ], [ -73.904307903494782, 40.683122598492425 ], [ -73.904597533577956, 40.683286849914012 ], [ -73.904553087854765, 40.683332171840327 ], [ -73.904267228774145, 40.683163885565435 ] ] ] ] } },
{ "type": "Feature", "properties": { "Borough": "BK", "Block": 3469, "Lot": 30, "CD": 304, "BCT2020": "3040500", "BCTCB2020": "30405001000", "CT2010": "405", "CB2010": "1002", "SchoolDist": "32", "Council": 37, "ZipCode": 11207, "FireComp": "E233", "PolicePrct": 83, "HealthCent": 34, "HealthArea": 3810, "Sanitboro": "3", "SanitDistr": "04", "SanitSub": "3A", "Address": "91 DE SALES PLACE", "ZoneDist1": "R6", "ZoneDist2": null, "ZoneDist3": null, "ZoneDist4": null, "Overlay1": null, "Overlay2": null, "SPDist1": null, "SPDist2": null, "SPDist3": null, "LtdHeight": null, "SplitZone": "N", "BldgClass": "C1", "LandUse": "02", "Easements": 0, "OwnerType": null, "OwnerName": "NACHLOS YEHUDA LLC", "LotArea": 3033, "BldgArea": 7071, "ComArea": 0, "ResArea": 7071, "OfficeArea": 0, "RetailArea": 0, "GarageArea": 0, "StrgeArea": 0, "FactryArea": 0, "OtherArea": 0, "AreaSource": "2", "NumBldgs": 1, "NumFloors": 0.0, "UnitsRes": 10, "UnitsTotal": 10, "LotFront": 30.33, "LotDepth": 100.0, "BldgFront": 30.0, "BldgDepth": 60.0, "Ext": null, "ProxCode": "0", "IrrLotCode": "N", "LotType": "3", "BsmtCode": "5", "AssessLand": 99450.0, "AssessTot": 746100.0, "ExemptTot": 729162.0, "YearBuilt": 2023, "YearAlter1": 0, "YearAlter2": 0, "HistDist": null, "Landmark": null, "BuiltFAR": 2.33, "ResidFAR": 2.43, "CommFAR": 0.0, "FacilFAR": 4.8, "BoroCode": 3, "BBL": 3034690030.0, "CondoNo": 0, "Tract2010": "0405", "XCoord": 1010832, "YCoord": 188143, "ZoneMap": "17c", "ZMCode": null, "Sanborn": "305 073", "TaxMap": "31109", "EDesigNum": null, "APPBBL": 0.0, "APPDate": null, "PLUTOMapID": "1", "FIRM07_FLA": null, "PFIRM15_FL": null, "Version": "25v4", "DCPEdited": null, "Latitude": 40.6830459, "Longitude": -73.9041576, "Notes": null, "Shape_Leng": 0.0, "Shape_Area": 3142.7280884000002 }, "geometry": { "type": "MultiPolygon", "coordinates": [ [ [ [ -73.904043218420199, 40.682927597506264 ], [ -73.904336276952961, 40.683093794890851 ], [ -73.904307903494782, 40.683122598492425 ], [ -73.904267228774145, 40.683163885565435 ], [ -73.903978114910188, 40.682993681360472 ], [ -73.904043218420199, 40.682927597506264 ] ] ] ] } },
{ "type": "Feature", "properties": { "Borough": "BK", "Block": 3475, "Lot": 1, "CD": 304, "BCT2020": "3040700", "BCTCB2020": "30407001000", "CT2010": "405", "CB2010": "1000", "SchoolDist": "23", "Council": 37, "ZipCode": 11207, "FireComp": "E233", "PolicePrct": 83, "HealthCent": 34, "HealthArea": 3820, "Sanitboro": "3", "SanitDistr": "04", "SanitSub": "3A", "Address": "1629 BUSHWICK AVENUE", "ZoneDist1": "R3-2", "ZoneDist2": null, "ZoneDist3": null, "ZoneDist4": null, "Overlay1": null, "Overlay2": null, "SPDist1": null, "SPDist2": null, "SPDist3": null, "LtdHeight": null, "SplitZone": "N", "BldgClass": "Z8", "LandUse": "09", "Easements": 0, "OwnerType": "X", "OwnerName": "CEMETERY OF THE EVERGREENS", "LotArea": 4460706, "BldgArea": 3000, "ComArea": 3000, "ResArea": 0, "OfficeArea": 0, "RetailArea": 0, "GarageArea": 0, "StrgeArea": 0, "FactryArea": 0, "OtherArea": 3000, "AreaSource": "2", "NumBldgs": 7, "NumFloors": 2.0, "UnitsRes": 0, "UnitsTotal": 0, "LotFront": 3500.0, "LotDepth": 2400.0, "BldgFront": 30.0, "BldgDepth": 50.0, "Ext": "N", "ProxCode": "0", "IrrLotCode": "Y", "LotType": "5", "BsmtCode": "0", "AssessLand": 3552750.0, "AssessTot": 5337450.0, "ExemptTot": 5337450.0, "YearBuilt": 0, "YearAlter1": 0, "YearAlter2": 0, "HistDist": null, "Landmark": null, "BuiltFAR": 0.0, "ResidFAR": 0.75, "CommFAR": 0.0, "FacilFAR": 1.0, "BoroCode": 3, "BBL": 3034750000.9999995, "CondoNo": 0, "Tract2010": "0405", "XCoord": 1011718, "YCoord": 188333, "ZoneMap": "17c", "ZMCode": null, "Sanborn": "309 022", "TaxMap": "31109", "EDesigNum": null, "APPBBL": 0.0, "APPDate": null, "PLUTOMapID": "1", "FIRM07_FLA": null, "PFIRM15_FL": null, "Version": "25v4", "DCPEdited": null, "Latitude": 40.6835647, "Longitude": -73.9009624, "Notes": null, "Shape_Leng": 0.0, "Shape_Area": 4460864.3232500004 }, "geometry": { "type": "MultiPolygon", "coordinates": [ [ [ [ -73.896617592840002, 40.682692422622246 ], [ -73.896652658490865, 40.682643216797651 ], [ -73.896771271214476, 40.682366754143203 ], [ -73.896864093877639, 40.682108295597104 ], [ -73.896934388043363, 40.681880233391965 ], [ -73.896968899129092, 40.681715662178625 ], [ -73.897005271831063, 40.68144407650324 ], [ -73.89702681181943, 40.6813302835115 ], [ -73.897057912802566, 40.681179882345944 ], [ -73.897090774256981, 40.681061344791601 ], [ -73.897135942702661, 40.680926410860629 ], [ -73.897173867723069, 40.680824704760226 ], [ -73.897226904248441, 40.680732745851031 ], [ -73.897343132139341, 40.680557039806047 ], [ -73.897604567434598, 40.680266437867814 ], [ -73.897732128069379, 40.68015438982529 ], [ -73.897905225248337, 40.680036044319159 ], [ -73.898115203157232, 40.679931673010394 ], [ -73.89834514088119, 40.679840625904667 ], [ -73.898565038442854, 40.679781888895427 ], [ -73.898733493769825, 40.679749288522977 ], [ -73.898948352220401, 40.679719061119975 ], [ -73.899070318010885, 40.679709461701812 ], [ -73.900090744738918, 40.679693097343765 ], [ -73.900617642337025, 40.679788573992781 ], [ -73.901693226007296, 40.680275056642955 ], [ -73.901684816569116, 40.680290572536826 ], [ -73.902893594123327, 40.681016056911119 ], [ -73.902862986216746, 40.681521956625126 ], [ -73.902850022799498, 40.681736212034757 ], [ -73.902837416644587, 40.681945441986663 ], [ -73.902828112711234, 40.682099869475167 ], [ -73.90282460193275, 40.682158140581066 ], [ -73.902821156814994, 40.682215317544028 ], [ -73.902817711579985, 40.682272495426496 ], [ -73.90281402387987, 40.682333684888022 ], [ -73.903060995895103, 40.682473575881133 ], [ -73.903230503857003, 40.682569588374641 ], [ -73.903523782544653, 40.682735708716102 ], [ -73.903815210473539, 40.68290077948825 ], [ -73.903978114910188, 40.682993681360472 ], [ -73.904267228774145, 40.683163885565435 ], [ -73.904553087854765, 40.683332171840327 ], [ -73.904707857265819, 40.6834232864461 ], [ -73.905300531104686, 40.683772190645058 ], [ -73.905461458706696, 40.68386904458584 ], [ -73.905687922083217, 40.684005342461013 ], [ -73.905703879249032, 40.68401494601234 ], [ -73.90570984556912, 40.684031914800052 ], [ -73.905681886478675, 40.684015576324029 ], [ -73.905655768903912, 40.684042031826515 ], [ -73.905712970758827, 40.684075459019517 ], [ -73.905716699658129, 40.684086064658366 ], [ -73.905693819365993, 40.684072694036772 ], [ -73.90565916183246, 40.684107801748617 ], [ -73.905704921224157, 40.684134544087541 ], [ -73.90570865012549, 40.684145149726582 ], [ -73.905677190101002, 40.684126764291968 ], [ -73.905642531210219, 40.684161871997489 ], [ -73.905711601191712, 40.684202235715809 ], [ -73.905718196834158, 40.684228426275467 ], [ -73.905613581649618, 40.684386960283476 ], [ -73.90547943414461, 40.684589495187346 ], [ -73.904851724455398, 40.685538726377523 ], [ -73.904655734591358, 40.685835100067109 ], [ -73.90463008828236, 40.685893540139169 ], [ -73.904615338508435, 40.685927000799538 ], [ -73.90457228252474, 40.686038963661517 ], [ -73.904535845441956, 40.686164738618821 ], [ -73.904540034041759, 40.686239257789502 ], [ -73.90467398171802, 40.686547683984429 ], [ -73.904747058787336, 40.686591568940486 ], [ -73.90319233957716, 40.687140441098755 ], [ -73.902868950367662, 40.686960095254946 ], [ -73.902120520973867, 40.687224304352384 ], [ -73.902126174570242, 40.687270944917159 ], [ -73.902127100100444, 40.687294857947592 ], [ -73.902124243313267, 40.687318080649462 ], [ -73.902120382445489, 40.687334721492348 ], [ -73.902113997405465, 40.687347851871351 ], [ -73.90210541733444, 40.687360627331074 ], [ -73.902098313615269, 40.687370176586164 ], [ -73.902069648335043, 40.687390451503759 ], [ -73.901938741148371, 40.687452948912814 ], [ -73.901150610735058, 40.687731453147556 ], [ -73.901222621196425, 40.687835778261778 ], [ -73.901005554661197, 40.687912403316311 ], [ -73.896617592840002, 40.682692422622246 ] ] ] ] } },
{ "type": "Feature", "properties": { "Borough": "BK", "Block": 3475, "Lot": 49, "CD": 304, "BCT2020": "3040700", "BCTCB2020": "30407001000", "CT2010": "407", "CB2010": "1000", "SchoolDist": "19", "Council": 37, "ZipCode": 11207, "FireComp": "E233", "PolicePrct": 83, "HealthCent": 34, "HealthArea": 3820, "Sanitboro": "3", "SanitDistr": "04", "SanitSub": "3B", "Address": "BUSHWICK AVENUE", "ZoneDist1": "R3-2", "ZoneDist2": null, "ZoneDist3": null, "ZoneDist4": null, "Overlay1": null, "Overlay2": null, "SPDist1": null, "SPDist2": null, "SPDist3": null, "LtdHeight": null, "SplitZone": "N", "BldgClass": "Z8", "LandUse": "09", "Easements": 0, "OwnerType": "X", "OwnerName": "CEMETERY OF THE EVERGREENS", "LotArea": 39556, "BldgArea": 0, "ComArea": 0, "ResArea": 0, "OfficeArea": 0, "RetailArea": 0, "GarageArea": 0, "StrgeArea": 0, "FactryArea": 0, "OtherArea": 0, "AreaSource": "7", "NumBldgs": 0, "NumFloors": 0.0, "UnitsRes": 0, "UnitsTotal": 0, "LotFront": 625.5, "LotDepth": 118.0, "BldgFront": 0.0, "BldgDepth": 0.0, "Ext": "N", "ProxCode": "0", "IrrLotCode": "Y", "LotType": "6", "BsmtCode": "0", "AssessLand": 32445.0, "AssessTot": 32445.0, "ExemptTot": 32445.0, "YearBuilt": 0, "YearAlter1": 0, "YearAlter2": 0, "HistDist": null, "Landmark": null, "BuiltFAR": 0.0, "ResidFAR": 0.75, "CommFAR": 0.0, "FacilFAR": 1.0, "BoroCode": 3, "BBL": 3034750049.0, "CondoNo": 0, "Tract2010": "0407", "XCoord": 1011348, "YCoord": 189709, "ZoneMap": "17c", "ZMCode": null, "Sanborn": "309 022", "TaxMap": "31109", "EDesigNum": null, "APPBBL": 0.0, "APPDate": null, "PLUTOMapID": "1", "FIRM07_FLA": null, "PFIRM15_FL": null, "Version": "25v4", "DCPEdited": null, "Latitude": 40.6873426, "Longitude": -73.9022909, "Notes": null, "Shape_Leng": 0.0, "Shape_Area": 39556.298877000001 }, "geometry": { "type": "MultiPolygon", "coordinates": [ [ [ [ -73.90210541733444, 40.687360627331074 ], [ -73.902113997405465, 40.687347851871351 ], [ -73.902120382445489, 40.687334721492348 ], [ -73.902124243313267, 40.687318080649462 ], [ -73.902127100100444, 40.687294857947592 ], [ -73.902126174570242, 40.687270944917159 ], [ -73.902120520973867, 40.687224304352384 ], [ -73.902868950367662, 40.686960095254946 ], [ -73.90319233957716, 40.687140441098755 ], [ -73.901222621196425, 40.687835778261778 ], [ -73.901150610735058, 40.687731453147556 ], [ -73.901938741148371, 40.687452948912814 ], [ -73.902069648335043, 40.687390451503759 ], [ -73.902098313615269, 40.687370176586164 ], [ -73.90210541733444, 40.687360627331074 ] ] ] ] } },
{ "type": "Feature", "properties": { "Borough": "BK", "Block": 3475, "Lot": 53, "CD": 304, "BCT2020": "3040300", "BCTCB2020": "30403001001", "CT2010": "403", "CB2010": "1001", "SchoolDist": "32", "Council": 37, "ZipCode": 11207, "FireComp": "E233", "PolicePrct": 83, "HealthCent": 34, "HealthArea": 3500, "Sanitboro": "3", "SanitDistr": "04", "SanitSub": "3A", "Address": "BUSHWICK AVENUE", "ZoneDist1": "R3-2", "ZoneDist2": "R6", "ZoneDist3": null, "ZoneDist4": null, "Overlay1": null, "Overlay2": null, "SPDist1": null, "SPDist2": null, "SPDist3": null, "LtdHeight": null, "SplitZone": "Y", "BldgClass": "U1", "LandUse": "07", "Easements": 0, "OwnerType": "C", "OwnerName": "CNY/NYCTA", "LotArea": 1298, "BldgArea": 0, "ComArea": 0, "ResArea": 0, "OfficeArea": 0, "RetailArea": 0, "GarageArea": 0, "StrgeArea": 0, "FactryArea": 0, "OtherArea": 0, "AreaSource": "7", "NumBldgs": 0, "NumFloors": 0.0, "UnitsRes": 0, "UnitsTotal": 0, "LotFront": 43.08, "LotDepth": 14.0, "BldgFront": 0.0, "BldgDepth": 0.0, "Ext": "N", "ProxCode": "0", "IrrLotCode": "Y", "LotType": "6", "BsmtCode": "0", "AssessLand": 0.0, "AssessTot": 0.0, "ExemptTot": 0.0, "YearBuilt": 0, "YearAlter1": 0, "YearAlter2": 0, "HistDist": null, "Landmark": null, "BuiltFAR": 0.0, "ResidFAR": 0.75, "CommFAR": 0.0, "FacilFAR": 1.0, "BoroCode": 3, "BBL": 3034750053.0000005, "CondoNo": 0, "Tract2010": "0403", "XCoord": 1010401, "YCoord": 188533, "ZoneMap": "17c", "ZMCode": null, "Sanborn": "309 022", "TaxMap": "31109", "EDesigNum": null, "APPBBL": 0.0, "APPDate": null, "PLUTOMapID": "1", "FIRM07_FLA": null, "PFIRM15_FL": null, "Version": "25v4", "DCPEdited": null, "Latitude": 40.6841176, "Longitude": -73.9057101, "Notes": null, "Shape_Leng": 0.0, "Shape_Area": 1359.8256265 }, "geometry": { "type": "MultiPolygon", "coordinates": [ [ [ [ -73.905703879249032, 40.68401494601234 ], [ -73.905739971355075, 40.684036037734224 ], [ -73.905759277081259, 40.684166302064213 ], [ -73.905718196834158, 40.684228426275467 ], [ -73.905711601191712, 40.684202235715809 ], [ -73.905642531210219, 40.684161871997489 ], [ -73.905677190101002, 40.684126764291968 ], [ -73.90570865012549, 40.684145149726582 ], [ -73.905704921224157, 40.684134544087541 ], [ -73.90565916183246, 40.684107801748617 ], [ -73.905693819365993, 40.684072694036772 ], [ -73.905716699658129, 40.684086064658366 ], [ -73.905712970758827, 40.684075459019517 ], [ -73.905655768903912, 40.684042031826515 ], [ -73.905681886478675, 40.684015576324029 ], [ -73.90570984556912, 40.684031914800052 ], [ -73.905703879249032, 40.68401494601234 ] ] ] ] } },
{ "type": "Feature", "properties": { "Borough": "BK", "Block": 3475, "Lot": 55, "CD": 304, "BCT2020": "3040300", "BCTCB2020": "30403001001", "CT2010": "403", "CB2010": "1001", "SchoolDist": "32", "Council": 37, "ZipCode": 11207, "FireComp": "E233", "PolicePrct": 83, "HealthCent": 34, "HealthArea": 3500, "Sanitboro": "3", "SanitDistr": "04", "SanitSub": "3A", "Address": "GRANITE STREET", "ZoneDist1": "M1-1", "ZoneDist2": null, "ZoneDist3": null, "ZoneDist4": null, "Overlay1": null, "Overlay2": null, "SPDist1": null, "SPDist2": null, "SPDist3": null, "LtdHeight": null, "SplitZone": "N", "BldgClass": "V1", "LandUse": "11", "Easements": 0, "OwnerType": null, "OwnerName": "CORASTOR HOLDING COINC", "LotArea": 13258, "BldgArea": 0, "ComArea": 0, "ResArea": 0, "OfficeArea": 0, "RetailArea": 0, "GarageArea": 0, "StrgeArea": 0, "FactryArea": 0, "OtherArea": 0, "AreaSource": "7", "NumBldgs": 0, "NumFloors": 0.0, "UnitsRes": 0, "UnitsTotal": 0, "LotFront": 42.08, "LotDepth": 223.0, "BldgFront": 0.0, "BldgDepth": 0.0, "Ext": null, "ProxCode": "0", "IrrLotCode": "Y", "LotType": "6", "BsmtCode": "5", "AssessLand": 355050.0, "AssessTot": 355050.0, "ExemptTot": 0.0, "YearBuilt": 0, "YearAlter1": 0, "YearAlter2": 0, "HistDist": null, "Landmark": null, "BuiltFAR": 0.0, "ResidFAR": 0.0, "CommFAR": 1.0, "FacilFAR": 2.4, "BoroCode": 3, "BBL": 3034750055.0, "CondoNo": 0, "Tract2010": "0403", "XCoord": 1010504, "YCoord": 188839, "ZoneMap": "17c", "ZMCode": null, "Sanborn": "309 022", "TaxMap": "31109", "EDesigNum": null, "APPBBL": 0.0, "APPDate": null, "PLUTOMapID": "1", "FIRM07_FLA": null, "PFIRM15_FL": null, "Version": "25v4", "DCPEdited": null, "Latitude": 40.6849572, "Longitude": -73.9053375, "Notes": null, "Shape_Leng": 0.0, "Shape_Area": 14382.028476199999 }, "geometry": { "type": "MultiPolygon", "coordinates": [ [ [ [ -73.90547943414461, 40.684589495187346 ], [ -73.905602824483353, 40.684658759670754 ], [ -73.905611143407029, 40.684663431179537 ], [ -73.905620573407603, 40.684668727625997 ], [ -73.905623743696523, 40.684796450900073 ], [ -73.904851724455398, 40.685538726377523 ], [ -73.90547943414461, 40.684589495187346 ] ] ] ] } },
{ "type": "Feature", "properties": { "Borough": "BK", "Block": 3475, "Lot": 60, "CD": 304, "BCT2020": "3041100", "BCTCB2020": "30411001002", "CT2010": "411", "CB2010": "1003", "SchoolDist": "32", "Council": 37, "ZipCode": 11207, "FireComp": "E233", "PolicePrct": 83, "HealthCent": 34, "HealthArea": 3500, "Sanitboro": "3", "SanitDistr": "04", "SanitSub": "3B", "Address": "CENTRAL AVENUE", "ZoneDist1": "M1-1", "ZoneDist2": null, "ZoneDist3": null, "ZoneDist4": null, "Overlay1": null, "Overlay2": null, "SPDist1": null, "SPDist2": null, "SPDist3": null, "LtdHeight": null, "SplitZone": "N", "BldgClass": "U0", "LandUse": "07", "Easements": 0, "OwnerType": "X", "OwnerName": "UNAVAILABLE OWNER", "LotArea": 45359, "BldgArea": 0, "ComArea": 0, "ResArea": 0, "OfficeArea": 0, "RetailArea": 0, "GarageArea": 0, "StrgeArea": 0, "FactryArea": 0, "OtherArea": 0, "AreaSource": "7", "NumBldgs": 0, "NumFloors": 0.0, "UnitsRes": 0, "UnitsTotal": 0, "LotFront": 94.0, "LotDepth": 643.0, "BldgFront": 0.0, "BldgDepth": 0.0, "Ext": null, "ProxCode": "0", "IrrLotCode": "Y", "LotType": "0", "BsmtCode": "5", "AssessLand": 0.0, "AssessTot": 0.0, "ExemptTot": 0.0, "YearBuilt": 0, "YearAlter1": 0, "YearAlter2": 0, "HistDist": null, "Landmark": null, "BuiltFAR": 0.0, "ResidFAR": 0.0, "CommFAR": 1.0, "FacilFAR": 2.4, "BoroCode": 3, "BBL": 3034750060.0, "CondoNo": 0, "Tract2010": "0411", "XCoord": 1010597, "YCoord": 189824, "ZoneMap": "17c", "ZMCode": null, "Sanborn": "300 000", "TaxMap": "31109", "EDesigNum": null, "APPBBL": 0.0, "APPDate": null, "PLUTOMapID": "1", "FIRM07_FLA": null, "PFIRM15_FL": null, "Version": "25v4", "DCPEdited": null, "Latitude": 40.6876605, "Longitude": -73.9049984, "Notes": null, "Shape_Leng": 0.0, "Shape_Area": 36897.147966999997 }, "geometry": { "type": "MultiPolygon", "coordinates": [ [ [ [ -73.904229418949967, 40.688483526590126 ], [ -73.904978684990695, 40.68760698994204 ], [ -73.905081977800251, 40.687484449825654 ], [ -73.905179167435449, 40.687216358276473 ], [ -73.905294204654808, 40.686898667620262 ], [ -73.905348344490804, 40.686929054149573 ], [ -73.905567267019649, 40.687051929229504 ], [ -73.905420594996741, 40.687201600716456 ], [ -73.905536650713174, 40.687244224727401 ], [ -73.904474501930679, 40.688410233486131 ], [ -73.904450357943347, 40.688437447640311 ], [ -73.904349622371697, 40.688550994109896 ], [ -73.904229418949967, 40.688483526590126 ] ] ] ] } },
{ "type": "Feature", "properties": { "Borough": "BK", "Block": 3475, "Lot": 62, "CD": 304, "BCT2020": "3040700", "BCTCB2020": "30407001000", "CT2010": "407", "CB2010": "1000", "SchoolDist": "19", "Council": 37, "ZipCode": 11207, "FireComp": "E233", "PolicePrct": 83, "HealthCent": 34, "HealthArea": 3820, "Sanitboro": "3", "SanitDistr": "04", "SanitSub": "3B", "Address": "CENTRAL AVENUE", "ZoneDist1": "R3-2", "ZoneDist2": null, "ZoneDist3": null, "ZoneDist4": null, "Overlay1": null, "Overlay2": null, "SPDist1": null, "SPDist2": null, "SPDist3": null, "LtdHeight": null, "SplitZone": "N", "BldgClass": "U0", "LandUse": "07", "Easements": 0, "OwnerType": "C", "OwnerName": "NYC TRANSIT AUTHORITY", "LotArea": 2900, "BldgArea": 0, "ComArea": 0, "ResArea": 0, "OfficeArea": 0, "RetailArea": 0, "GarageArea": 0, "StrgeArea": 0, "FactryArea": 0, "OtherArea": 0, "AreaSource": "7", "NumBldgs": 0, "NumFloors": 0.0, "UnitsRes": 0, "UnitsTotal": 0, "LotFront": 3.0, "LotDepth": 663.0, "BldgFront": 0.0, "BldgDepth": 0.0, "Ext": null, "ProxCode": "0", "IrrLotCode": "Y", "LotType": "5", "BsmtCode": "5", "AssessLand": 0.0, "AssessTot": 0.0, "ExemptTot": 0.0, "YearBuilt": 0, "YearAlter1": 0, "YearAlter2": 0, "HistDist": null, "Landmark": null, "BuiltFAR": 0.0, "ResidFAR": 0.75, "CommFAR": 0.0, "FacilFAR": 1.0, "BoroCode": 3, "BBL": 3034750062.0, "CondoNo": 0, "Tract2010": "0407", "XCoord": 1010900, "YCoord": 190266, "ZoneMap": "17c", "ZMCode": null, "Sanborn": "309 022", "TaxMap": "31109", "EDesigNum": null, "APPBBL": 0.0, "APPDate": null, "PLUTOMapID": "1", "FIRM07_FLA": null, "PFIRM15_FL": null, "Version": "25v4", "DCPEdited": "t", "Latitude": 40.6888728, "Longitude": -73.9039041, "Notes": null, "Shape_Leng": 0.0, "Shape_Area": 4042.1106002000001 }, "geometry": { "type": "MultiPolygon", "coordinates": [ [ [ [ -73.90528549298952, 40.686893778750324 ], [ -73.905294204654808, 40.686898667620262 ], [ -73.905179167435449, 40.687216358276473 ], [ -73.905125023309154, 40.687339238094076 ], [ -73.905093380769642, 40.687404718877644 ], [ -73.905053996048011, 40.687478938138398 ], [ -73.904978684990695, 40.68760698994204 ], [ -73.904229418949967, 40.688483526590126 ], [ -73.90417051889527, 40.68854785329075 ], [ -73.903796113284812, 40.689004029083648 ], [ -73.903743222279772, 40.689068198543708 ], [ -73.904213189297963, 40.68847441788462 ], [ -73.904565767251654, 40.688061250785189 ], [ -73.904728653250118, 40.687870646616631 ], [ -73.904947085254406, 40.68761834357759 ], [ -73.904981697894101, 40.687567327552671 ], [ -73.905006050110345, 40.687521507146833 ], [ -73.905059221557877, 40.687428973001772 ], [ -73.905132277301647, 40.687277816541361 ], [ -73.905205271604558, 40.687098093024929 ], [ -73.90528549298952, 40.686893778750324 ] ] ] ] } },
{ "type": "Feature", "properties": { "Borough": "BK", "Block": 3475, "Lot": 63, "CD": 304, "BCT2020": "3040700", "BCTCB2020": "30407001000", "CT2010": "407", "CB2010": "1000", "SchoolDist": "19", "Council": 37, "ZipCode": 11207, "FireComp": "E233", "PolicePrct": 83, "HealthCent": 34, "HealthArea": 3820, "Sanitboro": "3", "SanitDistr": "04", "SanitSub": "3A", "Address": "685 CENTRAL AVENUE", "ZoneDist1": "R3-2", "ZoneDist2": null, "ZoneDist3": null, "ZoneDist4": null, "Overlay1": null, "Overlay2": null, "SPDist1": null, "SPDist2": null, "SPDist3": null, "LtdHeight": null, "SplitZone": "N", "BldgClass": "Z8", "LandUse": "09", "Easements": 0, "OwnerType": "X", "OwnerName": "THE ROMAN CATHOLIC CHURCH OF THE MOST HOLY TRINITY", "LotArea": 984406, "BldgArea": 3000, "ComArea": 3000, "ResArea": 0, "OfficeArea": 0, "RetailArea": 0, "GarageArea": 0, "StrgeArea": 0, "FactryArea": 0, "OtherArea": 3000, "AreaSource": "2", "NumBldgs": 2, "NumFloors": 2.0, "UnitsRes": 0, "UnitsTotal": 0, "LotFront": 107.33, "LotDepth": 850.0, "BldgFront": 30.0, "BldgDepth": 50.0, "Ext": "N", "ProxCode": "0", "IrrLotCode": "N", "LotType": "5", "BsmtCode": "0", "AssessLand": 1741050.0, "AssessTot": 2063250.0, "ExemptTot": 2063250.0, "YearBuilt": 0, "YearAlter1": 0, "YearAlter2": 0, "HistDist": null, "Landmark": null, "BuiltFAR": 0.0, "ResidFAR": 0.75, "CommFAR": 0.0, "FacilFAR": 1.0, "BoroCode": 3, "BBL": 3034750063.0000005, "CondoNo": 0, "Tract2010": "0407", "XCoord": 1011220, "YCoord": 190140, "ZoneMap": "17c", "ZMCode": null, "Sanborn": "309 022", "TaxMap": "31109", "EDesigNum": null, "APPBBL": 0.0, "APPDate": null, "PLUTOMapID": "1", "FIRM07_FLA": null, "PFIRM15_FL": null, "Version": "25v4", "DCPEdited": null, "Latitude": 40.688526, "Longitude": -73.9027507, "Notes": null, "Shape_Leng": 0.0, "Shape_Area": 984423.23135100002 }, "geometry": { "type": "MultiPolygon", "coordinates": [ [ [ [ -73.900764109114192, 40.68799091060211 ], [ -73.901005554661197, 40.687912403316311 ], [ -73.901222621196425, 40.687835778261778 ], [ -73.90319233957716, 40.687140441098755 ], [ -73.904747058787336, 40.686591568940486 ], [ -73.90528549298952, 40.686893778750324 ], [ -73.905205271604558, 40.687098093024929 ], [ -73.905132277301647, 40.687277816541361 ], [ -73.905059221557877, 40.687428973001772 ], [ -73.905006050110345, 40.687521507146833 ], [ -73.904981697894101, 40.687567327552671 ], [ -73.904947085254406, 40.68761834357759 ], [ -73.904728653250118, 40.687870646616631 ], [ -73.904565767251654, 40.688061250785189 ], [ -73.904213189297963, 40.68847441788462 ], [ -73.903743222279772, 40.689068198543708 ], [ -73.903250228053267, 40.689643737897725 ], [ -73.902918187044861, 40.690019169556123 ], [ -73.902917504494852, 40.690019937152272 ], [ -73.902857284930789, 40.690087629984163 ], [ -73.902752567248172, 40.690208159681262 ], [ -73.902657457538695, 40.690302209696831 ], [ -73.902387989700273, 40.690534018804129 ], [ -73.902358811657507, 40.690561022849522 ], [ -73.902315564186381, 40.690602886951559 ], [ -73.902192065045327, 40.690721015579733 ], [ -73.902064793073933, 40.690842034178942 ], [ -73.901881843399224, 40.691017952510407 ], [ -73.900461648013035, 40.688104400798672 ], [ -73.900764109114192, 40.68799091060211 ] ] ] ] } },
{ "type": "Feature", "properties": { "Borough": "BK", "Block": 3462, "Lot": 51, "CD": 304, "BCT2020": "3040300", "BCTCB2020": "30403001004", "CT2010": "403", "CB2010": "1004", "SchoolDist": "32", "Council": 37, "ZipCode": 11207, "FireComp": "Q252", "PolicePrct": 83, "HealthCent": 34, "HealthArea": 3500, "Sanitboro": "3", "SanitDistr": "04", "SanitSub": "3A", "Address": "FURMAN AVENUE", "ZoneDist1": "PARK", "ZoneDist2": null, "ZoneDist3": null, "ZoneDist4": null, "Overlay1": null, "Overlay2": null, "SPDist1": null, "SPDist2": null, "SPDist3": null, "LtdHeight": null, "SplitZone": "N", "BldgClass": "Q0", "LandUse": "09", "Easements": 0, "OwnerType": "C", "OwnerName": "NYC DEPARTMENT OF PARKS AND RECREATION", "LotArea": 6256, "BldgArea": 0, "ComArea": 0, "ResArea": 0, "OfficeArea": 0, "RetailArea": 0, "GarageArea": 0, "StrgeArea": 0, "FactryArea": 0, "OtherArea": 0, "AreaSource": "7", "NumBldgs": 0, "NumFloors": 0.0, "UnitsRes": 0, "UnitsTotal": 0, "LotFront": 112.58, "LotDepth": 105.0, "BldgFront": 0.0, "BldgDepth": 0.0, "Ext": null, "ProxCode": "0", "IrrLotCode": "Y", "LotType": "6", "BsmtCode": "5", "AssessLand": 23340.0, "AssessTot": 23340.0, "ExemptTot": 23340.0, "YearBuilt": 0, "YearAlter1": 0, "YearAlter2": 0, "HistDist": null, "Landmark": null, "BuiltFAR": 0.0, "ResidFAR": 0.0, "CommFAR": 0.0, "FacilFAR": 0.0, "BoroCode": 3, "BBL": 3034620051.0, "CondoNo": 0, "Tract2010": "0403", "XCoord": 1010418, "YCoord": 188434, "ZoneMap": "17c", "ZMCode": null, "Sanborn": "305 066", "TaxMap": "31109", "EDesigNum": null, "APPBBL": 0.0, "APPDate": null, "PLUTOMapID": "1", "FIRM07_FLA": null, "PFIRM15_FL": null, "Version": "25v4", "DCPEdited": "t", "Latitude": 40.6838458, "Longitude": -73.9056492, "Notes": null, "Shape_Leng": 0.0, "Shape_Area": 6256.3031317000004 }, "geometry": { "type": "MultiPolygon", "coordinates": [ [ [ [ -73.905739971355075, 40.684036037734224 ], [ -73.905703879249032, 40.68401494601234 ], [ -73.905687922083217, 40.684005342461013 ], [ -73.905461458706696, 40.68386904458584 ], [ -73.905606510742885, 40.683722111887327 ], [ -73.905711447242339, 40.683615814154891 ], [ -73.905768213160599, 40.684052429552537 ], [ -73.905768228374399, 40.684052551124495 ], [ -73.905740189980961, 40.684036165831301 ], [ -73.905739971355075, 40.684036037734224 ] ] ] ] } },
{ "type": "Feature", "properties": { "Borough": "BK", "Block": 3458, "Lot": 32, "CD": 304, "BCT2020": "3040300", "BCTCB2020": "30403001001", "CT2010": "403", "CB2010": "1001", "SchoolDist": "32", "Council": 37, "ZipCode": 11207, "FireComp": "E233", "PolicePrct": 83, "HealthCent": 34, "HealthArea": 3500, "Sanitboro": "3", "SanitDistr": "04", "SanitSub": "3A", "Address": "162 PILLING STREET", "ZoneDist1": "M1-1", "ZoneDist2": null, "ZoneDist3": null, "ZoneDist4": null, "Overlay1": null, "Overlay2": null, "SPDist1": null, "SPDist2": null, "SPDist3": null, "LtdHeight": null, "SplitZone": "N", "BldgClass": "E1", "LandUse": "06", "Easements": 0, "OwnerType": null, "OwnerName": "CORASTOR HOLDING COINC", "LotArea": 84675, "BldgArea": 31800, "ComArea": 31800, "ResArea": 0, "OfficeArea": 0, "RetailArea": 0, "GarageArea": 0, "StrgeArea": 0, "FactryArea": 29000, "OtherArea": 2800, "AreaSource": "2", "NumBldgs": 1, "NumFloors": 1.0, "UnitsRes": 0, "UnitsTotal": 2, "LotFront": 189.33, "LotDepth": 200.0, "BldgFront": 200.0, "BldgDepth": 200.0, "Ext": "E", "ProxCode": "1", "IrrLotCode": "Y", "LotType": "5", "BsmtCode": "2", "AssessLand": 1122300.0, "AssessTot": 2895300.0, "ExemptTot": 0.0, "YearBuilt": 1959, "YearAlter1": 0, "YearAlter2": 0, "HistDist": null, "Landmark": null, "BuiltFAR": 0.38, "ResidFAR": 0.0, "CommFAR": 1.0, "FacilFAR": 2.4, "BoroCode": 3, "BBL": 3034580032.0, "CondoNo": 0, "Tract2010": "0403", "XCoord": 1010529, "YCoord": 189092, "ZoneMap": "17c", "ZMCode": null, "Sanborn": "309 022", "TaxMap": "31109", "EDesigNum": null, "APPBBL": 0.0, "APPDate": null, "PLUTOMapID": "1", "FIRM07_FLA": null, "PFIRM15_FL": null, "Version": "25v4", "DCPEdited": null, "Latitude": 40.6856516, "Longitude": -73.9052464, "Notes": null, "Shape_Leng": 0.0, "Shape_Area": 84074.328575699998 }, "geometry": { "type": "MultiPolygon", "coordinates": [ [ [ [ -73.905189155330774, 40.68625993090545 ], [ -73.904988406825623, 40.686143457454079 ], [ -73.90494539178313, 40.686118499250277 ], [ -73.904823085482448, 40.686047537498595 ], [ -73.904615338508435, 40.685927000799538 ], [ -73.90463008828236, 40.685893540139169 ], [ -73.904655734591358, 40.685835100067109 ], [ -73.904851724455398, 40.685538726377523 ], [ -73.905623743692743, 40.68479645357661 ], [ -73.905647371571931, 40.685748550297596 ], [ -73.905621775430205, 40.68579308755784 ], [ -73.90560276363837, 40.68583756722704 ], [ -73.905567675832842, 40.686008573706012 ], [ -73.905299855634041, 40.68626975590508 ], [ -73.905223588619279, 40.686225505661746 ], [ -73.905189155330774, 40.68625993090545 ] ] ] ] } },
{ "type": "Feature", "properties": { "Borough": "BK", "Block": 3458, "Lot": 42, "CD": 304, "BCT2020": "3040300", "BCTCB2020": "30403001001", "CT2010": "403", "CB2010": "1001", "SchoolDist": "32", "Council": 37, "ZipCode": 11207, "FireComp": "E233", "PolicePrct": 83, "HealthCent": 34, "HealthArea": 3500, "Sanitboro": "3", "SanitDistr": "04", "SanitSub": "3A", "Address": "742 CENTRAL AVENUE", "ZoneDist1": "M1-1", "ZoneDist2": null, "ZoneDist3": null, "ZoneDist4": null, "Overlay1": null, "Overlay2": null, "SPDist1": null, "SPDist2": null, "SPDist3": null, "LtdHeight": null, "SplitZone": "N", "BldgClass": "G7", "LandUse": "10", "Easements": 0, "OwnerType": null, "OwnerName": "CORASTOR HOLDING COINC", "LotArea": 5250, "BldgArea": 0, "ComArea": 0, "ResArea": 0, "OfficeArea": 0, "RetailArea": 0, "GarageArea": 0, "StrgeArea": 0, "FactryArea": 0, "OtherArea": 0, "AreaSource": "7", "NumBldgs": 2, "NumFloors": 0.0, "UnitsRes": 0, "UnitsTotal": 0, "LotFront": 20.0, "LotDepth": 100.0, "BldgFront": 0.0, "BldgDepth": 0.0, "Ext": null, "ProxCode": "0", "IrrLotCode": "Y", "LotType": "5", "BsmtCode": "5", "AssessLand": 97200.0, "AssessTot": 97200.0, "ExemptTot": 0.0, "YearBuilt": 0, "YearAlter1": 0, "YearAlter2": 0, "HistDist": null, "Landmark": null, "BuiltFAR": 0.0, "ResidFAR": 0.0, "CommFAR": 1.0, "FacilFAR": 2.4, "BoroCode": 3, "BBL": 3034580042.0, "CondoNo": 0, "Tract2010": "0403", "XCoord": 1010694, "YCoord": 189254, "ZoneMap": "17c", "ZMCode": null, "Sanborn": "309 022", "TaxMap": "31109", "EDesigNum": null, "APPBBL": 0.0, "APPDate": null, "PLUTOMapID": "1", "FIRM07_FLA": null, "PFIRM15_FL": null, "Version": "25v4", "DCPEdited": null, "Latitude": 40.6860957, "Longitude": -73.9046509, "Notes": null, "Shape_Leng": 0.0, "Shape_Area": 5191.8102399 }, "geometry": { "type": "MultiPolygon", "coordinates": [ [ [ [ -73.904540034041759, 40.686239257789502 ], [ -73.904535845441956, 40.686164738618821 ], [ -73.90457228252474, 40.686038963661517 ], [ -73.904615338508435, 40.685927000799538 ], [ -73.904823085482448, 40.686047537498595 ], [ -73.904597801333168, 40.686272773337997 ], [ -73.904540034041759, 40.686239257789502 ] ] ] ] } },
{ "type": "Feature", "properties": { "Borough": "BK", "Block": 3467, "Lot": 27, "CD": 304, "BCT2020": "3040500", "BCTCB2020": "30405001001", "CT2010": "405", "CB2010": "1000", "SchoolDist": "32", "Council": 37, "ZipCode": 11207, "FireComp": "E233", "PolicePrct": 83, "HealthCent": 34, "HealthArea": 3810, "Sanitboro": "3", "SanitDistr": "04", "SanitSub": "3A", "Address": "ABERDEEN STREET", "ZoneDist1": "R6", "ZoneDist2": null, "ZoneDist3": null, "ZoneDist4": null, "Overlay1": null, "Overlay2": null, "SPDist1": null, "SPDist2": null, "SPDist3": null, "LtdHeight": null, "SplitZone": "N", "BldgClass": "Q9", "LandUse": "09", "Easements": 0, "OwnerType": null, "OwnerName": "NEW YORK GARDEN TRUST INC", "LotArea": 10000, "BldgArea": 0, "ComArea": 0, "ResArea": 0, "OfficeArea": 0, "RetailArea": 0, "GarageArea": 0, "StrgeArea": 0, "FactryArea": 0, "OtherArea": 0, "AreaSource": "7", "NumBldgs": 0, "NumFloors": 0.0, "UnitsRes": 0, "UnitsTotal": 0, "LotFront": 48.17, "LotDepth": 200.0, "BldgFront": 0.0, "BldgDepth": 0.0, "Ext": null, "ProxCode": "0", "IrrLotCode": "Y", "LotType": "5", "BsmtCode": "5", "AssessLand": 225000.0, "AssessTot": 259200.0, "ExemptTot": 0.0, "YearBuilt": 0, "YearAlter1": 0, "YearAlter2": 0, "HistDist": null, "Landmark": null, "BuiltFAR": 0.0, "ResidFAR": 2.43, "CommFAR": 0.0, "FacilFAR": 4.8, "BoroCode": 3, "BBL": 3034670027.0, "CondoNo": 0, "Tract2010": "0405", "XCoord": 1010580, "YCoord": 188324, "ZoneMap": "17c", "ZMCode": null, "Sanborn": "305 066", "TaxMap": "31109", "EDesigNum": null, "APPBBL": 0.0, "APPDate": null, "PLUTOMapID": "1", "FIRM07_FLA": null, "PFIRM15_FL": null, "Version": "25v4", "DCPEdited": null, "Latitude": 40.6835434, "Longitude": -73.9050655, "Notes": null, "Shape_Leng": 0.0, "Shape_Area": 10438.8414908 }, "geometry": { "type": "MultiPolygon", "coordinates": [ [ [ [ -73.905300531104686, 40.683772190645058 ], [ -73.904707857265819, 40.6834232864461 ], [ -73.90481327505718, 40.683317779684131 ], [ -73.90541324308829, 40.683657087105601 ], [ -73.905300531104686, 40.683772190645058 ] ] ] ] } },
{ "type": "Feature", "properties": { "Borough": "BK", "Block": 3471, "Lot": 28, "CD": 304, "BCT2020": "3040500", "BCTCB2020": "30405001003", "CT2010": "405", "CB2010": "1003", "SchoolDist": "32", "Council": 37, "ZipCode": 11207, "FireComp": "E233", "PolicePrct": 83, "HealthCent": 34, "HealthArea": 3810, "Sanitboro": "3", "SanitDistr": "04", "SanitSub": "3A", "Address": "96 DE SALES PLACE", "ZoneDist1": "R6", "ZoneDist2": null, "ZoneDist3": null, "ZoneDist4": null, "Overlay1": null, "Overlay2": null, "SPDist1": null, "SPDist2": null, "SPDist3": null, "LtdHeight": null, "SplitZone": "N", "BldgClass": "C7", "LandUse": "04", "Easements": 0, "OwnerType": null, "OwnerName": "VANDERVEER REALTY LLC", "LotArea": 8367, "BldgArea": 13000, "ComArea": 800, "ResArea": 12200, "OfficeArea": 0, "RetailArea": 0, "GarageArea": 0, "StrgeArea": 0, "FactryArea": 0, "OtherArea": 800, "AreaSource": "2", "NumBldgs": 3, "NumFloors": 4.0, "UnitsRes": 22, "UnitsTotal": 23, "LotFront": 44.87, "LotDepth": 200.0, "BldgFront": 39.0, "BldgDepth": 37.0, "Ext": null, "ProxCode": "0", "IrrLotCode": "Y", "LotType": "4", "BsmtCode": "5", "AssessLand": 150750.0, "AssessTot": 849600.0, "ExemptTot": 0.0, "YearBuilt": 2014, "YearAlter1": 0, "YearAlter2": 0, "HistDist": null, "Landmark": null, "BuiltFAR": 1.55, "ResidFAR": 2.43, "CommFAR": 0.0, "FacilFAR": 4.8, "BoroCode": 3, "BBL": 3034710028.0, "CondoNo": 0, "Tract2010": "0405", "XCoord": 1010993, "YCoord": 188015, "ZoneMap": "17c", "ZMCode": null, "Sanborn": "305 073", "TaxMap": "31109", "EDesigNum": null, "APPBBL": 3034710028.0, "APPDate": "05/04/2012", "PLUTOMapID": "1", "FIRM07_FLA": null, "PFIRM15_FL": null, "Version": "25v4", "DCPEdited": null, "Latitude": 40.6826941, "Longitude": -73.9035777, "Notes": null, "Shape_Leng": 0.0, "Shape_Area": 8511.9600236000006 }, "geometry": { "type": "MultiPolygon", "coordinates": [ [ [ [ -73.903523782544653, 40.682735708716102 ], [ -73.903230503857003, 40.682569588374641 ], [ -73.90331505898898, 40.682482500629341 ], [ -73.903608240322285, 40.682648720732679 ], [ -73.903619770777212, 40.682636844556946 ], [ -73.903911597876203, 40.682802294489768 ], [ -73.903815210473539, 40.68290077948825 ], [ -73.903523782544653, 40.682735708716102 ] ] ] ] } },
{ "type": "Feature", "properties": { "Borough": "BK", "Block": 3473, "Lot": 40, "CD": 304, "BCT2020": "3040500", "BCTCB2020": "30405001004", "CT2010": "405", "CB2010": "1004", "SchoolDist": "23", "Council": 37, "ZipCode": 11207, "FireComp": "E233", "PolicePrct": 83, "HealthCent": 34, "HealthArea": 3810, "Sanitboro": "3", "SanitDistr": "04", "SanitSub": "3A", "Address": "75 STEWART STREET", "ZoneDist1": "R6", "ZoneDist2": null, "ZoneDist3": null, "ZoneDist4": null, "Overlay1": null, "Overlay2": null, "SPDist1": null, "SPDist2": null, "SPDist3": null, "LtdHeight": null, "SplitZone": "N", "BldgClass": "C3", "LandUse": "02", "Easements": 0, "OwnerType": null, "OwnerName": "ABC STEWART LLC", "LotArea": 9424, "BldgArea": 4565, "ComArea": 0, "ResArea": 4565, "OfficeArea": 0, "RetailArea": 0, "GarageArea": 0, "StrgeArea": 0, "FactryArea": 0, "OtherArea": 0, "AreaSource": "2", "NumBldgs": 3, "NumFloors": 2.0, "UnitsRes": 4, "UnitsTotal": 4, "LotFront": 20.58, "LotDepth": 100.0, "BldgFront": 17.0, "BldgDepth": 40.0, "Ext": "N", "ProxCode": "1", "IrrLotCode": "Y", "LotType": "5", "BsmtCode": "2", "AssessLand": 84600.0, "AssessTot": 347850.0, "ExemptTot": 0.0, "YearBuilt": 1905, "YearAlter1": 0, "YearAlter2": 0, "HistDist": null, "Landmark": null, "BuiltFAR": 0.48, "ResidFAR": 2.43, "CommFAR": 0.0, "FacilFAR": 4.8, "BoroCode": 3, "BBL": 3034730040.0, "CondoNo": 0, "Tract2010": "0405", "XCoord": 1011163, "YCoord": 187731, "ZoneMap": "17c", "ZMCode": null, "Sanborn": "305 073", "TaxMap": "31109", "EDesigNum": null, "APPBBL": 0.0, "APPDate": null, "PLUTOMapID": "1", "FIRM07_FLA": null, "PFIRM15_FL": null, "Version": "25v4", "DCPEdited": null, "Latitude": 40.681914, "Longitude": -73.9029659, "Notes": null, "Shape_Leng": 0.0, "Shape_Area": 9424.655439 }, "geometry": { "type": "MultiPolygon", "coordinates": [ [ [ [ -73.902828112711234, 40.682099869475167 ], [ -73.902837416644587, 40.681945441986663 ], [ -73.902850022799498, 40.681736212034757 ], [ -73.902890779632955, 40.681694613053345 ], [ -73.903193449545668, 40.681867074734932 ], [ -73.903179952108417, 40.681880484553218 ], [ -73.903140925694075, 40.681920608231849 ], [ -73.903105168886029, 40.681957369484913 ], [ -73.903064855890733, 40.681998816737753 ], [ -73.903028381075785, 40.682036317507681 ], [ -73.902989759611131, 40.682076024596014 ], [ -73.902955815214995, 40.682110923204853 ], [ -73.902917194875272, 40.682150628428055 ], [ -73.902828112711234, 40.682099869475167 ] ] ] ] } },
{ "type": "Feature", "properties": { "Borough": "BK", "Block": 3473, "Lot": 126, "CD": 304, "BCT2020": "3040500", "BCTCB2020": "30405001004", "CT2010": "405", "CB2010": "1004", "SchoolDist": "23", "Council": 37, "ZipCode": 11207, "FireComp": "E233", "PolicePrct": 83, "HealthCent": 34, "HealthArea": 3810, "Sanitboro": "3", "SanitDistr": "04", "SanitSub": "3A", "Address": "108 VANDERVEER STREET", "ZoneDist1": "R6", "ZoneDist2": null, "ZoneDist3": null, "ZoneDist4": null, "Overlay1": null, "Overlay2": null, "SPDist1": null, "SPDist2": null, "SPDist3": null, "LtdHeight": null, "SplitZone": "N", "BldgClass": "B1", "LandUse": "01", "Easements": 0, "OwnerType": null, "OwnerName": "HANS VARGAS", "LotArea": 2124, "BldgArea": 3087, "ComArea": 0, "ResArea": 3087, "OfficeArea": 0, "RetailArea": 0, "GarageArea": 0, "StrgeArea": 0, "FactryArea": 0, "OtherArea": 0, "AreaSource": "2", "NumBldgs": 1, "NumFloors": 3.0, "UnitsRes": 2, "UnitsTotal": 2, "LotFront": 17.58, "LotDepth": 126.76, "BldgFront": 17.0, "BldgDepth": 61.0, "Ext": "N", "ProxCode": "3", "IrrLotCode": "Y", "LotType": "5", "BsmtCode": "2", "AssessLand": 11940.0, "AssessTot": 77700.0, "ExemptTot": 0.0, "YearBuilt": 2001, "YearAlter1": 0, "YearAlter2": 0, "HistDist": null, "Landmark": null, "BuiltFAR": 1.45, "ResidFAR": 2.43, "CommFAR": 0.0, "FacilFAR": 4.8, "BoroCode": 3, "BBL": 3034730126.0, "CondoNo": 0, "Tract2010": "0405", "XCoord": 1011150, "YCoord": 187847, "ZoneMap": "17c", "ZMCode": null, "Sanborn": "305 073", "TaxMap": "31109", "EDesigNum": null, "APPBBL": 3034730027.0, "APPDate": "11/08/2007", "PLUTOMapID": "1", "FIRM07_FLA": null, "PFIRM15_FL": null, "Version": "25v4", "DCPEdited": null, "Latitude": 40.6822325, "Longitude": -73.9030123, "Notes": null, "Shape_Leng": 0.0, "Shape_Area": 2232.7729828000001 }, "geometry": { "type": "MultiPolygon", "coordinates": [ [ [ [ -73.90282460193275, 40.682158140581066 ], [ -73.902828112711234, 40.682099869475167 ], [ -73.902917194875272, 40.682150628428055 ], [ -73.903211825156447, 40.682318507677955 ], [ -73.903174106351088, 40.682357287120105 ], [ -73.90282460193275, 40.682158140581066 ] ] ] ] } },
{ "type": "Feature", "properties": { "Borough": "BK", "Block": 3473, "Lot": 127, "CD": 304, "BCT2020": "3040500", "BCTCB2020": "30405001004", "CT2010": "405", "CB2010": "1004", "SchoolDist": "23", "Council": 37, "ZipCode": 11207, "FireComp": "E233", "PolicePrct": 83, "HealthCent": 34, "HealthArea": 3810, "Sanitboro": "3", "SanitDistr": "04", "SanitSub": "3A", "Address": "110 VANDERVEER STREET", "ZoneDist1": "R6", "ZoneDist2": null, "ZoneDist3": null, "ZoneDist4": null, "Overlay1": null, "Overlay2": null, "SPDist1": null, "SPDist2": null, "SPDist3": null, "LtdHeight": null, "SplitZone": "N", "BldgClass": "B1", "LandUse": "01", "Easements": 0, "OwnerType": null, "OwnerName": "ANA VASQUEZ", "LotArea": 1879, "BldgArea": 3150, "ComArea": 0, "ResArea": 3150, "OfficeArea": 0, "RetailArea": 0, "GarageArea": 0, "StrgeArea": 0, "FactryArea": 0, "OtherArea": 0, "AreaSource": "2", "NumBldgs": 1, "NumFloors": 3.0, "UnitsRes": 2, "UnitsTotal": 2, "LotFront": 17.25, "LotDepth": 114.79, "BldgFront": 17.25, "BldgDepth": 60.0, "Ext": "N", "ProxCode": "3", "IrrLotCode": "Y", "LotType": "5", "BsmtCode": "2", "AssessLand": 11940.0, "AssessTot": 87540.0, "ExemptTot": 1420.0, "YearBuilt": 2001, "YearAlter1": 0, "YearAlter2": 0, "HistDist": null, "Landmark": null, "BuiltFAR": 1.68, "ResidFAR": 2.43, "CommFAR": 0.0, "FacilFAR": 4.8, "BoroCode": 3, "BBL": 3034730127.0000005, "CondoNo": 0, "Tract2010": "0405", "XCoord": 1011156, "YCoord": 187864, "ZoneMap": "17c", "ZMCode": null, "Sanborn": "305 073", "TaxMap": "31109", "EDesigNum": null, "APPBBL": 3034730028.0, "APPDate": "11/08/2007", "PLUTOMapID": "1", "FIRM07_FLA": null, "PFIRM15_FL": null, "Version": "25v4", "DCPEdited": null, "Latitude": 40.6822791, "Longitude": -73.9029906, "Notes": null, "Shape_Leng": 0.0, "Shape_Area": 1988.3475639000001 }, "geometry": { "type": "MultiPolygon", "coordinates": [ [ [ [ -73.902821156814994, 40.682215317544028 ], [ -73.90282460193275, 40.682158140581066 ], [ -73.903174106351088, 40.682357287120105 ], [ -73.903137095956637, 40.682395338629064 ], [ -73.902821156814994, 40.682215317544028 ] ] ] ] } },
{ "type": "Feature", "properties": { "Borough": "BK", "Block": 3473, "Lot": 128, "CD": 304, "BCT2020": "3040500", "BCTCB2020": "30405001004", "CT2010": "405", "CB2010": "1004", "SchoolDist": "23", "Council": 37, "ZipCode": 11207, "FireComp": "E233", "PolicePrct": 83, "HealthCent": 34, "HealthArea": 3810, "Sanitboro": "3", "SanitDistr": "04", "SanitSub": "3A", "Address": "112 VANDERVEER STREET", "ZoneDist1": "R6", "ZoneDist2": null, "ZoneDist3": null, "ZoneDist4": null, "Overlay1": null, "Overlay2": null, "SPDist1": null, "SPDist2": null, "SPDist3": null, "LtdHeight": null, "SplitZone": "N", "BldgClass": "B1", "LandUse": "01", "Easements": 0, "OwnerType": null, "OwnerName": "MAYWIN2022 LLC", "LotArea": 1676, "BldgArea": 2922, "ComArea": 0, "ResArea": 2922, "OfficeArea": 0, "RetailArea": 0, "GarageArea": 0, "StrgeArea": 0, "FactryArea": 0, "OtherArea": 0, "AreaSource": "2", "NumBldgs": 1, "NumFloors": 3.0, "UnitsRes": 2, "UnitsTotal": 2, "LotFront": 17.25, "LotDepth": 103.04, "BldgFront": 17.25, "BldgDepth": 58.33, "Ext": "N", "ProxCode": "3", "IrrLotCode": "Y", "LotType": "5", "BsmtCode": "4", "AssessLand": 4800.0, "AssessTot": 87060.0, "ExemptTot": 0.0, "YearBuilt": 2001, "YearAlter1": 0, "YearAlter2": 0, "HistDist": null, "Landmark": null, "BuiltFAR": 1.74, "ResidFAR": 2.43, "CommFAR": 0.0, "FacilFAR": 4.8, "BoroCode": 3, "BBL": 3034730127.9999995, "CondoNo": 0, "Tract2010": "0405", "XCoord": 1011161, "YCoord": 187882, "ZoneMap": "17c", "ZMCode": null, "Sanborn": "305 073", "TaxMap": "31109", "EDesigNum": null, "APPBBL": 3034730028.0, "APPDate": "11/08/2007", "PLUTOMapID": "1", "FIRM07_FLA": null, "PFIRM15_FL": null, "Version": "25v4", "DCPEdited": null, "Latitude": 40.6823285, "Longitude": -73.9029725, "Notes": null, "Shape_Leng": 0.0, "Shape_Area": 1787.7660639000001 }, "geometry": { "type": "MultiPolygon", "coordinates": [ [ [ [ -73.903137095956637, 40.682395338629064 ], [ -73.903100084314403, 40.682433389203538 ], [ -73.902817711579985, 40.682272495426496 ], [ -73.902821156814994, 40.682215317544028 ], [ -73.903137095956637, 40.682395338629064 ] ] ] ] } },
{ "type": "Feature", "properties": { "Borough": "BK", "Block": 3473, "Lot": 129, "CD": 304, "BCT2020": "3040500", "BCTCB2020": "30405001004", "CT2010": "405", "CB2010": "1004", "SchoolDist": "23", "Council": 37, "ZipCode": 11207, "FireComp": "E233", "PolicePrct": 83, "HealthCent": 34, "HealthArea": 3810, "Sanitboro": "3", "SanitDistr": "04", "SanitSub": "3A", "Address": "114 VANDERVEER STREET", "ZoneDist1": "R6", "ZoneDist2": "R3-2", "ZoneDist3": null, "ZoneDist4": null, "Overlay1": null, "Overlay2": null, "SPDist1": null, "SPDist2": null, "SPDist3": null, "LtdHeight": null, "SplitZone": "Y", "BldgClass": "B1", "LandUse": "01", "Easements": 0, "OwnerType": null, "OwnerName": "114 VANDERVEER LLC", "LotArea": 1490, "BldgArea": 2433, "ComArea": 0, "ResArea": 2433, "OfficeArea": 0, "RetailArea": 0, "GarageArea": 0, "StrgeArea": 0, "FactryArea": 0, "OtherArea": 0, "AreaSource": "2", "NumBldgs": 1, "NumFloors": 3.0, "UnitsRes": 2, "UnitsTotal": 2, "LotFront": 17.58, "LotDepth": 91.3, "BldgFront": 17.58, "BldgDepth": 50.0, "Ext": "N", "ProxCode": "2", "IrrLotCode": "Y", "LotType": "5", "BsmtCode": "4", "AssessLand": 8520.0, "AssessTot": 71640.0, "ExemptTot": 0.0, "YearBuilt": 2001, "YearAlter1": 0, "YearAlter2": 0, "HistDist": null, "Landmark": null, "BuiltFAR": 1.63, "ResidFAR": 2.43, "CommFAR": 0.0, "FacilFAR": 4.8, "BoroCode": 3, "BBL": 3034730128.9999995, "CondoNo": 0, "Tract2010": "0405", "XCoord": 1011167, "YCoord": 187900, "ZoneMap": "17c", "ZMCode": null, "Sanborn": "305 073", "TaxMap": "31109", "EDesigNum": null, "APPBBL": 3034730028.0, "APPDate": "11/08/2007", "PLUTOMapID": "1", "FIRM07_FLA": null, "PFIRM15_FL": null, "Version": "25v4", "DCPEdited": null, "Latitude": 40.6823779, "Longitude": -73.9029508, "Notes": null, "Shape_Leng": 0.0, "Shape_Area": 1680.6696638000001 }, "geometry": { "type": "MultiPolygon", "coordinates": [ [ [ [ -73.903100084314403, 40.682433389203538 ], [ -73.903060995895103, 40.682473575881133 ], [ -73.90281402387987, 40.682333684888022 ], [ -73.902817711579985, 40.682272495426496 ], [ -73.903100084314403, 40.682433389203538 ] ] ] ] } },
{ "type": "Feature", "properties": { "Borough": "QN", "Block": 3725, "Lot": 1, "CD": 405, "BCT2020": "4056100", "BCTCB2020": "40561001003", "CT2010": "561", "CB2010": "1008", "SchoolDist": "24", "Council": 32, "ZipCode": 11385, "FireComp": "E286", "PolicePrct": 104, "HealthCent": 46, "HealthArea": 2400, "Sanitboro": "4", "SanitDistr": "05", "SanitSub": "4C", "Address": "CYPRESS AVENUE", "ZoneDist1": "R3-2", "ZoneDist2": null, "ZoneDist3": null, "ZoneDist4": null, "Overlay1": null, "Overlay2": null, "SPDist1": null, "SPDist2": null, "SPDist3": null, "LtdHeight": null, "SplitZone": "N", "BldgClass": "Z8", "LandUse": "09", "Easements": 0, "OwnerType": "X", "OwnerName": "CEMETERY OF THE EVERGREENS", "LotArea": 5494000, "BldgArea": 0, "ComArea": 0, "ResArea": 0, "OfficeArea": 0, "RetailArea": 0, "GarageArea": 0, "StrgeArea": 0, "FactryArea": 0, "OtherArea": 0, "AreaSource": "7", "NumBldgs": 0, "NumFloors": 0.0, "UnitsRes": 0, "UnitsTotal": 0, "LotFront": 437.83, "LotDepth": 421.83, "BldgFront": 0.0, "BldgDepth": 0.0, "Ext": "N", "ProxCode": "0", "IrrLotCode": "Y", "LotType": "5", "BsmtCode": "0", "AssessLand": 12964050.0, "AssessTot": 12964050.0, "ExemptTot": 12964050.0, "YearBuilt": 0, "YearAlter1": 0, "YearAlter2": 0, "HistDist": null, "Landmark": null, "BuiltFAR": 0.0, "ResidFAR": 0.75, "CommFAR": 0.0, "FacilFAR": 1.0, "BoroCode": 4, "BBL": 4037250000.9999995, "CondoNo": 0, "Tract2010": "0561", "XCoord": 1012802, "YCoord": 190143, "ZoneMap": "17c", "ZMCode": "Y", "Sanborn": "403 062", "TaxMap": "41903", "EDesigNum": null, "APPBBL": 0.0, "APPDate": null, "PLUTOMapID": "1", "FIRM07_FLA": null, "PFIRM15_FL": null, "Version": "25v4", "DCPEdited": null, "Latitude": 40.6885293, "Longitude": -73.8970463, "Notes": null, "Shape_Leng": 0.0, "Shape_Area": 5546403.34473 }, "geometry": { "type": "MultiPolygon", "coordinates": [ [ [ [ -73.896961133727345, 40.691972899237591 ], [ -73.896800242305233, 40.692016079432911 ], [ -73.896378604428193, 40.692129236503654 ], [ -73.896306265771585, 40.692148651125251 ], [ -73.896237699177036, 40.692167051543301 ], [ -73.89615497931301, 40.692189251880372 ], [ -73.895805328020671, 40.692283087463252 ], [ -73.895606724994153, 40.692336385932229 ], [ -73.895274206797893, 40.692425622167562 ], [ -73.895223532996496, 40.692439220520725 ], [ -73.895097251949394, 40.692473109592413 ], [ -73.894790472937729, 40.692555436640369 ], [ -73.894788093571691, 40.692554102584168 ], [ -73.893374523023397, 40.692145401409455 ], [ -73.893031796553288, 40.690995397491989 ], [ -73.89407302146455, 40.690695020028343 ], [ -73.893087888852534, 40.687447836208023 ], [ -73.892016124001913, 40.687837133322709 ], [ -73.892350806215035, 40.687398043003348 ], [ -73.892332417159807, 40.687388949500836 ], [ -73.892906684305416, 40.686686766344437 ], [ -73.894291196906906, 40.685448012266185 ], [ -73.894562412920777, 40.685173321328584 ], [ -73.8954155607818, 40.684758083887516 ], [ -73.895230436763356, 40.684507758905603 ], [ -73.895500691632805, 40.684231648315489 ], [ -73.895635540962445, 40.684084819775592 ], [ -73.895756335209853, 40.683950092901618 ], [ -73.895870490757275, 40.683816655704 ], [ -73.895945599607387, 40.68372885887851 ], [ -73.896039945565477, 40.68360499041875 ], [ -73.89611538018967, 40.683505950856677 ], [ -73.89623212824273, 40.68334149297079 ], [ -73.896418861443422, 40.683064735571456 ], [ -73.896550350316431, 40.68283571214279 ], [ -73.896617592840002, 40.682692422622246 ], [ -73.901005554661197, 40.687912403316311 ], [ -73.900764109114192, 40.68799091060211 ], [ -73.900461648013035, 40.688104400798672 ], [ -73.901881843399224, 40.691017952510407 ], [ -73.901890220150989, 40.691035136958554 ], [ -73.901358656399992, 40.691569446586051 ], [ -73.901246869412674, 40.691686165026724 ], [ -73.900595743544315, 40.692366003581853 ], [ -73.900745393843124, 40.692449234031216 ], [ -73.900264097357635, 40.693293778697068 ], [ -73.900263505457403, 40.693294815574887 ], [ -73.899708400689562, 40.693457103519151 ], [ -73.899710775967549, 40.693450290511372 ], [ -73.899757605320872, 40.693315947097346 ], [ -73.899730248954512, 40.693306999142976 ], [ -73.900065146972125, 40.692418446583851 ], [ -73.899584596023757, 40.692147746878284 ], [ -73.899370283121556, 40.692027022149496 ], [ -73.899073603186977, 40.691541740550626 ], [ -73.899027887010348, 40.690986247160538 ], [ -73.89893636260507, 40.6909525054715 ], [ -73.898918214953738, 40.690964743703887 ], [ -73.898893345803998, 40.690984262948881 ], [ -73.898870832856687, 40.691005686119162 ], [ -73.898841102830815, 40.69103365239269 ], [ -73.898813266312914, 40.691065017033004 ], [ -73.898783688739783, 40.69110393728478 ], [ -73.898768977741028, 40.691124746798941 ], [ -73.898743620171928, 40.69116363202442 ], [ -73.898711915518007, 40.69122337561852 ], [ -73.89868801434686, 40.691267649863292 ], [ -73.89867344114964, 40.691302809218051 ], [ -73.898657973083687, 40.691342927770577 ], [ -73.898647914641032, 40.691378742234463 ], [ -73.898634870313671, 40.691432277912234 ], [ -73.89862984184731, 40.691475281925058 ], [ -73.898628746720277, 40.691520905395556 ], [ -73.898633687411319, 40.691563525584172 ], [ -73.898641950280918, 40.691606070398784 ], [ -73.898653624556445, 40.691644294887858 ], [ -73.898670632483785, 40.691685420077363 ], [ -73.898695751647239, 40.691733484542276 ], [ -73.89873613848539, 40.691821103088195 ], [ -73.898787695987778, 40.691945364294597 ], [ -73.898800399993746, 40.691982617955546 ], [ -73.898817140729406, 40.692034636427358 ], [ -73.898828959758404, 40.692075870465935 ], [ -73.898842100193505, 40.692135827335619 ], [ -73.898847549433469, 40.692166996236885 ], [ -73.898855106134562, 40.692239921867049 ], [ -73.898861694211703, 40.692305673158565 ], [ -73.898864201590868, 40.692355283718427 ], [ -73.898865157944229, 40.692408768659106 ], [ -73.89886383493743, 40.692452627855452 ], [ -73.898860116687842, 40.692491439369093 ], [ -73.898855343242261, 40.692530200425587 ], [ -73.898850134776794, 40.692555487631381 ], [ -73.898841986807739, 40.692594451019367 ], [ -73.898831648795863, 40.692638206819865 ], [ -73.898822565692214, 40.692666664027833 ], [ -73.898811763577498, 40.692697343088184 ], [ -73.898796346815985, 40.692732401733693 ], [ -73.898776789514045, 40.692774256501906 ], [ -73.898725327644826, 40.692855875002586 ], [ -73.899221592474674, 40.693380932762828 ], [ -73.899379736411362, 40.693548251471327 ], [ -73.899385374348512, 40.693554215975439 ], [ -73.89852599999962, 40.693838735234102 ], [ -73.897629168636854, 40.693992083071358 ], [ -73.897636101933756, 40.693983443421843 ], [ -73.897785799430366, 40.693796890617428 ], [ -73.89780010695101, 40.693802941301357 ], [ -73.898686565802265, 40.692814863080564 ], [ -73.898713223631276, 40.692775623295297 ], [ -73.898737233105336, 40.692727476078588 ], [ -73.898758432456106, 40.692678645548114 ], [ -73.898784165695204, 40.692599277259689 ], [ -73.898801827002245, 40.692523607436947 ], [ -73.898808470874812, 40.692466242565558 ], [ -73.898813087545236, 40.692374133222231 ], [ -73.898813903357748, 40.69234567232958 ], [ -73.898811653826655, 40.692267369063003 ], [ -73.898801726871326, 40.692186229545584 ], [ -73.898790847748927, 40.692132156761865 ], [ -73.898776000063634, 40.692079313304419 ], [ -73.898761147877366, 40.692030169230947 ], [ -73.898749647024772, 40.692001486741873 ], [ -73.898719517132648, 40.691927944119243 ], [ -73.898695450395422, 40.691870843061338 ], [ -73.898663848089754, 40.691805640595639 ], [ -73.898639546870683, 40.691758810506457 ], [ -73.898606426280722, 40.691692362231315 ], [ -73.898577316720974, 40.691640430942023 ], [ -73.898563722976604, 40.691608792945118 ], [ -73.898549516280653, 40.691562428368435 ], [ -73.89854661220653, 40.691541293450726 ], [ -73.898543505606497, 40.691495385255287 ], [ -73.898552961126001, 40.691419683952041 ], [ -73.898566433901223, 40.691373034018639 ], [ -73.89858297953225, 40.691329995081865 ], [ -73.898596404909426, 40.691294237724875 ], [ -73.898630363512851, 40.691231249781218 ], [ -73.898658405646543, 40.691185341209227 ], [ -73.898677801416397, 40.691154548177721 ], [ -73.898715473559818, 40.691101647440775 ], [ -73.898746217360028, 40.691063709824 ], [ -73.898786799269104, 40.69102122069053 ], [ -73.898837760558507, 40.690969841862959 ], [ -73.898882567230729, 40.6909326721307 ], [ -73.897012725789054, 40.690243306799083 ], [ -73.897006911224636, 40.69025244712288 ], [ -73.897446309142182, 40.691003586730417 ], [ -73.89745783340328, 40.690999669900251 ], [ -73.897704774252915, 40.691420687895487 ], [ -73.896961133727345, 40.691972899237591 ] ] ] ] } }
]
}
