{
"type": "FeatureCollection",
"name": "pluto_Barren_Island-Floyd_Bennett_Field",
"crs": { "type": "name", "properties": { "name": "urn:ogc:def:crs:OGC:1.3:CRS84" } },
"features": [
{ "type": "Feature", "properties": { "Borough": "BK", "Block": 8590, "Lot": 800, "CD": 356, "BCT2020": "3070202", "BCTCB2020": "30702021000", "CT2010": "702.02", "CB2010": "1000", "SchoolDist": "22", "Council": 46, "ZipCode": 11234, "FireComp": "E323", "PolicePrct": 63, "HealthCent": 35, "HealthArea": 8822, "Sanitboro": "3", "SanitDistr": "56", "SanitSub": null, "Address": "FLATBUSH AVENUE", "ZoneDist1": "M1-1", "ZoneDist2": null, "ZoneDist3": null, "ZoneDist4": null, "Overlay1": null, "Overlay2": null, "SPDist1": null, "SPDist2": null, "SPDist3": null, "LtdHeight": null, "SplitZone": "N", "BldgClass": "Q1", "LandUse": "09", "Easements": 0, "OwnerType": "X", "OwnerName": "NATIONAL PARK SERVICE", "LotArea": 7533550, "BldgArea": 20000, "ComArea": 20000, "ResArea": 0, "OfficeArea": 20000, "RetailArea": 0, "GarageArea": 0, "StrgeArea": 0, "FactryArea": 0, "OtherArea": 0, "AreaSource": "2", "NumBldgs": 22, "NumFloors": 1.0, "UnitsRes": 0, "UnitsTotal": 0, "LotFront": 324.25, "LotDepth": 252.08, "BldgFront": 0.0, "BldgDepth": 0.0, "Ext": "N", "ProxCode": "0", "IrrLotCode": "Y", "LotType": "5", "BsmtCode": "0", "AssessLand": 13868876.0, "AssessTot": 20653650.0, "ExemptTot": 20653650.0, "YearBuilt": 1930, "YearAlter1": 0, "YearAlter2": 0, "HistDist": null, "Landmark": null, "BuiltFAR": 0.0, "ResidFAR": 0.0, "CommFAR": 1.0, "FacilFAR": 2.4, "BoroCode": 3, "BBL": 3085900800.0, "CondoNo": 0, "Tract2010": "070202", "XCoord": 1015873, "YCoord": 151559, "ZoneMap": "29c", "ZMCode": "Y", "Sanborn": "319 082", "TaxMap": "32504", "EDesigNum": null, "APPBBL": 0.0, "APPDate": null, "PLUTOMapID": "1", "FIRM07_FLA": "1", "PFIRM15_FL": "1", "Version": "25v4", "DCPEdited": null, "Latitude": 40.5826141, "Longitude": -73.8861536, "Notes": null, "Shape_Leng": 0.0, "Shape_Area": 7491964.9278300004 }, "geometry": { "type": "MultiPolygon", "coordinates": [ [ [ [ -73.880427825244169, 40.581424770468352 ], [ -73.879887691606783, 40.580082960097378 ], [ -73.880300891534517, 40.57997306027395 ], [ -73.881913739966151, 40.579545941440443 ], [ -73.881749700170758, 40.579183606909055 ], [ -73.882101628038427, 40.579092573388849 ], [ -73.88213399966024, 40.579158379187248 ], [ -73.882141828709734, 40.579165218552333 ], [ -73.882156398644511, 40.579161818793366 ], [ -73.882170968471186, 40.579158417192261 ], [ -73.882182173943676, 40.57915671857964 ], [ -73.882193379863935, 40.579155449570735 ], [ -73.882291956096637, 40.579159395171963 ], [ -73.882387175972312, 40.579161201195276 ], [ -73.882481280726594, 40.579160442181312 ], [ -73.882576508123137, 40.579157977793471 ], [ -73.882671741227355, 40.579152950437454 ], [ -73.882765855260075, 40.579146213571114 ], [ -73.883074065082155, 40.579068797829443 ], [ -73.883243304569035, 40.579023701888445 ], [ -73.883325127262495, 40.578999868151264 ], [ -73.883401346697553, 40.578976883344495 ], [ -73.883471964441569, 40.57895303902508 ], [ -73.883540344461011, 40.578928337783388 ], [ -73.883572855916967, 40.578914702657272 ], [ -73.883608735956145, 40.578897657126092 ], [ -73.883716382409318, 40.578837974257041 ], [ -73.883751144115521, 40.578820072857653 ], [ -73.883781415387404, 40.578805580796484 ], [ -73.883810563638662, 40.578793654163256 ], [ -73.883937233040342, 40.578747657599081 ], [ -73.884048205197487, 40.578710184789415 ], [ -73.884151324581495, 40.578678686084771 ], [ -73.884248831821864, 40.578653159250834 ], [ -73.884387800178089, 40.578620841924312 ], [ -73.884525641264943, 40.578592794475 ], [ -73.884660114866435, 40.578569012815215 ], [ -73.884792337845894, 40.578550352765966 ], [ -73.884825952381235, 40.578546117203935 ], [ -73.884864046115027, 40.578543591659262 ], [ -73.885023135489803, 40.578536062664874 ], [ -73.88505898873683, 40.578533538404848 ], [ -73.88509148350731, 40.578529299802113 ], [ -73.885200179027947, 40.578512323984199 ], [ -73.885312240351084, 40.57849193753114 ], [ -73.885428788409058, 40.578468137119252 ], [ -73.885552065221404, 40.578440072040607 ], [ -73.885669742718932, 40.578411149402406 ], [ -73.885790786166382, 40.578378812498272 ], [ -73.885916317727961, 40.578342207832868 ], [ -73.885940977173689, 40.578334544613476 ], [ -73.886046336162394, 40.578301337227828 ], [ -73.886347772655782, 40.578251240520551 ], [ -73.886360219057806, 40.578249421590314 ], [ -73.886436880866071, 40.578318761030644 ], [ -73.886986828672022, 40.578816170400948 ], [ -73.889188098822686, 40.580807044927084 ], [ -73.889609618762634, 40.580562792037981 ], [ -73.890967689319595, 40.581435343903003 ], [ -73.894392204846895, 40.584612695798953 ], [ -73.894659519917795, 40.58486070262871 ], [ -73.882611423113644, 40.586848732468432 ], [ -73.882509045250984, 40.586594451313402 ], [ -73.880427825244169, 40.581424770468352 ] ] ] ] } },
{ "type": "Feature", "properties": { "Borough": "BK", "Block": 8591, "Lot": 980, "CD": 318, "BCT2020": "3069800", "BCTCB2020": "30698002005", "CT2010": "698", "CB2010": "2005", "SchoolDist": "22", "Council": 46, "ZipCode": 11234, "FireComp": "E323", "PolicePrct": 63, "HealthCent": 35, "HealthArea": 8822, "Sanitboro": "3", "SanitDistr": "18", "SanitSub": "7C", "Address": "2839 FLATBUSH AVENUE", "ZoneDist1": "C3", "ZoneDist2": null, "ZoneDist3": null, "ZoneDist4": null, "Overlay1": null, "Overlay2": null, "SPDist1": null, "SPDist2": null, "SPDist3": null, "LtdHeight": null, "SplitZone": "N", "BldgClass": "Y7", "LandUse": "07", "Easements": 0, "OwnerType": "C", "OwnerName": "NYC DEPARTMENT OF SMALL BUSINESS SERVICES", "LotArea": 214500, "BldgArea": 10364, "ComArea": 10364, "ResArea": 0, "OfficeArea": 10364, "RetailArea": 0, "GarageArea": 0, "StrgeArea": 0, "FactryArea": 0, "OtherArea": 0, "AreaSource": "2", "NumBldgs": 3, "NumFloors": 0.0, "UnitsRes": 0, "UnitsTotal": 0, "LotFront": 1830.0, "LotDepth": 100.0, "BldgFront": 0.0, "BldgDepth": 0.0, "Ext": "N", "ProxCode": "0", "IrrLotCode": "Y", "LotType": "5", "BsmtCode": "0", "AssessLand": 1171800.0, "AssessTot": 1613250.0, "ExemptTot": 1613250.0, "YearBuilt": 1930, "YearAlter1": 0, "YearAlter2": 0, "HistDist": null, "Landmark": null, "BuiltFAR": 0.05, "ResidFAR": 0.75, "CommFAR": 0.5, "FacilFAR": 1.0, "BoroCode": 3, "BBL": 3085910980.0000005, "CondoNo": 0, "Tract2010": "0698", "XCoord": 1007385, "YCoord": 159652, "ZoneMap": "23b", "ZMCode": "Y", "Sanborn": "319 071", "TaxMap": "32504", "EDesigNum": null, "APPBBL": 0.0, "APPDate": null, "PLUTOMapID": "1", "FIRM07_FLA": "1", "PFIRM15_FL": "1", "Version": "25v4", "DCPEdited": "t", "Latitude": 40.6048539, "Longitude": -73.9166836, "Notes": null, "Shape_Leng": 0.0, "Shape_Area": 155508.13719800001 }, "geometry": { "type": "MultiPolygon", "coordinates": [ [ [ [ -73.917026323517135, 40.605385113322107 ], [ -73.917076356082632, 40.605352847343433 ], [ -73.917083085505453, 40.605348581044069 ], [ -73.917094869382879, 40.605335990404207 ], [ -73.917099921517774, 40.605328471972939 ], [ -73.917112259826425, 40.605321269530478 ], [ -73.917116841829952, 40.605315506811849 ], [ -73.917115637063361, 40.605307603864951 ], [ -73.917104453583505, 40.605288804658265 ], [ -73.917097742224342, 40.60527855093882 ], [ -73.917093266924539, 40.605272568250001 ], [ -73.917073123195379, 40.605249489547667 ], [ -73.917047382864368, 40.605219575414523 ], [ -73.917028357259795, 40.605199063077002 ], [ -73.916995895036465, 40.605168290383887 ], [ -73.916972387769832, 40.605146062910045 ], [ -73.916930966388662, 40.605109305175851 ], [ -73.916880595729353, 40.605060581026649 ], [ -73.916825740434547, 40.605014418410001 ], [ -73.916766406345317, 40.604962269380813 ], [ -73.916707071418884, 40.604911832200877 ], [ -73.9166656515402, 40.604875072529431 ], [ -73.916628715479888, 40.604837463343593 ], [ -73.916580589943649, 40.604787030653682 ], [ -73.916551487408171, 40.604757969483167 ], [ -73.916515661922816, 40.604728046964823 ], [ -73.916501105384299, 40.604717787578302 ], [ -73.916464152380684, 40.604693843675257 ], [ -73.916448476721854, 40.604681873343097 ], [ -73.916414896019091, 40.604650245065393 ], [ -73.916361160245131, 40.604604081200655 ], [ -73.916308544746613, 40.604558773567817 ], [ -73.916263769125223, 40.604516886447463 ], [ -73.916212273831775, 40.604471577830743 ], [ -73.9161630167238, 40.604428833713889 ], [ -73.916118244635101, 40.604385240013393 ], [ -73.916077944396733, 40.604349334628452 ], [ -73.916046598920119, 40.604322830973793 ], [ -73.916009655958348, 40.60429034643154 ], [ -73.915969355963341, 40.604255297451303 ], [ -73.915926817649208, 40.604215975561964 ], [ -73.915913383663764, 40.604204860481957 ], [ -73.915870835843478, 40.604174080066386 ], [ -73.915824944059977, 40.604130481913963 ], [ -73.915809270804644, 40.604116804968776 ], [ -73.915757768459628, 40.604077476514256 ], [ -73.915718584448356, 40.604044990229987 ], [ -73.915697316232425, 40.604027035307617 ], [ -73.915676046673482, 40.604007374773722 ], [ -73.915642473159494, 40.60397062050194 ], [ -73.915601059856158, 40.603929590197808 ], [ -73.915582029656136, 40.603913347862964 ], [ -73.915575309876289, 40.603908216305804 ], [ -73.915568593495394, 40.603903089183696 ], [ -73.915554872044538, 40.603897952381736 ], [ -73.915539463043885, 40.603896801891537 ], [ -73.915527133744149, 40.603898786541102 ], [ -73.915515922682005, 40.603901341163045 ], [ -73.915505830718672, 40.603905603051906 ], [ -73.915495738879173, 40.603910721381816 ], [ -73.915467137785498, 40.603929491493567 ], [ -73.915455358148634, 40.603939731670508 ], [ -73.915448439813289, 40.603943857184213 ], [ -73.91544453500245, 40.603944267256793 ], [ -73.914428196064947, 40.603018487378492 ], [ -73.91464376577548, 40.602812972727293 ], [ -73.91887553238864, 40.606602172446891 ], [ -73.918579680920843, 40.606792740938204 ], [ -73.918574128760824, 40.606778661456119 ], [ -73.918552839788973, 40.606774376916484 ], [ -73.918157034520789, 40.606414812668845 ], [ -73.918050598193375, 40.606318121850357 ], [ -73.917026323517135, 40.605385113322107 ] ] ] ] } },
{ "type": "Feature", "properties": { "Borough": "BK", "Block": 8590, "Lot": 900, "CD": 356, "BCT2020": "3070202", "BCTCB2020": "30702021000", "CT2010": "702.02", "CB2010": "1000", "SchoolDist": "22", "Council": 46, "ZipCode": 11234, "FireComp": "E323", "PolicePrct": 63, "HealthCent": 35, "HealthArea": 8822, "Sanitboro": "3", "SanitDistr": "56", "SanitSub": null, "Address": "FLATBUSH AVENUE", "ZoneDist1": "R4", "ZoneDist2": null, "ZoneDist3": null, "ZoneDist4": null, "Overlay1": null, "Overlay2": null, "SPDist1": null, "SPDist2": null, "SPDist3": null, "LtdHeight": null, "SplitZone": "N", "BldgClass": "P1", "LandUse": "05", "Easements": 0, "OwnerType": "C", "OwnerName": "NYC DEPARTMENT OF PARKS AND RECREATION", "LotArea": 400625, "BldgArea": 10000, "ComArea": 10000, "ResArea": 0, "OfficeArea": 10000, "RetailArea": 0, "GarageArea": 0, "StrgeArea": 0, "FactryArea": 0, "OtherArea": 0, "AreaSource": "2", "NumBldgs": 3, "NumFloors": 1.0, "UnitsRes": 0, "UnitsTotal": 0, "LotFront": 155.83, "LotDepth": 150.0, "BldgFront": 0.0, "BldgDepth": 0.0, "Ext": "N", "ProxCode": "0", "IrrLotCode": "Y", "LotType": "5", "BsmtCode": "0", "AssessLand": 1026000.0, "AssessTot": 1608750.0, "ExemptTot": 1608750.0, "YearBuilt": 1930, "YearAlter1": 0, "YearAlter2": 0, "HistDist": null, "Landmark": null, "BuiltFAR": 0.02, "ResidFAR": 1.0, "CommFAR": 0.0, "FacilFAR": 2.0, "BoroCode": 3, "BBL": 3085900900.0000005, "CondoNo": 0, "Tract2010": "070202", "XCoord": 1015350, "YCoord": 150329, "ZoneMap": "29d", "ZMCode": null, "Sanborn": "319 082", "TaxMap": "32504", "EDesigNum": null, "APPBBL": 0.0, "APPDate": null, "PLUTOMapID": "1", "FIRM07_FLA": "1", "PFIRM15_FL": "1", "Version": "25v4", "DCPEdited": "t", "Latitude": 40.5792398, "Longitude": -73.8880421, "Notes": null, "Shape_Leng": 0.0, "Shape_Area": 283145.09504699998 }, "geometry": { "type": "MultiPolygon", "coordinates": [ [ [ [ -73.887870481963603, 40.57862889633261 ], [ -73.890967689319595, 40.581435343903003 ], [ -73.889609618762634, 40.580562792037981 ], [ -73.889188098822686, 40.580807044927084 ], [ -73.886986828672022, 40.578816170400948 ], [ -73.886436880866071, 40.578318761030644 ], [ -73.886360219057806, 40.578249421590314 ], [ -73.886411642487829, 40.578241906863511 ], [ -73.886449743004533, 40.57823596782012 ], [ -73.886485595932754, 40.578233438598048 ], [ -73.886519205845886, 40.578231763588562 ], [ -73.886913534999536, 40.578232153313529 ], [ -73.887095014857749, 40.578233186823802 ], [ -73.88715775338197, 40.578230687553699 ], [ -73.887228338796291, 40.578224775710339 ], [ -73.887303411741541, 40.578216309860245 ], [ -73.88739970684712, 40.578202287084387 ], [ -73.887870481963603, 40.57862889633261 ] ] ] ] } },
{ "type": "Feature", "properties": { "Borough": "BK", "Block": 8591, "Lot": 75, "CD": 356, "BCT2020": "3070202", "BCTCB2020": "30702021000", "CT2010": "702.02", "CB2010": "1000", "SchoolDist": "22", "Council": 46, "ZipCode": 11234, "FireComp": "E323", "PolicePrct": 63, "HealthCent": 35, "HealthArea": 8822, "Sanitboro": "3", "SanitDistr": "56", "SanitSub": null, "Address": "5031 FLATBUSH AVENUE", "ZoneDist1": "M1-1", "ZoneDist2": null, "ZoneDist3": null, "ZoneDist4": null, "Overlay1": null, "Overlay2": null, "SPDist1": null, "SPDist2": null, "SPDist3": null, "LtdHeight": null, "SplitZone": "N", "BldgClass": "Y4", "LandUse": "08", "Easements": 0, "OwnerType": "P", "OwnerName": "NATIONAL PARK SERVICE", "LotArea": 52591959, "BldgArea": 100, "ComArea": 0, "ResArea": 0, "OfficeArea": 0, "RetailArea": 0, "GarageArea": 0, "StrgeArea": 0, "FactryArea": 0, "OtherArea": 0, "AreaSource": "2", "NumBldgs": 43, "NumFloors": 0.0, "UnitsRes": 0, "UnitsTotal": 0, "LotFront": 441.5, "LotDepth": 524.75, "BldgFront": 0.0, "BldgDepth": 0.0, "Ext": "N", "ProxCode": "0", "IrrLotCode": "Y", "LotType": "5", "BsmtCode": "0", "AssessLand": 165664800.0, "AssessTot": 203916150.0, "ExemptTot": 203916150.0, "YearBuilt": 1930, "YearAlter1": 0, "YearAlter2": 0, "HistDist": null, "Landmark": null, "BuiltFAR": 0.0, "ResidFAR": 0.0, "CommFAR": 1.0, "FacilFAR": 2.4, "BoroCode": 3, "BBL": 3085910074.9999995, "CondoNo": 0, "Tract2010": "070202", "XCoord": 1014883, "YCoord": 156191, "ZoneMap": "29c", "ZMCode": "Y", "Sanborn": "319 082", "TaxMap": "32504", "EDesigNum": null, "APPBBL": 0.0, "APPDate": null, "PLUTOMapID": "1", "FIRM07_FLA": "1", "PFIRM15_FL": "1", "Version": "25v4", "DCPEdited": null, "Latitude": 40.5953315, "Longitude": -73.8896967, "Notes": null, "Shape_Leng": 0.0, "Shape_Area": 38584791.147600003 }, "geometry": { "type": "MultiPolygon", "coordinates": [ [ [ [ -73.880427825244169, 40.581424770468352 ], [ -73.879603635511387, 40.581983772427442 ], [ -73.879334893928927, 40.581744733163696 ], [ -73.877962937659063, 40.582464836271022 ], [ -73.879282966562386, 40.580361491056415 ], [ -73.879503516326082, 40.580444578474477 ], [ -73.879709097769634, 40.580130461197243 ], [ -73.879887691606783, 40.580082960097378 ], [ -73.880427825244169, 40.581424770468352 ] ] ], [ [ [ -73.878067344025538, 40.58267472257328 ], [ -73.877665599825974, 40.582938616928239 ], [ -73.877926866618452, 40.582522312202826 ], [ -73.878067344025538, 40.58267472257328 ] ] ], [ [ [ -73.879188018575675, 40.587239433518029 ], [ -73.879835078705938, 40.58720448422423 ], [ -73.879890439039343, 40.587210956652896 ], [ -73.879931588166286, 40.587219374618947 ], [ -73.880011334681427, 40.587232428336208 ], [ -73.880150930371954, 40.587261803549616 ], [ -73.88179993186013, 40.58697003934877 ], [ -73.881924228570682, 40.586925356557749 ], [ -73.882056612837474, 40.586866032125144 ], [ -73.882267331534678, 40.586747560643779 ], [ -73.882509045250984, 40.586594451313402 ], [ -73.882611423113644, 40.586848732468432 ], [ -73.894659519917795, 40.58486070262871 ], [ -73.904894226591438, 40.594075406200218 ], [ -73.904743113783056, 40.59866050589126 ], [ -73.903802413830704, 40.59911582635219 ], [ -73.903111957854179, 40.599403546012965 ], [ -73.902843197991373, 40.599508324727339 ], [ -73.902624402633791, 40.599600208432776 ], [ -73.902396542728468, 40.599702510238231 ], [ -73.902140649934566, 40.599825878738677 ], [ -73.901809513553403, 40.599999797052227 ], [ -73.901530650304451, 40.600159809265229 ], [ -73.901322893736278, 40.600287787458271 ], [ -73.90099837456799, 40.600504162335405 ], [ -73.900796102886559, 40.600650207920893 ], [ -73.900563249659385, 40.600830198731337 ], [ -73.900373440417113, 40.600987305565006 ], [ -73.900213632770516, 40.601127603829049 ], [ -73.900048939978063, 40.601280680506989 ], [ -73.899908453657588, 40.601418779831072 ], [ -73.899758068098734, 40.601575158233807 ], [ -73.899597541822487, 40.601753040949824 ], [ -73.899435338103117, 40.601945960713493 ], [ -73.899344201561959, 40.602073306266171 ], [ -73.899237527487614, 40.602228484073855 ], [ -73.899111354334394, 40.602421522376872 ], [ -73.898939615112809, 40.602703450480547 ], [ -73.898784189503715, 40.602981605117883 ], [ -73.898621030709648, 40.603303377576033 ], [ -73.898458311268442, 40.60366451643732 ], [ -73.898444326178094, 40.603699618960242 ], [ -73.898417909536107, 40.603690153521953 ], [ -73.898383182959634, 40.603679018358498 ], [ -73.898349577578145, 40.603669591625895 ], [ -73.898317088238102, 40.603662729681538 ], [ -73.898265925137608, 40.603653573726035 ], [ -73.898226335181988, 40.603648130042046 ], [ -73.898185996760418, 40.603643821301084 ], [ -73.89814677568539, 40.603642079019536 ], [ -73.897979795863876, 40.603641077805108 ], [ -73.897849798409382, 40.603639253779718 ], [ -73.897809456090542, 40.603637507706274 ], [ -73.897772479068777, 40.603634059095697 ], [ -73.89771085405448, 40.603625462714412 ], [ -73.897642515614493, 40.603610880767611 ], [ -73.897584262501056, 40.603596306952539 ], [ -73.897405025945176, 40.603548312829595 ], [ -73.897366939349084, 40.603538030795512 ], [ -73.89728293022327, 40.603511475779804 ], [ -73.897245962510652, 40.603501192950141 ], [ -73.897205630931595, 40.60349261437409 ], [ -73.897168660167708, 40.603486603609028 ], [ -73.897132802001366, 40.603484006717402 ], [ -73.897093579838923, 40.60348226507783 ], [ -73.896962462666465, 40.603480439043352 ], [ -73.896914277701413, 40.603478687447826 ], [ -73.896685676217885, 40.603467377388355 ], [ -73.896151157509308, 40.603436143481446 ], [ -73.895998757743612, 40.603429173973623 ], [ -73.895937125384734, 40.603424846884728 ], [ -73.895924800144712, 40.603423981095027 ], [ -73.8959124762508, 40.60342140794279 ], [ -73.895885595259571, 40.603411987512914 ], [ -73.89586207939233, 40.603400861849153 ], [ -73.89580721222211, 40.603370915563694 ], [ -73.895778091549971, 40.603358931943994 ], [ -73.895669443547476, 40.603322957324195 ], [ -73.895555190707427, 40.603286979253959 ], [ -73.895431972684662, 40.603250991974335 ], [ -73.895298669691812, 40.603214141670826 ], [ -73.895284106016732, 40.60321071088245 ], [ -73.895268419612535, 40.603208988272101 ], [ -73.895237042808304, 40.603207252160232 ], [ -73.895204540460938, 40.603209783590771 ], [ -73.895174270384956, 40.603216590816785 ], [ -73.895156330355533, 40.603223408473077 ], [ -73.895115706411318, 40.603400181567125 ], [ -73.895084330975067, 40.603397589976609 ], [ -73.89509004098484, 40.603330115496313 ], [ -73.895055308154468, 40.603324959780345 ], [ -73.895019451251457, 40.603322364070443 ], [ -73.894984709263625, 40.603322332257612 ], [ -73.894951084247836, 40.603325718948099 ], [ -73.894912970034028, 40.603332517161043 ], [ -73.89487597192992, 40.603341879273067 ], [ -73.894838972084841, 40.603353801580973 ], [ -73.894804209480839, 40.603368292413265 ], [ -73.894757104686349, 40.60338960412593 ], [ -73.894633732932547, 40.603451842080894 ], [ -73.894603450401206, 40.603467189730857 ], [ -73.894537264995535, 40.603508129628757 ], [ -73.894504739758602, 40.603524328871877 ], [ -73.894484558271415, 40.603531142604687 ], [ -73.894465497226378, 40.603536250836434 ], [ -73.894446442684256, 40.603537941583156 ], [ -73.894437477448534, 40.603537933330145 ], [ -73.894425152207077, 40.603537067379612 ], [ -73.894410587297799, 40.603533637399643 ], [ -73.894399386310155, 40.603529355913857 ], [ -73.894351244560184, 40.603500271486105 ], [ -73.894235916778911, 40.603436102119041 ], [ -73.894205680267135, 40.60342155418423 ], [ -73.894173202171217, 40.603408709780098 ], [ -73.894138477761388, 40.603397576096206 ], [ -73.894101511809055, 40.603387289579352 ], [ -73.894061180591123, 40.603378710901985 ], [ -73.894018607928729, 40.603370984659712 ], [ -73.893972668794845, 40.603364964575348 ], [ -73.89392336817042, 40.603359793206089 ], [ -73.8938785437755, 40.603357189680608 ], [ -73.893835956083095, 40.603358858628368 ], [ -73.893795602057537, 40.603363946113276 ], [ -73.893757486188875, 40.603372453146974 ], [ -73.89366330508895, 40.60340055124567 ], [ -73.893596026644929, 40.603423551220985 ], [ -73.893563507769016, 40.603436334556299 ], [ -73.893491735464181, 40.603467017119506 ], [ -73.893459217912294, 40.60347894582322 ], [ -73.893423335479056, 40.603490870471589 ], [ -73.893386338177322, 40.60350023218755 ], [ -73.893349343598445, 40.603507884606344 ], [ -73.893310109334223, 40.603513827565656 ], [ -73.893273121570786, 40.603517210635303 ], [ -73.893235016487779, 40.603518883447464 ], [ -73.893195794249834, 40.603517993240644 ], [ -73.893155453652142, 40.603514538171062 ], [ -73.893062457882777, 40.603501638889753 ], [ -73.893024367711718, 40.603494769303587 ], [ -73.892988516714681, 40.603487048028747 ], [ -73.892809276720754, 40.603444174344723 ], [ -73.892712935041487, 40.603421020942378 ], [ -73.892657483364786, 40.603408584216261 ], [ -73.892647957602975, 40.603408147537202 ], [ -73.892633387144699, 40.60340898849789 ], [ -73.892619935194446, 40.603411537869292 ], [ -73.892586303302679, 40.603418340429585 ], [ -73.892577335499624, 40.603419186631079 ], [ -73.892568370112187, 40.603420031914034 ], [ -73.892443964703972, 40.603425894752611 ], [ -73.892303867382111, 40.603433449246573 ], [ -73.892282571618495, 40.603435138449782 ], [ -73.89226015293697, 40.603438533037796 ], [ -73.892186162306174, 40.603454692743362 ], [ -73.892160378286732, 40.603459794189561 ], [ -73.891950758915243, 40.603492055279908 ], [ -73.891654828794998, 40.603535337948252 ], [ -73.89156291734129, 40.603544645257145 ], [ -73.891525924096996, 40.603550590646805 ], [ -73.891491167620487, 40.603560809312363 ], [ -73.891456401775486, 40.603575294611815 ], [ -73.89141938757075, 40.603594907144455 ], [ -73.891381244841412, 40.603619641691743 ], [ -73.89131841431913, 40.603663997644972 ], [ -73.891248841959595, 40.603718597880679 ], [ -73.891223028624111, 40.603741635699365 ], [ -73.891166909286724, 40.60379368667963 ], [ -73.891143342602916, 40.60381416380897 ], [ -73.891089482705283, 40.603855112502615 ], [ -73.891028893274239, 40.603898618500018 ], [ -73.890959337001817, 40.603943822550882 ], [ -73.890865103601257, 40.604002669353086 ], [ -73.890819110997668, 40.604029958209821 ], [ -73.890775364068247, 40.604053833455509 ], [ -73.89073162111184, 40.604076001323236 ], [ -73.890689003598254, 40.604095605603398 ], [ -73.890643025053762, 40.604113499297611 ], [ -73.890595929033665, 40.604130538142989 ], [ -73.890547712108898, 40.604145867614044 ], [ -73.890497259054996, 40.604159484889344 ], [ -73.890343661636379, 40.604196920463252 ], [ -73.890148592860285, 40.604238588207963 ], [ -73.890111600314171, 40.604244531385596 ], [ -73.890020804600638, 40.604256404096461 ], [ -73.889996143993983, 40.604260650778841 ], [ -73.889974841066675, 40.604265755195605 ], [ -73.889909808662622, 40.60428533851605 ], [ -73.889842527722408, 40.604309189974657 ], [ -73.889768513160092, 40.604338160696159 ], [ -73.889681040312581, 40.60437395064119 ], [ -73.889647394712497, 40.604389293752185 ], [ -73.889570002701632, 40.604428510801831 ], [ -73.889531869237786, 40.604445557003672 ], [ -73.889464589415979, 40.604468554560242 ], [ -73.889313218871791, 40.604515386930736 ], [ -73.889278459141863, 40.604525604004131 ], [ -73.889260518900798, 40.604529857853144 ], [ -73.889238096758078, 40.604535816576117 ], [ -73.889100201163089, 40.604565576992705 ], [ -73.889053112950492, 40.60457749220091 ], [ -73.889009384937566, 40.604589405202411 ], [ -73.888971259443025, 40.604602181812666 ], [ -73.88894995184873, 40.604610701767804 ], [ -73.888928643918561, 40.604620078078383 ], [ -73.888910693671107, 40.604630312239536 ], [ -73.888893865687962, 40.604641399325516 ], [ -73.888879278937736, 40.604652487745611 ], [ -73.888865809727903, 40.604664434526683 ], [ -73.88885346157744, 40.604677233312934 ], [ -73.888843353234748, 40.604690889874625 ], [ -73.888838857725943, 40.604698574177519 ], [ -73.888835479660827, 40.60470711140637 ], [ -73.888830966847976, 40.60472590092143 ], [ -73.888829812827666, 40.60474554469755 ], [ -73.888830857228598, 40.604791670393929 ], [ -73.888827454734169, 40.604815584081436 ], [ -73.888826317579813, 40.60482583176605 ], [ -73.888826279138144, 40.604848895032596 ], [ -73.888825142200162, 40.604858288197889 ], [ -73.888822890878046, 40.604864266307899 ], [ -73.888815171063513, 40.604872585989298 ], [ -73.888782502692976, 40.604888997816488 ], [ -73.888748858052494, 40.60490348606195 ], [ -73.888729794317541, 40.604911155391086 ], [ -73.888715217457943, 40.604916265180002 ], [ -73.888626622334144, 40.604951199551479 ], [ -73.888493169542286, 40.605004883217909 ], [ -73.888452793784978, 40.605022781484685 ], [ -73.88840792814193, 40.605044946455799 ], [ -73.888367543763366, 40.605067967696854 ], [ -73.888269948135104, 40.605124248888117 ], [ -73.888218349688614, 40.60515153124215 ], [ -73.8881667581324, 40.605175397932172 ], [ -73.888118534167901, 40.605194141188726 ], [ -73.887978369524447, 40.605239275367687 ], [ -73.88774626264366, 40.605310799293676 ], [ -73.887507426835342, 40.605384876277988 ], [ -73.887464820506338, 40.605396793390192 ], [ -73.887416607718748, 40.605408703226722 ], [ -73.887361676097058, 40.605418898997073 ], [ -73.887287686418546, 40.605432492580782 ], [ -73.887245087477908, 40.605439284766085 ], [ -73.887196887142849, 40.605445217744609 ], [ -73.887074709953552, 40.605457053745823 ], [ -73.887005217630218, 40.605461256472303 ], [ -73.886933490811231, 40.605462041306431 ], [ -73.886858405437934, 40.605461111735849 ], [ -73.886781082187653, 40.605456764259543 ], [ -73.886749707201659, 40.605454173073468 ], [ -73.886716095557389, 40.60544815958648 ], [ -73.886678002761073, 40.60544043329444 ], [ -73.886565979084594, 40.605412989916964 ], [ -73.886530128765131, 40.605406121317102 ], [ -73.886497635435617, 40.605401818830366 ], [ -73.886424797568822, 40.605396621869851 ], [ -73.886253338581824, 40.605389617892399 ], [ -73.886209638176453, 40.605386157975822 ], [ -73.886169298016057, 40.605382702296446 ], [ -73.885900379576256, 40.605351684035526 ], [ -73.885353586297029, 40.605285370104269 ], [ -73.885210143668075, 40.605280099936685 ], [ -73.885095842712659, 40.605274006946019 ], [ -73.88505886397553, 40.605271406085983 ], [ -73.884972585528914, 40.60526192448453 ], [ -73.884930004140585, 40.605258466958496 ], [ -73.884875090222792, 40.605257556329065 ], [ -73.88482577710559, 40.605259215187587 ], [ -73.884761887282892, 40.605264274946656 ], [ -73.884740587791455, 40.605267671953492 ], [ -73.884720408002295, 40.605271921923517 ], [ -73.884680042994759, 40.605282986574942 ], [ -73.884643037566434, 40.605295761034974 ], [ -73.884589209436712, 40.605315352698739 ], [ -73.884582424737317, 40.605350365327425 ], [ -73.883984718752899, 40.6055607419203 ], [ -73.883070546623301, 40.604732129839434 ], [ -73.882996696351356, 40.604665429416393 ], [ -73.882694878192041, 40.60422779095169 ], [ -73.88269040483712, 40.604221806919128 ], [ -73.882881454177067, 40.603919627724281 ], [ -73.882966865483084, 40.603783049027562 ], [ -73.882901220338837, 40.603511357703653 ], [ -73.883232457289822, 40.603148677046683 ], [ -73.883294211793839, 40.603081262019316 ], [ -73.883213756814698, 40.602948784566912 ], [ -73.883137783804713, 40.602815457856977 ], [ -73.883090864926345, 40.602730849221587 ], [ -73.883047305988015, 40.602647095916829 ], [ -73.883002633699206, 40.602558216605615 ], [ -73.882908844749025, 40.602361664846399 ], [ -73.882842977714319, 40.602217243099396 ], [ -73.882710150806943, 40.601914734594295 ], [ -73.882652105280243, 40.601784842449554 ], [ -73.882640939606219, 40.601761768714496 ], [ -73.882626415569931, 40.601736981415257 ], [ -73.882561591284414, 40.601637834178561 ], [ -73.882535892965834, 40.601594245124957 ], [ -73.882524731580972, 40.601569462176421 ], [ -73.882516925738102, 40.601547247308815 ], [ -73.882511361143926, 40.601525033816507 ], [ -73.88250803779755, 40.601502819943384 ], [ -73.882505909092856, 40.601439611041847 ], [ -73.882508341688563, 40.601330281185462 ], [ -73.882513246882695, 40.601090266480576 ], [ -73.882514535082706, 40.600995455497255 ], [ -73.882514566675596, 40.600977517069403 ], [ -73.882511237331542, 40.600958723440193 ], [ -73.882506789193243, 40.600939926740715 ], [ -73.882500101529303, 40.600919419544333 ], [ -73.882482244288667, 40.600877547629352 ], [ -73.882455432735014, 40.600829688080204 ], [ -73.882414085427527, 40.600763875161682 ], [ -73.882378320753375, 40.600710026869606 ], [ -73.882343664388628, 40.600662157407385 ], [ -73.882309003364355, 40.600617703662905 ], [ -73.882298938000304, 40.600606590774696 ], [ -73.882285509126746, 40.600595472676872 ], [ -73.882225080804119, 40.600547577558046 ], [ -73.882211654971044, 40.60053475116981 ], [ -73.88220271114767, 40.600522783986094 ], [ -73.882198242307268, 40.60051509248791 ], [ -73.88219602146421, 40.600503558129418 ], [ -73.882198293290372, 40.600486905287589 ], [ -73.882210689907453, 40.600447624694226 ], [ -73.882211820873906, 40.600440792713783 ], [ -73.882211275849158, 40.600432249723347 ], [ -73.882208487121503, 40.600424560034803 ], [ -73.882171654089248, 40.600341670563417 ], [ -73.882153784729937, 40.60030748465396 ], [ -73.882135908250362, 40.600276717061732 ], [ -73.882116908668465, 40.600247653836803 ], [ -73.882096786191028, 40.600220302340944 ], [ -73.882076657998979, 40.600195510043847 ], [ -73.882054287907806, 40.600172425646427 ], [ -73.881952479868161, 40.600075799297464 ], [ -73.881854047205181, 40.599974053318284 ], [ -73.881808185662109, 40.599926172144968 ], [ -73.88177910612481, 40.599894538347193 ], [ -73.881754506070521, 40.599864615688986 ], [ -73.881734382847782, 40.599836409524947 ], [ -73.881726564744369, 40.599822735093888 ], [ -73.881719870273486, 40.599805645334961 ], [ -73.881716538189238, 40.599788557118231 ], [ -73.881709894914621, 40.599743279234993 ], [ -73.881706557979697, 40.599729610429478 ], [ -73.881702096825236, 40.599717646823962 ], [ -73.881678653103904, 40.599667226751528 ], [ -73.881656311326154, 40.599627059365218 ], [ -73.881649602951668, 40.599618509173581 ], [ -73.88164177489719, 40.599609105901315 ], [ -73.881600377184697, 40.599573189088652 ], [ -73.881592547627164, 40.599564640497725 ], [ -73.881586960762547, 40.599555238699196 ], [ -73.881582501464763, 40.599541567725787 ], [ -73.88157916729341, 40.59952704247506 ], [ -73.881577034395235, 40.599464685464376 ], [ -73.881574819001983, 40.599450162204946 ], [ -73.881571481797778, 40.599437347913607 ], [ -73.881527989105081, 40.599318574589276 ], [ -73.881480060386565, 40.59917246308963 ], [ -73.881468899796332, 40.599147680032303 ], [ -73.88143985295099, 40.599097254032856 ], [ -73.881429806289674, 40.599075890450997 ], [ -73.881414186814951, 40.599036582727038 ], [ -73.881407521043158, 40.599004118321744 ], [ -73.881406434057169, 40.598986177897231 ], [ -73.881408711653805, 40.598965681660808 ], [ -73.881413233439034, 40.598943478622111 ], [ -73.881421685556873, 40.598916153786476 ], [ -73.881433518107571, 40.598878582730343 ], [ -73.881445911840288, 40.59884101133288 ], [ -73.881450408221781, 40.598832474552566 ], [ -73.881462768233874, 40.598814549867896 ], [ -73.881466143014052, 40.598806866446537 ], [ -73.881470655354406, 40.598790642772428 ], [ -73.881472926855793, 40.598773561341964 ], [ -73.881472958724061, 40.59875562475186 ], [ -73.881471872455407, 40.598735976041837 ], [ -73.881466320585616, 40.598706928525516 ], [ -73.881452971157941, 40.598651395733569 ], [ -73.881378429654021, 40.598348944877927 ], [ -73.881363981680352, 40.598281449338721 ], [ -73.881351789939927, 40.598205419136903 ], [ -73.881341840679923, 40.598129385897714 ], [ -73.881317551037128, 40.597926071483236 ], [ -73.881309813205434, 40.597865415936973 ], [ -73.881299826042493, 40.597810740368331 ], [ -73.881277607819541, 40.597702239499597 ], [ -73.881256467161805, 40.597617654069808 ], [ -73.881244210398549, 40.597578349798262 ], [ -73.881231949083684, 40.597541609328694 ], [ -73.88121856589531, 40.59750657330585 ], [ -73.8812029338484, 40.59747324582991 ], [ -73.881175016488882, 40.59741940443562 ], [ -73.881096806332948, 40.597290344225705 ], [ -73.881078933768009, 40.597258721941849 ], [ -73.881064415070824, 40.597230521379551 ], [ -73.881037630054379, 40.597169847060215 ], [ -73.880986315173303, 40.597039961904777 ], [ -73.88096288359958, 40.596983563058117 ], [ -73.880933854211705, 40.596925448352685 ], [ -73.880918212663218, 40.596898953134065 ], [ -73.88090256655336, 40.596875019960429 ], [ -73.880880206352217, 40.596845954869259 ], [ -73.880867906177571, 40.596833130407248 ], [ -73.880854475885073, 40.596822012971529 ], [ -73.880846641850312, 40.596816879974433 ], [ -73.880838806614676, 40.596811745134048 ], [ -73.880800746250046, 40.596790352381383 ], [ -73.880791790969155, 40.596785218215103 ], [ -73.880785077202219, 40.596779231774143 ], [ -73.880770536724739, 40.596764696685867 ], [ -73.880758240390279, 40.596748454639773 ], [ -73.880748186877582, 40.596730506721478 ], [ -73.880739256150889, 40.59671170528334 ], [ -73.880732571088913, 40.596690344294181 ], [ -73.880728130165735, 40.596667275512871 ], [ -73.880724812229673, 40.596642502290344 ], [ -73.880723736898005, 40.596616878552439 ], [ -73.880722858255865, 40.596481917261443 ], [ -73.880723427876219, 40.596163315748086 ], [ -73.880725827757843, 40.596074484434133 ], [ -73.880725884260031, 40.596042880653201 ], [ -73.880722583153059, 40.596008712333003 ], [ -73.880714809887721, 40.595970265422508 ], [ -73.880702554061514, 40.595930108324247 ], [ -73.880679147347777, 40.595860898588626 ], [ -73.88073744684722, 40.595843019927017 ], [ -73.880747626838655, 40.59579007263563 ], [ -73.880757869517311, 40.595702104912441 ], [ -73.880764734944208, 40.595621821508303 ], [ -73.880769354101005, 40.595545804181754 ], [ -73.880769482326457, 40.595474056123891 ], [ -73.880766283510496, 40.595382656927249 ], [ -73.880753132280248, 40.595216935463128 ], [ -73.880720260452335, 40.594800923794132 ], [ -73.880711436896604, 40.594722332352198 ], [ -73.880699258773731, 40.594639465323048 ], [ -73.880683734839224, 40.594548907061593 ], [ -73.880662627905267, 40.5944463858185 ], [ -73.880526837559245, 40.593935455376389 ], [ -73.880277368265851, 40.593084448115071 ], [ -73.880225024325355, 40.592905873850725 ], [ -73.880071200790539, 40.59245727712814 ], [ -73.880017632922815, 40.592338491684906 ], [ -73.879933863710264, 40.592188925264303 ], [ -73.879893663750096, 40.592112864693291 ], [ -73.879866317969601, 40.59205304224075 ], [ -73.87986130497697, 40.592037662322973 ], [ -73.879857975287578, 40.592019722282892 ], [ -73.879856888061354, 40.592000929903897 ], [ -73.879856988039037, 40.591945409135562 ], [ -73.879854776343393, 40.591929177632821 ], [ -73.879851442047595, 40.591913799556998 ], [ -73.879841409285618, 40.591885599925369 ], [ -73.879814630487004, 40.591823218761469 ], [ -73.879805716395538, 40.591795023060527 ], [ -73.879794590641552, 40.591750594013106 ], [ -73.879771248233922, 40.591646361944328 ], [ -73.879750107876063, 40.59156434091517 ], [ -73.879732300719056, 40.591497697038918 ], [ -73.879714482710924, 40.591437031776891 ], [ -73.87969665439249, 40.591381493117908 ], [ -73.879686618691991, 40.591355003595979 ], [ -73.879673221717326, 40.591326800503161 ], [ -73.879658708415235, 40.591298599833799 ], [ -73.87964083121166, 40.591269537346768 ], [ -73.879599487631793, 40.591207141758801 ], [ -73.879535777181204, 40.591120805639342 ], [ -73.879515651363974, 40.591096012031258 ], [ -73.87946085496506, 40.591037871594921 ], [ -73.879447437748567, 40.59102162738165 ], [ -73.879437382135549, 40.591006242225902 ], [ -73.879415041068484, 40.590968636334431 ], [ -73.879393826156203, 40.590927613208336 ], [ -73.879373737170269, 40.590883177366038 ], [ -73.879357017974669, 40.59083447212997 ], [ -73.878975949882999, 40.590894715398079 ], [ -73.878905663850446, 40.590727224956431 ], [ -73.879311417545452, 40.590647361223773 ], [ -73.87930139944126, 40.590610622797456 ], [ -73.87929473742183, 40.590576449121471 ], [ -73.879292544453051, 40.590549966897917 ], [ -73.879290387786355, 40.590504694473552 ], [ -73.879287315306883, 40.590344108144095 ], [ -73.879285151263701, 40.590302251364086 ], [ -73.879279631952343, 40.590256121715143 ], [ -73.879258579311397, 40.590126265704427 ], [ -73.87925536426296, 40.590045118967652 ], [ -73.87924878734384, 40.589963965928334 ], [ -73.879238849323627, 40.589883663032928 ], [ -73.879224427321347, 40.589803357169657 ], [ -73.879207765381238, 40.589723901791345 ], [ -73.879187743047538, 40.589643590106235 ], [ -73.879164354711179, 40.589564981316492 ], [ -73.879137605775725, 40.589486370819344 ], [ -73.879107494256687, 40.589409464974494 ], [ -73.879074019749808, 40.589332554738199 ], [ -73.879038302945602, 40.589256494888041 ], [ -73.879019333597185, 40.58921462037047 ], [ -73.879002605327841, 40.589171896371255 ], [ -73.878986994589525, 40.589129169868393 ], [ -73.878974749219779, 40.589086448754173 ], [ -73.878963622914313, 40.589042876894098 ], [ -73.878954737449732, 40.588999303801614 ], [ -73.878948095227329, 40.588955734915366 ], [ -73.878942573162192, 40.588911312607678 ], [ -73.878940411380555, 40.58886774836828 ], [ -73.878939372164339, 40.588823330792806 ], [ -73.878940572553319, 40.588778916503053 ], [ -73.878943981557867, 40.588751584741175 ], [ -73.878945153361713, 40.588724254131442 ], [ -73.878946322410215, 40.588697776449543 ], [ -73.878946371998879, 40.588670443818565 ], [ -73.878945300581762, 40.588643109083961 ], [ -73.878941987151435, 40.588615771144596 ], [ -73.878938677341438, 40.588588435886749 ], [ -73.878933122766099, 40.588561950101841 ], [ -73.878927569744263, 40.588534611554927 ], [ -73.87891977547153, 40.588508124324441 ], [ -73.878911979012372, 40.588481635334617 ], [ -73.878901943950225, 40.588455144900074 ], [ -73.878890786447883, 40.588429509555233 ], [ -73.878887484763425, 40.588397048521735 ], [ -73.878881939528597, 40.588365437963965 ], [ -73.87887527714895, 40.588332973379956 ], [ -73.878866370123902, 40.588301360107636 ], [ -73.878857461555668, 40.588270601436406 ], [ -73.878846316170183, 40.588238983955932 ], [ -73.878835166827869, 40.588208221995046 ], [ -73.878821776701685, 40.58817745774865 ], [ -73.87880726788967, 40.588146693990858 ], [ -73.878776063195474, 40.588054410546462 ], [ -73.878779437395238, 40.588047580963021 ], [ -73.878782811597674, 40.588040750460685 ], [ -73.878785064797341, 40.588033920528346 ], [ -73.87878731799978, 40.588027089759592 ], [ -73.878789571200045, 40.588020258990817 ], [ -73.878791825954011, 40.588012573620063 ], [ -73.878792956948175, 40.588005742502567 ], [ -73.87879409156605, 40.587998909631146 ], [ -73.878795226530883, 40.587991222156539 ], [ -73.878795238943326, 40.587984389018963 ], [ -73.8787952529065, 40.587976702199576 ], [ -73.878795265320633, 40.587969868141904 ], [ -73.87879527928547, 40.587962180402386 ], [ -73.878794170697134, 40.587955347836278 ], [ -73.878793062461128, 40.587947657990419 ], [ -73.878697391722639, 40.587571725338933 ], [ -73.87868515694332, 40.587522170044494 ], [ -73.878670682508726, 40.587472613382502 ], [ -73.878652843690503, 40.587423907761568 ], [ -73.878633885115804, 40.587375201788703 ], [ -73.878612684143604, 40.587327345366923 ], [ -73.878589242094904, 40.587280340250217 ], [ -73.87856355821819, 40.587233333674313 ], [ -73.878536751725846, 40.587187181344461 ], [ -73.878506582086175, 40.587141879213242 ], [ -73.878475293465357, 40.587097427729901 ], [ -73.87844176015102, 40.587053832979826 ], [ -73.878407104462852, 40.587011086194977 ], [ -73.878397211933347, 40.586998204187758 ], [ -73.879188018575675, 40.587239433518029 ] ] ] ] } },
{ "type": "Feature", "properties": { "Borough": "BK", "Block": 8591, "Lot": 100, "CD": 318, "BCT2020": "3070202", "BCTCB2020": "30702021006", "CT2010": "702.02", "CB2010": "1002", "SchoolDist": "22", "Council": 46, "ZipCode": 11234, "FireComp": "E323", "PolicePrct": 63, "HealthCent": 35, "HealthArea": 8822, "Sanitboro": "3", "SanitDistr": "18", "SanitSub": "7D", "Address": "FLATBUSH AVENUE", "ZoneDist1": "C3", "ZoneDist2": null, "ZoneDist3": null, "ZoneDist4": null, "Overlay1": null, "Overlay2": null, "SPDist1": null, "SPDist2": null, "SPDist3": null, "LtdHeight": null, "SplitZone": "N", "BldgClass": "V1", "LandUse": "11", "Easements": 0, "OwnerType": "C", "OwnerName": "NYC DEPARTMENT OF SMALL BUSINESS SERVICES", "LotArea": 23108842, "BldgArea": 0, "ComArea": 0, "ResArea": 0, "OfficeArea": 0, "RetailArea": 0, "GarageArea": 0, "StrgeArea": 0, "FactryArea": 0, "OtherArea": 0, "AreaSource": "7", "NumBldgs": 0, "NumFloors": 0.0, "UnitsRes": 0, "UnitsTotal": 0, "LotFront": 466.0, "LotDepth": 1009.0, "BldgFront": 0.0, "BldgDepth": 0.0, "Ext": null, "ProxCode": "0", "IrrLotCode": "Y", "LotType": "5", "BsmtCode": "5", "AssessLand": 816511500.00000012, "AssessTot": 816511500.00000012, "ExemptTot": 816511500.00000012, "YearBuilt": 0, "YearAlter1": 0, "YearAlter2": 0, "HistDist": null, "Landmark": null, "BuiltFAR": 0.0, "ResidFAR": 0.75, "CommFAR": 0.5, "FacilFAR": 1.0, "BoroCode": 3, "BBL": 3085910100.0, "CondoNo": 0, "Tract2010": "070202", "XCoord": 1010314, "YCoord": 158424, "ZoneMap": "29c", "ZMCode": null, "Sanborn": "319 071", "TaxMap": "32504", "EDesigNum": null, "APPBBL": 0.0, "APPDate": null, "PLUTOMapID": "1", "FIRM07_FLA": "1", "PFIRM15_FL": "1", "Version": "25v4", "DCPEdited": "t", "Latitude": 40.6014752, "Longitude": -73.9061401, "Notes": null, "Shape_Leng": 0.0, "Shape_Area": 2738588.0384 }, "geometry": { "type": "MultiPolygon", "coordinates": [ [ [ [ -73.912044030526957, 40.60069763840503 ], [ -73.911170212419904, 40.60130076772743 ], [ -73.911113618928468, 40.60133983075243 ], [ -73.910548576336723, 40.601729824753718 ], [ -73.910175103781512, 40.601987589337995 ], [ -73.910139193416782, 40.601991616429679 ], [ -73.910112293669158, 40.601995865671071 ], [ -73.910087629414832, 40.602002679462849 ], [ -73.910074174957359, 40.602007792839714 ], [ -73.909994557537672, 40.602045314523266 ], [ -73.909978853733151, 40.602056405661699 ], [ -73.909965393323716, 40.60206493742988 ], [ -73.909951936537851, 40.602071759995646 ], [ -73.909932877956692, 40.602077936976315 ], [ -73.909919428319739, 40.602078568508666 ], [ -73.909907101992374, 40.60207855882058 ], [ -73.909892535505051, 40.602076839086457 ], [ -73.909836516540921, 40.602066544407883 ], [ -73.909768178045795, 40.60205026138533 ], [ -73.909727850246199, 40.602038272561792 ], [ -73.909678565529063, 40.602020296208359 ], [ -73.909583366772111, 40.601978366723955 ], [ -73.909443373028267, 40.601913338559847 ], [ -73.909391832136251, 40.601906465528309 ], [ -73.909381749416013, 40.601904749272428 ], [ -73.909360462635561, 40.601901316792691 ], [ -73.909332456759969, 40.601892752301744 ], [ -73.909321256298384, 40.601888472270851 ], [ -73.909305859035243, 40.601879917746352 ], [ -73.909297744494012, 40.601872224423893 ], [ -73.90928432602314, 40.601850860627344 ], [ -73.909277052088157, 40.601842739369381 ], [ -73.909269214366986, 40.601837394055423 ], [ -73.909249612586493, 40.60183033281767 ], [ -73.909233929679473, 40.60182690475115 ], [ -73.909218243200002, 40.601824328521246 ], [ -73.90919863299807, 40.601823458386015 ], [ -73.909190226838717, 40.601824306328297 ], [ -73.909179015925574, 40.601827714934494 ], [ -73.909166682619997, 40.601831974491724 ], [ -73.909143133671364, 40.601843916577423 ], [ -73.909131918054754, 40.601849885385604 ], [ -73.909119581180917, 40.60185756418015 ], [ -73.909096020596934, 40.601876336707697 ], [ -73.909076941387241, 40.601896820148916 ], [ -73.909062350431824, 40.601913892337009 ], [ -73.909035412259058, 40.60194547568382 ], [ -73.909009602096717, 40.60197022494232 ], [ -73.90899726179947, 40.601980464851351 ], [ -73.908984922581496, 40.601988143713285 ], [ -73.908971466807643, 40.601994965328856 ], [ -73.908956889825816, 40.602000078603666 ], [ -73.908890748707719, 40.602017965334433 ], [ -73.908764074495892, 40.602046049969829 ], [ -73.908184508000744, 40.602181399343678 ], [ -73.908165453047118, 40.602184800647528 ], [ -73.908144159320159, 40.60218734739248 ], [ -73.908069065581032, 40.602192410202903 ], [ -73.908041045561234, 40.602195804295668 ], [ -73.908013021974028, 40.602200908503896 ], [ -73.9079883562502, 40.602208575525985 ], [ -73.907872861716626, 40.60225716948591 ], [ -73.907798851369321, 40.602291277588442 ], [ -73.907767454613577, 40.602304918602798 ], [ -73.907757363578455, 40.60230832705134 ], [ -73.907746151306341, 40.602311733676494 ], [ -73.907720370098119, 40.602315985014918 ], [ -73.907695712492398, 40.602318526292173 ], [ -73.907630709660367, 40.602321891418349 ], [ -73.907558979354846, 40.602327812127896 ], [ -73.90738750230895, 40.602337923418297 ], [ -73.907303443211433, 40.602345544131971 ], [ -73.907269818216989, 40.602348931747628 ], [ -73.90726084955638, 40.602350632775604 ], [ -73.907228343302464, 40.602355734002167 ], [ -73.907200316023136, 40.60236339821828 ], [ -73.907175651262563, 40.602371919668649 ], [ -73.907079215804643, 40.60241369412374 ], [ -73.907025392896458, 40.602435859180169 ], [ -73.906992875974112, 40.602448645392698 ], [ -73.906981663544627, 40.602452906545039 ], [ -73.906968213538036, 40.602455460357007 ], [ -73.906940194530065, 40.602457144978587 ], [ -73.906912179207026, 40.602456267628284 ], [ -73.906848306946571, 40.602450236287432 ], [ -73.906822533997257, 40.602449361658884 ], [ -73.906690287897291, 40.602454378018123 ], [ -73.906521057573656, 40.602462781643837 ], [ -73.906445965703739, 40.60246784523585 ], [ -73.906373112804459, 40.602474621570344 ], [ -73.906303619890537, 40.60248225169147 ], [ -73.906236367150328, 40.602491590969123 ], [ -73.906171354357809, 40.602502642081006 ], [ -73.906108576900905, 40.602515403270687 ], [ -73.90604916435332, 40.602529022707252 ], [ -73.905991988239379, 40.602544349554293 ], [ -73.905948260960869, 40.602559689164366 ], [ -73.905847341798591, 40.602601458991323 ], [ -73.905800250612032, 40.602618504065767 ], [ -73.905635441994264, 40.602668763446488 ], [ -73.90558611195911, 40.602682390105379 ], [ -73.905541269303441, 40.602693457471524 ], [ -73.905487462719009, 40.602703662828191 ], [ -73.905412360917367, 40.602715558957954 ], [ -73.905380978012758, 40.602719804229494 ], [ -73.905348472661487, 40.60272234028205 ], [ -73.905314852115069, 40.602723165279158 ], [ -73.905278989183401, 40.602723990253821 ], [ -73.905243132197498, 40.602722253256779 ], [ -73.905206151555149, 40.602720515235625 ], [ -73.905124355012518, 40.602711050623668 ], [ -73.905048168135039, 40.602699882316358 ], [ -73.90487338570091, 40.602669842814848 ], [ -73.904791594021219, 40.602657816924555 ], [ -73.904721002764461, 40.602650924217876 ], [ -73.904656006691241, 40.602648308212125 ], [ -73.904624627560636, 40.602649135792866 ], [ -73.904596609632335, 40.602649967081113 ], [ -73.904570830652915, 40.602652505749752 ], [ -73.904547290403329, 40.602655905481718 ], [ -73.904469943520397, 40.602671216531476 ], [ -73.904419499206242, 40.602681423352507 ], [ -73.904369050099831, 40.602694194792022 ], [ -73.904240124137374, 40.602729105700853 ], [ -73.904157164602609, 40.602749538545545 ], [ -73.904088783753025, 40.602764855076764 ], [ -73.904026005653179, 40.602777614210048 ], [ -73.903967717408804, 40.602787816106002 ], [ -73.903939694516509, 40.602791209196809 ], [ -73.903911677861387, 40.602791185717372 ], [ -73.903884784805498, 40.602789454889425 ], [ -73.90386013686259, 40.602784309285596 ], [ -73.903799644182811, 40.60276803029754 ], [ -73.903758199564336, 40.602754326476727 ], [ -73.903637239133204, 40.602704685374988 ], [ -73.903554358507805, 40.602670449908807 ], [ -73.903546519547731, 40.602667879506704 ], [ -73.903538675727503, 40.602666164621972 ], [ -73.903529711816603, 40.602666157079163 ], [ -73.903520744282446, 40.602666149532624 ], [ -73.903503932704197, 40.602667843668158 ], [ -73.903466938648279, 40.60267549942639 ], [ -73.903451249515967, 40.602677196255776 ], [ -73.903250624280062, 40.602694109123405 ], [ -73.903197943580736, 40.602700045028328 ], [ -73.903150867889067, 40.602705982046395 ], [ -73.903101546006667, 40.602713629028351 ], [ -73.903056706608908, 40.602722987144595 ], [ -73.90301410603287, 40.602733200817923 ], [ -73.902974865484367, 40.60274512568796 ], [ -73.90293225741911, 40.602760465098484 ], [ -73.902887401833013, 40.602780072841234 ], [ -73.902847031203677, 40.602799684449771 ], [ -73.902739365988054, 40.602854259260603 ], [ -73.902487035463167, 40.602977042636617 ], [ -73.902386100845987, 40.60302820811377 ], [ -73.902317693227232, 40.603059753651927 ], [ -73.902239197865441, 40.603092144228242 ], [ -73.902155100934621, 40.603123677208707 ], [ -73.902003731088868, 40.603177359505167 ], [ -73.901962246335955, 40.60319013754944 ], [ -73.901914041351318, 40.603202052551033 ], [ -73.901860233799098, 40.603212258885968 ], [ -73.901779524303706, 40.60322585520592 ], [ -73.901688728223945, 40.603241151105337 ], [ -73.901457806037541, 40.603281955360011 ], [ -73.901330021309164, 40.603301489428304 ], [ -73.901260526954133, 40.603310824701232 ], [ -73.901194396405216, 40.603317602705921 ], [ -73.90113162857044, 40.603323527212872 ], [ -73.901072228347488, 40.60332603969669 ], [ -73.900919815807413, 40.603326760008571 ], [ -73.900764032963963, 40.603332605651559 ], [ -73.900660917709246, 40.603341057774706 ], [ -73.900545468286296, 40.603353771198705 ], [ -73.9004737285982, 40.603364812417091 ], [ -73.900443461474964, 40.603370765593191 ], [ -73.900416558005929, 40.60337671984405 ], [ -73.900395254701138, 40.603383534474659 ], [ -73.900347036843655, 40.60340143186037 ], [ -73.900323493431529, 40.60340824277548 ], [ -73.900299951287892, 40.603414200840092 ], [ -73.900277529435783, 40.603418453432106 ], [ -73.900256235087255, 40.603420143192345 ], [ -73.90023382288534, 40.603419483430557 ], [ -73.900220938097405, 40.603415840388919 ], [ -73.900185670297816, 40.603394458354465 ], [ -73.900173352253731, 40.603388752706522 ], [ -73.900159906847108, 40.603386319501219 ], [ -73.90014085817451, 40.603385022388572 ], [ -73.900087055471516, 40.603390100367641 ], [ -73.900070561095802, 40.60339140951853 ], [ -73.900113212521362, 40.603309060179711 ], [ -73.900160423113135, 40.60322381650964 ], [ -73.900271016460479, 40.603037221185843 ], [ -73.90039506632111, 40.602846025018422 ], [ -73.900526401573856, 40.602660465874393 ], [ -73.900616740896027, 40.602554094483615 ], [ -73.900851338452213, 40.60230070266055 ], [ -73.901181262777058, 40.601960638161287 ], [ -73.901536378584311, 40.601651806368004 ], [ -73.901860927019456, 40.601420457951335 ], [ -73.902207444834218, 40.601186868832116 ], [ -73.90254102429428, 40.600987200193309 ], [ -73.902927083980998, 40.600773361196566 ], [ -73.903235793380901, 40.600618329086622 ], [ -73.903567736149768, 40.600472897196731 ], [ -73.903829604746434, 40.600365027582967 ], [ -73.90743609528981, 40.599018812718185 ], [ -73.910902551017926, 40.599586400314834 ], [ -73.910998611188745, 40.599541268700889 ], [ -73.91218133306252, 40.600602867528757 ], [ -73.912044030526957, 40.60069763840503 ] ] ] ] } },
{ "type": "Feature", "properties": { "Borough": "BK", "Block": 8591, "Lot": 125, "CD": 318, "BCT2020": "3070202", "BCTCB2020": "30702021006", "CT2010": "702.02", "CB2010": "1002", "SchoolDist": "22", "Council": 46, "ZipCode": 11234, "FireComp": "E323", "PolicePrct": 63, "HealthCent": 35, "HealthArea": 8822, "Sanitboro": "3", "SanitDistr": "18", "SanitSub": "7D", "Address": "2875 FLATBUSH AVENUE", "ZoneDist1": "C8-1", "ZoneDist2": null, "ZoneDist3": null, "ZoneDist4": null, "Overlay1": null, "Overlay2": null, "SPDist1": null, "SPDist2": null, "SPDist3": null, "LtdHeight": null, "SplitZone": "N", "BldgClass": "K1", "LandUse": "05", "Easements": 0, "OwnerType": null, "OwnerName": "MMC BROOKLYN LLC", "LotArea": 130120, "BldgArea": 45969, "ComArea": 45969, "ResArea": 0, "OfficeArea": 0, "RetailArea": 45969, "GarageArea": 0, "StrgeArea": 0, "FactryArea": 0, "OtherArea": 0, "AreaSource": "2", "NumBldgs": 1, "NumFloors": 1.0, "UnitsRes": 0, "UnitsTotal": 1, "LotFront": 325.3, "LotDepth": 400.0, "BldgFront": 500.0, "BldgDepth": 102.0, "Ext": "N", "ProxCode": "0", "IrrLotCode": "Y", "LotType": "5", "BsmtCode": "0", "AssessLand": 259200.0, "AssessTot": 4670550.0, "ExemptTot": 0.0, "YearBuilt": 1991, "YearAlter1": 0, "YearAlter2": 0, "HistDist": null, "Landmark": null, "BuiltFAR": 0.35, "ResidFAR": 0.0, "CommFAR": 1.0, "FacilFAR": 2.4, "BoroCode": 3, "BBL": 3085910125.0, "CondoNo": 0, "Tract2010": "070202", "XCoord": 1008671, "YCoord": 158355, "ZoneMap": "29c", "ZMCode": "Y", "Sanborn": "319 071", "TaxMap": "32504", "EDesigNum": null, "APPBBL": 3085910125.0, "APPDate": "02/07/2013", "PLUTOMapID": "1", "FIRM07_FLA": "1", "PFIRM15_FL": "1", "Version": "25v4", "DCPEdited": null, "Latitude": 40.6012905, "Longitude": -73.912057, "Notes": null, "Shape_Leng": 0.0, "Shape_Area": 123160.65216500001 }, "geometry": { "type": "MultiPolygon", "coordinates": [ [ [ [ -73.911170212419904, 40.60130076772743 ], [ -73.912044030526957, 40.60069763840503 ], [ -73.91218133306252, 40.600602867528757 ], [ -73.912939601109585, 40.601283455814183 ], [ -73.912767698424247, 40.601402110211559 ], [ -73.912066160584686, 40.601886332766057 ], [ -73.911928478086068, 40.601981363558579 ], [ -73.911315758448396, 40.601431406444014 ], [ -73.911170212419904, 40.60130076772743 ] ] ] ] } },
{ "type": "Feature", "properties": { "Borough": "BK", "Block": 8591, "Lot": 150, "CD": 318, "BCT2020": "3070202", "BCTCB2020": "30702021006", "CT2010": "702.02", "CB2010": "1002", "SchoolDist": "22", "Council": 46, "ZipCode": 11234, "FireComp": "E323", "PolicePrct": 63, "HealthCent": 35, "HealthArea": 8822, "Sanitboro": "3", "SanitDistr": "18", "SanitSub": "7D", "Address": "2859 FLATBUSH AVENUE", "ZoneDist1": "C8-1", "ZoneDist2": null, "ZoneDist3": null, "ZoneDist4": null, "Overlay1": null, "Overlay2": null, "SPDist1": null, "SPDist2": null, "SPDist3": null, "LtdHeight": null, "SplitZone": "N", "BldgClass": "G8", "LandUse": "05", "Easements": 0, "OwnerType": null, "OwnerName": "BICAL DEVELOPMENT, INC.", "LotArea": 110303, "BldgArea": 147187, "ComArea": 147187, "ResArea": 0, "OfficeArea": 0, "RetailArea": 0, "GarageArea": 147187, "StrgeArea": 0, "FactryArea": 0, "OtherArea": 0, "AreaSource": "2", "NumBldgs": 1, "NumFloors": 3.0, "UnitsRes": 0, "UnitsTotal": 1, "LotFront": 476.17, "LotDepth": 400.0, "BldgFront": 0.0, "BldgDepth": 0.0, "Ext": null, "ProxCode": "1", "IrrLotCode": "Y", "LotType": "5", "BsmtCode": "0", "AssessLand": 1328850.0, "AssessTot": 18073800.0, "ExemptTot": 0.0, "YearBuilt": 2016, "YearAlter1": 0, "YearAlter2": 0, "HistDist": null, "Landmark": null, "BuiltFAR": 1.33, "ResidFAR": 0.0, "CommFAR": 1.0, "FacilFAR": 2.4, "BoroCode": 3, "BBL": 3085910149.9999995, "CondoNo": 0, "Tract2010": "070202", "XCoord": 1008404, "YCoord": 158576, "ZoneMap": "29a", "ZMCode": "Y", "Sanborn": "319 071", "TaxMap": "32504", "EDesigNum": null, "APPBBL": 3085910175.0, "APPDate": "02/07/2013", "PLUTOMapID": "1", "FIRM07_FLA": "1", "PFIRM15_FL": "1", "Version": "25v4", "DCPEdited": null, "Latitude": 40.6018978, "Longitude": -73.9130177, "Notes": null, "Shape_Leng": 0.0, "Shape_Area": 104264.023889 }, "geometry": { "type": "MultiPolygon", "coordinates": [ [ [ [ -73.91352186438894, 40.602303747802551 ], [ -73.913504410332976, 40.602288217766642 ], [ -73.913430944851697, 40.602285210385176 ], [ -73.913371470002375, 40.602271636043241 ], [ -73.913317336162493, 40.602229368730015 ], [ -73.913247283054318, 40.602236174962563 ], [ -73.91314803939234, 40.602239142732216 ], [ -73.912333209449486, 40.602021498487119 ], [ -73.912190325225708, 40.602090288028677 ], [ -73.912148560094522, 40.602047945892622 ], [ -73.912062152966882, 40.602101343591393 ], [ -73.911928478086068, 40.601981363558579 ], [ -73.912066160584686, 40.601886332766057 ], [ -73.912767698424247, 40.601402110211559 ], [ -73.912939601109585, 40.601283455814183 ], [ -73.913812363433607, 40.602066787387393 ], [ -73.914032040600347, 40.602263950355628 ], [ -73.913852176723253, 40.602435423171016 ], [ -73.91384057209784, 40.60244648721234 ], [ -73.913815957330712, 40.602469953405851 ], [ -73.913760804572433, 40.602420452582024 ], [ -73.913709582863532, 40.602385381028377 ], [ -73.913672165447466, 40.602360577752435 ], [ -73.91363660141424, 40.602339680511577 ], [ -73.913599415421217, 40.602324118468438 ], [ -73.913566635446571, 40.602294697110224 ], [ -73.913552164982008, 40.602281710633193 ], [ -73.913544337359568, 40.602287403163984 ], [ -73.91352186438894, 40.602303747802551 ] ] ] ] } },
{ "type": "Feature", "properties": { "Borough": "BK", "Block": 8591, "Lot": 175, "CD": 318, "BCT2020": "3070202", "BCTCB2020": "30702021006", "CT2010": "702.02", "CB2010": "1002", "SchoolDist": "22", "Council": 46, "ZipCode": 11234, "FireComp": "E323", "PolicePrct": 63, "HealthCent": 35, "HealthArea": 8822, "Sanitboro": "3", "SanitDistr": "18", "SanitSub": "7D", "Address": "FLATBUSH AVENUE", "ZoneDist1": "C3", "ZoneDist2": null, "ZoneDist3": null, "ZoneDist4": null, "Overlay1": null, "Overlay2": null, "SPDist1": null, "SPDist2": null, "SPDist3": null, "LtdHeight": null, "SplitZone": "N", "BldgClass": "V1", "LandUse": "11", "Easements": 0, "OwnerType": "C", "OwnerName": "NYC DEPARTMENT OF SMALL BUSINESS SERVICES", "LotArea": 76148, "BldgArea": 0, "ComArea": 0, "ResArea": 0, "OfficeArea": 0, "RetailArea": 0, "GarageArea": 0, "StrgeArea": 0, "FactryArea": 0, "OtherArea": 0, "AreaSource": "7", "NumBldgs": 1, "NumFloors": 0.0, "UnitsRes": 0, "UnitsTotal": 0, "LotFront": 353.0, "LotDepth": 105.33, "BldgFront": 0.0, "BldgDepth": 0.0, "Ext": null, "ProxCode": "0", "IrrLotCode": "Y", "LotType": "5", "BsmtCode": "5", "AssessLand": 1361700.0, "AssessTot": 1361700.0, "ExemptTot": 1361700.0, "YearBuilt": 0, "YearAlter1": 0, "YearAlter2": 0, "HistDist": null, "Landmark": null, "BuiltFAR": 0.0, "ResidFAR": 0.75, "CommFAR": 0.5, "FacilFAR": 1.0, "BoroCode": 3, "BBL": 3085910175.0, "CondoNo": 0, "Tract2010": "070202", "XCoord": 1008174, "YCoord": 158856, "ZoneMap": "29a", "ZMCode": null, "Sanborn": "319 071", "TaxMap": "32504", "EDesigNum": null, "APPBBL": 3085910175.0, "APPDate": "02/07/2013", "PLUTOMapID": "1", "FIRM07_FLA": "1", "PFIRM15_FL": "1", "Version": "25v4", "DCPEdited": "t", "Latitude": 40.602667, "Longitude": -73.913845, "Notes": null, "Shape_Leng": 0.0, "Shape_Area": 42195.394306200011 }, "geometry": { "type": "MultiPolygon", "coordinates": [ [ [ [ -73.91352186438894, 40.602303747802551 ], [ -73.913544337359568, 40.602287403163984 ], [ -73.913552164982008, 40.602281710633193 ], [ -73.913566635446571, 40.602294697110224 ], [ -73.913599415421217, 40.602324118468438 ], [ -73.91363660141424, 40.602339680511577 ], [ -73.913672165447466, 40.602360577752435 ], [ -73.913709582863532, 40.602385381028377 ], [ -73.913760804572433, 40.602420452582024 ], [ -73.913815957330712, 40.602469953405851 ], [ -73.91384057209784, 40.60244648721234 ], [ -73.913852176723253, 40.602435423171016 ], [ -73.914032040600347, 40.602263950355628 ], [ -73.914049571235154, 40.602279683916358 ], [ -73.91464376577548, 40.602812972727293 ], [ -73.914428196064947, 40.603018487378492 ], [ -73.914390574163377, 40.603011917037215 ], [ -73.914358311021005, 40.602983112126111 ], [ -73.913838429872769, 40.602897305331226 ], [ -73.913877841790907, 40.602751274878614 ], [ -73.913892476475297, 40.602701316874786 ], [ -73.913885757490917, 40.602696613815127 ], [ -73.913648411943399, 40.602514497506135 ], [ -73.913639452373417, 40.602510222261742 ], [ -73.913548729655489, 40.60247086149085 ], [ -73.913491610725274, 40.602443483920879 ], [ -73.913463612947211, 40.602428943667284 ], [ -73.913443457023988, 40.6024169686169 ], [ -73.913407627529367, 40.602392170973424 ], [ -73.913404045857632, 40.60238943546446 ], [ -73.91352186438894, 40.602303747802551 ] ] ] ] } },
{ "type": "Feature", "properties": { "Borough": "BK", "Block": 8591, "Lot": 200, "CD": 318, "BCT2020": "3070202", "BCTCB2020": "30702021005", "CT2010": "702.02", "CB2010": "1003", "SchoolDist": null, "Council": 46, "ZipCode": 0, "FireComp": null, "PolicePrct": 0, "HealthCent": 0, "HealthArea": 0, "Sanitboro": null, "SanitDistr": null, "SanitSub": null, "Address": "FLATBUSH AVENUE", "ZoneDist1": "C3", "ZoneDist2": null, "ZoneDist3": null, "ZoneDist4": null, "Overlay1": null, "Overlay2": null, "SPDist1": null, "SPDist2": null, "SPDist3": null, "LtdHeight": null, "SplitZone": "N", "BldgClass": "Y7", "LandUse": "07", "Easements": 0, "OwnerType": "C", "OwnerName": "CITY OF NEWYORK", "LotArea": 267417, "BldgArea": 0, "ComArea": 0, "ResArea": 0, "OfficeArea": 0, "RetailArea": 0, "GarageArea": 0, "StrgeArea": 0, "FactryArea": 0, "OtherArea": 0, "AreaSource": "7", "NumBldgs": 1, "NumFloors": 0.0, "UnitsRes": 0, "UnitsTotal": 0, "LotFront": 392.74, "LotDepth": 787.96, "BldgFront": 0.0, "BldgDepth": 0.0, "Ext": null, "ProxCode": "0", "IrrLotCode": "Y", "LotType": "6", "BsmtCode": "5", "AssessLand": 673200.0, "AssessTot": 673200.0, "ExemptTot": 673200.0, "YearBuilt": 0, "YearAlter1": 0, "YearAlter2": 0, "HistDist": null, "Landmark": null, "BuiltFAR": 0.0, "ResidFAR": 0.75, "CommFAR": 0.5, "FacilFAR": 1.0, "BoroCode": 3, "BBL": 3085910200.0, "CondoNo": 0, "Tract2010": "070202", "XCoord": 1008856, "YCoord": 158681, "ZoneMap": "29c", "ZMCode": "Y", "Sanborn": "319 071", "TaxMap": "32504", "EDesigNum": null, "APPBBL": 3085910125.0, "APPDate": "02/07/2013", "PLUTOMapID": "1", "FIRM07_FLA": "1", "PFIRM15_FL": "1", "Version": "25v4", "DCPEdited": null, "Latitude": 40.6021848, "Longitude": -73.9113896, "Notes": null, "Shape_Leng": 0.0, "Shape_Area": 90295.216301599998 }, "geometry": { "type": "MultiPolygon", "coordinates": [ [ [ [ -73.910548576336723, 40.601729824753718 ], [ -73.911113618928468, 40.60133983075243 ], [ -73.911170212419904, 40.60130076772743 ], [ -73.911315758448396, 40.601431406444014 ], [ -73.911928478086068, 40.601981363558579 ], [ -73.912062152966882, 40.602101343591393 ], [ -73.912148560094522, 40.602047945892622 ], [ -73.912190325225708, 40.602090288028677 ], [ -73.912333209449486, 40.602021498487119 ], [ -73.91314803939234, 40.602239142732216 ], [ -73.913247283054318, 40.602236174962563 ], [ -73.913317336162493, 40.602229368730015 ], [ -73.913371470002375, 40.602271636043241 ], [ -73.913430944851697, 40.602285210385176 ], [ -73.913504410332976, 40.602288217766642 ], [ -73.91352186438894, 40.602303747802551 ], [ -73.913404045857632, 40.60238943546446 ], [ -73.913381877723864, 40.602372504784995 ], [ -73.913376280600644, 40.602367377541881 ], [ -73.913370685799393, 40.602361392939486 ], [ -73.91335391017742, 40.602335755913181 ], [ -73.913347194502563, 40.602327636256057 ], [ -73.913321447513709, 40.602305834931066 ], [ -73.913296816877391, 40.602288734380274 ], [ -73.913271059475719, 40.602275046778132 ], [ -73.913245296416676, 40.602265632093697 ], [ -73.913202723372791, 40.602256205676298 ], [ -73.913081721102245, 40.602233050673632 ], [ -73.913059311772003, 40.602231325392808 ], [ -73.912232346985249, 40.602169194852799 ], [ -73.912115806369641, 40.602161418729892 ], [ -73.912079949509263, 40.602159682945675 ], [ -73.912037363066332, 40.602160503950827 ], [ -73.91200037812952, 40.602163038446143 ], [ -73.911970111372412, 40.60216899373674 ], [ -73.911903980863968, 40.602178338111919 ], [ -73.911874839839641, 40.602180879515856 ], [ -73.911843460907065, 40.602181709986183 ], [ -73.911807600576211, 40.602181682397848 ], [ -73.911750449821497, 40.602179073680205 ], [ -73.911735882133527, 40.602178208780728 ], [ -73.911722437867454, 40.602174782778128 ], [ -73.911713477302385, 40.60217221382581 ], [ -73.911579017928972, 40.602156735615637 ], [ -73.911547644782416, 40.602153292999226 ], [ -73.911000846480476, 40.602090516710412 ], [ -73.910985173685589, 40.602079401152253 ], [ -73.910963620075208, 40.60206336683148 ], [ -73.910944860416421, 40.602055452854472 ], [ -73.91092693947023, 40.602048604871563 ], [ -73.910916857082839, 40.602045608228785 ], [ -73.910877643003744, 40.602039172366844 ], [ -73.910822741616172, 40.602031441841056 ], [ -73.91079361090226, 40.60202629348364 ], [ -73.910775681866525, 40.602025424926047 ], [ -73.91076447678131, 40.602025416202743 ], [ -73.91073757693016, 40.602027958979441 ], [ -73.910721885769121, 40.602028799602252 ], [ -73.910710120037166, 40.602028362676627 ], [ -73.910698917745435, 40.602025365142204 ], [ -73.910687157669855, 40.60201980336393 ], [ -73.910660279052948, 40.602007398423041 ], [ -73.910633396439025, 40.601997983199709 ], [ -73.910605389277833, 40.60199112638179 ], [ -73.910277050244943, 40.601980620119903 ], [ -73.910199719095758, 40.601984828972618 ], [ -73.910175103781512, 40.601987589337995 ], [ -73.910548576336723, 40.601729824753718 ] ] ] ] } },
{ "type": "Feature", "properties": { "Borough": "BK", "Block": 8591, "Lot": 1500, "CD": 356, "BCT2020": "3070202", "BCTCB2020": "30702021000", "CT2010": "702.02", "CB2010": "1000", "SchoolDist": "22", "Council": 46, "ZipCode": 11234, "FireComp": "E323", "PolicePrct": 63, "HealthCent": 35, "HealthArea": 8822, "Sanitboro": null, "SanitDistr": null, "SanitSub": null, "Address": "FLATBUSH AVENUE", "ZoneDist1": "M1-1", "ZoneDist2": null, "ZoneDist3": null, "ZoneDist4": null, "Overlay1": null, "Overlay2": null, "SPDist1": null, "SPDist2": null, "SPDist3": null, "LtdHeight": null, "SplitZone": "N", "BldgClass": "Y4", "LandUse": "08", "Easements": 0, "OwnerType": "X", "OwnerName": "NATIONAL PARK SERVICE", "LotArea": 2413870, "BldgArea": 24000000, "ComArea": 24000000, "ResArea": 0, "OfficeArea": 0, "RetailArea": 0, "GarageArea": 0, "StrgeArea": 0, "FactryArea": 0, "OtherArea": 24000000, "AreaSource": "2", "NumBldgs": 6, "NumFloors": 0.0, "UnitsRes": 0, "UnitsTotal": 0, "LotFront": 250.0, "LotDepth": 200.0, "BldgFront": 0.0, "BldgDepth": 0.0, "Ext": "N", "ProxCode": "0", "IrrLotCode": "Y", "LotType": "5", "BsmtCode": "0", "AssessLand": 7038900.0, "AssessTot": 9233550.0, "ExemptTot": 9233550.0, "YearBuilt": 1930, "YearAlter1": 0, "YearAlter2": 0, "HistDist": null, "Landmark": null, "BuiltFAR": 9.94, "ResidFAR": 0.0, "CommFAR": 1.0, "FacilFAR": 2.4, "BoroCode": 3, "BBL": 3085911500.0, "CondoNo": 0, "Tract2010": "070202", "XCoord": 1017788, "YCoord": 152323, "ZoneMap": "29c", "ZMCode": "Y", "Sanborn": "319 071", "TaxMap": "32504", "EDesigNum": null, "APPBBL": 0.0, "APPDate": null, "PLUTOMapID": "1", "FIRM07_FLA": "1", "PFIRM15_FL": "1", "Version": "25v4", "DCPEdited": null, "Latitude": 40.5847041, "Longitude": -73.8792556, "Notes": null, "Shape_Leng": 0.0, "Shape_Area": 2203225.2213900001 }, "geometry": { "type": "MultiPolygon", "coordinates": [ [ [ [ -73.878067344025538, 40.58267472257328 ], [ -73.877926866618452, 40.582522312202826 ], [ -73.877962937659063, 40.582464836271022 ], [ -73.879334893928927, 40.581744733163696 ], [ -73.879603635511387, 40.581983772427442 ], [ -73.880427825244169, 40.581424770468352 ], [ -73.882509045250984, 40.586594451313402 ], [ -73.882267331534678, 40.586747560643779 ], [ -73.882056612837474, 40.586866032125144 ], [ -73.881924228570682, 40.586925356557749 ], [ -73.88179993186013, 40.58697003934877 ], [ -73.880150930371954, 40.587261803549616 ], [ -73.880011334681427, 40.587232428336208 ], [ -73.879931588166286, 40.587219374618947 ], [ -73.879890439039343, 40.587210956652896 ], [ -73.879835078705938, 40.58720448422423 ], [ -73.879188018575675, 40.587239433518029 ], [ -73.878397211933347, 40.586998204187758 ], [ -73.878365747894847, 40.586957231558415 ], [ -73.878322150297294, 40.586904225535505 ], [ -73.878277427815476, 40.586852074745359 ], [ -73.87822934453844, 40.586800772211703 ], [ -73.878179018672384, 40.586751179161446 ], [ -73.878127565167105, 40.586703291336029 ], [ -73.878072753642542, 40.586655399080087 ], [ -73.878016816538036, 40.586610068492504 ], [ -73.878007864398, 40.586604079501555 ], [ -73.877998912723484, 40.586597237745593 ], [ -73.87799108443761, 40.586590396180448 ], [ -73.877982132769802, 40.586583551746656 ], [ -73.877974302075231, 40.586576710177773 ], [ -73.877966474038658, 40.586569015011371 ], [ -73.877959765881059, 40.586561321036399 ], [ -73.877951936754314, 40.586553624027616 ], [ -73.877945228600097, 40.586545929968018 ], [ -73.877939642982639, 40.586537382583074 ], [ -73.87793293362607, 40.58652968676499 ], [ -73.877928467774751, 40.58652114149168 ], [ -73.877922883261931, 40.586512593185638 ], [ -73.877918415107587, 40.586504047825677 ], [ -73.877908394799746, 40.586469871315053 ], [ -73.877897250872635, 40.586436547291804 ], [ -73.877884986838296, 40.586404075756711 ], [ -73.877870483535119, 40.586370748151474 ], [ -73.877854855053613, 40.586339127634318 ], [ -73.877838107184786, 40.586306649560839 ], [ -73.877819118980042, 40.586275880982825 ], [ -73.877799007881649, 40.586244255680988 ], [ -73.877777776219091, 40.586214336548323 ], [ -73.877755423719137, 40.586184416300426 ], [ -73.877740890049409, 40.586166465077206 ], [ -73.877726358699874, 40.586148511095594 ], [ -73.877706230103527, 40.586127135568915 ], [ -73.877686103827514, 40.586105759957356 ], [ -73.877664853932657, 40.586085237748428 ], [ -73.877026510114774, 40.585326058534079 ], [ -73.87699627416039, 40.585318337425278 ], [ -73.876966037844127, 40.58531147091194 ], [ -73.876935797654127, 40.58530545899027 ], [ -73.876905558563138, 40.585299448903342 ], [ -73.876874195377724, 40.585295144047365 ], [ -73.87686636930502, 40.585286594119196 ], [ -73.876858540451934, 40.585278898875103 ], [ -73.876850713177831, 40.585270348108224 ], [ -73.876842888209623, 40.585261798263382 ], [ -73.876836182368692, 40.585252395014997 ], [ -73.876830595794544, 40.585243847489927 ], [ -73.876823890947705, 40.585234443321774 ], [ -73.876818307159269, 40.585225042199113 ], [ -73.876813841911911, 40.585215640436395 ], [ -73.876808258123191, 40.585206241069656 ], [ -73.876803792878519, 40.585196839307827 ], [ -73.876800451367501, 40.585186585068207 ], [ -73.876795987330382, 40.58517718422614 ], [ -73.876793765562212, 40.585166932947239 ], [ -73.876790422366369, 40.585157533309335 ], [ -73.876788198295671, 40.585147281190167 ], [ -73.87678597883847, 40.58513702723571 ], [ -73.876784876812962, 40.585126778079974 ], [ -73.876783774423245, 40.585117379929699 ], [ -73.876783793348139, 40.585107131058408 ], [ -73.876782691328245, 40.585096878388399 ], [ -73.876783831201024, 40.585086631641822 ], [ -73.876783861172115, 40.585070400635381 ], [ -73.876783891136554, 40.585054173226872 ], [ -73.876782800154061, 40.585037943693635 ], [ -73.876781151676028, 40.58502042943703 ], [ -73.876776133670958, 40.585007185502448 ], [ -73.876772793748614, 40.584996078416125 ], [ -73.876767225764794, 40.584978134025704 ], [ -73.876762775942822, 40.584961046276959 ], [ -73.876758326496187, 40.584943103088257 ], [ -73.876756118938687, 40.584925164986942 ], [ -73.876753911385606, 40.584907224207704 ], [ -73.87675170383541, 40.584889283428396 ], [ -73.876752836192153, 40.584882452330206 ], [ -73.876752850393061, 40.584874763667223 ], [ -73.876753983954444, 40.584867933574188 ], [ -73.876755119099101, 40.584860247037476 ], [ -73.876756251458261, 40.584853414181502 ], [ -73.876758504757589, 40.584846584286801 ], [ -73.876760756854566, 40.584839752634309 ], [ -73.876763014148267, 40.584832066383527 ], [ -73.876765267449443, 40.584825235652346 ], [ -73.876768640483107, 40.584818407045987 ], [ -73.876772013519641, 40.584811577434337 ], [ -73.876775386184036, 40.58480560250981 ], [ -73.876779880163639, 40.584798773266279 ], [ -73.876783254404714, 40.584791942820551 ], [ -73.876787746912797, 40.584785969099087 ], [ -73.876793360252904, 40.584779996499343 ], [ -73.876797854228954, 40.584773167255108 ], [ -73.876803466358353, 40.584767195656134 ], [ -73.876809078124424, 40.584762074981271 ], [ -73.876794524149645, 40.584756080794186 ], [ -73.87669789577474, 40.584906308459615 ], [ -73.876692276777646, 40.584915272540272 ], [ -73.876684407738281, 40.584929357308383 ], [ -73.876469454552364, 40.584844564950288 ], [ -73.876524986232226, 40.584756080151685 ], [ -73.877665599825974, 40.582938616928239 ], [ -73.878067344025538, 40.58267472257328 ] ] ] ] } }
]
}
