{
"type": "FeatureCollection",
"name": "pluto_Ferry_Point_Park-St._Raymond_Cemetery",
"crs": { "type": "name", "properties": { "name": "urn:ogc:def:crs:OGC:1.3:CRS84" } },
"features": [
{ "type": "Feature", "properties": { "Borough": "BX", "Block": 5570, "Lot": 1, "CD": 210, "BCT2020": "2011000", "BCTCB2020": "20110001004", "CT2010": "110", "CB2010": "1007", "SchoolDist": "08", "Council": 13, "ZipCode": 10465, "FireComp": "E072", "PolicePrct": 45, "HealthCent": 26, "HealthArea": 3220, "Sanitboro": "2", "SanitDistr": "10", "SanitSub": "3C", "Address": "RANDALL AVENUE", "ZoneDist1": "R4", "ZoneDist2": null, "ZoneDist3": null, "ZoneDist4": null, "Overlay1": null, "Overlay2": null, "SPDist1": null, "SPDist2": null, "SPDist3": null, "LtdHeight": null, "SplitZone": "N", "BldgClass": "V0", "LandUse": "11", "Easements": 0, "OwnerType": "X", "OwnerName": "THE ROMAN CATHOLIC CH", "LotArea": 490000, "BldgArea": 0, "ComArea": 0, "ResArea": 0, "OfficeArea": 0, "RetailArea": 0, "GarageArea": 0, "StrgeArea": 0, "FactryArea": 0, "OtherArea": 0, "AreaSource": "7", "NumBldgs": 0, "NumFloors": 0.0, "UnitsRes": 0, "UnitsTotal": 0, "LotFront": 940.0, "LotDepth": 500.0, "BldgFront": 0.0, "BldgDepth": 0.0, "Ext": null, "ProxCode": "0", "IrrLotCode": "Y", "LotType": "3", "BsmtCode": "5", "AssessLand": 1717440.0, "AssessTot": 1717440.0, "ExemptTot": 1717440.0, "YearBuilt": 0, "YearAlter1": 0, "YearAlter2": 0, "HistDist": null, "Landmark": null, "BuiltFAR": 0.0, "ResidFAR": 1.0, "CommFAR": 0.0, "FacilFAR": 2.0, "BoroCode": 2, "BBL": 2055700001.0, "CondoNo": 0, "Tract2010": "0110", "XCoord": 1031161, "YCoord": 238397, "ZoneMap": "7a", "ZMCode": null, "Sanborn": "221 079", "TaxMap": "21808", "EDesigNum": null, "APPBBL": 0.0, "APPDate": null, "PLUTOMapID": "1", "FIRM07_FLA": null, "PFIRM15_FL": null, "Version": "25v4", "DCPEdited": null, "Latitude": 40.8208957, "Longitude": -73.8305103, "Notes": null, "Shape_Leng": 0.0, "Shape_Area": 492738.69077699998 }, "geometry": { "type": "MultiPolygon", "coordinates": [ [ [ [ -73.828530561207643, 40.821046890233646 ], [ -73.831500819832144, 40.819585279156421 ], [ -73.832488820629834, 40.820745378104505 ], [ -73.832293198527523, 40.820841445987604 ], [ -73.832094945799227, 40.820938804585701 ], [ -73.831819776802746, 40.821073934583382 ], [ -73.831693459828642, 40.821135966541085 ], [ -73.831328102875389, 40.821315383378028 ], [ -73.830796994202402, 40.821576192357924 ], [ -73.829852461279032, 40.822040008879092 ], [ -73.8296168205828, 40.82215571957893 ], [ -73.829515591415358, 40.822205426905136 ], [ -73.828530561207643, 40.821046890233646 ] ] ] ] } },
{ "type": "Feature", "properties": { "Borough": "BX", "Block": 5583, "Lot": 100, "CD": 210, "BCT2020": "2011000", "BCTCB2020": "20110001004", "CT2010": "110", "CB2010": "1014", "SchoolDist": "08", "Council": 13, "ZipCode": 10465, "FireComp": "E072", "PolicePrct": 45, "HealthCent": 26, "HealthArea": 3220, "Sanitboro": "2", "SanitDistr": "10", "SanitSub": "3C", "Address": "351 BALCOM AVENUE", "ZoneDist1": "PARK", "ZoneDist2": null, "ZoneDist3": null, "ZoneDist4": null, "Overlay1": null, "Overlay2": null, "SPDist1": null, "SPDist2": null, "SPDist3": null, "LtdHeight": null, "SplitZone": "N", "BldgClass": "Q5", "LandUse": "09", "Easements": 0, "OwnerType": "C", "OwnerName": "NYC DEPARTMENT OF PARKS AND RECREATION", "LotArea": 2994000, "BldgArea": 510, "ComArea": 510, "ResArea": 0, "OfficeArea": 100, "RetailArea": 0, "GarageArea": 0, "StrgeArea": 0, "FactryArea": 0, "OtherArea": 410, "AreaSource": "2", "NumBldgs": 2, "NumFloors": 1.0, "UnitsRes": 0, "UnitsTotal": 1, "LotFront": 1500.0, "LotDepth": 368.33, "BldgFront": 10.0, "BldgDepth": 20.0, "Ext": "N", "ProxCode": "1", "IrrLotCode": "Y", "LotType": "5", "BsmtCode": "0", "AssessLand": 34895774.0, "AssessTot": 43535250.0, "ExemptTot": 43535250.0, "YearBuilt": 2014, "YearAlter1": 2012, "YearAlter2": 0, "HistDist": null, "Landmark": null, "BuiltFAR": 0.0, "ResidFAR": 0.0, "CommFAR": 0.0, "FacilFAR": 0.0, "BoroCode": 2, "BBL": 2055830100.0, "CondoNo": 0, "Tract2010": "0110", "XCoord": 1032042, "YCoord": 237446, "ZoneMap": "7a", "ZMCode": null, "Sanborn": "221 080", "TaxMap": "21808", "EDesigNum": null, "APPBBL": 0.0, "APPDate": null, "PLUTOMapID": "1", "FIRM07_FLA": "1", "PFIRM15_FL": "1", "Version": "25v4", "DCPEdited": "t", "Latitude": 40.8182808, "Longitude": -73.827334, "Notes": null, "Shape_Leng": 0.0, "Shape_Area": 2853882.4693300002 }, "geometry": { "type": "MultiPolygon", "coordinates": [ [ [ [ -73.825838722503704, 40.820542695010232 ], [ -73.825523005156612, 40.820147309557122 ], [ -73.825452415626941, 40.820051284118492 ], [ -73.82523426943176, 40.819746720619762 ], [ -73.825092066194216, 40.819536050863206 ], [ -73.824927704555279, 40.819275123703669 ], [ -73.824349943780888, 40.818318814066608 ], [ -73.823414437816993, 40.816775888456021 ], [ -73.828373170676144, 40.815065630767521 ], [ -73.829867787752406, 40.817558486564302 ], [ -73.83007047016909, 40.817870483765702 ], [ -73.830291527866223, 40.818153748460404 ], [ -73.830429857300572, 40.818320022269774 ], [ -73.830635999301336, 40.818563314579052 ], [ -73.830769209465515, 40.818720896921548 ], [ -73.830903336140906, 40.818879561079186 ], [ -73.831344008966298, 40.819400826348868 ], [ -73.828373739697568, 40.820862440687669 ], [ -73.826771611243657, 40.821641744360832 ], [ -73.825838722503704, 40.820542695010232 ] ] ] ] } },
{ "type": "Feature", "properties": { "Borough": "BX", "Block": 5610, "Lot": 5, "CD": 210, "BCT2020": "2009000", "BCTCB2020": "20090002019", "CT2010": "90", "CB2010": "2014", "SchoolDist": "08", "Council": 13, "ZipCode": 10465, "FireComp": "E072", "PolicePrct": 45, "HealthCent": 26, "HealthArea": 3100, "Sanitboro": "2", "SanitDistr": "10", "SanitSub": "3D", "Address": "BRUSH AVENUE", "ZoneDist1": "M1-1", "ZoneDist2": "R4", "ZoneDist3": null, "ZoneDist4": null, "Overlay1": null, "Overlay2": null, "SPDist1": null, "SPDist2": null, "SPDist3": null, "LtdHeight": null, "SplitZone": "Y", "BldgClass": "V1", "LandUse": "11", "Easements": 0, "OwnerType": "C", "OwnerName": "NYC DEPARTMENT OF SMALL BUSINESS SERVICES", "LotArea": 1357, "BldgArea": 0, "ComArea": 0, "ResArea": 0, "OfficeArea": 0, "RetailArea": 0, "GarageArea": 0, "StrgeArea": 0, "FactryArea": 0, "OtherArea": 0, "AreaSource": "7", "NumBldgs": 0, "NumFloors": 0.0, "UnitsRes": 0, "UnitsTotal": 0, "LotFront": 9.08, "LotDepth": 10.67, "BldgFront": 0.0, "BldgDepth": 0.0, "Ext": null, "ProxCode": "0", "IrrLotCode": "Y", "LotType": "8", "BsmtCode": "5", "AssessLand": 15750.0, "AssessTot": 15750.0, "ExemptTot": 15750.0, "YearBuilt": 0, "YearAlter1": 0, "YearAlter2": 0, "HistDist": null, "Landmark": null, "BuiltFAR": 0.0, "ResidFAR": 0.0, "CommFAR": 1.0, "FacilFAR": 2.4, "BoroCode": 2, "BBL": 2056100005.0, "CondoNo": 0, "Tract2010": "0090", "XCoord": 1028865, "YCoord": 236750, "ZoneMap": "7a", "ZMCode": null, "Sanborn": "221 040", "TaxMap": "21809", "EDesigNum": null, "APPBBL": 0.0, "APPDate": null, "PLUTOMapID": "1", "FIRM07_FLA": "1", "PFIRM15_FL": "1", "Version": "25v4", "DCPEdited": "t", "Latitude": 40.8163871, "Longitude": -73.8388167, "Notes": null, "Shape_Leng": 0.0, "Shape_Area": 1441.3756011 }, "geometry": { "type": "MultiPolygon", "coordinates": [ [ [ [ -73.838905758190592, 40.816344775875748 ], [ -73.838869939132536, 40.81644893254628 ], [ -73.838861954606514, 40.816471590591433 ], [ -73.838832348291334, 40.816450670102483 ], [ -73.838679152053231, 40.816346163378988 ], [ -73.838905758190592, 40.816344775875748 ] ] ] ] } },
{ "type": "Feature", "properties": { "Borough": "BX", "Block": 5622, "Lot": 1, "CD": 210, "BCT2020": "2011000", "BCTCB2020": "20110001004", "CT2010": "110", "CB2010": "1012", "SchoolDist": "08", "Council": 13, "ZipCode": 10465, "FireComp": "E072", "PolicePrct": 45, "HealthCent": 26, "HealthArea": 3220, "Sanitboro": "2", "SanitDistr": "10", "SanitSub": "3C", "Address": "450 HUTCHINSON RVR PKWY", "ZoneDist1": "PARK", "ZoneDist2": null, "ZoneDist3": null, "ZoneDist4": null, "Overlay1": null, "Overlay2": null, "SPDist1": null, "SPDist2": null, "SPDist3": null, "LtdHeight": null, "SplitZone": "N", "BldgClass": "Q5", "LandUse": "09", "Easements": 0, "OwnerType": "C", "OwnerName": "NYC DEPARTMENT OF PARKS AND RECREATION", "LotArea": 4225328, "BldgArea": 14681, "ComArea": 14681, "ResArea": 0, "OfficeArea": 2150, "RetailArea": 0, "GarageArea": 0, "StrgeArea": 12531, "FactryArea": 0, "OtherArea": 0, "AreaSource": "2", "NumBldgs": 9, "NumFloors": 1.0, "UnitsRes": 0, "UnitsTotal": 2, "LotFront": 97.0, "LotDepth": 3400.0, "BldgFront": 65.5, "BldgDepth": 35.5, "Ext": "N", "ProxCode": "0", "IrrLotCode": "Y", "LotType": "5", "BsmtCode": "0", "AssessLand": 40660411.0, "AssessTot": 52680600.0, "ExemptTot": 52680600.0, "YearBuilt": 2014, "YearAlter1": 2010, "YearAlter2": 2017, "HistDist": null, "Landmark": null, "BuiltFAR": 0.0, "ResidFAR": 0.0, "CommFAR": 0.0, "FacilFAR": 0.0, "BoroCode": 2, "BBL": 2056220001.0, "CondoNo": 0, "Tract2010": "0110", "XCoord": 1030076, "YCoord": 234898, "ZoneMap": "7a", "ZMCode": "Y", "Sanborn": "221 081", "TaxMap": "21809", "EDesigNum": "E-824", "APPBBL": 0.0, "APPDate": null, "PLUTOMapID": "1", "FIRM07_FLA": "1", "PFIRM15_FL": "1", "Version": "25v4", "DCPEdited": "t", "Latitude": 40.8112977, "Longitude": -73.8344543, "Notes": null, "Shape_Leng": 0.0, "Shape_Area": 11756635.9848 }, "geometry": { "type": "MultiPolygon", "coordinates": [ [ [ [ -73.831204539620273, 40.818726179486056 ], [ -73.830975605248966, 40.818459829999739 ], [ -73.830958045297947, 40.818438601072174 ], [ -73.830751143532055, 40.818188479763954 ], [ -73.830598085532273, 40.818001428091904 ], [ -73.830398437310095, 40.817733975939817 ], [ -73.830181559494889, 40.817411868212204 ], [ -73.828712034011332, 40.814974804626445 ], [ -73.828504475828041, 40.814782169730996 ], [ -73.826457169057733, 40.811284092748814 ], [ -73.826490535865929, 40.811285349720599 ], [ -73.826547847180876, 40.811293978264672 ], [ -73.826612995909286, 40.81131457621067 ], [ -73.826682611236706, 40.811347138638162 ], [ -73.826738745511349, 40.811375408755083 ], [ -73.826794888922421, 40.811401117785323 ], [ -73.82685104894712, 40.811419993917724 ], [ -73.826925208893684, 40.811433770495121 ], [ -73.826976912354255, 40.811437264660817 ], [ -73.827054468618087, 40.811441651284568 ], [ -73.827115158653982, 40.81144772170726 ], [ -73.827183721803991, 40.811452951169613 ], [ -73.827256786929297, 40.811454769011121 ], [ -73.827324216476114, 40.811463411339815 ], [ -73.827384883299672, 40.811478021973997 ], [ -73.827447809630129, 40.811489219388427 ], [ -73.827515248090251, 40.811494446968702 ], [ -73.827589445879028, 40.811493703468756 ], [ -73.827656889786823, 40.811496366304887 ], [ -73.827715342790015, 40.811498161993384 ], [ -73.827764810187773, 40.811497382307529 ], [ -73.827827756388473, 40.811500038319636 ], [ -73.827888472065013, 40.81149671256663 ], [ -73.827958184065878, 40.811490837392192 ], [ -73.828027903993956, 40.81148325394048 ], [ -73.828105499103955, 40.811473120293883 ], [ -73.828162857113625, 40.811463811825369 ], [ -73.828223583547043, 40.811455361176201 ], [ -73.828294438091689, 40.811443506344219 ], [ -73.828360789269652, 40.811434211182778 ], [ -73.828417011438788, 40.811429171130015 ], [ -73.828483356097877, 40.811422436038498 ], [ -73.828541824356805, 40.81141825109269 ], [ -73.828613800034745, 40.811407255075771 ], [ -73.828684669844478, 40.811389424306576 ], [ -73.828755545005677, 40.811369028916111 ], [ -73.828827535972806, 40.811352055228191 ], [ -73.828892776627825, 40.811337629778009 ], [ -73.828950140997193, 40.811325758099379 ], [ -73.829010888285623, 40.811309618584048 ], [ -73.829099751855622, 40.81128839685914 ], [ -73.82917398218234, 40.811274840089723 ], [ -73.829234734848626, 40.811256993976393 ], [ -73.829285379389333, 40.81123486186307 ], [ -73.829338269895686, 40.81121358663227 ], [ -73.829393405497783, 40.811194022111934 ], [ -73.829465419091761, 40.811167652250838 ], [ -73.829522813853671, 40.811143821697279 ], [ -73.82957907945179, 40.811121695011067 ], [ -73.829636474130965, 40.811097865320761 ], [ -73.829676996013063, 40.811077424467172 ], [ -73.829733281169069, 40.811047612849656 ], [ -73.82979069321091, 40.81101694920757 ], [ -73.829862731696636, 40.810981181486092 ], [ -73.829906624418712, 40.810962455531396 ], [ -73.829960638160827, 40.81094118083832 ], [ -73.830023683209717, 40.810905400659365 ], [ -73.830094599985756, 40.810868776555083 ], [ -73.830146364089657, 40.81084750021283 ], [ -73.830189132010858, 40.810828770735306 ], [ -73.830231901969597, 40.810809189339089 ], [ -73.830302817428404, 40.810772564184404 ], [ -73.83034222407683, 40.81074870763949 ], [ -73.830387261682631, 40.810720588300342 ], [ -73.83043906924982, 40.810683082180731 ], [ -73.830480750192336, 40.810648977624908 ], [ -73.830526931037667, 40.810614024254846 ], [ -73.830570864514797, 40.810578216492175 ], [ -73.83061478490292, 40.810547531755738 ], [ -73.830657576161443, 40.810518552583169 ], [ -73.830694746225277, 40.810490422476185 ], [ -73.830747697734267, 40.810445230335077 ], [ -73.830783758299589, 40.810411117409934 ], [ -73.830829948464256, 40.810371894614761 ], [ -73.830876119036873, 40.810340358416788 ], [ -73.830924533491157, 40.810310534658669 ], [ -73.830967333394597, 40.810278992638544 ], [ -73.831015779082051, 40.810236360186892 ], [ -73.831058602639914, 40.810195423195424 ], [ -73.831102546254002, 40.8101544887503 ], [ -73.83114087318377, 40.810113545134143 ], [ -73.831187084598923, 40.810065781835981 ], [ -73.831235573587776, 40.810006915125207 ], [ -73.831273921860145, 40.809956577443181 ], [ -73.831319023754304, 40.809903686894089 ], [ -73.831357341597553, 40.809865306019788 ], [ -73.831379885943051, 40.809841422587688 ], [ -73.831426089403891, 40.809796222092615 ], [ -73.831463310666152, 40.809747590941548 ], [ -73.831488131155183, 40.809711751343414 ], [ -73.831515220681894, 40.809669085591246 ], [ -73.831552458958242, 40.80961276603491 ], [ -73.831576155981466, 40.809577780194225 ], [ -73.831604351468087, 40.809541095356984 ], [ -73.83164268865481, 40.809495879674735 ], [ -73.831682145661773, 40.80945066821122 ], [ -73.831717080633837, 40.809417407927498 ], [ -73.831762155629718, 40.809373913891406 ], [ -73.831792598221028, 40.809338083275236 ], [ -73.831820807657309, 40.8092962709906 ], [ -73.831850166354755, 40.809244212659756 ], [ -73.831870519406877, 40.809198117819221 ], [ -73.831889773451707, 40.809140918234924 ], [ -73.831904500800576, 40.809095670595461 ], [ -73.831925989007757, 40.809044453583418 ], [ -73.831942947434698, 40.809006895002518 ], [ -73.831971193299992, 40.808950563104915 ], [ -73.831991529603954, 40.808909593790446 ], [ -73.832007380602363, 40.80886520152152 ], [ -73.832023279852336, 40.808801163952666 ], [ -73.832032393462129, 40.808753345362376 ], [ -73.832041471614929, 40.808720048188675 ], [ -73.832057353663757, 40.80866284273376 ], [ -73.832068684052558, 40.808626984172314 ], [ -73.832082308165667, 40.808574048252794 ], [ -73.832099287775037, 40.808527095706793 ], [ -73.832114002072984, 40.808487826500226 ], [ -73.832123108168261, 40.808443423460943 ], [ -73.832132239838515, 40.808387918158424 ], [ -73.832142473709666, 40.808341809435547 ], [ -73.832148194985848, 40.808301672534519 ], [ -73.83215393337646, 40.808254704432414 ], [ -73.83216308250104, 40.808193218910453 ], [ -73.832172217472035, 40.808136858187183 ], [ -73.832180233243463, 40.808078788421788 ], [ -73.832183723400433, 40.808031817124558 ], [ -73.832191731589958, 40.807976308335391 ], [ -73.832203102978411, 40.807925076524484 ], [ -73.832203232212393, 40.807873828333271 ], [ -73.832196637227099, 40.807814028112588 ], [ -73.832192302413816, 40.807749961029408 ], [ -73.832190186728965, 40.807697855904749 ], [ -73.832185836849817, 40.807639768118086 ], [ -73.832182576000505, 40.807595346128956 ], [ -73.832175958568598, 40.807544943525173 ], [ -73.832162641881155, 40.807476591439332 ], [ -73.832142535348396, 40.807426168255468 ], [ -73.832123564155154, 40.807370621147363 ], [ -73.832107964904097, 40.807315933451143 ], [ -73.832096813378456, 40.807280043946129 ], [ -73.832082319347251, 40.807233045506294 ], [ -73.832070063783704, 40.80718946405991 ], [ -73.832053353964398, 40.807129651837847 ], [ -73.832035476486624, 40.807086917692153 ], [ -73.832001879072322, 40.807037327632109 ], [ -73.831968255670148, 40.80699713333815 ], [ -73.831927903097494, 40.806951806232 ], [ -73.831879686707623, 40.806903903967154 ], [ -73.831833704635301, 40.806861984266007 ], [ -73.831776493622144, 40.806814922404378 ], [ -73.831721513707166, 40.806775551423819 ], [ -73.831673263021912, 40.806741314990731 ], [ -73.831641855959546, 40.806714789890663 ], [ -73.831593649539656, 40.806662618200818 ], [ -73.831574657554256, 40.806616465857822 ], [ -73.83158828176343, 40.806563528223343 ], [ -73.831606370645432, 40.80652255575793 ], [ -73.831616606754494, 40.806475593324507 ], [ -73.83163360776841, 40.806420099548056 ], [ -73.831635972605184, 40.80637397935093 ], [ -73.831633828209817, 40.806332976381483 ], [ -73.831624990074602, 40.80627146642788 ], [ -73.831621742781081, 40.806222775198208 ], [ -73.831617341620344, 40.806185187261171 ], [ -73.831610717330562, 40.80613819841782 ], [ -73.831603005815836, 40.806074980020433 ], [ -73.831598625341485, 40.806029704543363 ], [ -73.831593117783498, 40.805984428255456 ], [ -73.831585376448743, 40.805934875867102 ], [ -73.831574288133581, 40.805874216278134 ], [ -73.831563155648354, 40.805831492833086 ], [ -73.831555412044551, 40.805781939518056 ], [ -73.831542057417948, 40.805728964178968 ], [ -73.831521991761861, 40.805662312130195 ], [ -73.831508624214123, 40.805614459749847 ], [ -73.831494136350358, 40.805564898402686 ], [ -73.831478529277334, 40.805513627084693 ], [ -73.831461795519303, 40.805463207863454 ], [ -73.831443956750206, 40.805405954035777 ], [ -73.831437334672302, 40.805357257769927 ], [ -73.831432991028976, 40.805297462615307 ], [ -73.831426352759749, 40.805255600314702 ], [ -73.831428754485358, 40.805194958691956 ], [ -73.83144125470956, 40.805141165671159 ], [ -73.831447005465989, 40.805089926605525 ], [ -73.831468483821851, 40.805041271459039 ], [ -73.831509048206783, 40.805003321545925 ], [ -73.831518062318324, 40.804995219410237 ], [ -73.831557483360854, 40.8049636739634 ], [ -73.831605878468849, 40.804939828357696 ], [ -73.831625573427388, 40.804930889002549 ], [ -73.831689151032691, 40.804904076813557 ], [ -73.831712780292463, 40.80489471544189 ], [ -73.831739786705143, 40.804883651755581 ], [ -73.831763414740081, 40.804874289534077 ], [ -73.831826413272111, 40.804854736158831 ], [ -73.831874787676924, 40.804838578899954 ], [ -73.831933289975765, 40.804819019822936 ], [ -73.832013167817095, 40.804791803405081 ], [ -73.832080640648059, 40.80477994407056 ], [ -73.83214245833706, 40.804782594334142 ], [ -73.832198631629325, 40.804794636591581 ], [ -73.832260431060647, 40.804804974336662 ], [ -73.832321099348661, 40.804817022244407 ], [ -73.832372791499822, 40.804823075056056 ], [ -73.832451444757112, 40.804836002733744 ], [ -73.832516628519841, 40.804840366776951 ], [ -73.832581805011955, 40.804848149106384 ], [ -73.832648112500522, 40.804853371133241 ], [ -73.832707685277029, 40.804854311341963 ], [ -73.832772884370243, 40.804853552363198 ], [ -73.832851553695647, 40.804859646802882 ], [ -73.832921237137981, 40.804863163484399 ], [ -73.832986439315718, 40.804860696141972 ], [ -73.833049383904381, 40.804862493891477 ], [ -73.833117921287879, 40.804874552785918 ], [ -73.833190959041772, 40.804884908071443 ], [ -73.833255014354947, 40.804891835653315 ], [ -73.833316821495799, 40.804898757184418 ], [ -73.833367389151761, 40.804904807923712 ], [ -73.833440432572203, 40.804913455731999 ], [ -73.833496625337276, 40.804917808978374 ], [ -73.833556188715789, 40.804923017972484 ], [ -73.833626988256896, 40.804929953252326 ], [ -73.833697778171327, 40.80494030597319 ], [ -73.833757335178532, 40.804948079523328 ], [ -73.833823631271997, 40.804958425596595 ], [ -73.833869697367348, 40.804966178702642 ], [ -73.8339371137059, 40.804977378233005 ], [ -73.833993284038172, 40.80499027335744 ], [ -73.834044964904606, 40.805001450059308 ], [ -73.834124745182933, 40.805012670891045 ], [ -73.834186566210917, 40.805013613573273 ], [ -73.834251767682161, 40.805011999178362 ], [ -73.834331563088824, 40.805018091551567 ], [ -73.834394488541776, 40.805026723281735 ], [ -73.834465263689722, 40.805043056588282 ], [ -73.834523665582864, 40.805063638634174 ], [ -73.834589898029819, 40.80509875245383 ], [ -73.834644925140012, 40.805120185094239 ], [ -73.834692099417992, 40.805135627951621 ], [ -73.834743765359192, 40.805151931818898 ], [ -73.834888659328968, 40.805196555041803 ], [ -73.834929092461095, 40.805210278134034 ], [ -73.834989740620131, 40.805231718666718 ], [ -73.835052633583672, 40.805254016880212 ], [ -73.835107659872961, 40.80527544837895 ], [ -73.835166056724148, 40.805297739258208 ], [ -73.83522445361011, 40.805320031864198 ], [ -73.835282844197934, 40.805344884583818 ], [ -73.835330000661557, 40.805367160139788 ], [ -73.835368167769587, 40.805387713743592 ], [ -73.835423182694726, 40.805414270733628 ], [ -73.835479316886151, 40.805442537543229 ], [ -73.835527599040375, 40.805463961883042 ], [ -73.835591618071888, 40.80548540682635 ], [ -73.835601723704727, 40.805490544233876 ], [ -73.835650017693439, 40.80550769654316 ], [ -73.835712916254792, 40.805527432578018 ], [ -73.835770209053777, 40.805542033922528 ], [ -73.835829750991323, 40.805555784865419 ], [ -73.835878056516691, 40.805567812355385 ], [ -73.835934229253525, 40.805581559279339 ], [ -73.835999381182916, 40.805598734617341 ], [ -73.836053305659448, 40.805611621857359 ], [ -73.836083630484808, 40.805621916338751 ], [ -73.836126318541801, 40.805633080310209 ], [ -73.836186976773931, 40.805650249065543 ], [ -73.836242025871954, 40.805663140576875 ], [ -73.836298188937675, 40.805679449301664 ], [ -73.836352111323308, 40.805693191902918 ], [ -73.836403791914208, 40.805704370304824 ], [ -73.836456589682555, 40.805718110422006 ], [ -73.836523992740553, 40.805736143159798 ], [ -73.836581283793976, 40.805751600522221 ], [ -73.836640821895244, 40.805767058364168 ], [ -73.836701493842611, 40.805778248465096 ], [ -73.836729593900401, 40.805779141129925 ], [ -73.836782420236105, 40.805781779671179 ], [ -73.836847600138498, 40.805788703251551 ], [ -73.836903792654681, 40.805793054835036 ], [ -73.836972352623562, 40.805796568395031 ], [ -73.836997076827203, 40.805799166219458 ], [ -73.837057748315431, 40.805812063541396 ], [ -73.837116168187237, 40.805824958483385 ], [ -73.837168962012214, 40.805840408272836 ], [ -73.837201530179954, 40.805853265783142 ], [ -73.837246425781416, 40.80588066301474 ], [ -73.837291317359657, 40.805909765793473 ], [ -73.837341816362979, 40.805944857635232 ], [ -73.837385586545054, 40.805973106049109 ], [ -73.837429357860941, 40.806001355369197 ], [ -73.837456249022864, 40.806037266577114 ], [ -73.837483125274218, 40.806078302496829 ], [ -73.837510002991507, 40.806120194835039 ], [ -73.837532389309004, 40.806158662498405 ], [ -73.837549159995874, 40.806195413990935 ], [ -73.837558074489706, 40.806227883324034 ], [ -73.837570329304626, 40.806273171515436 ], [ -73.83758148986513, 40.80630649859674 ], [ -73.837601638577183, 40.806340692014764 ], [ -73.83762066198679, 40.806376593929471 ], [ -73.837638575109608, 40.806405658529513 ], [ -73.837656507227308, 40.806427892010333 ], [ -73.837690138928366, 40.806465521828706 ], [ -73.837711423932049, 40.80649544750927 ], [ -73.83775625978619, 40.806547612810192 ], [ -73.837785397400978, 40.806584382606395 ], [ -73.837808926467787, 40.806616018837992 ], [ -73.837830222964158, 40.806640818854291 ], [ -73.837860496616841, 40.806672464571534 ], [ -73.837882891879858, 40.80670836934614 ], [ -73.837919890325537, 40.806748565827583 ], [ -73.837949028987012, 40.806784481834789 ], [ -73.837975902027026, 40.806828080542623 ], [ -73.837998289950434, 40.806866549032918 ], [ -73.838012842140998, 40.806891339527674 ], [ -73.838032947820736, 40.806944325435282 ], [ -73.838043001886859, 40.806970817007851 ], [ -73.8380541437473, 40.807010977918196 ], [ -73.838065272626878, 40.807057971792794 ], [ -73.838071887656852, 40.807109228552882 ], [ -73.83807627744784, 40.807154504787832 ], [ -73.83808402365068, 40.807204054891471 ], [ -73.838089542826367, 40.80724591521728 ], [ -73.838093916532102, 40.807296317922663 ], [ -73.83810173792584, 40.807315972447618 ], [ -73.838116235358243, 40.807363824794962 ], [ -73.838127378539582, 40.807403985697427 ], [ -73.838137384577735, 40.807449269737326 ], [ -73.838145127047824, 40.807501383578362 ], [ -73.838148396032594, 40.807544095319692 ], [ -73.838149404146179, 40.807591074957763 ], [ -73.838149264948385, 40.807648302541686 ], [ -73.838153643124173, 40.807697847987356 ], [ -73.838159177905411, 40.807732874425206 ], [ -73.838162472706458, 40.807764482144968 ], [ -73.838169097975353, 40.807814033423021 ], [ -73.838182479931049, 40.807857613034194 ], [ -73.838198125082457, 40.807896072925246 ], [ -73.838218245405443, 40.807942224825339 ], [ -73.838243997678234, 40.80798496721993 ], [ -73.838276479909027, 40.808033699382598 ], [ -73.838311216373725, 40.808079017205138 ], [ -73.838353833757679, 40.80812007500397 ], [ -73.838399826162473, 40.808160284778502 ], [ -73.838433460887529, 40.80819620529104 ], [ -73.838477185565537, 40.808244952160301 ], [ -73.838508563878847, 40.808284287733514 ], [ -73.838541065217683, 40.808325331276968 ], [ -73.838582533322821, 40.808376639611879 ], [ -73.838612789367275, 40.808415972661493 ], [ -73.838643018632894, 40.808466408884833 ], [ -73.838674370583405, 40.80851770033474 ], [ -73.838687813058684, 40.808536511704396 ], [ -73.838711317542476, 40.808579250841667 ], [ -73.838734810602233, 40.808626261951382 ], [ -73.83875716766201, 40.808678397122762 ], [ -73.83877394184114, 40.808714293926904 ], [ -73.83879517632252, 40.808765572014842 ], [ -73.838811936301255, 40.80880830260984 ], [ -73.838837683940298, 40.808852753188418 ], [ -73.838860061598837, 40.808895493393997 ], [ -73.8388768464729, 40.808927973620861 ], [ -73.838892485611723, 40.808968139890247 ], [ -73.838919342399663, 40.809018571236209 ], [ -73.838946215760856, 40.809062171456006 ], [ -73.838976455798445, 40.809108336527977 ], [ -73.839010077445607, 40.809151945247727 ], [ -73.839047071489176, 40.809193849504005 ], [ -73.839079562060334, 40.809239164866845 ], [ -73.839109830081597, 40.809273373061224 ], [ -73.839146826679567, 40.809315276368018 ], [ -73.839182704676588, 40.809354618032707 ], [ -73.839221950455737, 40.809395669956601 ], [ -73.839246611006047, 40.809424748227592 ], [ -73.839267872901928, 40.80946492128755 ], [ -73.839281275690325, 40.809500813306578 ], [ -73.839287956814061, 40.80952815639202 ], [ -73.839288978140019, 40.809570011287541 ], [ -73.839295634165296, 40.809606748389875 ], [ -73.839309010183726, 40.809653742580835 ], [ -73.839329123914538, 40.809704167177408 ], [ -73.839352618662517, 40.809750322651738 ], [ -73.839369429587919, 40.809771698784914 ], [ -73.839427715276912, 40.809841821955196 ], [ -73.839459095161601, 40.809882009082301 ], [ -73.839480361812662, 40.809921329362972 ], [ -73.839508340043764, 40.80997347045416 ], [ -73.839539705366889, 40.810018783191467 ], [ -73.839574456333068, 40.810059831404672 ], [ -73.839608080659062, 40.810101731701643 ], [ -73.839667515114755, 40.810161604950515 ], [ -73.839706753436332, 40.810206074102936 ], [ -73.839751605951065, 40.810253968379229 ], [ -73.839786365147461, 40.810290743708222 ], [ -73.839821120630603, 40.810330083523105 ], [ -73.839861474458672, 40.810377971581516 ], [ -73.839874930345687, 40.810392511751488 ], [ -73.839896211423536, 40.810424998993206 ], [ -73.839927574324534, 40.810472020783479 ], [ -73.83995558300272, 40.810512203085331 ], [ -73.83998920163674, 40.810556664328409 ], [ -73.84002282200062, 40.810599418157047 ], [ -73.840050826674712, 40.810641312353845 ], [ -73.84007098823426, 40.810671234259331 ], [ -73.84008106709588, 40.810687477039401 ], [ -73.840103460911962, 40.810725089600012 ], [ -73.840125835800549, 40.810769536949408 ], [ -73.840151573977906, 40.810819111017956 ], [ -73.840178415940272, 40.810876376016253 ], [ -73.840199666658393, 40.810921676372324 ], [ -73.840217554516514, 40.810962699145769 ], [ -73.840237677645078, 40.811009707095387 ], [ -73.840264523863539, 40.811065262828322 ], [ -73.840286916699313, 40.811102875433143 ], [ -73.840312670572288, 40.811146471925248 ], [ -73.840341796897064, 40.811188364842046 ], [ -73.840372045013424, 40.811231968471333 ], [ -73.840407907276344, 40.81127814361772 ], [ -73.840434816521878, 40.811308073047854 ], [ -73.840471810871421, 40.811351686915934 ], [ -73.84048975114996, 40.811370502453805 ], [ -73.840531265649474, 40.811403871253894 ], [ -73.840575032590735, 40.811435534911247 ], [ -73.840622167708574, 40.811469766959952 ], [ -73.840668170773768, 40.811506558410343 ], [ -73.840677142720651, 40.811515966625926 ], [ -73.840695033077267, 40.811556134743569 ], [ -73.840701706432213, 40.811586040637415 ], [ -73.84070393838374, 40.811592876702818 ], [ -73.84070497112539, 40.811631314177255 ], [ -73.840700415196466, 40.811656077965253 ], [ -73.840684575577598, 40.811697909513263 ], [ -73.84066421476156, 40.811749984269277 ], [ -73.840646113563167, 40.811797790241471 ], [ -73.840631390462619, 40.811843037973659 ], [ -73.840618900498839, 40.811895125452331 ], [ -73.840608654644299, 40.81194892068212 ], [ -73.8406017991786, 40.811995034882713 ], [ -73.840589331302141, 40.81203687016027 ], [ -73.840580279854606, 40.812061629477675 ], [ -73.840557711344346, 40.812096617792683 ], [ -73.840526107821475, 40.812149530704374 ], [ -73.840505790573872, 40.812182814718305 ], [ -73.840486577866812, 40.812225496145537 ], [ -73.840476370871656, 40.812263063553466 ], [ -73.840474010742923, 40.812309182966366 ], [ -73.840480634092529, 40.812360441395036 ], [ -73.840495121939369, 40.812413418120293 ], [ -73.840507359155936, 40.81246639164435 ], [ -73.840515126585856, 40.812509109512625 ], [ -73.840523996284034, 40.812561224791736 ], [ -73.840529493710747, 40.812612479900125 ], [ -73.840530515293267, 40.812656043844477 ], [ -73.840531525055837, 40.812703023506906 ], [ -73.840532505329975, 40.812762812659308 ], [ -73.840530103815993, 40.812827724540284 ], [ -73.840532237152331, 40.812874705757032 ], [ -73.84053213070078, 40.812919120963159 ], [ -73.840520806192956, 40.812954124833233 ], [ -73.84050158470771, 40.812999368152383 ], [ -73.840483474134047, 40.81305144514711 ], [ -73.840472114385676, 40.813100116756779 ], [ -73.840467579849829, 40.813116339255338 ], [ -73.840447286023718, 40.81314022664673 ], [ -73.840412361920059, 40.8131709267414 ], [ -73.840380778259828, 40.813215299248292 ], [ -73.840358231795491, 40.813240891746759 ], [ -73.840327800345023, 40.813273306285701 ], [ -73.840288338370826, 40.813321083413129 ], [ -73.840254497877368, 40.813368867485728 ], [ -73.840225165168832, 40.813411535663441 ], [ -73.840199215964631, 40.813449934863662 ], [ -73.840168767814362, 40.81348918323306 ], [ -73.840139444421652, 40.813528433156584 ], [ -73.840111257843304, 40.813561706255882 ], [ -73.840084181926301, 40.813601812025034 ], [ -73.840061613580119, 40.81363594749368 ], [ -73.840022162310717, 40.813678599811006 ], [ -73.839999630407178, 40.813699068361466 ], [ -73.83996470785695, 40.813728914658768 ], [ -73.839929761464035, 40.813768154957181 ], [ -73.839903811098722, 40.813807411263191 ], [ -73.839880132440669, 40.8138364185792 ], [ -73.839841820128527, 40.813873093102551 ], [ -73.839811418979721, 40.813892697095582 ], [ -73.839788900017609, 40.813907185389127 ], [ -73.839753972299931, 40.813939595361113 ], [ -73.839724665518446, 40.813970303059165 ], [ -73.839706603460371, 40.814001880060495 ], [ -73.839696420079392, 40.814028345133011 ], [ -73.839692971837778, 40.814059944225953 ], [ -73.839699626588626, 40.81409753502102 ], [ -73.839714135977232, 40.81414197147825 ], [ -73.839718568988189, 40.814168455050904 ], [ -73.839717345417256, 40.814209451285087 ], [ -73.839708259218909, 40.814247875591356 ], [ -73.839695825341479, 40.814275191108742 ], [ -73.839666484857119, 40.814321273941921 ], [ -73.839630371139961, 40.814378452219735 ], [ -73.839616832508526, 40.814398930537969 ], [ -73.839604351459059, 40.814446745908143 ], [ -73.839600860024035, 40.814496280283635 ], [ -73.839605272162757, 40.814530454064851 ], [ -73.839617533173453, 40.814574886562539 ], [ -73.839634305071726, 40.814612493118915 ], [ -73.839652195741451, 40.814652661460784 ], [ -73.839664449419189, 40.814699656684617 ], [ -73.839673374319702, 40.814728708415139 ], [ -73.839696882465418, 40.814770595489122 ], [ -73.839711393803057, 40.814813322779884 ], [ -73.839715828916411, 40.814838951771037 ], [ -73.839715806281291, 40.814848347539218 ], [ -73.839704488035721, 40.8148799348415 ], [ -73.839693123176971, 40.81493031551696 ], [ -73.839681763742888, 40.814978986115264 ], [ -73.839678288800371, 40.81502168845828 ], [ -73.83967822705857, 40.815047311189538 ], [ -73.83968149824598, 40.815089169175195 ], [ -73.839682526332837, 40.815129315795474 ], [ -73.839675658395279, 40.815179699965867 ], [ -73.83967330087566, 40.815224966603452 ], [ -73.83967882171865, 40.81526682596288 ], [ -73.839686582770085, 40.815312106683336 ], [ -73.839694334495633, 40.815360804797216 ], [ -73.839699860581561, 40.815400955833972 ], [ -73.839709864889997, 40.815447946161513 ], [ -73.839706477217689, 40.815453920758799 ], [ -73.839710921807338, 40.815476135949922 ], [ -73.839716439425047, 40.815518849882785 ], [ -73.839726441959385, 40.815567549284701 ], [ -73.839729749024627, 40.815594033124107 ], [ -73.839726281463015, 40.815634174405297 ], [ -73.839711537158323, 40.815687108683143 ], [ -73.839688977250873, 40.815717825752841 ], [ -73.839661903209134, 40.815756226766311 ], [ -73.839642709521826, 40.815790363242982 ], [ -73.839624636266365, 40.815825360291925 ], [ -73.839608806488613, 40.815862918768147 ], [ -73.839598583656198, 40.815905613462732 ], [ -73.839591743812747, 40.815945747364012 ], [ -73.839593891365908, 40.815987603781267 ], [ -73.83960056879161, 40.816015799556304 ], [ -73.839611750281662, 40.816040585198117 ], [ -73.839638667151206, 40.816067956493484 ], [ -73.839676802622918, 40.816104736434006 ], [ -73.839704849458656, 40.81612954554079 ], [ -73.839725038680911, 40.816150072554173 ], [ -73.839736232471935, 40.816169734391032 ], [ -73.839745131808115, 40.816209037373596 ], [ -73.839742792706645, 40.816246615555684 ], [ -73.839744965166943, 40.81627822070233 ], [ -73.839740418735971, 40.816298715135936 ], [ -73.839745971524252, 40.81632690942002 ], [ -73.839748486331544, 40.816338174574959 ], [ -73.839128691267092, 40.816344794802312 ], [ -73.839172666563471, 40.816224643116882 ], [ -73.838946239712641, 40.816227059736349 ], [ -73.838905758190592, 40.816344775875748 ], [ -73.838679152053231, 40.816346163378988 ], [ -73.838676830256844, 40.816342158358104 ], [ -73.838676356415377, 40.81634057192818 ], [ -73.838675868578079, 40.816338445123051 ], [ -73.838675597491431, 40.816335348840497 ], [ -73.838675549958253, 40.816330519362175 ], [ -73.838676318677329, 40.816325845043977 ], [ -73.838678030184582, 40.816320956873476 ], [ -73.838687692079219, 40.81630065152001 ], [ -73.838692966633261, 40.816290406686115 ], [ -73.838698545316049, 40.816282755806157 ], [ -73.838703957752216, 40.81627718204173 ], [ -73.838711792634001, 40.816271250595229 ], [ -73.838716755073762, 40.816266017530857 ], [ -73.83872126713436, 40.816260784755777 ], [ -73.838723536734577, 40.816255977512242 ], [ -73.838724447154149, 40.816251536551469 ], [ -73.838724159626949, 40.816246408741605 ], [ -73.838722728069939, 40.816240473354327 ], [ -73.838719988627915, 40.816234185854199 ], [ -73.838717545260934, 40.816229500680073 ], [ -73.83688098785376, 40.816249082125175 ], [ -73.835880805175407, 40.816259734485435 ], [ -73.835698844015965, 40.816261671398109 ], [ -73.835671775636186, 40.817630822727267 ], [ -73.834047957617983, 40.819244750029 ], [ -73.833708781333101, 40.819088453846149 ], [ -73.833673317613929, 40.819123405934128 ], [ -73.833142929871372, 40.818501101554077 ], [ -73.831627007445036, 40.819224778505607 ], [ -73.831204539620273, 40.818726179486056 ] ] ] ] } },
{ "type": "Feature", "properties": { "Borough": "BX", "Block": 5540, "Lot": 1, "CD": 210, "BCT2020": "2011000", "BCTCB2020": "20110001003", "CT2010": "110", "CB2010": "1001", "SchoolDist": "08", "Council": 13, "ZipCode": 10465, "FireComp": "E072", "PolicePrct": 45, "HealthCent": 26, "HealthArea": 3220, "Sanitboro": "2", "SanitDistr": "10", "SanitSub": "3D", "Address": "LAFAYETTE AVENUE", "ZoneDist1": "R4", "ZoneDist2": null, "ZoneDist3": null, "ZoneDist4": null, "Overlay1": null, "Overlay2": null, "SPDist1": null, "SPDist2": null, "SPDist3": null, "LtdHeight": null, "SplitZone": "N", "BldgClass": "Z8", "LandUse": "09", "Easements": 0, "OwnerType": "X", "OwnerName": "SAINT JOSEPHS SCHOOL FOR THE DEAF", "LotArea": 128090, "BldgArea": 20140, "ComArea": 20140, "ResArea": 0, "OfficeArea": 20140, "RetailArea": 0, "GarageArea": 0, "StrgeArea": 0, "FactryArea": 0, "OtherArea": 0, "AreaSource": "2", "NumBldgs": 9, "NumFloors": 0.0, "UnitsRes": 0, "UnitsTotal": 1, "LotFront": 520.0, "LotDepth": 546.0, "BldgFront": 0.0, "BldgDepth": 0.0, "Ext": "N", "ProxCode": "0", "IrrLotCode": "Y", "LotType": "3", "BsmtCode": "0", "AssessLand": 1071000.0, "AssessTot": 4446450.0, "ExemptTot": 4446450.0, "YearBuilt": 1983, "YearAlter1": 0, "YearAlter2": 0, "HistDist": null, "Landmark": null, "BuiltFAR": 0.16, "ResidFAR": 1.0, "CommFAR": 0.0, "FacilFAR": 2.0, "BoroCode": 2, "BBL": 2055400001.0, "CondoNo": 0, "Tract2010": "0110", "XCoord": 1030409, "YCoord": 240391, "ZoneMap": "7a", "ZMCode": "Y", "Sanborn": "221 030", "TaxMap": "21807", "EDesigNum": null, "APPBBL": 0.0, "APPDate": null, "PLUTOMapID": "1", "FIRM07_FLA": null, "PFIRM15_FL": null, "Version": "25v4", "DCPEdited": null, "Latitude": 40.8263726, "Longitude": -73.8332135, "Notes": null, "Shape_Leng": 0.0, "Shape_Area": 131046.649623 }, "geometry": { "type": "MultiPolygon", "coordinates": [ [ [ [ -73.833655141575704, 40.825719216426236 ], [ -73.833689633093982, 40.82570279068154 ], [ -73.833731588856196, 40.825683709307015 ], [ -73.833765021730883, 40.825669183923679 ], [ -73.833809884122545, 40.825650608337426 ], [ -73.833853313573925, 40.825633304882224 ], [ -73.833904576082872, 40.825613344472934 ], [ -73.833956215872718, 40.825593738547276 ], [ -73.834000172699746, 40.825577438955669 ], [ -73.833615496439506, 40.827041572493563 ], [ -73.832141378094235, 40.826567773723831 ], [ -73.832073281972271, 40.826488138939567 ], [ -73.833655141575704, 40.825719216426236 ] ] ] ] } },
{ "type": "Feature", "properties": { "Borough": "BX", "Block": 5540, "Lot": 3, "CD": 210, "BCT2020": "2011000", "BCTCB2020": "20110001003", "CT2010": "110", "CB2010": "1001", "SchoolDist": "08", "Council": 13, "ZipCode": 10465, "FireComp": "E072", "PolicePrct": 45, "HealthCent": 26, "HealthArea": 3220, "Sanitboro": "2", "SanitDistr": "10", "SanitSub": "3D", "Address": "2640 EAST 177 STREET", "ZoneDist1": "R4", "ZoneDist2": null, "ZoneDist3": null, "ZoneDist4": null, "Overlay1": null, "Overlay2": null, "SPDist1": null, "SPDist2": null, "SPDist3": null, "LtdHeight": null, "SplitZone": "N", "BldgClass": "W2", "LandUse": "08", "Easements": 0, "OwnerType": "X", "OwnerName": "ST JOE SCHOOL FOR DEA", "LotArea": 480000, "BldgArea": 15000, "ComArea": 15000, "ResArea": 0, "OfficeArea": 15000, "RetailArea": 0, "GarageArea": 0, "StrgeArea": 0, "FactryArea": 0, "OtherArea": 0, "AreaSource": "2", "NumBldgs": 3, "NumFloors": 4.0, "UnitsRes": 0, "UnitsTotal": 1, "LotFront": 733.0, "LotDepth": 579.0, "BldgFront": 150.0, "BldgDepth": 50.0, "Ext": "N", "ProxCode": "0", "IrrLotCode": "Y", "LotType": "5", "BsmtCode": "0", "AssessLand": 2812500.0, "AssessTot": 4956750.0, "ExemptTot": 4956750.0, "YearBuilt": 1911, "YearAlter1": 0, "YearAlter2": 0, "HistDist": null, "Landmark": null, "BuiltFAR": 0.03, "ResidFAR": 1.0, "CommFAR": 0.0, "FacilFAR": 2.0, "BoroCode": 2, "BBL": 2055400002.9999998, "CondoNo": 0, "Tract2010": "0110", "XCoord": 1029902, "YCoord": 240415, "ZoneMap": "7a", "ZMCode": "Y", "Sanborn": "221 030", "TaxMap": "21807", "EDesigNum": null, "APPBBL": 0.0, "APPDate": null, "PLUTOMapID": "1", "FIRM07_FLA": null, "PFIRM15_FL": null, "Version": "25v4", "DCPEdited": null, "Latitude": 40.8264411, "Longitude": -73.8350453, "Notes": null, "Shape_Leng": 0.0, "Shape_Area": 476022.31441499997 }, "geometry": { "type": "MultiPolygon", "coordinates": [ [ [ [ -73.833615496439506, 40.827041572493563 ], [ -73.834000172699746, 40.825577438955669 ], [ -73.834557057326407, 40.825458974398892 ], [ -73.835964173419526, 40.825157776130986 ], [ -73.836080724916414, 40.826006890508594 ], [ -73.836081007934652, 40.826008956628101 ], [ -73.836109596866592, 40.826240673013075 ], [ -73.836131917533237, 40.826472783034113 ], [ -73.836147962956062, 40.82670518838593 ], [ -73.836157723832201, 40.826937792012764 ], [ -73.836169306015321, 40.827344958810009 ], [ -73.836160941340935, 40.827352163537256 ], [ -73.835734848423087, 40.827706471854277 ], [ -73.835720762087064, 40.827718185242553 ], [ -73.833615496439506, 40.827041572493563 ] ] ] ] } },
{ "type": "Feature", "properties": { "Borough": "BX", "Block": 5548, "Lot": 84, "CD": 210, "BCT2020": "2011000", "BCTCB2020": "20110001004", "CT2010": "110", "CB2010": "1006", "SchoolDist": "08", "Council": 13, "ZipCode": 10465, "FireComp": "E072", "PolicePrct": 45, "HealthCent": 26, "HealthArea": 3220, "Sanitboro": "2", "SanitDistr": "10", "SanitSub": "3C", "Address": "2800 EAST 177 STREET", "ZoneDist1": "R4", "ZoneDist2": null, "ZoneDist3": null, "ZoneDist4": null, "Overlay1": null, "Overlay2": null, "SPDist1": null, "SPDist2": null, "SPDist3": null, "LtdHeight": null, "SplitZone": "N", "BldgClass": "Z8", "LandUse": "09", "Easements": 0, "OwnerType": "X", "OwnerName": "ROMAN CATHOLIC CHURCH OF", "LotArea": 2935930, "BldgArea": 28000, "ComArea": 28000, "ResArea": 0, "OfficeArea": 0, "RetailArea": 0, "GarageArea": 0, "StrgeArea": 0, "FactryArea": 0, "OtherArea": 28000, "AreaSource": "2", "NumBldgs": 21, "NumFloors": 2.0, "UnitsRes": 0, "UnitsTotal": 1, "LotFront": 1225.85, "LotDepth": 1685.0, "BldgFront": 0.0, "BldgDepth": 0.0, "Ext": "N", "ProxCode": "0", "IrrLotCode": "Y", "LotType": "3", "BsmtCode": "0", "AssessLand": 6249150.0, "AssessTot": 8894250.0, "ExemptTot": 8894250.0, "YearBuilt": 1931, "YearAlter1": 0, "YearAlter2": 0, "HistDist": null, "Landmark": null, "BuiltFAR": 0.01, "ResidFAR": 1.0, "CommFAR": 0.0, "FacilFAR": 2.0, "BoroCode": 2, "BBL": 2055480084.0, "CondoNo": 0, "Tract2010": "0110", "XCoord": 1030794, "YCoord": 239392, "ZoneMap": "7a", "ZMCode": null, "Sanborn": "221 041", "TaxMap": "21807", "EDesigNum": null, "APPBBL": 0.0, "APPDate": null, "PLUTOMapID": "1", "FIRM07_FLA": null, "PFIRM15_FL": null, "Version": "25v4", "DCPEdited": null, "Latitude": 40.8236286, "Longitude": -73.8318293, "Notes": null, "Shape_Leng": 0.0, "Shape_Area": 3422805.5950600002 }, "geometry": { "type": "MultiPolygon", "coordinates": [ [ [ [ -73.829713817703094, 40.822438563854064 ], [ -73.829823090621247, 40.822384905207201 ], [ -73.830970682385441, 40.821821377653116 ], [ -73.831061547429044, 40.821776756155991 ], [ -73.831102808579871, 40.821756495110428 ], [ -73.831422974444905, 40.821599272225413 ], [ -73.8335728961694, 40.820543474390384 ], [ -73.833797360016646, 40.820512881609673 ], [ -73.834755762644065, 40.820669258757562 ], [ -73.835665265293557, 40.821236303852835 ], [ -73.835688141525154, 40.824035410212552 ], [ -73.835647149030621, 40.824058677315101 ], [ -73.835760151342555, 40.824571661602512 ], [ -73.835779688849584, 40.824660351675313 ], [ -73.835783670577271, 40.824674336667798 ], [ -73.835786145870074, 40.824685314633562 ], [ -73.835788334501586, 40.824698163318793 ], [ -73.83578999312374, 40.824713936146345 ], [ -73.835790510560841, 40.824732433974326 ], [ -73.835789442948226, 40.824751442040224 ], [ -73.835786160651992, 40.82477346261927 ], [ -73.835780561429431, 40.824795701424534 ], [ -73.835773067468949, 40.824816706565926 ], [ -73.835765950264843, 40.82483249206367 ], [ -73.835758767486936, 40.824846019920045 ], [ -73.835750560622245, 40.824859492355863 ], [ -73.835741566585071, 40.824872499777044 ], [ -73.835725319001469, 40.824892676585463 ], [ -73.835707838387663, 40.824910976827304 ], [ -73.835692193486906, 40.8249251526832 ], [ -73.835668238402931, 40.824943787691204 ], [ -73.835647982774233, 40.824957232055603 ], [ -73.835625931928149, 40.824969902096065 ], [ -73.835599295059097, 40.82498289880489 ], [ -73.835567896124687, 40.824995439373922 ], [ -73.835548685715636, 40.82500180093669 ], [ -73.835511623776469, 40.82501154813508 ], [ -73.834427676541281, 40.825217420669425 ], [ -73.834381048155095, 40.825225579703108 ], [ -73.834337039333221, 40.825233833423383 ], [ -73.834284606999162, 40.825244372213731 ], [ -73.834237179203967, 40.825254577771091 ], [ -73.834190540994484, 40.825265243735323 ], [ -73.834149364686127, 40.825275187196475 ], [ -73.834119498874131, 40.825282713780929 ], [ -73.834080671498924, 40.825292897440441 ], [ -73.834027949193967, 40.825307459043238 ], [ -73.833984828233596, 40.825320007558709 ], [ -73.833924687080781, 40.825338490916351 ], [ -73.833880615709049, 40.825352776798333 ], [ -73.833833672504895, 40.825368698414103 ], [ -73.833789825587459, 40.825384244329065 ], [ -73.833745386013319, 40.825400677332844 ], [ -73.83370137890148, 40.825417641344004 ], [ -73.833656728056226, 40.825435569754276 ], [ -73.833594212824494, 40.825461928049272 ], [ -73.833547199179051, 40.825482748037828 ], [ -73.833503948071979, 40.825502682973962 ], [ -73.833433292489403, 40.825536924017044 ], [ -73.83160760693832, 40.826418968214718 ], [ -73.826038607341886, 40.824657918238081 ], [ -73.826021946275191, 40.824651952508404 ], [ -73.826000381285638, 40.824642710545746 ], [ -73.825987809632025, 40.824636439355977 ], [ -73.825969743358726, 40.8246261176103 ], [ -73.825954733314717, 40.824616180375322 ], [ -73.825940829655934, 40.824605650577418 ], [ -73.825933326987865, 40.824599342032094 ], [ -73.82592766209919, 40.824594243884924 ], [ -73.825921535722983, 40.824588361571358 ], [ -73.82591671202384, 40.824583427663534 ], [ -73.82591224620711, 40.824578594269333 ], [ -73.82590799139318, 40.824573722376471 ], [ -73.825904061061465, 40.824568962742909 ], [ -73.825900862753855, 40.824564882274501 ], [ -73.825897794912507, 40.824560774060565 ], [ -73.825894387630868, 40.824555957491754 ], [ -73.825890729523991, 40.824550448178307 ], [ -73.825887342876428, 40.824544986040593 ], [ -73.825884845664604, 40.824540694052864 ], [ -73.825881788920185, 40.824535081994675 ], [ -73.825879885391203, 40.824531349330833 ], [ -73.825877292923323, 40.824525918928437 ], [ -73.825875057451142, 40.824520843949713 ], [ -73.825872910222159, 40.824515547573768 ], [ -73.825870880896318, 40.824510058708107 ], [ -73.825868953141352, 40.824504263802545 ], [ -73.825867338644272, 40.824498829525126 ], [ -73.825865427004629, 40.824491380446815 ], [ -73.825864228827555, 40.824485852262256 ], [ -73.82586293088697, 40.824478551770156 ], [ -73.825862267475884, 40.824473876214121 ], [ -73.825861301998145, 40.824464101663949 ], [ -73.8258609338274, 40.824456236202124 ], [ -73.825861111982093, 40.824443417843241 ], [ -73.825862557293959, 40.82442837179169 ], [ -73.82586434728421, 40.824417964757338 ], [ -73.825868020461996, 40.824403197564912 ], [ -73.825871221868283, 40.824393384302255 ], [ -73.825876603157099, 40.824380009190023 ], [ -73.825880549763653, 40.824371729694242 ], [ -73.825884360731791, 40.824364569273385 ], [ -73.825886869794331, 40.824360207466917 ], [ -73.82589039840795, 40.824354470333546 ], [ -73.825893260899235, 40.824350100025221 ], [ -73.825898157134176, 40.824343133075544 ], [ -73.825902763008287, 40.824337071549543 ], [ -73.825907366490171, 40.824331418862585 ], [ -73.82591843135684, 40.824319184331742 ], [ -73.825931158015791, 40.82430697565156 ], [ -73.825943533762228, 40.824296589963872 ], [ -73.825951466991086, 40.824290571361445 ], [ -73.825964271339245, 40.824281750499047 ], [ -73.825985056826497, 40.824269431508981 ], [ -73.829713817703094, 40.822438563854064 ] ] ] ] } },
{ "type": "Feature", "properties": { "Borough": "BX", "Block": 5570, "Lot": 100, "CD": 210, "BCT2020": "2011000", "BCTCB2020": "20110001004", "CT2010": "110", "CB2010": "1006", "SchoolDist": "08", "Council": 13, "ZipCode": 10465, "FireComp": "E072", "PolicePrct": 45, "HealthCent": 26, "HealthArea": 3220, "Sanitboro": "2", "SanitDistr": "10", "SanitSub": "3C", "Address": "RANDALL AVENUE", "ZoneDist1": "R4", "ZoneDist2": null, "ZoneDist3": null, "ZoneDist4": null, "Overlay1": null, "Overlay2": null, "SPDist1": null, "SPDist2": null, "SPDist3": null, "LtdHeight": null, "SplitZone": "N", "BldgClass": "V0", "LandUse": "11", "Easements": 0, "OwnerType": "X", "OwnerName": "ROMAN CATHOLIC CHURCH OF", "LotArea": 6099, "BldgArea": 0, "ComArea": 0, "ResArea": 0, "OfficeArea": 0, "RetailArea": 0, "GarageArea": 0, "StrgeArea": 0, "FactryArea": 0, "OtherArea": 0, "AreaSource": "7", "NumBldgs": 0, "NumFloors": 0.0, "UnitsRes": 0, "UnitsTotal": 0, "LotFront": 79.0, "LotDepth": 100.0, "BldgFront": 0.0, "BldgDepth": 0.0, "Ext": null, "ProxCode": "0", "IrrLotCode": "Y", "LotType": "5", "BsmtCode": "5", "AssessLand": 19620.0, "AssessTot": 19620.0, "ExemptTot": 19620.0, "YearBuilt": 0, "YearAlter1": 0, "YearAlter2": 0, "HistDist": null, "Landmark": null, "BuiltFAR": 0.0, "ResidFAR": 1.0, "CommFAR": 0.0, "FacilFAR": 2.0, "BoroCode": 2, "BBL": 2055700100.0, "CondoNo": 0, "Tract2010": "0110", "XCoord": 1031374, "YCoord": 238889, "ZoneMap": "7a", "ZMCode": null, "Sanborn": "221 079", "TaxMap": "21808", "EDesigNum": null, "APPBBL": 0.0, "APPDate": null, "PLUTOMapID": "1", "FIRM07_FLA": null, "PFIRM15_FL": null, "Version": "25v4", "DCPEdited": null, "Latitude": 40.822245, "Longitude": -73.8297372, "Notes": null, "Shape_Leng": 0.0, "Shape_Area": 6707.3535548 }, "geometry": { "type": "MultiPolygon", "coordinates": [ [ [ [ -73.829605436489004, 40.822311095615149 ], [ -73.829604276342977, 40.82224938084839 ], [ -73.829607780996056, 40.822209832522702 ], [ -73.8296168205828, 40.82215571957893 ], [ -73.829852461279032, 40.822040008879092 ], [ -73.829850447588882, 40.822076963295032 ], [ -73.829836992991147, 40.822203198806669 ], [ -73.829833727750128, 40.822253995587509 ], [ -73.829830146620665, 40.822292021121328 ], [ -73.829827795767798, 40.822316679611674 ], [ -73.829823090621247, 40.822384905207201 ], [ -73.829713817703094, 40.822438563854064 ], [ -73.829605436489004, 40.822311095615149 ] ] ] ] } },
{ "type": "Feature", "properties": { "Borough": "BX", "Block": 5570, "Lot": 105, "CD": 210, "BCT2020": "2011000", "BCTCB2020": "20110001004", "CT2010": "110", "CB2010": "1007", "SchoolDist": "08", "Council": 13, "ZipCode": 10465, "FireComp": "E072", "PolicePrct": 45, "HealthCent": 26, "HealthArea": 3220, "Sanitboro": "2", "SanitDistr": "10", "SanitSub": "3C", "Address": "RANDALL AVENUE", "ZoneDist1": "R4", "ZoneDist2": null, "ZoneDist3": null, "ZoneDist4": null, "Overlay1": null, "Overlay2": null, "SPDist1": null, "SPDist2": null, "SPDist3": null, "LtdHeight": null, "SplitZone": "N", "BldgClass": "V0", "LandUse": "11", "Easements": 0, "OwnerType": "X", "OwnerName": "ST RAYMOND CHURCH", "LotArea": 677, "BldgArea": 0, "ComArea": 0, "ResArea": 0, "OfficeArea": 0, "RetailArea": 0, "GarageArea": 0, "StrgeArea": 0, "FactryArea": 0, "OtherArea": 0, "AreaSource": "7", "NumBldgs": 0, "NumFloors": 0.0, "UnitsRes": 0, "UnitsTotal": 0, "LotFront": 47.0, "LotDepth": 34.0, "BldgFront": 0.0, "BldgDepth": 0.0, "Ext": null, "ProxCode": "0", "IrrLotCode": "Y", "LotType": "5", "BsmtCode": "5", "AssessLand": 1800.0, "AssessTot": 1800.0, "ExemptTot": 1800.0, "YearBuilt": 0, "YearAlter1": 0, "YearAlter2": 0, "HistDist": null, "Landmark": null, "BuiltFAR": 0.0, "ResidFAR": 1.0, "CommFAR": 0.0, "FacilFAR": 2.0, "BoroCode": 2, "BBL": 2055700105.0, "CondoNo": 0, "Tract2010": "0110", "XCoord": 1031418, "YCoord": 238881, "ZoneMap": "7a", "ZMCode": null, "Sanborn": "221 079", "TaxMap": "21808", "EDesigNum": null, "APPBBL": 0.0, "APPDate": null, "PLUTOMapID": "1", "FIRM07_FLA": null, "PFIRM15_FL": null, "Version": "25v4", "DCPEdited": null, "Latitude": 40.8222228, "Longitude": -73.8295783, "Notes": null, "Shape_Leng": 0.0, "Shape_Area": 711.5165742 }, "geometry": { "type": "MultiPolygon", "coordinates": [ [ [ [ -73.829515591415358, 40.822205426905136 ], [ -73.8296168205828, 40.82215571957893 ], [ -73.829607780996056, 40.822209832522702 ], [ -73.829604276342977, 40.82224938084839 ], [ -73.829605436489004, 40.822311095615149 ], [ -73.829515591415358, 40.822205426905136 ] ] ] ] } },
{ "type": "Feature", "properties": { "Borough": "BX", "Block": 5570, "Lot": 112, "CD": 210, "BCT2020": "2011000", "BCTCB2020": "20110001004", "CT2010": "110", "CB2010": "1006", "SchoolDist": "08", "Council": 13, "ZipCode": 10465, "FireComp": "E072", "PolicePrct": 45, "HealthCent": 26, "HealthArea": 3220, "Sanitboro": "2", "SanitDistr": "10", "SanitSub": "3C", "Address": "RANDALL AVENUE", "ZoneDist1": "R4", "ZoneDist2": null, "ZoneDist3": null, "ZoneDist4": null, "Overlay1": null, "Overlay2": null, "SPDist1": null, "SPDist2": null, "SPDist3": null, "LtdHeight": null, "SplitZone": "N", "BldgClass": "V0", "LandUse": "11", "Easements": 0, "OwnerType": "X", "OwnerName": "ST RAYMOND CHURCH", "LotArea": 50497, "BldgArea": 0, "ComArea": 0, "ResArea": 0, "OfficeArea": 0, "RetailArea": 0, "GarageArea": 0, "StrgeArea": 0, "FactryArea": 0, "OtherArea": 0, "AreaSource": "7", "NumBldgs": 0, "NumFloors": 0.0, "UnitsRes": 0, "UnitsTotal": 0, "LotFront": 383.0, "LotDepth": 100.0, "BldgFront": 0.0, "BldgDepth": 0.0, "Ext": null, "ProxCode": "0", "IrrLotCode": "Y", "LotType": "5", "BsmtCode": "5", "AssessLand": 188280.0, "AssessTot": 188280.0, "ExemptTot": 188280.0, "YearBuilt": 0, "YearAlter1": 0, "YearAlter2": 0, "HistDist": null, "Landmark": null, "BuiltFAR": 0.0, "ResidFAR": 1.0, "CommFAR": 0.0, "FacilFAR": 2.0, "BoroCode": 2, "BBL": 2055700112.0, "CondoNo": 0, "Tract2010": "0110", "XCoord": 1031113, "YCoord": 238718, "ZoneMap": "7a", "ZMCode": null, "Sanborn": "221 079", "TaxMap": "21808", "EDesigNum": null, "APPBBL": 0.0, "APPDate": null, "PLUTOMapID": "1", "FIRM07_FLA": null, "PFIRM15_FL": null, "Version": "25v4", "DCPEdited": null, "Latitude": 40.821777, "Longitude": -73.8306814, "Notes": null, "Shape_Leng": 0.0, "Shape_Area": 49746.164124199997 }, "geometry": { "type": "MultiPolygon", "coordinates": [ [ [ [ -73.829827795767798, 40.822316679611674 ], [ -73.829830146620665, 40.822292021121328 ], [ -73.829833727750128, 40.822253995587509 ], [ -73.829836992991147, 40.822203198806669 ], [ -73.829850447588882, 40.822076963295032 ], [ -73.829852461279032, 40.822040008879092 ], [ -73.830796994202402, 40.821576192357924 ], [ -73.830799314396828, 40.821576989108351 ], [ -73.830805946902316, 40.821578258593235 ], [ -73.830821846023923, 40.821579320239863 ], [ -73.830835358284091, 40.821578822314542 ], [ -73.830848189055615, 40.821576862777313 ], [ -73.83087051088755, 40.821572179584692 ], [ -73.830907891431693, 40.821563459085681 ], [ -73.830932518005071, 40.821556333563841 ], [ -73.830949326786936, 40.821548847203445 ], [ -73.830967750145462, 40.82153944330976 ], [ -73.830988997491872, 40.821527031397096 ], [ -73.831021756541062, 40.82150887223154 ], [ -73.831047778807005, 40.821495461475848 ], [ -73.831070181403774, 40.82148462981317 ], [ -73.831090673087942, 40.82147575297401 ], [ -73.831108397069599, 40.821469140499737 ], [ -73.831130270931951, 40.821459741638698 ], [ -73.831156350676096, 40.821446100376178 ], [ -73.831175467026597, 40.821434948730818 ], [ -73.831193925816066, 40.821423230581082 ], [ -73.831210512904192, 40.821412425422473 ], [ -73.831226671066332, 40.821400180690361 ], [ -73.831242339718926, 40.821388325175135 ], [ -73.831276244787574, 40.821358974486301 ], [ -73.831328102875389, 40.821315383378028 ], [ -73.831693459828642, 40.821135966541085 ], [ -73.831710309580984, 40.821134671932278 ], [ -73.831725137846902, 40.82113217126107 ], [ -73.831742270041062, 40.821127926140328 ], [ -73.831754176676966, 40.821124341488684 ], [ -73.831765292196522, 40.821120921494746 ], [ -73.831778869417491, 40.821114857524179 ], [ -73.831789535524479, 40.82110869024698 ], [ -73.831797778295751, 40.821102231308735 ], [ -73.831803796703085, 40.821096058165359 ], [ -73.831810718251816, 40.82108704978355 ], [ -73.831819776802746, 40.821073934583382 ], [ -73.832094945799227, 40.820938804585701 ], [ -73.832093938985352, 40.820948861660256 ], [ -73.832091278679087, 40.820957423338136 ], [ -73.832082035547231, 40.820974192536205 ], [ -73.832074920251401, 40.820986201097718 ], [ -73.832063311088149, 40.821000175212632 ], [ -73.832038383252097, 40.821026738725145 ], [ -73.832001883644224, 40.821064226422422 ], [ -73.831960879854662, 40.821102947537028 ], [ -73.831926212100811, 40.821131756123556 ], [ -73.83190591752296, 40.821148571257019 ], [ -73.831892606328339, 40.821157745922946 ], [ -73.831869496792052, 40.821174444335298 ], [ -73.831840390745882, 40.821194311041943 ], [ -73.831815197107417, 40.82120877227814 ], [ -73.831772633663789, 40.821229975438335 ], [ -73.831740882393788, 40.821244907955233 ], [ -73.831700087661403, 40.821261395028849 ], [ -73.831659166713536, 40.821277095756642 ], [ -73.831608898767328, 40.821294358700293 ], [ -73.831561893919343, 40.821312185571493 ], [ -73.831526378750667, 40.821326750615867 ], [ -73.831496020307469, 40.821339353680095 ], [ -73.831482682396597, 40.821346864188172 ], [ -73.831473197623097, 40.821352693590903 ], [ -73.831454029856431, 40.821366869164486 ], [ -73.83144128035768, 40.821376066183106 ], [ -73.831429274778088, 40.821383123862148 ], [ -73.831358882801268, 40.821422722008172 ], [ -73.831332329645846, 40.821438460801097 ], [ -73.831311411764673, 40.821453222666968 ], [ -73.831294398620685, 40.821464673737559 ], [ -73.8312826367209, 40.821474291820152 ], [ -73.831273595030581, 40.821482997229161 ], [ -73.831266757143908, 40.821491192531369 ], [ -73.831261699814476, 40.821499368021719 ], [ -73.831249680533929, 40.821521622398905 ], [ -73.831241318482057, 40.821535338244665 ], [ -73.831227328095636, 40.821551887838638 ], [ -73.831216405842866, 40.821563169541726 ], [ -73.831196923751889, 40.821578263944751 ], [ -73.83118646743975, 40.821584855626135 ], [ -73.831168504962704, 40.821593917980842 ], [ -73.831160817980816, 40.82159664605981 ], [ -73.831151966330367, 40.821599148222788 ], [ -73.831144913799889, 40.821600350863548 ], [ -73.831137637220309, 40.821601096562958 ], [ -73.831122173006932, 40.821602408429499 ], [ -73.831098573146818, 40.821602461171217 ], [ -73.831064680968964, 40.821602413314793 ], [ -73.831037502977068, 40.821603173993125 ], [ -73.831015428154458, 40.821604390566478 ], [ -73.830995276750656, 40.821606228701164 ], [ -73.830977432017889, 40.821609505562868 ], [ -73.830967699433117, 40.821613493967618 ], [ -73.830960612056373, 40.821619566446756 ], [ -73.830955413151287, 40.821626015401314 ], [ -73.830951597328664, 40.821633065221029 ], [ -73.830948158607384, 40.821647947204063 ], [ -73.83094753147401, 40.821665225973106 ], [ -73.830946778444599, 40.821685893098937 ], [ -73.830948245824388, 40.821708794011919 ], [ -73.830950300668007, 40.821730981752914 ], [ -73.830953755079364, 40.821755129177141 ], [ -73.830956995559546, 40.821772066016436 ], [ -73.830962098255284, 40.821792737301621 ], [ -73.830965225355399, 40.821806708580773 ], [ -73.830970682385441, 40.821821377653116 ], [ -73.829823090621247, 40.822384905207201 ], [ -73.829827795767798, 40.822316679611674 ] ] ] ] } },
{ "type": "Feature", "properties": { "Borough": "BX", "Block": 5570, "Lot": 128, "CD": 210, "BCT2020": "2011000", "BCTCB2020": "20110001004", "CT2010": "110", "CB2010": "1006", "SchoolDist": "08", "Council": 13, "ZipCode": 10465, "FireComp": "E072", "PolicePrct": 45, "HealthCent": 26, "HealthArea": 3220, "Sanitboro": "2", "SanitDistr": "10", "SanitSub": "3C", "Address": "RANDALL AVENUE", "ZoneDist1": "R4", "ZoneDist2": null, "ZoneDist3": null, "ZoneDist4": null, "Overlay1": null, "Overlay2": null, "SPDist1": null, "SPDist2": null, "SPDist3": null, "LtdHeight": null, "SplitZone": "N", "BldgClass": "V0", "LandUse": "11", "Easements": 0, "OwnerType": "X", "OwnerName": "ROMAN CATHOLIC CHURCH OF", "LotArea": 1872, "BldgArea": 0, "ComArea": 0, "ResArea": 0, "OfficeArea": 0, "RetailArea": 0, "GarageArea": 0, "StrgeArea": 0, "FactryArea": 0, "OtherArea": 0, "AreaSource": "7", "NumBldgs": 0, "NumFloors": 0.0, "UnitsRes": 0, "UnitsTotal": 0, "LotFront": 177.0, "LotDepth": 10.0, "BldgFront": 0.0, "BldgDepth": 0.0, "Ext": null, "ProxCode": "0", "IrrLotCode": "Y", "LotType": "5", "BsmtCode": "5", "AssessLand": 4920.0, "AssessTot": 4920.0, "ExemptTot": 4920.0, "YearBuilt": 0, "YearAlter1": 0, "YearAlter2": 0, "HistDist": null, "Landmark": null, "BuiltFAR": 0.0, "ResidFAR": 1.0, "CommFAR": 0.0, "FacilFAR": 2.0, "BoroCode": 2, "BBL": 2055700128.0, "CondoNo": 0, "Tract2010": "0110", "XCoord": 1031009, "YCoord": 238606, "ZoneMap": "7a", "ZMCode": null, "Sanborn": "221 079", "TaxMap": "21808", "EDesigNum": null, "APPBBL": 0.0, "APPDate": null, "PLUTOMapID": "1", "FIRM07_FLA": null, "PFIRM15_FL": null, "Version": "25v4", "DCPEdited": null, "Latitude": 40.8214702, "Longitude": -73.831058, "Notes": null, "Shape_Leng": 0.0, "Shape_Area": 1885.315176 }, "geometry": { "type": "MultiPolygon", "coordinates": [ [ [ [ -73.830796994202402, 40.821576192357924 ], [ -73.831328102875389, 40.821315383378028 ], [ -73.831276244787574, 40.821358974486301 ], [ -73.831242339718926, 40.821388325175135 ], [ -73.831226671066332, 40.821400180690361 ], [ -73.831210512904192, 40.821412425422473 ], [ -73.831193925816066, 40.821423230581082 ], [ -73.831175467026597, 40.821434948730818 ], [ -73.831156350676096, 40.821446100376178 ], [ -73.831130270931951, 40.821459741638698 ], [ -73.831108397069599, 40.821469140499737 ], [ -73.831090673087942, 40.82147575297401 ], [ -73.831070181403774, 40.82148462981317 ], [ -73.831047778807005, 40.821495461475848 ], [ -73.831021756541062, 40.82150887223154 ], [ -73.830988997491872, 40.821527031397096 ], [ -73.830967750145462, 40.82153944330976 ], [ -73.830949326786936, 40.821548847203445 ], [ -73.830932518005071, 40.821556333563841 ], [ -73.830907891431693, 40.821563459085681 ], [ -73.83087051088755, 40.821572179584692 ], [ -73.830848189055615, 40.821576862777313 ], [ -73.830835358284091, 40.821578822314542 ], [ -73.830821846023923, 40.821579320239863 ], [ -73.830805946902316, 40.821578258593235 ], [ -73.830799314396828, 40.821576989108351 ], [ -73.830796994202402, 40.821576192357924 ] ] ] ] } },
{ "type": "Feature", "properties": { "Borough": "BX", "Block": 5570, "Lot": 144, "CD": 210, "BCT2020": "2011000", "BCTCB2020": "20110001004", "CT2010": "110", "CB2010": "1006", "SchoolDist": "08", "Council": 13, "ZipCode": 10465, "FireComp": "E072", "PolicePrct": 45, "HealthCent": 26, "HealthArea": 3220, "Sanitboro": "2", "SanitDistr": "10", "SanitSub": "3C", "Address": "RANDALL AVENUE", "ZoneDist1": "R4", "ZoneDist2": null, "ZoneDist3": null, "ZoneDist4": null, "Overlay1": null, "Overlay2": null, "SPDist1": null, "SPDist2": null, "SPDist3": null, "LtdHeight": null, "SplitZone": "N", "BldgClass": "V0", "LandUse": "11", "Easements": 0, "OwnerType": "X", "OwnerName": "ROMAN CATHOLIC CHURCH OF", "LotArea": 186, "BldgArea": 0, "ComArea": 0, "ResArea": 0, "OfficeArea": 0, "RetailArea": 0, "GarageArea": 0, "StrgeArea": 0, "FactryArea": 0, "OtherArea": 0, "AreaSource": "7", "NumBldgs": 0, "NumFloors": 0.0, "UnitsRes": 0, "UnitsTotal": 0, "LotFront": 43.0, "LotDepth": 10.0, "BldgFront": 0.0, "BldgDepth": 0.0, "Ext": null, "ProxCode": "0", "IrrLotCode": "Y", "LotType": "5", "BsmtCode": "5", "AssessLand": 264.0, "AssessTot": 264.0, "ExemptTot": 264.0, "YearBuilt": 0, "YearAlter1": 0, "YearAlter2": 0, "HistDist": null, "Landmark": null, "BuiltFAR": 0.0, "ResidFAR": 1.0, "CommFAR": 0.0, "FacilFAR": 2.0, "BoroCode": 2, "BBL": 2055700144.0, "CondoNo": 0, "Tract2010": "0110", "XCoord": 1030814, "YCoord": 238474, "ZoneMap": "7a", "ZMCode": null, "Sanborn": "221 079", "TaxMap": "21808", "EDesigNum": null, "APPBBL": 0.0, "APPDate": null, "PLUTOMapID": "1", "FIRM07_FLA": null, "PFIRM15_FL": null, "Version": "25v4", "DCPEdited": null, "Latitude": 40.8211089, "Longitude": -73.8317634, "Notes": null, "Shape_Leng": 0.0, "Shape_Area": 173.0463446 }, "geometry": { "type": "MultiPolygon", "coordinates": [ [ [ [ -73.831693459828642, 40.821135966541085 ], [ -73.831819776802746, 40.821073934583382 ], [ -73.831810718251816, 40.82108704978355 ], [ -73.831803796703085, 40.821096058165359 ], [ -73.831797778295751, 40.821102231308735 ], [ -73.831789535524479, 40.82110869024698 ], [ -73.831778869417491, 40.821114857524179 ], [ -73.831765292196522, 40.821120921494746 ], [ -73.831754176676966, 40.821124341488684 ], [ -73.831742270041062, 40.821127926140328 ], [ -73.831725137846902, 40.82113217126107 ], [ -73.831710309580984, 40.821134671932278 ], [ -73.831693459828642, 40.821135966541085 ] ] ] ] } },
{ "type": "Feature", "properties": { "Borough": "BX", "Block": 5570, "Lot": 152, "CD": 210, "BCT2020": "2011000", "BCTCB2020": "20110001004", "CT2010": "110", "CB2010": "1006", "SchoolDist": "08", "Council": 13, "ZipCode": 10465, "FireComp": "E072", "PolicePrct": 45, "HealthCent": 26, "HealthArea": 3220, "Sanitboro": "2", "SanitDistr": "10", "SanitSub": "3C", "Address": "RANDALL AVENUE", "ZoneDist1": "R4", "ZoneDist2": null, "ZoneDist3": null, "ZoneDist4": null, "Overlay1": null, "Overlay2": null, "SPDist1": null, "SPDist2": null, "SPDist3": null, "LtdHeight": null, "SplitZone": "N", "BldgClass": "V0", "LandUse": "11", "Easements": 0, "OwnerType": "X", "OwnerName": "ROMAN CATHOLIC CHURCH OF", "LotArea": 20875, "BldgArea": 0, "ComArea": 0, "ResArea": 0, "OfficeArea": 0, "RetailArea": 0, "GarageArea": 0, "StrgeArea": 0, "FactryArea": 0, "OtherArea": 0, "AreaSource": "7", "NumBldgs": 0, "NumFloors": 0.0, "UnitsRes": 0, "UnitsTotal": 0, "LotFront": 64.0, "LotDepth": 10.0, "BldgFront": 0.0, "BldgDepth": 0.0, "Ext": null, "ProxCode": "0", "IrrLotCode": "Y", "LotType": "5", "BsmtCode": "5", "AssessLand": 77880.0, "AssessTot": 77880.0, "ExemptTot": 77880.0, "YearBuilt": 0, "YearAlter1": 0, "YearAlter2": 0, "HistDist": null, "Landmark": null, "BuiltFAR": 0.0, "ResidFAR": 1.0, "CommFAR": 0.0, "FacilFAR": 2.0, "BoroCode": 2, "BBL": 2055700152.0000002, "CondoNo": 0, "Tract2010": "0110", "XCoord": 1030846, "YCoord": 238559, "ZoneMap": "7a", "ZMCode": null, "Sanborn": "221 079", "TaxMap": "21808", "EDesigNum": null, "APPBBL": 0.0, "APPDate": null, "PLUTOMapID": "1", "FIRM07_FLA": null, "PFIRM15_FL": null, "Version": "25v4", "DCPEdited": null, "Latitude": 40.821342, "Longitude": -73.8316472, "Notes": null, "Shape_Leng": 0.0, "Shape_Area": 21904.606480300001 }, "geometry": { "type": "MultiPolygon", "coordinates": [ [ [ [ -73.832094945799227, 40.820938804585701 ], [ -73.832293198527523, 40.820841445987604 ], [ -73.832300647696442, 40.820848821959515 ], [ -73.832306845227833, 40.820854785107436 ], [ -73.832314431718544, 40.820863648993161 ], [ -73.832320759211697, 40.820873977011189 ], [ -73.832325345872349, 40.820887881947201 ], [ -73.83232675474278, 40.820901277121862 ], [ -73.832326052201168, 40.820913359032431 ], [ -73.832321474081468, 40.82093084363445 ], [ -73.832313577220063, 40.820946808835593 ], [ -73.832304187962251, 40.820959970358864 ], [ -73.832290273570095, 40.820980863289329 ], [ -73.832263846647635, 40.821012996052033 ], [ -73.832216290668029, 40.821068506450317 ], [ -73.832177322973251, 40.821112647139216 ], [ -73.832160240616872, 40.821132813207377 ], [ -73.832144568213351, 40.821147640508819 ], [ -73.832136204261744, 40.821154214578492 ], [ -73.832128604213764, 40.821159142757352 ], [ -73.832105117037784, 40.821172381850708 ], [ -73.832093487672694, 40.821178380266112 ], [ -73.832085563484085, 40.821183061174189 ], [ -73.832073926834866, 40.82119054812938 ], [ -73.832053488196948, 40.82120528380625 ], [ -73.832033578103164, 40.821221913130195 ], [ -73.832009756836285, 40.821240271089877 ], [ -73.831997598952356, 40.821247580672001 ], [ -73.831985983577468, 40.821253655644007 ], [ -73.831966756249116, 40.821262778436804 ], [ -73.831944411945258, 40.821274075004645 ], [ -73.831936547043767, 40.821278731726643 ], [ -73.831898811980096, 40.821304968572782 ], [ -73.83186741177218, 40.82132591875677 ], [ -73.831858346718704, 40.821331269852841 ], [ -73.831848443809974, 40.821336107227516 ], [ -73.831837039311623, 40.821340781281904 ], [ -73.831809231526719, 40.821349728637379 ], [ -73.831749986918723, 40.821363637680015 ], [ -73.831730760868254, 40.821367570872091 ], [ -73.831695313478249, 40.821373150792098 ], [ -73.831648837569745, 40.821381040567438 ], [ -73.831619962308721, 40.821387850324676 ], [ -73.831594097048921, 40.821395507259652 ], [ -73.831570520959275, 40.821405860951543 ], [ -73.83154895433033, 40.821417559308173 ], [ -73.831510140277274, 40.821444262690086 ], [ -73.83149050559426, 40.821460685180853 ], [ -73.831470814955196, 40.82147954341432 ], [ -73.831461478244265, 40.82149151631188 ], [ -73.831451832953249, 40.821505968758018 ], [ -73.831441214196573, 40.821527095131458 ], [ -73.831433272589493, 40.821545613073184 ], [ -73.831427823722606, 40.821561851929502 ], [ -73.831425395979863, 40.821571247765469 ], [ -73.831423913539439, 40.821580433327519 ], [ -73.831422974444905, 40.821599272225413 ], [ -73.831102808579871, 40.821756495110428 ], [ -73.831095393565278, 40.821750643555404 ], [ -73.831090043956863, 40.821747354337646 ], [ -73.831083399056183, 40.821743931708163 ], [ -73.831077358243022, 40.821740707148649 ], [ -73.831069654457977, 40.821737467519121 ], [ -73.831063782941484, 40.821735228380064 ], [ -73.831059638225724, 40.821734106620632 ], [ -73.831056817620009, 40.821733870161275 ], [ -73.831054088488656, 40.821733995830961 ], [ -73.831051696624826, 40.821734835191556 ], [ -73.831050325873491, 40.821735967770557 ], [ -73.831049596336229, 40.821737553385788 ], [ -73.831049379784815, 40.821740215864722 ], [ -73.831049746835291, 40.821744595471714 ], [ -73.831051665661036, 40.821752621812422 ], [ -73.83105482242847, 40.821762419364433 ], [ -73.831058948226683, 40.821772422716407 ], [ -73.831061547429044, 40.821776756155991 ], [ -73.830970682385441, 40.821821377653116 ], [ -73.830965225355399, 40.821806708580773 ], [ -73.830962098255284, 40.821792737301621 ], [ -73.830956995559546, 40.821772066016436 ], [ -73.830953755079364, 40.821755129177141 ], [ -73.830950300668007, 40.821730981752914 ], [ -73.830948245824388, 40.821708794011919 ], [ -73.830946778444599, 40.821685893098937 ], [ -73.83094753147401, 40.821665225973106 ], [ -73.830948158607384, 40.821647947204063 ], [ -73.830951597328664, 40.821633065221029 ], [ -73.830955413151287, 40.821626015401314 ], [ -73.830960612056373, 40.821619566446756 ], [ -73.830967699433117, 40.821613493967618 ], [ -73.830977432017889, 40.821609505562868 ], [ -73.830995276750656, 40.821606228701164 ], [ -73.831015428154458, 40.821604390566478 ], [ -73.831037502977068, 40.821603173993125 ], [ -73.831064680968964, 40.821602413314793 ], [ -73.831098573146818, 40.821602461171217 ], [ -73.831122173006932, 40.821602408429499 ], [ -73.831137637220309, 40.821601096562958 ], [ -73.831144913799889, 40.821600350863548 ], [ -73.831151966330367, 40.821599148222788 ], [ -73.831160817980816, 40.82159664605981 ], [ -73.831168504962704, 40.821593917980842 ], [ -73.83118646743975, 40.821584855626135 ], [ -73.831196923751889, 40.821578263944751 ], [ -73.831216405842866, 40.821563169541726 ], [ -73.831227328095636, 40.821551887838638 ], [ -73.831241318482057, 40.821535338244665 ], [ -73.831249680533929, 40.821521622398905 ], [ -73.831261699814476, 40.821499368021719 ], [ -73.831266757143908, 40.821491192531369 ], [ -73.831273595030581, 40.821482997229161 ], [ -73.8312826367209, 40.821474291820152 ], [ -73.831294398620685, 40.821464673737559 ], [ -73.831311411764673, 40.821453222666968 ], [ -73.831332329645846, 40.821438460801097 ], [ -73.831358882801268, 40.821422722008172 ], [ -73.831429274778088, 40.821383123862148 ], [ -73.83144128035768, 40.821376066183106 ], [ -73.831454029856431, 40.821366869164486 ], [ -73.831473197623097, 40.821352693590903 ], [ -73.831482682396597, 40.821346864188172 ], [ -73.831496020307469, 40.821339353680095 ], [ -73.831526378750667, 40.821326750615867 ], [ -73.831561893919343, 40.821312185571493 ], [ -73.831608898767328, 40.821294358700293 ], [ -73.831659166713536, 40.821277095756642 ], [ -73.831700087661403, 40.821261395028849 ], [ -73.831740882393788, 40.821244907955233 ], [ -73.831772633663789, 40.821229975438335 ], [ -73.831815197107417, 40.82120877227814 ], [ -73.831840390745882, 40.821194311041943 ], [ -73.831869496792052, 40.821174444335298 ], [ -73.831892606328339, 40.821157745922946 ], [ -73.83190591752296, 40.821148571257019 ], [ -73.831926212100811, 40.821131756123556 ], [ -73.831960879854662, 40.821102947537028 ], [ -73.832001883644224, 40.821064226422422 ], [ -73.832038383252097, 40.821026738725145 ], [ -73.832063311088149, 40.821000175212632 ], [ -73.832074920251401, 40.820986201097718 ], [ -73.832082035547231, 40.820974192536205 ], [ -73.832091278679087, 40.820957423338136 ], [ -73.832093938985352, 40.820948861660256 ], [ -73.832094945799227, 40.820938804585701 ] ] ] ] } },
{ "type": "Feature", "properties": { "Borough": "BX", "Block": 5570, "Lot": 156, "CD": 210, "BCT2020": "2011000", "BCTCB2020": "20110001004", "CT2010": "110", "CB2010": "1006", "SchoolDist": "08", "Council": 13, "ZipCode": 10465, "FireComp": "E072", "PolicePrct": 45, "HealthCent": 26, "HealthArea": 3220, "Sanitboro": "2", "SanitDistr": "10", "SanitSub": "3C", "Address": "RANDALL AVENUE", "ZoneDist1": "R4", "ZoneDist2": null, "ZoneDist3": null, "ZoneDist4": null, "Overlay1": null, "Overlay2": null, "SPDist1": null, "SPDist2": null, "SPDist3": null, "LtdHeight": null, "SplitZone": "N", "BldgClass": "V0", "LandUse": "11", "Easements": 0, "OwnerType": "X", "OwnerName": "ST RAYMOND CHURCH", "LotArea": 97467, "BldgArea": 0, "ComArea": 0, "ResArea": 0, "OfficeArea": 0, "RetailArea": 0, "GarageArea": 0, "StrgeArea": 0, "FactryArea": 0, "OtherArea": 0, "AreaSource": "7", "NumBldgs": 0, "NumFloors": 0.0, "UnitsRes": 0, "UnitsTotal": 0, "LotFront": 100.0, "LotDepth": 500.0, "BldgFront": 0.0, "BldgDepth": 0.0, "Ext": null, "ProxCode": "0", "IrrLotCode": "Y", "LotType": "5", "BsmtCode": "5", "AssessLand": 363420.0, "AssessTot": 363420.0, "ExemptTot": 363420.0, "YearBuilt": 0, "YearAlter1": 0, "YearAlter2": 0, "HistDist": null, "Landmark": null, "BuiltFAR": 0.0, "ResidFAR": 1.0, "CommFAR": 0.0, "FacilFAR": 2.0, "BoroCode": 2, "BBL": 2055700156.0, "CondoNo": 0, "Tract2010": "0110", "XCoord": 1030632, "YCoord": 238233, "ZoneMap": "7a", "ZMCode": null, "Sanborn": "221 079", "TaxMap": "21808", "EDesigNum": null, "APPBBL": 0.0, "APPDate": null, "PLUTOMapID": "1", "FIRM07_FLA": null, "PFIRM15_FL": null, "Version": "25v4", "DCPEdited": null, "Latitude": 40.8204484, "Longitude": -73.8324227, "Notes": null, "Shape_Leng": 0.0, "Shape_Area": 96808.774671199993 }, "geometry": { "type": "MultiPolygon", "coordinates": [ [ [ [ -73.831423913539439, 40.821580433327519 ], [ -73.831425395979863, 40.821571247765469 ], [ -73.831427823722606, 40.821561851929502 ], [ -73.831433272589493, 40.821545613073184 ], [ -73.831441214196573, 40.821527095131458 ], [ -73.831451832953249, 40.821505968758018 ], [ -73.831461478244265, 40.82149151631188 ], [ -73.831470814955196, 40.82147954341432 ], [ -73.83149050559426, 40.821460685180853 ], [ -73.831510140277274, 40.821444262690086 ], [ -73.83154895433033, 40.821417559308173 ], [ -73.831570520959275, 40.821405860951543 ], [ -73.831594097048921, 40.821395507259652 ], [ -73.831619962308721, 40.821387850324676 ], [ -73.831648837569745, 40.821381040567438 ], [ -73.831695313478249, 40.821373150792098 ], [ -73.831730760868254, 40.821367570872091 ], [ -73.831749986918723, 40.821363637680015 ], [ -73.831809231526719, 40.821349728637379 ], [ -73.831837039311623, 40.821340781281904 ], [ -73.831848443809974, 40.821336107227516 ], [ -73.831858346718704, 40.821331269852841 ], [ -73.83186741177218, 40.82132591875677 ], [ -73.831898811980096, 40.821304968572782 ], [ -73.831936547043767, 40.821278731726643 ], [ -73.831944411945258, 40.821274075004645 ], [ -73.831966756249116, 40.821262778436804 ], [ -73.831985983577468, 40.821253655644007 ], [ -73.831997598952356, 40.821247580672001 ], [ -73.832009756836285, 40.821240271089877 ], [ -73.832033578103164, 40.821221913130195 ], [ -73.832053488196948, 40.82120528380625 ], [ -73.832073926834866, 40.82119054812938 ], [ -73.832085563484085, 40.821183061174189 ], [ -73.832093487672694, 40.821178380266112 ], [ -73.832105117037784, 40.821172381850708 ], [ -73.832128604213764, 40.821159142757352 ], [ -73.832136204261744, 40.821154214578492 ], [ -73.832144568213351, 40.821147640508819 ], [ -73.832160240616872, 40.821132813207377 ], [ -73.832177322973251, 40.821112647139216 ], [ -73.832216290668029, 40.821068506450317 ], [ -73.832263846647635, 40.821012996052033 ], [ -73.832290273570095, 40.820980863289329 ], [ -73.832304187962251, 40.820959970358864 ], [ -73.832313577220063, 40.820946808835593 ], [ -73.832321474081468, 40.82093084363445 ], [ -73.832326052201168, 40.820913359032431 ], [ -73.83232675474278, 40.820901277121862 ], [ -73.832325345872349, 40.820887881947201 ], [ -73.832320759211697, 40.820873977011189 ], [ -73.832314431718544, 40.820863648993161 ], [ -73.832306845227833, 40.820854785107436 ], [ -73.832300647696442, 40.820848821959515 ], [ -73.832293198527523, 40.820841445987604 ], [ -73.832488820629834, 40.820745378104505 ], [ -73.831500819832144, 40.819585279156421 ], [ -73.831799747566819, 40.819438174600869 ], [ -73.832787946400842, 40.820598499104563 ], [ -73.833370736554258, 40.820314910980173 ], [ -73.8335728961694, 40.820543474390384 ], [ -73.831422974444905, 40.821599272225413 ], [ -73.831423913539439, 40.821580433327519 ] ] ] ] } },
{ "type": "Feature", "properties": { "Borough": "BX", "Block": 5570, "Lot": 272, "CD": 210, "BCT2020": "2011000", "BCTCB2020": "20110001004", "CT2010": "110", "CB2010": "1006", "SchoolDist": "08", "Council": 13, "ZipCode": 10465, "FireComp": "E072", "PolicePrct": 45, "HealthCent": 26, "HealthArea": 3220, "Sanitboro": "2", "SanitDistr": "10", "SanitSub": "3C", "Address": "RANDALL AVENUE", "ZoneDist1": "R4", "ZoneDist2": null, "ZoneDist3": null, "ZoneDist4": null, "Overlay1": null, "Overlay2": null, "SPDist1": null, "SPDist2": null, "SPDist3": null, "LtdHeight": null, "SplitZone": "N", "BldgClass": "V0", "LandUse": "11", "Easements": 0, "OwnerType": "X", "OwnerName": "ST RAYMOND CHURCH", "LotArea": 98, "BldgArea": 0, "ComArea": 0, "ResArea": 0, "OfficeArea": 0, "RetailArea": 0, "GarageArea": 0, "StrgeArea": 0, "FactryArea": 0, "OtherArea": 0, "AreaSource": "7", "NumBldgs": 0, "NumFloors": 0.0, "UnitsRes": 0, "UnitsTotal": 0, "LotFront": 13.0, "LotDepth": 10.0, "BldgFront": 0.0, "BldgDepth": 0.0, "Ext": null, "ProxCode": "0", "IrrLotCode": "Y", "LotType": "5", "BsmtCode": "5", "AssessLand": 240.0, "AssessTot": 240.0, "ExemptTot": 240.0, "YearBuilt": 0, "YearAlter1": 0, "YearAlter2": 0, "HistDist": null, "Landmark": null, "BuiltFAR": 0.0, "ResidFAR": 1.0, "CommFAR": 0.0, "FacilFAR": 2.0, "BoroCode": 2, "BBL": 2055700272.0, "CondoNo": 0, "Tract2010": "0110", "XCoord": 1031005, "YCoord": 238709, "ZoneMap": "7a", "ZMCode": null, "Sanborn": "221 079", "TaxMap": "21808", "EDesigNum": null, "APPBBL": 0.0, "APPDate": null, "PLUTOMapID": "1", "FIRM07_FLA": null, "PFIRM15_FL": null, "Version": "25v4", "DCPEdited": null, "Latitude": 40.8217529, "Longitude": -73.8310717, "Notes": null, "Shape_Leng": 0.0, "Shape_Area": 129.1185195 }, "geometry": { "type": "MultiPolygon", "coordinates": [ [ [ [ -73.831095393565278, 40.821750643555404 ], [ -73.831102808579871, 40.821756495110428 ], [ -73.831061547429044, 40.821776756155991 ], [ -73.831058948226683, 40.821772422716407 ], [ -73.83105482242847, 40.821762419364433 ], [ -73.831051665661036, 40.821752621812422 ], [ -73.831049746835291, 40.821744595471714 ], [ -73.831049379784815, 40.821740215864722 ], [ -73.831049596336229, 40.821737553385788 ], [ -73.831050325873491, 40.821735967770557 ], [ -73.831051696624826, 40.821734835191556 ], [ -73.831054088488656, 40.821733995830961 ], [ -73.831056817620009, 40.821733870161275 ], [ -73.831059638225724, 40.821734106620632 ], [ -73.831063782941484, 40.821735228380064 ], [ -73.831069654457977, 40.821737467519121 ], [ -73.831077358243022, 40.821740707148649 ], [ -73.831083399056183, 40.821743931708163 ], [ -73.831090043956863, 40.821747354337646 ], [ -73.831095393565278, 40.821750643555404 ] ] ] ] } },
{ "type": "Feature", "properties": { "Borough": "BX", "Block": 5574, "Lot": 1, "CD": 210, "BCT2020": "2011000", "BCTCB2020": "20110001004", "CT2010": "110", "CB2010": "1007", "SchoolDist": "08", "Council": 13, "ZipCode": 10465, "FireComp": "E072", "PolicePrct": 45, "HealthCent": 26, "HealthArea": 3220, "Sanitboro": "2", "SanitDistr": "10", "SanitSub": "3C", "Address": "2550 SCHLEY AVENUE", "ZoneDist1": "R4", "ZoneDist2": null, "ZoneDist3": null, "ZoneDist4": null, "Overlay1": null, "Overlay2": null, "SPDist1": null, "SPDist2": null, "SPDist3": null, "LtdHeight": null, "SplitZone": "N", "BldgClass": "V0", "LandUse": "11", "Easements": 0, "OwnerType": "X", "OwnerName": "THE ROMAN CATHOLIC CHURCH OF ST RAYMOND", "LotArea": 220000, "BldgArea": 0, "ComArea": 0, "ResArea": 0, "OfficeArea": 0, "RetailArea": 0, "GarageArea": 0, "StrgeArea": 0, "FactryArea": 0, "OtherArea": 0, "AreaSource": "7", "NumBldgs": 0, "NumFloors": 0.0, "UnitsRes": 0, "UnitsTotal": 0, "LotFront": 160.0, "LotDepth": 460.0, "BldgFront": 0.0, "BldgDepth": 0.0, "Ext": null, "ProxCode": "0", "IrrLotCode": "Y", "LotType": "5", "BsmtCode": "5", "AssessLand": 820320.0, "AssessTot": 820320.0, "ExemptTot": 820320.0, "YearBuilt": 0, "YearAlter1": 0, "YearAlter2": 0, "HistDist": null, "Landmark": null, "BuiltFAR": 0.0, "ResidFAR": 1.0, "CommFAR": 0.0, "FacilFAR": 2.0, "BoroCode": 2, "BBL": 2055740001.0, "CondoNo": 0, "Tract2010": "0110", "XCoord": 1030485, "YCoord": 237946, "ZoneMap": "7a", "ZMCode": null, "Sanborn": "221 079", "TaxMap": "21808", "EDesigNum": null, "APPBBL": 0.0, "APPDate": null, "PLUTOMapID": "1", "FIRM07_FLA": null, "PFIRM15_FL": null, "Version": "25v4", "DCPEdited": null, "Latitude": 40.8196614, "Longitude": -73.8329558, "Notes": null, "Shape_Leng": 0.0, "Shape_Area": 222077.722278 }, "geometry": { "type": "MultiPolygon", "coordinates": [ [ [ [ -73.83403907425668, 40.81974718165236 ], [ -73.833517366178199, 40.820190356122751 ], [ -73.833370736554258, 40.820314910980173 ], [ -73.832787946400842, 40.820598499104563 ], [ -73.831799747566819, 40.819438174600869 ], [ -73.833195996021814, 40.818751050771347 ], [ -73.83403907425668, 40.81974718165236 ] ] ] ] } }
]
}
