{
"type": "FeatureCollection",
"name": "pluto_Cunningham_Park",
"crs": { "type": "name", "properties": { "name": "urn:ogc:def:crs:OGC:1.3:CRS84" } },
"features": [
{ "type": "Feature", "properties": { "Borough": "QN", "Block": 7290, "Lot": 1, "CD": 408, "BCT2020": "4128300", "BCTCB2020": "41283001016", "CT2010": "1283", "CB2010": "1026", "SchoolDist": "26", "Council": 23, "ZipCode": 11423, "FireComp": "E301", "PolicePrct": 107, "HealthCent": 43, "HealthArea": 2140, "Sanitboro": "4", "SanitDistr": "08", "SanitSub": "1C", "Address": "196-10 UNION TURNPIKE", "ZoneDist1": "PARK", "ZoneDist2": null, "ZoneDist3": null, "ZoneDist4": null, "Overlay1": null, "Overlay2": null, "SPDist1": null, "SPDist2": null, "SPDist3": null, "LtdHeight": null, "SplitZone": "N", "BldgClass": "Q1", "LandUse": "09", "Easements": 0, "OwnerType": "C", "OwnerName": "NYC DEPARTMENT OF PARKS AND RECREATION", "LotArea": 4530000, "BldgArea": 13500, "ComArea": 13500, "ResArea": 0, "OfficeArea": 0, "RetailArea": 0, "GarageArea": 0, "StrgeArea": 0, "FactryArea": 0, "OtherArea": 13500, "AreaSource": "2", "NumBldgs": 12, "NumFloors": 1.0, "UnitsRes": 0, "UnitsTotal": 0, "LotFront": 2108.0, "LotDepth": 2192.0, "BldgFront": 25.0, "BldgDepth": 45.0, "Ext": "N", "ProxCode": "0", "IrrLotCode": "Y", "LotType": "5", "BsmtCode": "0", "AssessLand": 49639494.0, "AssessTot": 71758350.0, "ExemptTot": 71758350.0, "YearBuilt": 1931, "YearAlter1": 0, "YearAlter2": 0, "HistDist": null, "Landmark": null, "BuiltFAR": 0.0, "ResidFAR": 0.0, "CommFAR": 0.0, "FacilFAR": 0.0, "BoroCode": 4, "BBL": 4072900001.0, "CondoNo": 0, "Tract2010": "1283", "XCoord": 1047302, "YCoord": 204658, "ZoneMap": "15a", "ZMCode": null, "Sanborn": "499 999", "TaxMap": "43204", "EDesigNum": null, "APPBBL": 0.0, "APPDate": null, "PLUTOMapID": "1", "FIRM07_FLA": null, "PFIRM15_FL": null, "Version": "25v4", "DCPEdited": "t", "Latitude": 40.7281909, "Longitude": -73.7725095, "Notes": null, "Shape_Leng": 0.0, "Shape_Area": 4460727.2526399996 }, "geometry": { "type": "MultiPolygon", "coordinates": [ [ [ [ -73.775083139671054, 40.725193252395307 ], [ -73.775341534421671, 40.725695085452365 ], [ -73.777354628905201, 40.730088586969444 ], [ -73.774966245077195, 40.730734394711256 ], [ -73.770420550874846, 40.731547507662917 ], [ -73.770240589929514, 40.731579259851181 ], [ -73.768271083801778, 40.728812179527303 ], [ -73.768146268021965, 40.728460395464779 ], [ -73.768130944632148, 40.728423678671021 ], [ -73.768108269248458, 40.728363124038012 ], [ -73.768094801751047, 40.72832240455574 ], [ -73.768080414111651, 40.728273288714277 ], [ -73.768067168649367, 40.728220479382969 ], [ -73.768054332594318, 40.728157509626826 ], [ -73.76804415830982, 40.72809059101656 ], [ -73.76803771948164, 40.728026503897617 ], [ -73.768034517331017, 40.727963681389184 ], [ -73.768034777184099, 40.727886645819261 ], [ -73.768036711129056, 40.72784694348038 ], [ -73.768055353461676, 40.727644634275308 ], [ -73.768079738111155, 40.727507877769597 ], [ -73.76809845214747, 40.727428058098475 ], [ -73.768123628240943, 40.727337958599442 ], [ -73.768164080689871, 40.727217725457294 ], [ -73.768187272101912, 40.727157746785949 ], [ -73.768229361347295, 40.727060302549582 ], [ -73.768260469557063, 40.726995491425349 ], [ -73.768322949175158, 40.726878929852695 ], [ -73.768383896697841, 40.726778408671585 ], [ -73.768438458502771, 40.726696828586967 ], [ -73.768486551230225, 40.726630255969631 ], [ -73.768582290009732, 40.726520008016244 ], [ -73.768665603250753, 40.726424070248839 ], [ -73.768746672882287, 40.726346321835621 ], [ -73.768797245862345, 40.726303347449608 ], [ -73.768844545241194, 40.726266363005962 ], [ -73.768868020999534, 40.726249042890551 ], [ -73.768946816720558, 40.726195388372133 ], [ -73.769010863810294, 40.726156360864998 ], [ -73.769058904364414, 40.726129848114567 ], [ -73.769091197088287, 40.726113244464727 ], [ -73.769116753402272, 40.726100757028 ], [ -73.769132161780263, 40.726093495582631 ], [ -73.769150661214866, 40.726085037212606 ], [ -73.769178697943161, 40.726072741134502 ], [ -73.769354527872068, 40.726001284206106 ], [ -73.769536644924585, 40.725935364297001 ], [ -73.76973726781668, 40.725862743443265 ], [ -73.770063511073189, 40.725744650714972 ], [ -73.770569250624163, 40.725577594072185 ], [ -73.771185170679217, 40.725390583871942 ], [ -73.771668264414686, 40.725258163312702 ], [ -73.771966008701298, 40.725176547835083 ], [ -73.772456119299832, 40.725061562795666 ], [ -73.773151779804437, 40.724906761504513 ], [ -73.773446242076844, 40.72482860095532 ], [ -73.773573862658409, 40.724791451181353 ], [ -73.773693272185582, 40.72475669219984 ], [ -73.77397693562321, 40.724666374586072 ], [ -73.774299620872128, 40.724553370611268 ], [ -73.774659209637733, 40.72440973063437 ], [ -73.775083139671054, 40.725193252395307 ] ] ] ] } },
{ "type": "Feature", "properties": { "Borough": "QN", "Block": 7721, "Lot": 1, "CD": 408, "BCT2020": "4128300", "BCTCB2020": "41283001009", "CT2010": "1283", "CB2010": "1015", "SchoolDist": "26", "Council": 23, "ZipCode": 11364, "FireComp": "E326", "PolicePrct": 107, "HealthCent": 43, "HealthArea": 2140, "Sanitboro": "4", "SanitDistr": "11", "SanitSub": "5D", "Address": "73 AVENUE", "ZoneDist1": "PARK", "ZoneDist2": null, "ZoneDist3": null, "ZoneDist4": null, "Overlay1": null, "Overlay2": null, "SPDist1": null, "SPDist2": null, "SPDist3": null, "LtdHeight": null, "SplitZone": "N", "BldgClass": "Q1", "LandUse": "09", "Easements": 0, "OwnerType": "C", "OwnerName": "NYC DEPARTMENT OF PARKS AND RECREATION", "LotArea": 1176120, "BldgArea": 4950, "ComArea": 4950, "ResArea": 0, "OfficeArea": 0, "RetailArea": 0, "GarageArea": 0, "StrgeArea": 0, "FactryArea": 0, "OtherArea": 4950, "AreaSource": "2", "NumBldgs": 3, "NumFloors": 1.0, "UnitsRes": 0, "UnitsTotal": 0, "LotFront": 501.0, "LotDepth": 1420.0, "BldgFront": 0.0, "BldgDepth": 0.0, "Ext": "N", "ProxCode": "0", "IrrLotCode": "Y", "LotType": "5", "BsmtCode": "0", "AssessLand": 12888001.0, "AssessTot": 19124550.0, "ExemptTot": 19124550.0, "YearBuilt": 1952, "YearAlter1": 0, "YearAlter2": 0, "HistDist": null, "Landmark": null, "BuiltFAR": 0.0, "ResidFAR": 0.0, "CommFAR": 0.0, "FacilFAR": 0.0, "BoroCode": 4, "BBL": 4077210000.9999995, "CondoNo": 0, "Tract2010": "1283", "XCoord": 1049434, "YCoord": 207816, "ZoneMap": "15a", "ZMCode": "Y", "Sanborn": "422 057", "TaxMap": "43403", "EDesigNum": null, "APPBBL": 0.0, "APPDate": null, "PLUTOMapID": "1", "FIRM07_FLA": null, "PFIRM15_FL": null, "Version": "25v4", "DCPEdited": "t", "Latitude": 40.7368433, "Longitude": -73.7647868, "Notes": null, "Shape_Leng": 0.0, "Shape_Area": 1406274.43028 }, "geometry": { "type": "MultiPolygon", "coordinates": [ [ [ [ -73.762846647714341, 40.735080703689903 ], [ -73.762967631068122, 40.735043936488132 ], [ -73.763095682267746, 40.735005022505263 ], [ -73.763179932451877, 40.734979418834406 ], [ -73.763234564023705, 40.734965847971495 ], [ -73.763366864714541, 40.734932983975391 ], [ -73.763500966310673, 40.734897992859587 ], [ -73.763637433542584, 40.734862212258257 ], [ -73.763774877331031, 40.734826104797449 ], [ -73.76391032650038, 40.734791221385173 ], [ -73.76404935325327, 40.734754971944007 ], [ -73.764148002517899, 40.734728499157491 ], [ -73.764186001184868, 40.73471647778603 ], [ -73.764319830741897, 40.734674137005939 ], [ -73.764446331184743, 40.734634115284031 ], [ -73.764583058264137, 40.734590858942241 ], [ -73.764703387216031, 40.734552791005257 ], [ -73.76489473920563, 40.734492502915991 ], [ -73.767679890093504, 40.737731641660339 ], [ -73.767698339367215, 40.737766049635866 ], [ -73.767703323722031, 40.737783317011903 ], [ -73.767703694853054, 40.737797059579641 ], [ -73.767700324021419, 40.737811424057604 ], [ -73.767694592935825, 40.737823590025016 ], [ -73.767687100608384, 40.737837368088904 ], [ -73.767677749824003, 40.737849031480778 ], [ -73.767666480248721, 40.737858219165233 ], [ -73.767650352021406, 40.737867078208993 ], [ -73.765995192206276, 40.738436264036309 ], [ -73.763738894523257, 40.739025760887174 ], [ -73.762800631602317, 40.737036781836181 ], [ -73.762741703589285, 40.736907994537219 ], [ -73.762694351767138, 40.736739943598216 ], [ -73.762676919476959, 40.736644175270392 ], [ -73.76266796902604, 40.736540922257319 ], [ -73.762669766339485, 40.73638667213001 ], [ -73.762680827362374, 40.736271315213756 ], [ -73.762695888598032, 40.736157626199706 ], [ -73.762717508148185, 40.73606759358308 ], [ -73.762757003195659, 40.735948156503198 ], [ -73.762825886697414, 40.735813256095 ], [ -73.762858545530463, 40.735746787346876 ], [ -73.762896907643466, 40.735649194318476 ], [ -73.762910364921552, 40.735581210976285 ], [ -73.762916378040487, 40.73553254264538 ], [ -73.76291345532762, 40.735449659919851 ], [ -73.762865452732967, 40.735118360392896 ], [ -73.762846647714341, 40.735080703689903 ] ] ] ] } },
{ "type": "Feature", "properties": { "Borough": "QN", "Block": 7723, "Lot": 10, "CD": 408, "BCT2020": "4128300", "BCTCB2020": "41283001006", "CT2010": "1283", "CB2010": "1002", "SchoolDist": "26", "Council": 23, "ZipCode": 11364, "FireComp": "E326", "PolicePrct": 107, "HealthCent": 43, "HealthArea": 2140, "Sanitboro": "4", "SanitDistr": "08", "SanitSub": "1D", "Address": "FRANCIS LEWIS BLVD", "ZoneDist1": "PARK", "ZoneDist2": "R3-2", "ZoneDist3": null, "ZoneDist4": null, "Overlay1": null, "Overlay2": null, "SPDist1": null, "SPDist2": null, "SPDist3": null, "LtdHeight": null, "SplitZone": "Y", "BldgClass": "Q1", "LandUse": "09", "Easements": 0, "OwnerType": "C", "OwnerName": "NYC DEPARTMENT OF PARKS AND RECREATION", "LotArea": 4435200, "BldgArea": 0, "ComArea": 0, "ResArea": 0, "OfficeArea": 0, "RetailArea": 0, "GarageArea": 0, "StrgeArea": 0, "FactryArea": 0, "OtherArea": 0, "AreaSource": "7", "NumBldgs": 1, "NumFloors": 0.0, "UnitsRes": 0, "UnitsTotal": 0, "LotFront": 260.0, "LotDepth": 426.0, "BldgFront": 0.0, "BldgDepth": 0.0, "Ext": "N", "ProxCode": "0", "IrrLotCode": "Y", "LotType": "5", "BsmtCode": "0", "AssessLand": 67258800.0, "AssessTot": 67258800.0, "ExemptTot": 67258800.0, "YearBuilt": 0, "YearAlter1": 0, "YearAlter2": 0, "HistDist": null, "Landmark": null, "BuiltFAR": 0.0, "ResidFAR": 0.0, "CommFAR": 0.0, "FacilFAR": 0.0, "BoroCode": 4, "BBL": 4077230010.0000005, "CondoNo": 0, "Tract2010": "1283", "XCoord": 1048014, "YCoord": 209372, "ZoneMap": "11b", "ZMCode": "Y", "Sanborn": "422 057", "TaxMap": "43403", "EDesigNum": null, "APPBBL": 0.0, "APPDate": null, "PLUTOMapID": "1", "FIRM07_FLA": null, "PFIRM15_FL": null, "Version": "25v4", "DCPEdited": "t", "Latitude": 40.7411245, "Longitude": -73.769896, "Notes": null, "Shape_Leng": 0.0, "Shape_Area": 6618093.079069999 }, "geometry": { "type": "MultiPolygon", "coordinates": [ [ [ [ -73.773898825101, 40.739595568965981 ], [ -73.774178919153755, 40.740362614821635 ], [ -73.774419840611571, 40.740917739973241 ], [ -73.775375555309438, 40.742934381155763 ], [ -73.775652087086314, 40.743517862478527 ], [ -73.767859867771023, 40.745656349620241 ], [ -73.767733922356712, 40.745396658846168 ], [ -73.767209633979789, 40.744315591812878 ], [ -73.767142751711063, 40.74419473063768 ], [ -73.767024069741424, 40.7440264517884 ], [ -73.766931070355, 40.743919753030887 ], [ -73.766804746117572, 40.743797981523414 ], [ -73.766668333980533, 40.743688230167848 ], [ -73.766555826545229, 40.743610760817944 ], [ -73.766366399481043, 40.743501388724873 ], [ -73.766183247412002, 40.74341619152905 ], [ -73.76607605065162, 40.743355382087202 ], [ -73.765988091818642, 40.74329885926462 ], [ -73.765894889385649, 40.74323150799696 ], [ -73.765813638688854, 40.743165403751426 ], [ -73.765719980082096, 40.743078739911084 ], [ -73.765652491098976, 40.743007609045939 ], [ -73.765559115634517, 40.742893092917157 ], [ -73.765496234567806, 40.742801262293113 ], [ -73.765437184077925, 40.742698583827725 ], [ -73.76538460136797, 40.742585261012678 ], [ -73.763784349246095, 40.739237226387893 ], [ -73.766073329832508, 40.738656368854272 ], [ -73.767813911659417, 40.738031366000222 ], [ -73.767839543938109, 40.738021594962895 ], [ -73.769187767107184, 40.737507580276372 ], [ -73.769825878112172, 40.737260986511309 ], [ -73.770360985307775, 40.737090158831649 ], [ -73.77264858367657, 40.736450160170932 ], [ -73.77274608629196, 40.73642288181712 ], [ -73.77278035015803, 40.736504691444686 ], [ -73.773093827865736, 40.737253171117452 ], [ -73.773285801229136, 40.737774571082603 ], [ -73.773898825101, 40.739595568965981 ] ] ] ] } },
{ "type": "Feature", "properties": { "Borough": "QN", "Block": 7722, "Lot": 1, "CD": 408, "BCT2020": "4128300", "BCTCB2020": "41283001010", "CT2010": "1283", "CB2010": "1011", "SchoolDist": "26", "Council": 23, "ZipCode": 11364, "FireComp": "E326", "PolicePrct": 107, "HealthCent": 43, "HealthArea": 2140, "Sanitboro": "4", "SanitDistr": "08", "SanitSub": "1D", "Address": "FRANCIS LEWIS BLVD", "ZoneDist1": "PARK", "ZoneDist2": null, "ZoneDist3": null, "ZoneDist4": null, "Overlay1": null, "Overlay2": null, "SPDist1": null, "SPDist2": null, "SPDist3": null, "LtdHeight": null, "SplitZone": "N", "BldgClass": "Q1", "LandUse": "09", "Easements": 0, "OwnerType": "C", "OwnerName": "NYC DEPARTMENT OF PARKS AND RECREATION", "LotArea": 1858560, "BldgArea": 1400, "ComArea": 1400, "ResArea": 0, "OfficeArea": 0, "RetailArea": 0, "GarageArea": 0, "StrgeArea": 0, "FactryArea": 0, "OtherArea": 1400, "AreaSource": "2", "NumBldgs": 1, "NumFloors": 1.0, "UnitsRes": 0, "UnitsTotal": 0, "LotFront": 901.0, "LotDepth": 1880.0, "BldgFront": 28.0, "BldgDepth": 50.0, "Ext": "N", "ProxCode": "0", "IrrLotCode": "Y", "LotType": "5", "BsmtCode": "0", "AssessLand": 20366181.0, "AssessTot": 30082500.0, "ExemptTot": 30082500.0, "YearBuilt": 1952, "YearAlter1": 1999, "YearAlter2": 0, "HistDist": null, "Landmark": null, "BuiltFAR": 0.0, "ResidFAR": 0.0, "CommFAR": 0.0, "FacilFAR": 0.0, "BoroCode": 4, "BBL": 4077220001.0, "CondoNo": 0, "Tract2010": "1283", "XCoord": 1048107, "YCoord": 207001, "ZoneMap": "15a", "ZMCode": null, "Sanborn": "422 057", "TaxMap": "43403", "EDesigNum": null, "APPBBL": 0.0, "APPDate": null, "PLUTOMapID": "1", "FIRM07_FLA": null, "PFIRM15_FL": null, "Version": "25v4", "DCPEdited": "t", "Latitude": 40.734616, "Longitude": -73.7695829, "Notes": null, "Shape_Leng": 0.0, "Shape_Area": 1878698.4625 }, "geometry": { "type": "MultiPolygon", "coordinates": [ [ [ [ -73.767982998495668, 40.735638196297252 ], [ -73.766764232579987, 40.7325883206315 ], [ -73.768446345360303, 40.732274026145667 ], [ -73.769948153963611, 40.732003284581815 ], [ -73.769971397268051, 40.732004068511998 ], [ -73.769991676617735, 40.732006842988184 ], [ -73.770017083575937, 40.732012166302752 ], [ -73.770033755111797, 40.732018252876543 ], [ -73.770049134786021, 40.732026875378757 ], [ -73.770062200926901, 40.732036274896963 ], [ -73.770075113636864, 40.732048642214828 ], [ -73.770666230216023, 40.732894430653559 ], [ -73.771312814432349, 40.733805656401437 ], [ -73.771542726187064, 40.734168793645892 ], [ -73.771810704235392, 40.734622857599163 ], [ -73.772056184753552, 40.735050564271262 ], [ -73.772629514165956, 40.736202443472038 ], [ -73.772538400961679, 40.736228688015046 ], [ -73.770287886122659, 40.736844191611496 ], [ -73.769979770089876, 40.736937847954955 ], [ -73.769745649194206, 40.737028326866714 ], [ -73.768708176091536, 40.737443982561913 ], [ -73.767982998495668, 40.735638196297252 ] ] ] ] } },
{ "type": "Feature", "properties": { "Borough": "QN", "Block": 7722, "Lot": 100, "CD": 408, "BCT2020": "4128300", "BCTCB2020": "41283001008", "CT2010": "1283", "CB2010": "1014", "SchoolDist": "26", "Council": 23, "ZipCode": 11364, "FireComp": "E326", "PolicePrct": 107, "HealthCent": 43, "HealthArea": 2140, "Sanitboro": "4", "SanitDistr": "08", "SanitSub": "1D", "Address": "FRANCIS LEWIS BLVD", "ZoneDist1": "PARK", "ZoneDist2": null, "ZoneDist3": null, "ZoneDist4": null, "Overlay1": null, "Overlay2": null, "SPDist1": null, "SPDist2": null, "SPDist3": null, "LtdHeight": null, "SplitZone": "N", "BldgClass": "Q1", "LandUse": "09", "Easements": 0, "OwnerType": "C", "OwnerName": "NYC DEPARTMENT OF PARKS AND RECREATION", "LotArea": 346624, "BldgArea": 0, "ComArea": 0, "ResArea": 0, "OfficeArea": 0, "RetailArea": 0, "GarageArea": 0, "StrgeArea": 0, "FactryArea": 0, "OtherArea": 0, "AreaSource": "7", "NumBldgs": 0, "NumFloors": 0.0, "UnitsRes": 0, "UnitsTotal": 0, "LotFront": 155.0, "LotDepth": 605.0, "BldgFront": 0.0, "BldgDepth": 0.0, "Ext": "N", "ProxCode": "0", "IrrLotCode": "Y", "LotType": "5", "BsmtCode": "0", "AssessLand": 7876800.0, "AssessTot": 7876800.0, "ExemptTot": 7876800.0, "YearBuilt": 0, "YearAlter1": 0, "YearAlter2": 0, "HistDist": null, "Landmark": null, "BuiltFAR": 0.0, "ResidFAR": 0.0, "CommFAR": 0.0, "FacilFAR": 0.0, "BoroCode": 4, "BBL": 4077220100.0000005, "CondoNo": 0, "Tract2010": "1283", "XCoord": 1049144, "YCoord": 207014, "ZoneMap": "15a", "ZMCode": "Y", "Sanborn": "422 057", "TaxMap": "43403", "EDesigNum": null, "APPBBL": 0.0, "APPDate": null, "PLUTOMapID": "1", "FIRM07_FLA": null, "PFIRM15_FL": null, "Version": "25v4", "DCPEdited": "t", "Latitude": 40.7346442, "Longitude": -73.7658409, "Notes": null, "Shape_Leng": 0.0, "Shape_Area": 351447.49888000003 }, "geometry": { "type": "MultiPolygon", "coordinates": [ [ [ [ -73.7679418844547, 40.73767798648916 ], [ -73.765182509773865, 40.734409143944411 ], [ -73.76397767644724, 40.732981736965762 ], [ -73.76456538132615, 40.732873383677727 ], [ -73.764620961137027, 40.732869299196423 ], [ -73.764688040562575, 40.732871169818793 ], [ -73.764761649258148, 40.732878580280911 ], [ -73.764817715563964, 40.732891923357833 ], [ -73.764900949956925, 40.732920106485729 ], [ -73.764971005295493, 40.732954264613554 ], [ -73.76505314669123, 40.733018139000876 ], [ -73.765116788270205, 40.733075486444655 ], [ -73.765918429277377, 40.733961011706867 ], [ -73.76602917572248, 40.734073271320192 ], [ -73.766221623879005, 40.734322622071446 ], [ -73.766451881339592, 40.734687487519324 ], [ -73.766581342640066, 40.734937324039329 ], [ -73.7679418844547, 40.73767798648916 ] ] ] ] } },
{ "type": "Feature", "properties": { "Borough": "QN", "Block": 7300, "Lot": 1, "CD": 408, "BCT2020": "4128300", "BCTCB2020": "41283001011", "CT2010": "1283", "CB2010": "1018", "SchoolDist": "26", "Council": 23, "ZipCode": 11427, "FireComp": "E301", "PolicePrct": 107, "HealthCent": 43, "HealthArea": 2140, "Sanitboro": "4", "SanitDistr": "08", "SanitSub": "1C", "Address": "UNION TURNPIKE", "ZoneDist1": "PARK", "ZoneDist2": null, "ZoneDist3": null, "ZoneDist4": null, "Overlay1": null, "Overlay2": null, "SPDist1": null, "SPDist2": null, "SPDist3": null, "LtdHeight": null, "SplitZone": "N", "BldgClass": "Q1", "LandUse": "09", "Easements": 0, "OwnerType": "C", "OwnerName": "NYC DEPARTMENT OF PARKS AND RECREATION", "LotArea": 3612000, "BldgArea": 0, "ComArea": 0, "ResArea": 0, "OfficeArea": 0, "RetailArea": 0, "GarageArea": 0, "StrgeArea": 0, "FactryArea": 0, "OtherArea": 0, "AreaSource": "7", "NumBldgs": 1, "NumFloors": 0.0, "UnitsRes": 0, "UnitsTotal": 0, "LotFront": 852.0, "LotDepth": 967.0, "BldgFront": 0.0, "BldgDepth": 0.0, "Ext": "N", "ProxCode": "0", "IrrLotCode": "Y", "LotType": "5", "BsmtCode": "0", "AssessLand": 54774900.0, "AssessTot": 54774900.0, "ExemptTot": 54774900.0, "YearBuilt": 0, "YearAlter1": 0, "YearAlter2": 0, "HistDist": null, "Landmark": null, "BuiltFAR": 0.0, "ResidFAR": 0.0, "CommFAR": 0.0, "FacilFAR": 0.0, "BoroCode": 4, "BBL": 4073000001.0, "CondoNo": 0, "Tract2010": "1283", "XCoord": 1049475, "YCoord": 204967, "ZoneMap": "15a", "ZMCode": null, "Sanborn": "422 065", "TaxMap": "43204", "EDesigNum": null, "APPBBL": 0.0, "APPDate": null, "PLUTOMapID": "1", "FIRM07_FLA": null, "PFIRM15_FL": null, "Version": "25v4", "DCPEdited": "t", "Latitude": 40.7290232, "Longitude": -73.7646664, "Notes": null, "Shape_Leng": 0.0, "Shape_Area": 2872323.0019700001 }, "geometry": { "type": "MultiPolygon", "coordinates": [ [ [ [ -73.759221264850012, 40.726869140651552 ], [ -73.759200664804879, 40.726829227399136 ], [ -73.759185175563488, 40.726787469746547 ], [ -73.759175471641456, 40.726746217714748 ], [ -73.759170923448465, 40.726701792180094 ], [ -73.759171814109166, 40.72666333048312 ], [ -73.759177091769061, 40.726625444431541 ], [ -73.759187803746272, 40.726584640292479 ], [ -73.759205548829456, 40.726540655032494 ], [ -73.75922678679369, 40.726502278242002 ], [ -73.759249360541958, 40.726469952905454 ], [ -73.75927883087283, 40.726435549304313 ], [ -73.759319026817352, 40.726397776777496 ], [ -73.759359566829403, 40.726367000993761 ], [ -73.759403128383141, 40.726339917350437 ], [ -73.75944998620632, 40.726316214781143 ], [ -73.759496139701412, 40.726297402274874 ], [ -73.759614209834268, 40.726258087709198 ], [ -73.759748695266723, 40.726222668652056 ], [ -73.759860642707778, 40.726200206699637 ], [ -73.759983169204489, 40.726182516036161 ], [ -73.760097684921419, 40.726172238693557 ], [ -73.76021707777646, 40.726167804889045 ], [ -73.760349409266951, 40.726170308359855 ], [ -73.760493073826311, 40.726181910689427 ], [ -73.760730047106151, 40.726208995791609 ], [ -73.763369329633832, 40.726504418298774 ], [ -73.763585278839074, 40.726529302950496 ], [ -73.763798396044095, 40.726550037254327 ], [ -73.763958788175927, 40.72656315632198 ], [ -73.76411276535525, 40.726573754123571 ], [ -73.764426464094242, 40.726893965832794 ], [ -73.765042318879168, 40.727522597027274 ], [ -73.765378252185258, 40.727606075491579 ], [ -73.766914856719495, 40.728269524412376 ], [ -73.766999104335397, 40.728309501237327 ], [ -73.767085367370385, 40.728354392621682 ], [ -73.767168093939873, 40.728401548671947 ], [ -73.767242272015778, 40.728447585227805 ], [ -73.767301089054683, 40.728486859259995 ], [ -73.767356980475, 40.728526665952138 ], [ -73.76741585761782, 40.728571475532647 ], [ -73.767470430817283, 40.728615917982424 ], [ -73.767526215779483, 40.728664579097952 ], [ -73.767772492523974, 40.728887734985257 ], [ -73.769708337554277, 40.731654009995168 ], [ -73.766634771322302, 40.732172643423652 ], [ -73.76656224579159, 40.732173529205703 ], [ -73.766486805976342, 40.732168226181393 ], [ -73.766406184303804, 40.732155309517303 ], [ -73.766335563148644, 40.732137387363998 ], [ -73.766267368198186, 40.732113525760077 ], [ -73.766206180942788, 40.732085758521492 ], [ -73.766139974806492, 40.732047427022522 ], [ -73.766085500859248, 40.732007527187903 ], [ -73.763655948079219, 40.73007394648706 ], [ -73.763493983776527, 40.729942127330389 ], [ -73.763355293390333, 40.729832760527728 ], [ -73.763155280734722, 40.729680445439897 ], [ -73.762981268223257, 40.729552859329047 ], [ -73.762814337637906, 40.729434554630664 ], [ -73.762629173937555, 40.729307793312863 ], [ -73.762453164240839, 40.729191454120688 ], [ -73.762260676983885, 40.72906865280379 ], [ -73.75978786002149, 40.727479429197523 ], [ -73.759711521114554, 40.727424082002031 ], [ -73.75961912457926, 40.727349627343692 ], [ -73.759542673930767, 40.727280712640706 ], [ -73.759460728275982, 40.727197836575741 ], [ -73.759384620859024, 40.727110344052036 ], [ -73.759326032262933, 40.727034049950703 ], [ -73.759262042614679, 40.726938742763672 ], [ -73.759221264850012, 40.726869140651552 ] ] ] ] } }
]
}
