{
"type": "FeatureCollection",
"name": "pluto_Kissena_Park",
"crs": { "type": "name", "properties": { "name": "urn:ogc:def:crs:OGC:1.3:CRS84" } },
"features": [
{ "type": "Feature", "properties": { "Borough": "QN", "Block": 5509, "Lot": 1, "CD": 407, "BCT2020": "4121100", "BCTCB2020": "41211001001", "CT2010": "1211", "CB2010": "1001", "SchoolDist": "25", "Council": 20, "ZipCode": 11365, "FireComp": "E274", "PolicePrct": 109, "HealthCent": 43, "HealthArea": 2021, "Sanitboro": "4", "SanitDistr": "07", "SanitSub": "2E", "Address": "KISSENA BOULEVARD", "ZoneDist1": "PARK", "ZoneDist2": null, "ZoneDist3": null, "ZoneDist4": null, "Overlay1": null, "Overlay2": null, "SPDist1": null, "SPDist2": null, "SPDist3": null, "LtdHeight": null, "SplitZone": "N", "BldgClass": "Q1", "LandUse": "09", "Easements": 0, "OwnerType": "C", "OwnerName": "NYC DEPARTMENT OF PARKS AND RECREATION", "LotArea": 1045440, "BldgArea": 1440, "ComArea": 1440, "ResArea": 0, "OfficeArea": 0, "RetailArea": 0, "GarageArea": 0, "StrgeArea": 0, "FactryArea": 0, "OtherArea": 1440, "AreaSource": "2", "NumBldgs": 1, "NumFloors": 1.0, "UnitsRes": 0, "UnitsTotal": 1, "LotFront": 1100.0, "LotDepth": 1072.0, "BldgFront": 40.0, "BldgDepth": 35.0, "Ext": "N", "ProxCode": "0", "IrrLotCode": "Y", "LotType": "5", "BsmtCode": "0", "AssessLand": 10575450.0, "AssessTot": 12537000.0, "ExemptTot": 12537000.0, "YearBuilt": 1931, "YearAlter1": 0, "YearAlter2": 0, "HistDist": null, "Landmark": null, "BuiltFAR": 0.0, "ResidFAR": 0.0, "CommFAR": 0.0, "FacilFAR": 0.0, "BoroCode": 4, "BBL": 4055090000.9999995, "CondoNo": 0, "Tract2010": "1211", "XCoord": 1036360, "YCoord": 210441, "ZoneMap": "10d", "ZMCode": null, "Sanborn": "411 056", "TaxMap": "42605", "EDesigNum": null, "APPBBL": 4055090000.9999995, "APPDate": "03/06/2025", "PLUTOMapID": "1", "FIRM07_FLA": null, "PFIRM15_FL": null, "Version": "25v4", "DCPEdited": "t", "Latitude": 40.744135, "Longitude": -73.8119431, "Notes": null, "Shape_Leng": 0.0, "Shape_Area": 1048442.3704 }, "geometry": { "type": "MultiPolygon", "coordinates": [ [ [ [ -73.810049757062814, 40.745350141719157 ], [ -73.810237890054296, 40.74252693561526 ], [ -73.810243896222374, 40.742436792006409 ], [ -73.814102904023827, 40.743047610168716 ], [ -73.813678620260859, 40.744300461065279 ], [ -73.813591956894342, 40.744676991558116 ], [ -73.813535137301159, 40.745003083359698 ], [ -73.813484409813128, 40.745735565193364 ], [ -73.813771445845191, 40.745991677896079 ], [ -73.812288070859751, 40.745664768388792 ], [ -73.811691065435227, 40.745543600571104 ], [ -73.810582620309589, 40.745390148728767 ], [ -73.81032634126916, 40.745366316192083 ], [ -73.810124109427704, 40.745353680000143 ], [ -73.810049757062814, 40.745350141719157 ] ] ] ] } },
{ "type": "Feature", "properties": { "Borough": "QN", "Block": 5509, "Lot": 301, "CD": 407, "BCT2020": "4121100", "BCTCB2020": "41211001001", "CT2010": "1211", "CB2010": "1001", "SchoolDist": "25", "Council": 20, "ZipCode": 11355, "FireComp": "E274", "PolicePrct": 109, "HealthCent": 43, "HealthArea": 2021, "Sanitboro": "4", "SanitDistr": "07", "SanitSub": "2E", "Address": "143-56 ROSE AVENUE", "ZoneDist1": "PARK", "ZoneDist2": null, "ZoneDist3": null, "ZoneDist4": null, "Overlay1": null, "Overlay2": null, "SPDist1": null, "SPDist2": null, "SPDist3": null, "LtdHeight": null, "SplitZone": "N", "BldgClass": "Q9", "LandUse": "09", "Easements": 0, "OwnerType": "C", "OwnerName": "NYC DEPARTMENT OF PARKS AND RECREATION", "LotArea": 3400000, "BldgArea": 2828, "ComArea": 2828, "ResArea": 0, "OfficeArea": 0, "RetailArea": 0, "GarageArea": 0, "StrgeArea": 0, "FactryArea": 0, "OtherArea": 2828, "AreaSource": "2", "NumBldgs": 2, "NumFloors": 1.0, "UnitsRes": 0, "UnitsTotal": 1, "LotFront": 353.5, "LotDepth": 2281.92, "BldgFront": 74.0, "BldgDepth": 42.0, "Ext": "N", "ProxCode": "0", "IrrLotCode": "Y", "LotType": "5", "BsmtCode": "0", "AssessLand": 22354194.0, "AssessTot": 33075900.0, "ExemptTot": 33075900.0, "YearBuilt": 1957, "YearAlter1": 0, "YearAlter2": 0, "HistDist": null, "Landmark": null, "BuiltFAR": 0.0, "ResidFAR": 0.0, "CommFAR": 0.0, "FacilFAR": 0.0, "BoroCode": 4, "BBL": 4055090301.0, "CondoNo": 0, "Tract2010": "1211", "XCoord": 1037615, "YCoord": 211685, "ZoneMap": "10d", "ZMCode": null, "Sanborn": "411 056", "TaxMap": "42605", "EDesigNum": null, "APPBBL": 0.0, "APPDate": null, "PLUTOMapID": "1", "FIRM07_FLA": null, "PFIRM15_FL": null, "Version": "25v4", "DCPEdited": "t", "Latitude": 40.7475419, "Longitude": -73.8074042, "Notes": null, "Shape_Leng": 0.0, "Shape_Area": 3325009.4173900001 }, "geometry": { "type": "MultiPolygon", "coordinates": [ [ [ [ -73.80375721637445, 40.745976058641759 ], [ -73.807310546363752, 40.745594306939779 ], [ -73.807809331416394, 40.745540710600267 ], [ -73.808142347536133, 40.745523678376863 ], [ -73.808457410471505, 40.745518013021673 ], [ -73.808475455610179, 40.745494768512764 ], [ -73.809542671668382, 40.745505989371985 ], [ -73.81001767631119, 40.745528478476729 ], [ -73.810601292141229, 40.745574635950774 ], [ -73.811437640233962, 40.745682826517559 ], [ -73.812267365010285, 40.745849012731931 ], [ -73.813804454406451, 40.746181797011957 ], [ -73.812230490796679, 40.747125607054883 ], [ -73.812282851233718, 40.747174601745208 ], [ -73.807523413135996, 40.750028255690957 ], [ -73.803066576232496, 40.749683243505537 ], [ -73.803056363633033, 40.749588648471963 ], [ -73.803021903265446, 40.749269466693136 ], [ -73.802941081130712, 40.748511411466076 ], [ -73.802935507542358, 40.748400989719258 ], [ -73.80293845590937, 40.74822172172312 ], [ -73.802946726493445, 40.748120150416774 ], [ -73.80296449362163, 40.747997639724638 ], [ -73.802984884015501, 40.747894516092799 ], [ -73.803004877362682, 40.747812731919325 ], [ -73.803033523488821, 40.747714268060932 ], [ -73.80375721637445, 40.745976058641759 ] ] ] ] } },
{ "type": "Feature", "properties": { "Borough": "QN", "Block": 5580, "Lot": 1, "CD": 407, "BCT2020": "4121100", "BCTCB2020": "41211001000", "CT2010": "1211", "CB2010": "1000", "SchoolDist": "25", "Council": 20, "ZipCode": 11365, "FireComp": "E274", "PolicePrct": 109, "HealthCent": 43, "HealthArea": 2021, "Sanitboro": "4", "SanitDistr": "07", "SanitSub": "4C", "Address": "16415 BOOTH MEMORIAL AVE", "ZoneDist1": "PARK", "ZoneDist2": null, "ZoneDist3": null, "ZoneDist4": null, "Overlay1": null, "Overlay2": null, "SPDist1": null, "SPDist2": null, "SPDist3": null, "LtdHeight": null, "SplitZone": "N", "BldgClass": "Q5", "LandUse": "09", "Easements": 0, "OwnerType": "C", "OwnerName": "NYC DEPARTMENT OF PARKS AND RECREATION", "LotArea": 3489156, "BldgArea": 4800, "ComArea": 4800, "ResArea": 0, "OfficeArea": 0, "RetailArea": 0, "GarageArea": 0, "StrgeArea": 0, "FactryArea": 0, "OtherArea": 4800, "AreaSource": "2", "NumBldgs": 5, "NumFloors": 1.0, "UnitsRes": 0, "UnitsTotal": 1, "LotFront": 1524.0, "LotDepth": 2018.0, "BldgFront": 120.0, "BldgDepth": 40.0, "Ext": "N", "ProxCode": "1", "IrrLotCode": "Y", "LotType": "3", "BsmtCode": "0", "AssessLand": 45880913.0, "AssessTot": 66127950.0, "ExemptTot": 66127950.0, "YearBuilt": 1936, "YearAlter1": 0, "YearAlter2": 0, "HistDist": null, "Landmark": null, "BuiltFAR": 0.0, "ResidFAR": 0.0, "CommFAR": 0.0, "FacilFAR": 0.0, "BoroCode": 4, "BBL": 4055800001.0, "CondoNo": 0, "Tract2010": "1211", "XCoord": 1039858, "YCoord": 210507, "ZoneMap": "10d", "ZMCode": null, "Sanborn": "411 083", "TaxMap": "42702", "EDesigNum": null, "APPBBL": 0.0, "APPDate": null, "PLUTOMapID": "1", "FIRM07_FLA": null, "PFIRM15_FL": null, "Version": "25v4", "DCPEdited": "t", "Latitude": 40.7442948, "Longitude": -73.7993189, "Notes": null, "Shape_Leng": 0.0, "Shape_Area": 3506653.0743900002 }, "geometry": { "type": "MultiPolygon", "coordinates": [ [ [ [ -73.794695139620075, 40.746528803652431 ], [ -73.794556206133819, 40.74534777399429 ], [ -73.794541224186133, 40.745229741037278 ], [ -73.79453428106477, 40.745115373948281 ], [ -73.794534657444615, 40.745045927440735 ], [ -73.794538853296061, 40.744965436642346 ], [ -73.794551030255548, 40.744856265435814 ], [ -73.79456580708684, 40.744770922733323 ], [ -73.794582305870946, 40.744697361718757 ], [ -73.794610912022137, 40.744595880431731 ], [ -73.794646325853293, 40.744494838115187 ], [ -73.794692266318194, 40.74438657895147 ], [ -73.794735372463364, 40.744299758526004 ], [ -73.794781186416515, 40.744218259610278 ], [ -73.794824766711784, 40.744148449728513 ], [ -73.794872885427665, 40.744078209371445 ], [ -73.794922833185581, 40.744011435539278 ], [ -73.794980358325517, 40.743940881436551 ], [ -73.795029846983539, 40.743884752599548 ], [ -73.796267551834305, 40.742621141926193 ], [ -73.796579837276596, 40.742343074235585 ], [ -73.796920504615287, 40.742088627411732 ], [ -73.797120241334042, 40.742079882691705 ], [ -73.799581104821016, 40.742332486980494 ], [ -73.802588503460285, 40.742308922408426 ], [ -73.804195262965735, 40.742296300035598 ], [ -73.804140167232703, 40.743846253314196 ], [ -73.804121038872651, 40.744001557610581 ], [ -73.804098873637713, 40.744112125745708 ], [ -73.80406117574428, 40.744251932975338 ], [ -73.804024177867291, 40.744360627114624 ], [ -73.803988963797636, 40.744452958401354 ], [ -73.803944218301069, 40.744552527959058 ], [ -73.80341711145735, 40.745772925103665 ], [ -73.79704211348016, 40.746436698830109 ], [ -73.797048640136964, 40.746487509869993 ], [ -73.796782823598463, 40.746511592324744 ], [ -73.796620162010385, 40.746522872904912 ], [ -73.79647502392227, 40.746531505354838 ], [ -73.796338059896854, 40.746538416719737 ], [ -73.796204535910618, 40.746544003061373 ], [ -73.796037498160644, 40.746549393919615 ], [ -73.795777388969256, 40.746554256524817 ], [ -73.79537052483299, 40.74655325383673 ], [ -73.795127636043915, 40.746546665051227 ], [ -73.795000610583912, 40.746543221316102 ], [ -73.794859324876015, 40.746536552606379 ], [ -73.794695139620075, 40.746528803652431 ] ] ] ] } },
{ "type": "Feature", "properties": { "Borough": "QN", "Block": 5580, "Lot": 2, "CD": 407, "BCT2020": "4121100", "BCTCB2020": "41211001000", "CT2010": "1211", "CB2010": "1000", "SchoolDist": "25", "Council": 20, "ZipCode": 11365, "FireComp": "E274", "PolicePrct": 109, "HealthCent": 43, "HealthArea": 2021, "Sanitboro": "4", "SanitDistr": "07", "SanitSub": "4C", "Address": "164 STREET", "ZoneDist1": "R3-2", "ZoneDist2": null, "ZoneDist3": null, "ZoneDist4": null, "Overlay1": null, "Overlay2": null, "SPDist1": null, "SPDist2": null, "SPDist3": null, "LtdHeight": null, "SplitZone": "N", "BldgClass": "V1", "LandUse": "11", "Easements": 0, "OwnerType": "C", "OwnerName": "NYC DEPARTMENT OF PARKS AND RECREATION", "LotArea": 3600, "BldgArea": 0, "ComArea": 0, "ResArea": 0, "OfficeArea": 0, "RetailArea": 0, "GarageArea": 0, "StrgeArea": 0, "FactryArea": 0, "OtherArea": 0, "AreaSource": "7", "NumBldgs": 0, "NumFloors": 0.0, "UnitsRes": 0, "UnitsTotal": 0, "LotFront": 14.0, "LotDepth": 513.55, "BldgFront": 0.0, "BldgDepth": 0.0, "Ext": null, "ProxCode": "0", "IrrLotCode": "Y", "LotType": "5", "BsmtCode": "5", "AssessLand": 249750.0, "AssessTot": 249750.0, "ExemptTot": 249750.0, "YearBuilt": 0, "YearAlter1": 0, "YearAlter2": 0, "HistDist": null, "Landmark": null, "BuiltFAR": 0.0, "ResidFAR": 0.75, "CommFAR": 0.0, "FacilFAR": 1.0, "BoroCode": 4, "BBL": 4055800002.0, "CondoNo": 0, "Tract2010": "1211", "XCoord": 1038508, "YCoord": 209968, "ZoneMap": "10d", "ZMCode": null, "Sanborn": "499 999", "TaxMap": "42702", "EDesigNum": null, "APPBBL": 0.0, "APPDate": null, "PLUTOMapID": "1", "FIRM07_FLA": null, "PFIRM15_FL": null, "Version": "25v4", "DCPEdited": "t", "Latitude": 40.7428238, "Longitude": -73.8041952, "Notes": null, "Shape_Leng": 0.0, "Shape_Area": 3965.9935830999998 }, "geometry": { "type": "MultiPolygon", "coordinates": [ [ [ [ -73.804195262965735, 40.742296300035598 ], [ -73.804244738624107, 40.742295911433501 ], [ -73.804144692979591, 40.743797358976529 ], [ -73.804140167232703, 40.743846253314196 ], [ -73.804195262965735, 40.742296300035598 ] ] ] ] } },
{ "type": "Feature", "properties": { "Borough": "QN", "Block": 5509, "Lot": 150, "CD": 407, "BCT2020": "4121100", "BCTCB2020": "41211001001", "CT2010": "1211", "CB2010": "1001", "SchoolDist": "25", "Council": 20, "ZipCode": 11365, "FireComp": "E274", "PolicePrct": 109, "HealthCent": 43, "HealthArea": 2021, "Sanitboro": "4", "SanitDistr": "07", "SanitSub": "2E", "Address": null, "ZoneDist1": "PARK", "ZoneDist2": null, "ZoneDist3": null, "ZoneDist4": null, "Overlay1": null, "Overlay2": null, "SPDist1": null, "SPDist2": null, "SPDist3": null, "LtdHeight": null, "SplitZone": "N", "BldgClass": "Q0", "LandUse": "09", "Easements": 0, "OwnerType": null, "OwnerName": null, "LotArea": 0, "BldgArea": 0, "ComArea": 0, "ResArea": 0, "OfficeArea": 0, "RetailArea": 0, "GarageArea": 0, "StrgeArea": 0, "FactryArea": 0, "OtherArea": 0, "AreaSource": null, "NumBldgs": 0, "NumFloors": 0.0, "UnitsRes": 0, "UnitsTotal": 0, "LotFront": 0.0, "LotDepth": 0.0, "BldgFront": 0.0, "BldgDepth": 0.0, "Ext": null, "ProxCode": null, "IrrLotCode": null, "LotType": null, "BsmtCode": null, "AssessLand": 0.0, "AssessTot": 0.0, "ExemptTot": 0.0, "YearBuilt": 0, "YearAlter1": 0, "YearAlter2": 0, "HistDist": null, "Landmark": null, "BuiltFAR": 0.0, "ResidFAR": 0.0, "CommFAR": 0.0, "FacilFAR": 0.0, "BoroCode": 4, "BBL": 4055090149.9999995, "CondoNo": 0, "Tract2010": "1211", "XCoord": 1036894, "YCoord": 210354, "ZoneMap": "10d", "ZMCode": null, "Sanborn": null, "TaxMap": null, "EDesigNum": null, "APPBBL": 0.0, "APPDate": null, "PLUTOMapID": "3", "FIRM07_FLA": null, "PFIRM15_FL": null, "Version": "25v4", "DCPEdited": null, "Latitude": 40.7438918, "Longitude": -73.8100172, "Notes": null, "Shape_Leng": 0.0, "Shape_Area": 76488.574960099999 }, "geometry": { "type": "MultiPolygon", "coordinates": [ [ [ [ -73.809786094517904, 40.745337596204095 ], [ -73.809993429150779, 40.742397143595738 ], [ -73.810243896222374, 40.742436792006409 ], [ -73.810237890054296, 40.74252693561526 ], [ -73.810049757062814, 40.745350141719157 ], [ -73.809786094517904, 40.745337596204095 ] ] ] ] } },
{ "type": "Feature", "properties": { "Borough": "QN", "Block": 5509, "Lot": 300, "CD": 407, "BCT2020": "4121100", "BCTCB2020": "41211001001", "CT2010": "1211", "CB2010": "1001", "SchoolDist": "25", "Council": 20, "ZipCode": 11365, "FireComp": "E274", "PolicePrct": 109, "HealthCent": 43, "HealthArea": 2021, "Sanitboro": "4", "SanitDistr": "07", "SanitSub": "2E", "Address": "KISSENA BOULEVARD", "ZoneDist1": "PARK", "ZoneDist2": null, "ZoneDist3": null, "ZoneDist4": null, "Overlay1": null, "Overlay2": null, "SPDist1": null, "SPDist2": null, "SPDist3": null, "LtdHeight": null, "SplitZone": "N", "BldgClass": "Q1", "LandUse": "09", "Easements": 0, "OwnerType": "C", "OwnerName": "NYC DEPARTMENT OF PARKS AND RECREATION", "LotArea": 232100, "BldgArea": 0, "ComArea": 0, "ResArea": 0, "OfficeArea": 0, "RetailArea": 0, "GarageArea": 0, "StrgeArea": 0, "FactryArea": 0, "OtherArea": 0, "AreaSource": "7", "NumBldgs": 0, "NumFloors": 0.0, "UnitsRes": 0, "UnitsTotal": 0, "LotFront": 66.0, "LotDepth": 447.0, "BldgFront": 0.0, "BldgDepth": 0.0, "Ext": "N", "ProxCode": "0", "IrrLotCode": "Y", "LotType": "5", "BsmtCode": "0", "AssessLand": 2893950.0, "AssessTot": 2893950.0, "ExemptTot": 2893950.0, "YearBuilt": 0, "YearAlter1": 0, "YearAlter2": 0, "HistDist": null, "Landmark": null, "BuiltFAR": 0.0, "ResidFAR": 0.0, "CommFAR": 0.0, "FacilFAR": 0.0, "BoroCode": 4, "BBL": 4055090299.9999995, "CondoNo": 0, "Tract2010": "1211", "XCoord": 1035835, "YCoord": 211154, "ZoneMap": "10d", "ZMCode": null, "Sanborn": "411 056", "TaxMap": "42605", "EDesigNum": null, "APPBBL": 0.0, "APPDate": null, "PLUTOMapID": "1", "FIRM07_FLA": null, "PFIRM15_FL": null, "Version": "25v4", "DCPEdited": "t", "Latitude": 40.746095, "Longitude": -73.8138323, "Notes": null, "Shape_Leng": 0.0, "Shape_Area": 228370.36782799999 }, "geometry": { "type": "MultiPolygon", "coordinates": [ [ [ [ -73.80375721637445, 40.745976058641759 ], [ -73.80387713106839, 40.745688028355993 ], [ -73.80726964352597, 40.745326922630532 ], [ -73.807935455166174, 40.745266808332708 ], [ -73.808575509086282, 40.7452410655238 ], [ -73.808550971971783, 40.745305143618609 ], [ -73.808904143012072, 40.745308480697787 ], [ -73.809641970072747, 40.745330736550748 ], [ -73.809786094517904, 40.745337596204095 ], [ -73.810049757062814, 40.745350141719157 ], [ -73.810124109427704, 40.745353680000143 ], [ -73.81032634126916, 40.745366316192083 ], [ -73.810582620309589, 40.745390148728767 ], [ -73.811691065435227, 40.745543600571104 ], [ -73.812288070859751, 40.745664768388792 ], [ -73.813771445845191, 40.745991677896079 ], [ -73.813912146616545, 40.746117219234854 ], [ -73.813804454406451, 40.746181797011957 ], [ -73.812267365010285, 40.745849012731931 ], [ -73.811437640233962, 40.745682826517559 ], [ -73.810601292141229, 40.745574635950774 ], [ -73.81001767631119, 40.745528478476729 ], [ -73.809542671668382, 40.745505989371985 ], [ -73.808475455610179, 40.745494768512764 ], [ -73.808457410471505, 40.745518013021673 ], [ -73.808142347536133, 40.745523678376863 ], [ -73.807809331416394, 40.745540710600267 ], [ -73.807310546363752, 40.745594306939779 ], [ -73.80375721637445, 40.745976058641759 ] ] ] ] } },
{ "type": "Feature", "properties": { "Borough": "QN", "Block": 5509, "Lot": 430, "CD": 407, "BCT2020": "4121100", "BCTCB2020": "41211001001", "CT2010": "1211", "CB2010": "1001", "SchoolDist": "25", "Council": 20, "ZipCode": 11365, "FireComp": "E274", "PolicePrct": 109, "HealthCent": 43, "HealthArea": 2021, "Sanitboro": "4", "SanitDistr": "07", "SanitSub": "2E", "Address": "KISSENA BOULEVARD", "ZoneDist1": "PARK", "ZoneDist2": null, "ZoneDist3": null, "ZoneDist4": null, "Overlay1": null, "Overlay2": null, "SPDist1": null, "SPDist2": null, "SPDist3": null, "LtdHeight": null, "SplitZone": "N", "BldgClass": "Q2", "LandUse": "09", "Easements": 0, "OwnerType": "C", "OwnerName": "NYC DEPARTMENT OF PARKS AND RECREATION", "LotArea": 1786000, "BldgArea": 0, "ComArea": 0, "ResArea": 0, "OfficeArea": 0, "RetailArea": 0, "GarageArea": 0, "StrgeArea": 0, "FactryArea": 0, "OtherArea": 0, "AreaSource": "7", "NumBldgs": 1, "NumFloors": 0.0, "UnitsRes": 0, "UnitsTotal": 1, "LotFront": 1476.25, "LotDepth": 1081.33, "BldgFront": 0.0, "BldgDepth": 0.0, "Ext": "N", "ProxCode": "0", "IrrLotCode": "Y", "LotType": "5", "BsmtCode": "0", "AssessLand": 13699511.0, "AssessTot": 20345400.0, "ExemptTot": 20345400.0, "YearBuilt": 1957, "YearAlter1": 0, "YearAlter2": 0, "HistDist": null, "Landmark": null, "BuiltFAR": 0.0, "ResidFAR": 0.0, "CommFAR": 0.0, "FacilFAR": 0.0, "BoroCode": 4, "BBL": 4055090430.0, "CondoNo": 0, "Tract2010": "1211", "XCoord": 1037703, "YCoord": 210332, "ZoneMap": "10d", "ZMCode": null, "Sanborn": "411 056", "TaxMap": "42605", "EDesigNum": null, "APPBBL": 0.0, "APPDate": null, "PLUTOMapID": "1", "FIRM07_FLA": null, "PFIRM15_FL": null, "Version": "25v4", "DCPEdited": "t", "Latitude": 40.7438278, "Longitude": -73.8070973, "Notes": null, "Shape_Leng": 0.0, "Shape_Area": 1765921.49706 }, "geometry": { "type": "MultiPolygon", "coordinates": [ [ [ [ -73.804636745909477, 40.742273661364742 ], [ -73.807623264620801, 40.742099904275435 ], [ -73.807736400625046, 40.742096253572861 ], [ -73.807837276762342, 40.742095841194782 ], [ -73.807945062425219, 40.742098361591054 ], [ -73.808102344494017, 40.742107551589285 ], [ -73.808280492505844, 40.742125963123236 ], [ -73.809993429150779, 40.742397143595738 ], [ -73.809786094517904, 40.745337596204095 ], [ -73.809641970072747, 40.745330736550748 ], [ -73.808904143012072, 40.745308480697787 ], [ -73.808550971971783, 40.745305143618609 ], [ -73.808575509086282, 40.7452410655238 ], [ -73.807935455166174, 40.745266808332708 ], [ -73.80726964352597, 40.745326922630532 ], [ -73.80387713106839, 40.745688028355993 ], [ -73.804374646488412, 40.744492999166518 ], [ -73.804444495133268, 40.744321447693984 ], [ -73.804496418619181, 40.744147125437216 ], [ -73.804517722563887, 40.744048256996656 ], [ -73.804538375433395, 40.743905702880497 ], [ -73.804546504861079, 40.743791097305909 ], [ -73.804556721234135, 40.74361932918346 ], [ -73.804567993828826, 40.743429763368347 ], [ -73.804582340034727, 40.743188521693121 ], [ -73.804593784215896, 40.742996096143266 ], [ -73.804607389165128, 40.742767312638243 ], [ -73.804636745909477, 40.742273661364742 ] ] ] ] } },
{ "type": "Feature", "properties": { "Borough": "QN", "Block": 5580, "Lot": 65, "CD": 407, "BCT2020": "4121100", "BCTCB2020": "41211001000", "CT2010": "1211", "CB2010": "1000", "SchoolDist": "25", "Council": 20, "ZipCode": 11365, "FireComp": "E274", "PolicePrct": 109, "HealthCent": 43, "HealthArea": 2021, "Sanitboro": "4", "SanitDistr": "07", "SanitSub": "4C", "Address": "164 STREET", "ZoneDist1": "PARK", "ZoneDist2": null, "ZoneDist3": null, "ZoneDist4": null, "Overlay1": null, "Overlay2": null, "SPDist1": null, "SPDist2": null, "SPDist3": null, "LtdHeight": null, "SplitZone": "N", "BldgClass": "Q1", "LandUse": "09", "Easements": 0, "OwnerType": "C", "OwnerName": "NYC DEPARTMENT OF PARKS AND RECREATION", "LotArea": 374300, "BldgArea": 0, "ComArea": 0, "ResArea": 0, "OfficeArea": 0, "RetailArea": 0, "GarageArea": 0, "StrgeArea": 0, "FactryArea": 0, "OtherArea": 0, "AreaSource": "7", "NumBldgs": 0, "NumFloors": 0.0, "UnitsRes": 0, "UnitsTotal": 0, "LotFront": 221.0, "LotDepth": 2240.0, "BldgFront": 0.0, "BldgDepth": 0.0, "Ext": "N", "ProxCode": "0", "IrrLotCode": "Y", "LotType": "5", "BsmtCode": "0", "AssessLand": 6872850.0, "AssessTot": 6872850.0, "ExemptTot": 6872850.0, "YearBuilt": 0, "YearAlter1": 0, "YearAlter2": 0, "HistDist": null, "Landmark": null, "BuiltFAR": 0.0, "ResidFAR": 0.0, "CommFAR": 0.0, "FacilFAR": 0.0, "BoroCode": 4, "BBL": 4055800065.0, "CondoNo": 0, "Tract2010": "1211", "XCoord": 1039718, "YCoord": 211271, "ZoneMap": "10d", "ZMCode": null, "Sanborn": "411 083", "TaxMap": "42702", "EDesigNum": null, "APPBBL": 0.0, "APPDate": null, "PLUTOMapID": "1", "FIRM07_FLA": null, "PFIRM15_FL": null, "Version": "25v4", "DCPEdited": "t", "Latitude": 40.7463927, "Longitude": -73.7998178, "Notes": null, "Shape_Leng": 0.0, "Shape_Area": 375549.791425 }, "geometry": { "type": "MultiPolygon", "coordinates": [ [ [ [ -73.794978390654393, 40.74673290178594 ], [ -73.794717701281627, 40.746720598139518 ], [ -73.794695139620075, 40.746528803652431 ], [ -73.794859324876015, 40.746536552606379 ], [ -73.795000610583912, 40.746543221316102 ], [ -73.795127636043915, 40.746546665051227 ], [ -73.79537052483299, 40.74655325383673 ], [ -73.795777388969256, 40.746554256524817 ], [ -73.796037498160644, 40.746549393919615 ], [ -73.796204535910618, 40.746544003061373 ], [ -73.796338059896854, 40.746538416719737 ], [ -73.79647502392227, 40.746531505354838 ], [ -73.796620162010385, 40.746522872904912 ], [ -73.796782823598463, 40.746511592324744 ], [ -73.797048640136964, 40.746487509869993 ], [ -73.79704211348016, 40.746436698830109 ], [ -73.80341711145735, 40.745772925103665 ], [ -73.803164055271168, 40.746358801837125 ], [ -73.798177259907135, 40.746878049161708 ], [ -73.797937371362494, 40.746903021699396 ], [ -73.797763203159576, 40.746651216524583 ], [ -73.79700105271705, 40.746730552372128 ], [ -73.79707573901905, 40.746672975868357 ], [ -73.797026427264427, 40.74667719065215 ], [ -73.796760608749921, 40.746701273053176 ], [ -73.796597947794581, 40.746712553687559 ], [ -73.79645280698135, 40.746721186021617 ], [ -73.796315843660693, 40.746728098282098 ], [ -73.796182320506929, 40.746733683680077 ], [ -73.796015282280891, 40.74673907358607 ], [ -73.79575517234656, 40.746743937060096 ], [ -73.795348304738781, 40.746742935211344 ], [ -73.794978390654393, 40.74673290178594 ] ] ] ] } }
]
}
