{
"type": "FeatureCollection",
"name": "pluto_Yankee_Stadium-Macombs_Dam_Park",
"crs": { "type": "name", "properties": { "name": "urn:ogc:def:crs:OGC:1.3:CRS84" } },
"features": [
{ "type": "Feature", "properties": { "Borough": "BX", "Block": 2493, "Lot": 9, "CD": 204, "BCT2020": "2006302", "BCTCB2020": "20063021002", "CT2010": "63", "CB2010": "1002", "SchoolDist": "09", "Council": 16, "ZipCode": 10452, "FireComp": "E068", "PolicePrct": 44, "HealthCent": 23, "HealthArea": 3800, "Sanitboro": "2", "SanitDistr": "04", "SanitSub": "1A", "Address": "951 RIVER AVENUE", "ZoneDist1": "PARK", "ZoneDist2": null, "ZoneDist3": null, "ZoneDist4": null, "Overlay1": null, "Overlay2": null, "SPDist1": null, "SPDist2": null, "SPDist3": null, "LtdHeight": null, "SplitZone": "N", "BldgClass": "G1", "LandUse": "10", "Easements": 0, "OwnerType": "C", "OwnerName": "NYC DEPARTMENT OF PARKS AND RECREATION", "LotArea": 68828, "BldgArea": 277720, "ComArea": 277720, "ResArea": 0, "OfficeArea": 0, "RetailArea": 0, "GarageArea": 277720, "StrgeArea": 0, "FactryArea": 0, "OtherArea": 0, "AreaSource": "2", "NumBldgs": 1, "NumFloors": 4.0, "UnitsRes": 0, "UnitsTotal": 1, "LotFront": 586.73, "LotDepth": 115.37, "BldgFront": 100.0, "BldgDepth": 600.0, "Ext": "N", "ProxCode": "1", "IrrLotCode": "Y", "LotType": "3", "BsmtCode": "2", "AssessLand": 3672000.0, "AssessTot": 17582400.0, "ExemptTot": 17582400.0, "YearBuilt": 2008, "YearAlter1": 0, "YearAlter2": 0, "HistDist": null, "Landmark": null, "BuiltFAR": 4.03, "ResidFAR": 0.0, "CommFAR": 0.0, "FacilFAR": 0.0, "BoroCode": 2, "BBL": 2024930009.0, "CondoNo": 0, "Tract2010": "0063", "XCoord": 1004865, "YCoord": 241980, "ZoneMap": "3b", "ZMCode": null, "Sanborn": "210S022", "TaxMap": "20908", "EDesigNum": null, "APPBBL": 2024930009.0, "APPDate": "03/12/2007", "PLUTOMapID": "1", "FIRM07_FLA": null, "PFIRM15_FL": null, "Version": "25v4", "DCPEdited": "t", "Latitude": 40.8308305, "Longitude": -73.9255068, "Notes": null, "Shape_Leng": 0.0, "Shape_Area": 69629.258649700001 }, "geometry": { "type": "MultiPolygon", "coordinates": [ [ [ [ -73.924602284621514, 40.830350152721316 ], [ -73.926614767599133, 40.831037563753256 ], [ -73.92636557331538, 40.831304052475573 ], [ -73.924427679790014, 40.830637699994107 ], [ -73.924602284621514, 40.830350152721316 ] ] ] ] } },
{ "type": "Feature", "properties": { "Borough": "BX", "Block": 2493, "Lot": 27, "CD": 204, "BCT2020": "2006302", "BCTCB2020": "20063021003", "CT2010": "63", "CB2010": "1003", "SchoolDist": "09", "Council": 16, "ZipCode": 10452, "FireComp": "E068", "PolicePrct": 44, "HealthCent": 23, "HealthArea": 3800, "Sanitboro": "2", "SanitDistr": "04", "SanitSub": "1A", "Address": "RIVER AVENUE", "ZoneDist1": "PARK", "ZoneDist2": null, "ZoneDist3": null, "ZoneDist4": null, "Overlay1": null, "Overlay2": null, "SPDist1": null, "SPDist2": null, "SPDist3": null, "LtdHeight": null, "SplitZone": "N", "BldgClass": "U7", "LandUse": "07", "Easements": 0, "OwnerType": "C", "OwnerName": "NYC TRANSIT AUTHORITY", "LotArea": 7875, "BldgArea": 0, "ComArea": 0, "ResArea": 0, "OfficeArea": 0, "RetailArea": 0, "GarageArea": 0, "StrgeArea": 0, "FactryArea": 0, "OtherArea": 0, "AreaSource": "7", "NumBldgs": 1, "NumFloors": 0.0, "UnitsRes": 0, "UnitsTotal": 0, "LotFront": 60.33, "LotDepth": 138.0, "BldgFront": 0.0, "BldgDepth": 0.0, "Ext": "N", "ProxCode": "0", "IrrLotCode": "Y", "LotType": "5", "BsmtCode": "0", "AssessLand": 0.0, "AssessTot": 0.0, "ExemptTot": 0.0, "YearBuilt": 0, "YearAlter1": 0, "YearAlter2": 0, "HistDist": null, "Landmark": null, "BuiltFAR": 0.0, "ResidFAR": 0.0, "CommFAR": 0.0, "FacilFAR": 0.0, "BoroCode": 2, "BBL": 2024930027.0, "CondoNo": 0, "Tract2010": "0063", "XCoord": 1005006, "YCoord": 241778, "ZoneMap": "3b", "ZMCode": null, "Sanborn": "210S022", "TaxMap": "20908", "EDesigNum": null, "APPBBL": 0.0, "APPDate": null, "PLUTOMapID": "1", "FIRM07_FLA": null, "PFIRM15_FL": null, "Version": "25v4", "DCPEdited": "t", "Latitude": 40.8302758, "Longitude": -73.9249979, "Notes": null, "Shape_Leng": 0.0, "Shape_Area": 7874.5239613000003 }, "geometry": { "type": "MultiPolygon", "coordinates": [ [ [ [ -73.924774997962245, 40.830313279597121 ], [ -73.924882242338299, 40.830129667212745 ], [ -73.924953575482235, 40.83015079169823 ], [ -73.924965486887388, 40.830135743147885 ], [ -73.92510021437532, 40.830187021498546 ], [ -73.925092266392653, 40.830205083872841 ], [ -73.925215112149218, 40.830247320578145 ], [ -73.925111829603949, 40.830433947076529 ], [ -73.92477499455677, 40.830316290908655 ], [ -73.924774997962245, 40.830313279597121 ] ] ] ] } },
{ "type": "Feature", "properties": { "Borough": "BX", "Block": 2495, "Lot": 100, "CD": 204, "BCT2020": "2006302", "BCTCB2020": "20063021000", "CT2010": "63", "CB2010": "1000", "SchoolDist": "09", "Council": 16, "ZipCode": 10452, "FireComp": "E068", "PolicePrct": 44, "HealthCent": 23, "HealthArea": 3800, "Sanitboro": "2", "SanitDistr": "04", "SanitSub": "2A", "Address": "1165 CROMWELL AVENUE", "ZoneDist1": "R7-1", "ZoneDist2": null, "ZoneDist3": null, "ZoneDist4": null, "Overlay1": null, "Overlay2": null, "SPDist1": null, "SPDist2": null, "SPDist3": null, "LtdHeight": null, "SplitZone": "N", "BldgClass": "W1", "LandUse": "08", "Easements": 0, "OwnerType": "C", "OwnerName": "NYC DEPARTMENT OF EDUCATION", "LotArea": 54353, "BldgArea": 124830, "ComArea": 124830, "ResArea": 0, "OfficeArea": 124830, "RetailArea": 0, "GarageArea": 0, "StrgeArea": 0, "FactryArea": 0, "OtherArea": 0, "AreaSource": "2", "NumBldgs": 1, "NumFloors": 3.0, "UnitsRes": 0, "UnitsTotal": 1, "LotFront": 480.48, "LotDepth": 526.14, "BldgFront": 285.0, "BldgDepth": 146.0, "Ext": "N", "ProxCode": "1", "IrrLotCode": "Y", "LotType": "3", "BsmtCode": "2", "AssessLand": 621000.0, "AssessTot": 10794150.0, "ExemptTot": 10794150.0, "YearBuilt": 1940, "YearAlter1": 0, "YearAlter2": 0, "HistDist": null, "Landmark": null, "BuiltFAR": 2.3, "ResidFAR": 3.44, "CommFAR": 0.0, "FacilFAR": 4.8, "BoroCode": 2, "BBL": 2024950100.0, "CondoNo": 0, "Tract2010": "0063", "XCoord": 1005468, "YCoord": 243525, "ZoneMap": "3b", "ZMCode": null, "Sanborn": "210N055", "TaxMap": "20908", "EDesigNum": null, "APPBBL": 0.0, "APPDate": null, "PLUTOMapID": "1", "FIRM07_FLA": null, "PFIRM15_FL": null, "Version": "25v4", "DCPEdited": "t", "Latitude": 40.8350697, "Longitude": -73.9233229, "Notes": null, "Shape_Leng": 0.0, "Shape_Area": 52562.793249599999 }, "geometry": { "type": "MultiPolygon", "coordinates": [ [ [ [ -73.923313848221412, 40.83458717358581 ], [ -73.923978344141943, 40.834807895562221 ], [ -73.923868555931051, 40.834958462508979 ], [ -73.922615600568591, 40.835782605432399 ], [ -73.923294183493752, 40.834626384245723 ], [ -73.923301403468471, 40.834614401704108 ], [ -73.923307677642882, 40.834602100541865 ], [ -73.923313848221412, 40.83458717358581 ] ] ] ] } },
{ "type": "Feature", "properties": { "Borough": "BX", "Block": 2499, "Lot": 1, "CD": 204, "BCT2020": "2006302", "BCTCB2020": "20063021008", "CT2010": "63", "CB2010": "1004", "SchoolDist": "07", "Council": 16, "ZipCode": 10451, "FireComp": "E068", "PolicePrct": 44, "HealthCent": 23, "HealthArea": 3800, "Sanitboro": "2", "SanitDistr": "04", "SanitSub": "1A", "Address": "30 EAST 161 STREET", "ZoneDist1": "PARK", "ZoneDist2": null, "ZoneDist3": null, "ZoneDist4": null, "Overlay1": null, "Overlay2": null, "SPDist1": null, "SPDist2": null, "SPDist3": null, "LtdHeight": null, "SplitZone": "N", "BldgClass": "G1", "LandUse": "10", "Easements": 0, "OwnerType": "C", "OwnerName": "NYC DEPARTMENT OF PARKS AND RECREATION", "LotArea": 319199, "BldgArea": 319999, "ComArea": 319999, "ResArea": 0, "OfficeArea": 0, "RetailArea": 0, "GarageArea": 213669, "StrgeArea": 0, "FactryArea": 0, "OtherArea": 106330, "AreaSource": "2", "NumBldgs": 4, "NumFloors": 3.0, "UnitsRes": 0, "UnitsTotal": 1, "LotFront": 222.98, "LotDepth": 271.93, "BldgFront": 830.12, "BldgDepth": 441.17, "Ext": "N", "ProxCode": "0", "IrrLotCode": "Y", "LotType": "1", "BsmtCode": "2", "AssessLand": 12634650.0, "AssessTot": 20630250.0, "ExemptTot": 20630250.0, "YearBuilt": 2008, "YearAlter1": 0, "YearAlter2": 0, "HistDist": null, "Landmark": null, "BuiltFAR": 1.0, "ResidFAR": 0.0, "CommFAR": 0.0, "FacilFAR": 0.0, "BoroCode": 2, "BBL": 2024990001.0, "CondoNo": 0, "Tract2010": "0063", "XCoord": 1003813, "YCoord": 240935, "ZoneMap": "3b", "ZMCode": null, "Sanborn": "210S003", "TaxMap": "20908", "EDesigNum": null, "APPBBL": 2024990001.0, "APPDate": "11/03/2011", "PLUTOMapID": "1", "FIRM07_FLA": null, "PFIRM15_FL": null, "Version": "25v4", "DCPEdited": "t", "Latitude": 40.8279647, "Longitude": -73.9293113, "Notes": null, "Shape_Leng": 0.0, "Shape_Area": 320588.87886499998 }, "geometry": { "type": "MultiPolygon", "coordinates": [ [ [ [ -73.93051140962541, 40.82770080827018 ], [ -73.930462331998427, 40.82770393215398 ], [ -73.930414020561173, 40.82771117987636 ], [ -73.930367080157737, 40.827722459864781 ], [ -73.930322095196587, 40.827737633097165 ], [ -73.930275583178016, 40.82775858732964 ], [ -73.930232788071081, 40.827783669954812 ], [ -73.930194346845212, 40.827812507574343 ], [ -73.930160831334504, 40.827844673709556 ], [ -73.930132741181254, 40.827879687797022 ], [ -73.930110493031535, 40.827917027806151 ], [ -73.930094418104275, 40.827956141037554 ], [ -73.930084756679861, 40.827996443199332 ], [ -73.930081668223892, 40.82803051523328 ], [ -73.930081600289, 40.8280376219627 ], [ -73.930082924368563, 40.828062539503506 ], [ -73.930086681291257, 40.82808731446206 ], [ -73.930092850935111, 40.82811181079601 ], [ -73.93010139908192, 40.828135894375635 ], [ -73.930112279726799, 40.828159433748226 ], [ -73.930125432431126, 40.828182299033195 ], [ -73.930140785187945, 40.828204365117259 ], [ -73.930158253763963, 40.828225511312517 ], [ -73.930184765505246, 40.828252162248589 ], [ -73.930214655741707, 40.828276682001601 ], [ -73.930247623615486, 40.828298827271894 ], [ -73.930283343572128, 40.828318377082006 ], [ -73.930321459854824, 40.828335136791388 ], [ -73.930361591008392, 40.828348941440524 ], [ -73.930403342555309, 40.828359651078529 ], [ -73.930446295969119, 40.828367160206078 ], [ -73.930315995109368, 40.82840261763139 ], [ -73.93015488571865, 40.828450260671929 ], [ -73.929971144073065, 40.828509910459879 ], [ -73.929772176261949, 40.828581178794465 ], [ -73.929575583028253, 40.828658787768951 ], [ -73.929393680211035, 40.828737350020511 ], [ -73.929232694018864, 40.828812638883335 ], [ -73.929087917392735, 40.82888525673517 ], [ -73.928995432344038, 40.828934218322182 ], [ -73.928904227136258, 40.828984560083114 ], [ -73.928891786069229, 40.828989310597656 ], [ -73.928880622802779, 40.828992015093803 ], [ -73.928866930858177, 40.828993609541307 ], [ -73.9288539260276, 40.828993487137495 ], [ -73.928843545765503, 40.828992245238759 ], [ -73.928833755837331, 40.828990081611849 ], [ -73.928825429313221, 40.828987401038667 ], [ -73.928817129837853, 40.828983838044053 ], [ -73.927569831629043, 40.828213792956682 ], [ -73.929256721429823, 40.827469827901915 ], [ -73.929712229825014, 40.826759509386747 ], [ -73.930527736520887, 40.827067068947514 ], [ -73.930527856450894, 40.827081629161292 ], [ -73.930528572718032, 40.827168783306291 ], [ -73.930532372069109, 40.82724152230994 ], [ -73.930538868260285, 40.827314410683023 ], [ -73.930546778710337, 40.827378227397176 ], [ -73.930557151536746, 40.8274441959732 ], [ -73.930569977317461, 40.827511115142997 ], [ -73.930584740823477, 40.827576366895549 ], [ -73.930547879256039, 40.827638920183446 ], [ -73.930524437424211, 40.827678701733994 ], [ -73.930523973151679, 40.827679488436438 ], [ -73.930519134905666, 40.827687700770191 ], [ -73.93051140962541, 40.82770080827018 ] ] ] ] } },
{ "type": "Feature", "properties": { "Borough": "BX", "Block": 2491, "Lot": 1, "CD": 204, "BCT2020": "2006302", "BCTCB2020": "20063021008", "CT2010": "63", "CB2010": "1004", "SchoolDist": "07", "Council": 16, "ZipCode": 10451, "FireComp": "E068", "PolicePrct": 44, "HealthCent": 23, "HealthArea": 3800, "Sanitboro": "2", "SanitDistr": "04", "SanitSub": "1A", "Address": "800 EAST 161 STREET", "ZoneDist1": "PARK", "ZoneDist2": null, "ZoneDist3": null, "ZoneDist4": null, "Overlay1": null, "Overlay2": null, "SPDist1": null, "SPDist2": null, "SPDist3": null, "LtdHeight": null, "SplitZone": "N", "BldgClass": "Q6", "LandUse": "09", "Easements": 0, "OwnerType": "C", "OwnerName": "NYC DEPARTMENT OF PARKS AND RECREATION", "LotArea": 424760, "BldgArea": 0, "ComArea": 0, "ResArea": 0, "OfficeArea": 0, "RetailArea": 0, "GarageArea": 0, "StrgeArea": 0, "FactryArea": 0, "OtherArea": 0, "AreaSource": "7", "NumBldgs": 1, "NumFloors": 0.0, "UnitsRes": 0, "UnitsTotal": 0, "LotFront": 378.36, "LotDepth": 705.22, "BldgFront": 0.0, "BldgDepth": 0.0, "Ext": null, "ProxCode": "0", "IrrLotCode": "Y", "LotType": "1", "BsmtCode": "5", "AssessLand": 2962800.0, "AssessTot": 3171150.0, "ExemptTot": 3171150.0, "YearBuilt": 2013, "YearAlter1": 0, "YearAlter2": 0, "HistDist": null, "Landmark": null, "BuiltFAR": 0.0, "ResidFAR": 0.0, "CommFAR": 0.0, "FacilFAR": 0.0, "BoroCode": 2, "BBL": 2024910001.0, "CondoNo": 0, "Tract2010": "0063", "XCoord": 1004233, "YCoord": 240588, "ZoneMap": "3b", "ZMCode": "Y", "Sanborn": "210S003", "TaxMap": "20908", "EDesigNum": null, "APPBBL": 0.0, "APPDate": null, "PLUTOMapID": "1", "FIRM07_FLA": null, "PFIRM15_FL": null, "Version": "25v4", "DCPEdited": "t", "Latitude": 40.8270113, "Longitude": -73.9277947, "Notes": null, "Shape_Leng": 0.0, "Shape_Area": 433460.59735 }, "geometry": { "type": "MultiPolygon", "coordinates": [ [ [ [ -73.927232092932826, 40.825846485070301 ], [ -73.928043839156032, 40.826117921908128 ], [ -73.929549601990445, 40.826687188293363 ], [ -73.929178330329123, 40.827331620002205 ], [ -73.927409884771023, 40.828114777978811 ], [ -73.927012318385437, 40.827862544803303 ], [ -73.926179679784923, 40.827623251360592 ], [ -73.927232092932826, 40.825846485070301 ] ] ] ] } },
{ "type": "Feature", "properties": { "Borough": "BX", "Block": 2494, "Lot": 1, "CD": 204, "BCT2020": "2006302", "BCTCB2020": "20063021001", "CT2010": "63", "CB2010": "1001", "SchoolDist": "09", "Council": 16, "ZipCode": 10452, "FireComp": "E068", "PolicePrct": 44, "HealthCent": 23, "HealthArea": 3800, "Sanitboro": "2", "SanitDistr": "04", "SanitSub": "2A", "Address": "1015 RIVER AVENUE", "ZoneDist1": "PARK", "ZoneDist2": null, "ZoneDist3": null, "ZoneDist4": null, "Overlay1": null, "Overlay2": null, "SPDist1": null, "SPDist2": null, "SPDist3": null, "LtdHeight": null, "SplitZone": "N", "BldgClass": "Q1", "LandUse": "09", "Easements": 0, "OwnerType": "C", "OwnerName": "NYC DEPARTMENT OF PARKS AND RECREATION", "LotArea": 238000, "BldgArea": 24730, "ComArea": 24730, "ResArea": 0, "OfficeArea": 24730, "RetailArea": 0, "GarageArea": 0, "StrgeArea": 0, "FactryArea": 0, "OtherArea": 0, "AreaSource": "2", "NumBldgs": 6, "NumFloors": 1.0, "UnitsRes": 0, "UnitsTotal": 1, "LotFront": 453.12, "LotDepth": 568.32, "BldgFront": 160.0, "BldgDepth": 155.0, "Ext": "N", "ProxCode": "1", "IrrLotCode": "Y", "LotType": "1", "BsmtCode": "2", "AssessLand": 1678050.0, "AssessTot": 4181400.0, "ExemptTot": 4181400.0, "YearBuilt": 1962, "YearAlter1": 1998, "YearAlter2": 0, "HistDist": null, "Landmark": null, "BuiltFAR": 0.1, "ResidFAR": 0.0, "CommFAR": 0.0, "FacilFAR": 0.0, "BoroCode": 2, "BBL": 2024940001.0, "CondoNo": 0, "Tract2010": "0063", "XCoord": 1005036, "YCoord": 242280, "ZoneMap": "3b", "ZMCode": null, "Sanborn": "210S024", "TaxMap": "20908", "EDesigNum": null, "APPBBL": 0.0, "APPDate": null, "PLUTOMapID": "1", "FIRM07_FLA": null, "PFIRM15_FL": null, "Version": "25v4", "DCPEdited": "t", "Latitude": 40.8316535, "Longitude": -73.9248879, "Notes": null, "Shape_Leng": 0.0, "Shape_Area": 243492.32461400001 }, "geometry": { "type": "MultiPolygon", "coordinates": [ [ [ [ -73.924331180238298, 40.83079951256255 ], [ -73.926237217170453, 40.831442057817398 ], [ -73.925319177666751, 40.832433453534897 ], [ -73.925279595495027, 40.832504841667813 ], [ -73.923661982237462, 40.831932052090444 ], [ -73.924331180238298, 40.83079951256255 ] ] ] ] } },
{ "type": "Feature", "properties": { "Borough": "BX", "Block": 2493, "Lot": 1, "CD": 204, "BCT2020": "2006302", "BCTCB2020": "20063021003", "CT2010": "63", "CB2010": "1003", "SchoolDist": "09", "Council": 16, "ZipCode": 10451, "FireComp": "E068", "PolicePrct": 44, "HealthCent": 23, "HealthArea": 3800, "Sanitboro": "2", "SanitDistr": "04", "SanitSub": "1A", "Address": "1 EAST 161 STREET", "ZoneDist1": "PARK", "ZoneDist2": null, "ZoneDist3": null, "ZoneDist4": null, "Overlay1": null, "Overlay2": null, "SPDist1": null, "SPDist2": null, "SPDist3": null, "LtdHeight": null, "SplitZone": "N", "BldgClass": "Q6", "LandUse": "09", "Easements": 0, "OwnerType": "C", "OwnerName": "NYC DEPARTMENT OF PARKS AND RECREATION", "LotArea": 634335, "BldgArea": 1290000, "ComArea": 1290000, "ResArea": 0, "OfficeArea": 0, "RetailArea": 0, "GarageArea": 0, "StrgeArea": 0, "FactryArea": 0, "OtherArea": 1290000, "AreaSource": "2", "NumBldgs": 1, "NumFloors": 6.0, "UnitsRes": 0, "UnitsTotal": 1, "LotFront": 798.13, "LotDepth": 611.63, "BldgFront": 0.0, "BldgDepth": 0.0, "Ext": "N", "ProxCode": "1", "IrrLotCode": "Y", "LotType": "4", "BsmtCode": "0", "AssessLand": 739104300.00000012, "AssessTot": 930195450.0, "ExemptTot": 930195450.0, "YearBuilt": 2006, "YearAlter1": 2013, "YearAlter2": 0, "HistDist": null, "Landmark": null, "BuiltFAR": 2.03, "ResidFAR": 0.0, "CommFAR": 0.0, "FacilFAR": 0.0, "BoroCode": 2, "BBL": 2024930001.0, "CondoNo": 0, "Tract2010": "0063", "XCoord": 1004605, "YCoord": 241522, "ZoneMap": "3b", "ZMCode": null, "Sanborn": "210S021", "TaxMap": "20908", "EDesigNum": null, "APPBBL": 2024930009.0, "APPDate": "03/12/2007", "PLUTOMapID": "1", "FIRM07_FLA": null, "PFIRM15_FL": null, "Version": "25v4", "DCPEdited": "t", "Latitude": 40.8295741, "Longitude": -73.9264477, "Notes": null, "Shape_Leng": 0.0, "Shape_Area": 618583.62576199998 }, "geometry": { "type": "MultiPolygon", "coordinates": [ [ [ [ -73.924602284621514, 40.830350152721316 ], [ -73.924648186590531, 40.830274317677052 ], [ -73.924825842640757, 40.829964399144764 ], [ -73.92482611224375, 40.829963928401938 ], [ -73.924962394695754, 40.829726181694241 ], [ -73.925897775528512, 40.828094349854346 ], [ -73.926182281857592, 40.828185187563612 ], [ -73.927308898039371, 40.828544891504116 ], [ -73.928352734809138, 40.829206556045548 ], [ -73.928385791134886, 40.829232431679173 ], [ -73.928396297089691, 40.829245646756533 ], [ -73.928402619548379, 40.829258770049115 ], [ -73.928405683668473, 40.829272412677376 ], [ -73.928405611886404, 40.82928507629822 ], [ -73.928402099146354, 40.82929949378579 ], [ -73.928398726603859, 40.829306961285468 ], [ -73.928392303384243, 40.829316942016895 ], [ -73.928383211149352, 40.829328487942583 ], [ -73.928339230674013, 40.829358464189944 ], [ -73.928309640957139, 40.829378633064323 ], [ -73.92819723536212, 40.82946072077344 ], [ -73.928122653500793, 40.829518695899452 ], [ -73.928031475925465, 40.829593757449047 ], [ -73.927933764639349, 40.8296798558451 ], [ -73.927862124053419, 40.829747132035131 ], [ -73.927812253966252, 40.829796254403938 ], [ -73.927750720353288, 40.829859710708817 ], [ -73.927690493353793, 40.829925158809232 ], [ -73.927658854518668, 40.829957449703592 ], [ -73.926614767599133, 40.831037563753256 ], [ -73.924602284621514, 40.830350152721316 ] ], [ [ -73.924774997962245, 40.830313279597121 ], [ -73.92477499455677, 40.830316290908655 ], [ -73.925111829603949, 40.830433947076529 ], [ -73.925215112149218, 40.830247320578145 ], [ -73.925092266392653, 40.830205083872841 ], [ -73.92510021437532, 40.830187021498546 ], [ -73.924965486887388, 40.830135743147885 ], [ -73.924953575482235, 40.83015079169823 ], [ -73.924882242338299, 40.830129667212745 ], [ -73.924774997962245, 40.830313279597121 ] ] ] ] } },
{ "type": "Feature", "properties": { "Borough": "BX", "Block": 2495, "Lot": 1, "CD": 204, "BCT2020": "2006302", "BCTCB2020": "20063021000", "CT2010": "63", "CB2010": "1000", "SchoolDist": "09", "Council": 16, "ZipCode": 10452, "FireComp": "E068", "PolicePrct": 44, "HealthCent": 23, "HealthArea": 3800, "Sanitboro": "2", "SanitDistr": "04", "SanitSub": "2A", "Address": "RIVER AVENUE", "ZoneDist1": "PARK", "ZoneDist2": null, "ZoneDist3": null, "ZoneDist4": null, "Overlay1": null, "Overlay2": null, "SPDist1": null, "SPDist2": null, "SPDist3": null, "LtdHeight": null, "SplitZone": "N", "BldgClass": "Q1", "LandUse": "09", "Easements": 0, "OwnerType": "C", "OwnerName": "NYC DEPARTMENT OF PARKS AND RECREATION", "LotArea": 401423, "BldgArea": 0, "ComArea": 0, "ResArea": 0, "OfficeArea": 0, "RetailArea": 0, "GarageArea": 0, "StrgeArea": 0, "FactryArea": 0, "OtherArea": 0, "AreaSource": "7", "NumBldgs": 1, "NumFloors": 0.0, "UnitsRes": 0, "UnitsTotal": 0, "LotFront": 804.28, "LotDepth": 486.65, "BldgFront": 0.0, "BldgDepth": 0.0, "Ext": "N", "ProxCode": "0", "IrrLotCode": "Y", "LotType": "3", "BsmtCode": "0", "AssessLand": 2825100.0, "AssessTot": 3444300.0, "ExemptTot": 3444300.0, "YearBuilt": 0, "YearAlter1": 0, "YearAlter2": 0, "HistDist": null, "Landmark": null, "BuiltFAR": 0.0, "ResidFAR": 0.0, "CommFAR": 0.0, "FacilFAR": 0.0, "BoroCode": 2, "BBL": 2024950001.0, "CondoNo": 0, "Tract2010": "0063", "XCoord": 1005335, "YCoord": 242929, "ZoneMap": "3b", "ZMCode": null, "Sanborn": "210S042", "TaxMap": "20908", "EDesigNum": null, "APPBBL": 0.0, "APPDate": null, "PLUTOMapID": "1", "FIRM07_FLA": null, "PFIRM15_FL": null, "Version": "25v4", "DCPEdited": "t", "Latitude": 40.8334342, "Longitude": -73.9238054, "Notes": null, "Shape_Leng": 0.0, "Shape_Area": 412066.59696599998 }, "geometry": { "type": "MultiPolygon", "coordinates": [ [ [ [ -73.923313848221412, 40.83458717358581 ], [ -73.923322374295751, 40.834541571804216 ], [ -73.923315400613333, 40.834493181708702 ], [ -73.923293421731415, 40.834449103109932 ], [ -73.923265877304246, 40.834417600708164 ], [ -73.923232405193744, 40.834391962868992 ], [ -73.923189824422451, 40.834370231596061 ], [ -73.922401230465184, 40.834104695497757 ], [ -73.923570475092703, 40.832108186994546 ], [ -73.925181923273399, 40.832669389875072 ], [ -73.924219622193448, 40.834476998163083 ], [ -73.923978344141943, 40.834807895562221 ], [ -73.923313848221412, 40.83458717358581 ] ] ] ] } },
{ "type": "Feature", "properties": { "Borough": "BX", "Block": 2499, "Lot": 104, "CD": 204, "BCT2020": "2018900", "BCTCB2020": "20189001012", "CT2010": "189", "CB2010": "1009", "SchoolDist": "07", "Council": 16, "ZipCode": 10452, "FireComp": "E068", "PolicePrct": 44, "HealthCent": 23, "HealthArea": 3310, "Sanitboro": "2", "SanitDistr": "04", "SanitSub": "1A", "Address": "MACOMBS ROAD", "ZoneDist1": "R7-1", "ZoneDist2": "PARK", "ZoneDist3": null, "ZoneDist4": null, "Overlay1": null, "Overlay2": null, "SPDist1": null, "SPDist2": null, "SPDist3": null, "LtdHeight": null, "SplitZone": "Y", "BldgClass": "Y8", "LandUse": "07", "Easements": 0, "OwnerType": "C", "OwnerName": "NYC DEPARTMENT OF TRANSPORTATION", "LotArea": 46530, "BldgArea": 1111, "ComArea": 1111, "ResArea": 0, "OfficeArea": 0, "RetailArea": 0, "GarageArea": 0, "StrgeArea": 0, "FactryArea": 0, "OtherArea": 1111, "AreaSource": "2", "NumBldgs": 1, "NumFloors": 1.0, "UnitsRes": 0, "UnitsTotal": 0, "LotFront": 90.0, "LotDepth": 517.03, "BldgFront": 90.0, "BldgDepth": 517.0, "Ext": "N", "ProxCode": "0", "IrrLotCode": "N", "LotType": "5", "BsmtCode": "0", "AssessLand": 258300.0, "AssessTot": 421200.0, "ExemptTot": 421200.0, "YearBuilt": 1931, "YearAlter1": 0, "YearAlter2": 0, "HistDist": null, "Landmark": null, "BuiltFAR": 0.02, "ResidFAR": 3.44, "CommFAR": 0.0, "FacilFAR": 4.8, "BoroCode": 2, "BBL": 2024990104.0000002, "CondoNo": 0, "Tract2010": "0189", "XCoord": 1003694, "YCoord": 241211, "ZoneMap": "3b", "ZMCode": null, "Sanborn": "210S002", "TaxMap": "20908", "EDesigNum": null, "APPBBL": 0.0, "APPDate": null, "PLUTOMapID": "1", "FIRM07_FLA": null, "PFIRM15_FL": null, "Version": "25v4", "DCPEdited": "t", "Latitude": 40.8287225, "Longitude": -73.9297405, "Notes": null, "Shape_Leng": 0.0, "Shape_Area": 35328.23871930001 }, "geometry": { "type": "MultiPolygon", "coordinates": [ [ [ [ -73.928904227136258, 40.828984560083114 ], [ -73.928995432344038, 40.828934218322182 ], [ -73.929087917392735, 40.82888525673517 ], [ -73.929232694018864, 40.828812638883335 ], [ -73.929393680211035, 40.828737350020511 ], [ -73.929575583028253, 40.828658787768951 ], [ -73.929772176261949, 40.828581178794465 ], [ -73.929971144073065, 40.828509910459879 ], [ -73.93015488571865, 40.828450260671929 ], [ -73.930315995109368, 40.82840261763139 ], [ -73.930446295969119, 40.828367160206078 ], [ -73.930510742606529, 40.828350613787308 ], [ -73.930570193120801, 40.82854812774697 ], [ -73.930492517612805, 40.828567643222222 ], [ -73.930387188347609, 40.828595826329241 ], [ -73.930197168448331, 40.828651817605341 ], [ -73.930016407798519, 40.828711480064349 ], [ -73.929832628607301, 40.828778878375722 ], [ -73.929699591918805, 40.828832137207939 ], [ -73.929585945247567, 40.828880760316977 ], [ -73.929475040983789, 40.828931117494427 ], [ -73.929368200676123, 40.828982473022563 ], [ -73.929247198265799, 40.829044879661261 ], [ -73.929148696940331, 40.829099110879476 ], [ -73.92906824955476, 40.829147822349562 ], [ -73.928904227136258, 40.828984560083114 ] ] ] ] } },
{ "type": "Feature", "properties": { "Borough": "BX", "Block": 2539, "Lot": 179, "CD": 204, "BCT2020": "2006301", "BCTCB2020": "20063016001", "CT2010": "63", "CB2010": "1007", "SchoolDist": "07", "Council": 8, "ZipCode": 10451, "FireComp": "E068", "PolicePrct": 44, "HealthCent": 23, "HealthArea": 3800, "Sanitboro": "2", "SanitDistr": "04", "SanitSub": "1A", "Address": "MAJ WM DEEGAN BLVD", "ZoneDist1": "R7-1", "ZoneDist2": null, "ZoneDist3": null, "ZoneDist4": null, "Overlay1": null, "Overlay2": null, "SPDist1": null, "SPDist2": null, "SPDist3": null, "LtdHeight": null, "SplitZone": "N", "BldgClass": "Q1", "LandUse": "09", "Easements": 0, "OwnerType": "C", "OwnerName": "NYC DEPARTMENT OF PARKS AND RECREATION", "LotArea": 30420, "BldgArea": 0, "ComArea": 0, "ResArea": 0, "OfficeArea": 0, "RetailArea": 0, "GarageArea": 0, "StrgeArea": 0, "FactryArea": 0, "OtherArea": 0, "AreaSource": "7", "NumBldgs": 0, "NumFloors": 0.0, "UnitsRes": 0, "UnitsTotal": 0, "LotFront": 130.0, "LotDepth": 234.0, "BldgFront": 0.0, "BldgDepth": 0.0, "Ext": "N", "ProxCode": "0", "IrrLotCode": "Y", "LotType": "3", "BsmtCode": "0", "AssessLand": 70650.0, "AssessTot": 70650.0, "ExemptTot": 70650.0, "YearBuilt": 0, "YearAlter1": 0, "YearAlter2": 0, "HistDist": null, "Landmark": null, "BuiltFAR": 0.0, "ResidFAR": 3.44, "CommFAR": 0.0, "FacilFAR": 4.8, "BoroCode": 2, "BBL": 2025390178.9999998, "CondoNo": 0, "Tract2010": "0063", "XCoord": 1003315, "YCoord": 240979, "ZoneMap": "3b", "ZMCode": null, "Sanborn": "209N057", "TaxMap": "20909", "EDesigNum": null, "APPBBL": 0.0, "APPDate": null, "PLUTOMapID": "1", "FIRM07_FLA": null, "PFIRM15_FL": null, "Version": "25v4", "DCPEdited": "t", "Latitude": 40.8280866, "Longitude": -73.9311106, "Notes": null, "Shape_Leng": 0.0, "Shape_Area": 17515.135415600002 }, "geometry": { "type": "MultiPolygon", "coordinates": [ [ [ [ -73.931447017369877, 40.827964287686747 ], [ -73.931459103397174, 40.828019636738397 ], [ -73.931460385219225, 40.828020435359512 ], [ -73.931467190099454, 40.828024921206804 ], [ -73.931472319239361, 40.828028782878974 ], [ -73.931477512529725, 40.828032595060797 ], [ -73.931482767548076, 40.828036357753405 ], [ -73.931488085397177, 40.828040069201073 ], [ -73.931493464867586, 40.828043729318011 ], [ -73.931498903753848, 40.82804733810287 ], [ -73.931504403158698, 40.828050893883706 ], [ -73.931509960662268, 40.828054397411634 ], [ -73.931515575161072, 40.828057846093209 ], [ -73.93152124907931, 40.828061241601262 ], [ -73.931526976252158, 40.828064582262066 ], [ -73.931532760421149, 40.828067867155141 ], [ -73.931538598063611, 40.828071097114723 ], [ -73.931544486647681, 40.82807427122053 ], [ -73.931550429918218, 40.828077388722214 ], [ -73.931556424133191, 40.828080447607256 ], [ -73.931562468298083, 40.828083449885334 ], [ -73.9315685621943, 40.828086393631104 ], [ -73.931574704832869, 40.828089278843976 ], [ -73.931580895000678, 40.828092105606977 ], [ -73.93158713137808, 40.828094872079149 ], [ -73.931593411651178, 40.828097578174052 ], [ -73.931599738356113, 40.828100223978268 ], [ -73.931606108846324, 40.828102809490176 ], [ -73.931612519819808, 40.828105333787775 ], [ -73.931618973481108, 40.828107796034729 ], [ -73.931625466304155, 40.828110196982784 ], [ -73.93163199950196, 40.828112534957413 ], [ -73.931638571973494, 40.828114809960617 ], [ -73.931645181186965, 40.828117020986987 ], [ -73.931651824826488, 40.828119169872714 ], [ -73.931658505318026, 40.828121254949188 ], [ -73.931665219028872, 40.828123275125357 ], [ -73.93166688532888, 40.828123765103264 ], [ -73.93162701606623, 40.828126022384929 ], [ -73.931629550839517, 40.828153576396389 ], [ -73.931542273571054, 40.828158173689808 ], [ -73.931387898326605, 40.828167560402626 ], [ -73.931260746228944, 40.828177489895417 ], [ -73.931150782621486, 40.828190747043173 ], [ -73.931017177266028, 40.828210291546448 ], [ -73.930898019055064, 40.828232534301229 ], [ -73.930831338369643, 40.828246355564936 ], [ -73.930804158617917, 40.828251993498093 ], [ -73.93068648566792, 40.827895418553908 ], [ -73.930982775872494, 40.828009909351636 ], [ -73.931447017369877, 40.827964287686747 ] ] ] ] } },
{ "type": "Feature", "properties": { "Borough": "BX", "Block": 2539, "Lot": 180, "CD": 204, "BCT2020": "2018900", "BCTCB2020": "20189001004", "CT2010": "189", "CB2010": "1005", "SchoolDist": "07", "Council": 16, "ZipCode": 10452, "FireComp": "E068", "PolicePrct": 44, "HealthCent": 23, "HealthArea": 3310, "Sanitboro": "2", "SanitDistr": "04", "SanitSub": "1A", "Address": "MAJ WM DEEGAN BLVD", "ZoneDist1": "R7-1", "ZoneDist2": null, "ZoneDist3": null, "ZoneDist4": null, "Overlay1": null, "Overlay2": null, "SPDist1": null, "SPDist2": null, "SPDist3": null, "LtdHeight": null, "SplitZone": "N", "BldgClass": "U1", "LandUse": "07", "Easements": 0, "OwnerType": "C", "OwnerName": "NYC DEPARTMENT OF TRANSPORTATION", "LotArea": 50014, "BldgArea": 0, "ComArea": 0, "ResArea": 0, "OfficeArea": 0, "RetailArea": 0, "GarageArea": 0, "StrgeArea": 0, "FactryArea": 0, "OtherArea": 0, "AreaSource": "7", "NumBldgs": 0, "NumFloors": 0.0, "UnitsRes": 0, "UnitsTotal": 0, "LotFront": 110.0, "LotDepth": 324.0, "BldgFront": 0.0, "BldgDepth": 0.0, "Ext": "N", "ProxCode": "0", "IrrLotCode": "Y", "LotType": "5", "BsmtCode": "0", "AssessLand": 0.0, "AssessTot": 0.0, "ExemptTot": 0.0, "YearBuilt": 0, "YearAlter1": 0, "YearAlter2": 0, "HistDist": null, "Landmark": null, "BuiltFAR": 0.0, "ResidFAR": 3.44, "CommFAR": 0.0, "FacilFAR": 4.8, "BoroCode": 2, "BBL": 2025390180.0, "CondoNo": 0, "Tract2010": "0189", "XCoord": 1003213, "YCoord": 241144, "ZoneMap": "3b", "ZMCode": null, "Sanborn": "209N057", "TaxMap": "20909", "EDesigNum": null, "APPBBL": 0.0, "APPDate": null, "PLUTOMapID": "1", "FIRM07_FLA": "1", "PFIRM15_FL": "1", "Version": "25v4", "DCPEdited": "t", "Latitude": 40.8285397, "Longitude": -73.9314787, "Notes": null, "Shape_Leng": 0.0, "Shape_Area": 50013.586317300003 }, "geometry": { "type": "MultiPolygon", "coordinates": [ [ [ [ -73.931479461399377, 40.829180170722793 ], [ -73.93133856960165, 40.828389544044271 ], [ -73.931287227573279, 40.82839348277151 ], [ -73.931169039042345, 40.828407476997221 ], [ -73.931095352129503, 40.828417657051041 ], [ -73.931007730049558, 40.828430989600164 ], [ -73.93087132200796, 40.82845589104577 ], [ -73.930804158617917, 40.828251993498093 ], [ -73.930831338369643, 40.828246355564936 ], [ -73.930898019055064, 40.828232534301229 ], [ -73.931017177266028, 40.828210291546448 ], [ -73.931150782621486, 40.828190747043173 ], [ -73.931260746228944, 40.828177489895417 ], [ -73.931387898326605, 40.828167560402626 ], [ -73.931542273571054, 40.828158173689808 ], [ -73.931629550839517, 40.828153576396389 ], [ -73.93162701606623, 40.828126022384929 ], [ -73.93166688532888, 40.828123765103264 ], [ -73.931671967276074, 40.828125231405842 ], [ -73.931678746320898, 40.828127121948249 ], [ -73.931685556269954, 40.828128948592791 ], [ -73.931692395912989, 40.828130708661 ], [ -73.931699264150723, 40.828132403827439 ], [ -73.931707475257255, 40.828134334871898 ], [ -73.931720030399759, 40.828137090698853 ], [ -73.93172700320973, 40.828138520306503 ], [ -73.931733998557192, 40.828139882414767 ], [ -73.931741016549793, 40.828141177858704 ], [ -73.931748054766629, 40.828142406723217 ], [ -73.931755113100238, 40.82814356624413 ], [ -73.931762190665609, 40.828144659183735 ], [ -73.931769285924318, 40.828145683617215 ], [ -73.93177707237821, 40.828146728285617 ], [ -73.931783523016918, 40.828147529049417 ], [ -73.931790664741442, 40.828148349129322 ], [ -73.931797817220627, 40.828149100781403 ], [ -73.931804982876969, 40.82814978400711 ], [ -73.931812159176886, 40.828150397886191 ], [ -73.931819346339836, 40.828150943421299 ], [ -73.931826539411603, 40.828151419521866 ], [ -73.931833742025844, 40.828151826275132 ], [ -73.931840950657147, 40.828152165517864 ], [ -73.931850704405306, 40.828152637779766 ], [ -73.932012583272197, 40.828376852835326 ], [ -73.931944583410939, 40.828381137728215 ], [ -73.93164362890117, 40.828400101208061 ], [ -73.931687806784097, 40.828648036978493 ], [ -73.931774908150473, 40.829136855889217 ], [ -73.931497102111123, 40.829258137245851 ], [ -73.931479461399377, 40.829180170722793 ] ] ] ] } }
]
}
