{
"type": "FeatureCollection",
"name": "pluto_Great_Kills_Park",
"crs": { "type": "name", "properties": { "name": "urn:ogc:def:crs:OGC:1.3:CRS84" } },
"features": [
{ "type": "Feature", "properties": { "Borough": "SI", "Block": 4994, "Lot": 1, "CD": 595, "BCT2020": "5015400", "BCTCB2020": "50154001003", "CT2010": "154", "CB2010": "1000", "SchoolDist": "31", "Council": 51, "ZipCode": 10306, "FireComp": "E162", "PolicePrct": 122, "HealthCent": 51, "HealthArea": 920, "Sanitboro": null, "SanitDistr": null, "SanitSub": null, "Address": "MARINE PARK", "ZoneDist1": "PARK", "ZoneDist2": "R3-1", "ZoneDist3": null, "ZoneDist4": null, "Overlay1": null, "Overlay2": null, "SPDist1": null, "SPDist2": null, "SPDist3": null, "LtdHeight": null, "SplitZone": "Y", "BldgClass": "Q0", "LandUse": "09", "Easements": 0, "OwnerType": "C", "OwnerName": "NYC DEPARTMENT OF PARKS AND RECREATION", "LotArea": 940000, "BldgArea": 0, "ComArea": 0, "ResArea": 0, "OfficeArea": 0, "RetailArea": 0, "GarageArea": 0, "StrgeArea": 0, "FactryArea": 0, "OtherArea": 0, "AreaSource": "7", "NumBldgs": 0, "NumFloors": 0.0, "UnitsRes": 0, "UnitsTotal": 0, "LotFront": 717.0, "LotDepth": 1310.0, "BldgFront": 0.0, "BldgDepth": 0.0, "Ext": null, "ProxCode": "0", "IrrLotCode": "Y", "LotType": "5", "BsmtCode": "5", "AssessLand": 18224100.0, "AssessTot": 18224100.0, "ExemptTot": 18224100.0, "YearBuilt": 0, "YearAlter1": 0, "YearAlter2": 0, "HistDist": null, "Landmark": null, "BuiltFAR": 0.0, "ResidFAR": 0.0, "CommFAR": 0.0, "FacilFAR": 0.0, "BoroCode": 5, "BBL": 5049940001.0, "CondoNo": 0, "Tract2010": "0154", "XCoord": 949190, "YCoord": 141673, "ZoneMap": "34a", "ZMCode": null, "Sanborn": "504 442", "TaxMap": "52102", "EDesigNum": null, "APPBBL": 0.0, "APPDate": null, "PLUTOMapID": "1", "FIRM07_FLA": "1", "PFIRM15_FL": "1", "Version": "25v4", "DCPEdited": "t", "Latitude": 40.555466, "Longitude": -74.1261687, "Notes": null, "Shape_Leng": 0.0, "Shape_Area": 1011119.5946599999 }, "geometry": { "type": "MultiPolygon", "coordinates": [ [ [ [ -74.126756547010032, 40.55742655902786 ], [ -74.12665468259803, 40.557361647950756 ], [ -74.126544213669604, 40.557291252178658 ], [ -74.126433746296726, 40.557220858976549 ], [ -74.126320068390498, 40.557148417807923 ], [ -74.126213059119777, 40.557080226924789 ], [ -74.126102592329147, 40.557009831563576 ], [ -74.125990644720474, 40.556938492254744 ], [ -74.125880177195256, 40.556868098522102 ], [ -74.12576971231185, 40.556797702837578 ], [ -74.125662005485168, 40.556729066455148 ], [ -74.125548778529321, 40.556656911324609 ], [ -74.125547480596239, 40.55665604550223 ], [ -74.125428592096114, 40.556576765176303 ], [ -74.125386713122481, 40.556548837841262 ], [ -74.125371971581828, 40.556539007584654 ], [ -74.12529285710437, 40.556486250984364 ], [ -74.12523052579553, 40.556444684899148 ], [ -74.125165484941618, 40.556401311706395 ], [ -74.12510044428177, 40.556357938391542 ], [ -74.125037437018506, 40.556315921833303 ], [ -74.124970412861231, 40.556271226905395 ], [ -74.124897513472163, 40.55622261290528 ], [ -74.124832471953766, 40.556179239523452 ], [ -74.1247674317259, 40.556135866020981 ], [ -74.124702391586027, 40.556092493485473 ], [ -74.124636163444336, 40.55604832791397 ], [ -74.124571123472876, 40.556004955220224 ], [ -74.124505356549435, 40.555961097955176 ], [ -74.124440316746103, 40.555917724349584 ], [ -74.124373659759669, 40.555873272717264 ], [ -74.124308620127024, 40.555829898954485 ], [ -74.124245943659034, 40.555788102220305 ], [ -74.124173044228598, 40.555739487760654 ], [ -74.124104934850507, 40.555694066728755 ], [ -74.124039894362014, 40.55565069381872 ], [ -74.123970854852132, 40.555604651517321 ], [ -74.123908819513474, 40.555563281587723 ], [ -74.123851369577594, 40.55552496854294 ], [ -74.12369586321087, 40.555421264805496 ], [ -74.123360129372983, 40.555197365950541 ], [ -74.123254547100103, 40.555126953652938 ], [ -74.123203126234657, 40.555094926618082 ], [ -74.123146902882198, 40.555059908690012 ], [ -74.122724601813687, 40.554796882776927 ], [ -74.122491124737152, 40.554651463745159 ], [ -74.122018136043366, 40.554356861028488 ], [ -74.121910620695928, 40.554289893999474 ], [ -74.121856861948459, 40.554256409193236 ], [ -74.121803203734473, 40.554222988090679 ], [ -74.121595020066167, 40.554093318481321 ], [ -74.121486552971803, 40.554025756890795 ], [ -74.121320668400344, 40.553922432880114 ], [ -74.122990783618988, 40.554766642003194 ], [ -74.123258143282285, 40.554901782927566 ], [ -74.123548555330956, 40.555048573720306 ], [ -74.123687935946947, 40.55513219070771 ], [ -74.12374619025988, 40.555167139587361 ], [ -74.123596224807159, 40.555352025218419 ], [ -74.123697399613079, 40.555418896603797 ], [ -74.123792709165429, 40.555481892890228 ], [ -74.123976608794408, 40.555314834143459 ], [ -74.125809917731559, 40.556510351153925 ], [ -74.125992670243662, 40.556334034832332 ], [ -74.123880363357387, 40.554972497311574 ], [ -74.125477437762271, 40.553521812878401 ], [ -74.12884331773752, 40.555677028435348 ], [ -74.127245548027389, 40.55713201519437 ], [ -74.127239314162608, 40.557137693631837 ], [ -74.127043664888888, 40.557315851614767 ], [ -74.126853936102108, 40.557488619322847 ], [ -74.126756547010032, 40.55742655902786 ] ] ] ] } },
{ "type": "Feature", "properties": { "Borough": "SI", "Block": 4994, "Lot": 200, "CD": 595, "BCT2020": "5015400", "BCTCB2020": "50154001000", "CT2010": "154", "CB2010": "1000", "SchoolDist": "31", "Council": 51, "ZipCode": 10306, "FireComp": "E162", "PolicePrct": 122, "HealthCent": 51, "HealthArea": 920, "Sanitboro": null, "SanitDistr": null, "SanitSub": null, "Address": "EMMET AVENUE", "ZoneDist1": "PARK", "ZoneDist2": null, "ZoneDist3": null, "ZoneDist4": null, "Overlay1": null, "Overlay2": null, "SPDist1": null, "SPDist2": null, "SPDist3": null, "LtdHeight": null, "SplitZone": "N", "BldgClass": "Q0", "LandUse": "09", "Easements": 0, "OwnerType": "C", "OwnerName": "NYC DEPARTMENT OF PARKS AND RECREATION", "LotArea": 1152000, "BldgArea": 0, "ComArea": 0, "ResArea": 0, "OfficeArea": 0, "RetailArea": 0, "GarageArea": 0, "StrgeArea": 0, "FactryArea": 0, "OtherArea": 0, "AreaSource": "7", "NumBldgs": 0, "NumFloors": 0.0, "UnitsRes": 0, "UnitsTotal": 0, "LotFront": 690.0, "LotDepth": 1670.0, "BldgFront": 0.0, "BldgDepth": 0.0, "Ext": null, "ProxCode": "0", "IrrLotCode": "N", "LotType": "5", "BsmtCode": "5", "AssessLand": 18960750.0, "AssessTot": 18960750.0, "ExemptTot": 18960750.0, "YearBuilt": 0, "YearAlter1": 0, "YearAlter2": 0, "HistDist": null, "Landmark": null, "BuiltFAR": 0.0, "ResidFAR": 0.0, "CommFAR": 0.0, "FacilFAR": 0.0, "BoroCode": 5, "BBL": 5049940200.0, "CondoNo": 0, "Tract2010": "0154", "XCoord": 950356, "YCoord": 140724, "ZoneMap": "34a", "ZMCode": null, "Sanborn": "504 442", "TaxMap": "52102", "EDesigNum": null, "APPBBL": 0.0, "APPDate": null, "PLUTOMapID": "1", "FIRM07_FLA": "1", "PFIRM15_FL": "1", "Version": "25v4", "DCPEdited": "t", "Latitude": 40.5528658, "Longitude": -74.1219679, "Notes": null, "Shape_Leng": 0.0, "Shape_Area": 1153752.2082700001 }, "geometry": { "type": "MultiPolygon", "coordinates": [ [ [ [ -74.119225337896822, 40.552658420795034 ], [ -74.118817006024102, 40.552326373045034 ], [ -74.119328617004257, 40.55173057359989 ], [ -74.119573703947751, 40.551445152359697 ], [ -74.119893583399275, 40.55107262467736 ], [ -74.120170586437681, 40.550750026545778 ], [ -74.120357728629955, 40.550889677922498 ], [ -74.120579339033114, 40.551055049670303 ], [ -74.120651590989752, 40.551108966665531 ], [ -74.125305337376304, 40.553420523093067 ], [ -74.12370475234367, 40.554853746819774 ], [ -74.120876914592515, 40.553467882657898 ], [ -74.119225337896822, 40.552658420795034 ] ] ] ] } },
{ "type": "Feature", "properties": { "Borough": "SI", "Block": 5067, "Lot": 50, "CD": 595, "BCT2020": "5015400", "BCTCB2020": "50154001001", "CT2010": "154", "CB2010": "1006", "SchoolDist": "31", "Council": 51, "ZipCode": 10308, "FireComp": "E162", "PolicePrct": 122, "HealthCent": 51, "HealthArea": 920, "Sanitboro": null, "SanitDistr": null, "SanitSub": null, "Address": "HYLAN BOULEVARD", "ZoneDist1": "PARK", "ZoneDist2": "R3-2", "ZoneDist3": null, "ZoneDist4": null, "Overlay1": null, "Overlay2": null, "SPDist1": null, "SPDist2": null, "SPDist3": null, "LtdHeight": null, "SplitZone": "Y", "BldgClass": "Q0", "LandUse": "09", "Easements": 0, "OwnerType": "C", "OwnerName": "NYC DEPARTMENT OF TRANSPORTATION", "LotArea": 14915, "BldgArea": 0, "ComArea": 0, "ResArea": 0, "OfficeArea": 0, "RetailArea": 0, "GarageArea": 0, "StrgeArea": 0, "FactryArea": 0, "OtherArea": 0, "AreaSource": "7", "NumBldgs": 0, "NumFloors": 0.0, "UnitsRes": 0, "UnitsTotal": 0, "LotFront": 30.0, "LotDepth": 497.17, "BldgFront": 0.0, "BldgDepth": 0.0, "Ext": null, "ProxCode": "0", "IrrLotCode": "N", "LotType": "5", "BsmtCode": "5", "AssessLand": 266850.0, "AssessTot": 266850.0, "ExemptTot": 266850.0, "YearBuilt": 0, "YearAlter1": 0, "YearAlter2": 0, "HistDist": null, "Landmark": null, "BuiltFAR": 0.0, "ResidFAR": 0.0, "CommFAR": 0.0, "FacilFAR": 0.0, "BoroCode": 5, "BBL": 5050670050.0, "CondoNo": 0, "Tract2010": "0154", "XCoord": 945940, "YCoord": 138919, "ZoneMap": "33c", "ZMCode": null, "Sanborn": "504 406", "TaxMap": "52102", "EDesigNum": null, "APPBBL": 0.0, "APPDate": null, "PLUTOMapID": "1", "FIRM07_FLA": null, "PFIRM15_FL": "1", "Version": "25v4", "DCPEdited": "t", "Latitude": 40.5478934, "Longitude": -74.1378487, "Notes": null, "Shape_Leng": 0.0, "Shape_Area": 14950.942783500001 }, "geometry": { "type": "MultiPolygon", "coordinates": [ [ [ [ -74.137149735960506, 40.547272211728774 ], [ -74.137413160426775, 40.547398530840859 ], [ -74.138466577225486, 40.54844056194338 ], [ -74.138400527484976, 40.548498825555143 ], [ -74.13788604556683, 40.547994294399857 ], [ -74.137149735960506, 40.547272211728774 ] ] ] ] } },
{ "type": "Feature", "properties": { "Borough": "SI", "Block": 5067, "Lot": 1, "CD": 595, "BCT2020": "5015400", "BCTCB2020": "50154001001", "CT2010": "154", "CB2010": "1006", "SchoolDist": "31", "Council": 51, "ZipCode": 10308, "FireComp": "E162", "PolicePrct": 122, "HealthCent": 51, "HealthArea": 920, "Sanitboro": "5", "SanitDistr": "03", "SanitSub": "3E", "Address": "3650 HYLAN BOULEVARD", "ZoneDist1": "PARK", "ZoneDist2": null, "ZoneDist3": null, "ZoneDist4": null, "Overlay1": null, "Overlay2": null, "SPDist1": null, "SPDist2": null, "SPDist3": null, "LtdHeight": null, "SplitZone": "N", "BldgClass": "P6", "LandUse": "09", "Easements": 0, "OwnerType": "X", "OwnerName": "NYC DEPARTMENT OF PARKS AND RECREATION", "LotArea": 17903160, "BldgArea": 11359, "ComArea": 11359, "ResArea": 0, "OfficeArea": 0, "RetailArea": 0, "GarageArea": 0, "StrgeArea": 0, "FactryArea": 0, "OtherArea": 11359, "AreaSource": "2", "NumBldgs": 11, "NumFloors": 1.0, "UnitsRes": 0, "UnitsTotal": 1, "LotFront": 3740.0, "LotDepth": 5853.0, "BldgFront": 132.0, "BldgDepth": 42.0, "Ext": "N", "ProxCode": "1", "IrrLotCode": "Y", "LotType": "5", "BsmtCode": "0", "AssessLand": 5053500.0, "AssessTot": 8512200.0, "ExemptTot": 8512200.0, "YearBuilt": 1931, "YearAlter1": 0, "YearAlter2": 0, "HistDist": null, "Landmark": null, "BuiltFAR": 0.0, "ResidFAR": 0.0, "CommFAR": 0.0, "FacilFAR": 0.0, "BoroCode": 5, "BBL": 5050670001.0, "CondoNo": 0, "Tract2010": "0154", "XCoord": 949172, "YCoord": 136937, "ZoneMap": "34a", "ZMCode": "Y", "Sanborn": "504 406", "TaxMap": "52102", "EDesigNum": null, "APPBBL": 0.0, "APPDate": null, "PLUTOMapID": "1", "FIRM07_FLA": "1", "PFIRM15_FL": "1", "Version": "25v4", "DCPEdited": "t", "Latitude": 40.5424666, "Longitude": -74.1262089, "Notes": null, "Shape_Leng": 0.0, "Shape_Area": 21571683.8508 }, "geometry": { "type": "MultiPolygon", "coordinates": [ [ [ [ -74.125305337376304, 40.553420523093067 ], [ -74.120651590989752, 40.551108966665531 ], [ -74.120579339033114, 40.551055049670303 ], [ -74.120357728629955, 40.550889677922498 ], [ -74.120170586437681, 40.550750026545778 ], [ -74.119893583399275, 40.55107262467736 ], [ -74.119573703947751, 40.551445152359697 ], [ -74.119328617004257, 40.55173057359989 ], [ -74.116367601794607, 40.548927102701484 ], [ -74.114871576878073, 40.5498946413732 ], [ -74.114313052587079, 40.549392202206704 ], [ -74.112649493856196, 40.548314365623881 ], [ -74.11240028063601, 40.548152888292236 ], [ -74.112416913195034, 40.548131437962198 ], [ -74.112447056208381, 40.548077593845981 ], [ -74.112479445468779, 40.548027168628273 ], [ -74.112497532968717, 40.548003264977787 ], [ -74.112516314143576, 40.547978444629713 ], [ -74.112548701971292, 40.547927161187921 ], [ -74.11257324689619, 40.547874179808368 ], [ -74.112610114959651, 40.547823748321107 ], [ -74.112657069920019, 40.547779284661267 ], [ -74.112711876872496, 40.5477442102788 ], [ -74.112760050114503, 40.547720088307848 ], [ -74.112479742569604, 40.54753773001395 ], [ -74.112525581398828, 40.547495829566955 ], [ -74.112861873235559, 40.547714166392069 ], [ -74.112874190771095, 40.547714154283916 ], [ -74.112921236214774, 40.547723505029239 ], [ -74.11296942816422, 40.547749082052562 ], [ -74.113027715549279, 40.547784899056133 ], [ -74.113082648764632, 40.547823283910873 ], [ -74.113136458823135, 40.547859958956018 ], [ -74.113188031178922, 40.547898346235527 ], [ -74.11324744069654, 40.547935017381391 ], [ -74.113297899827359, 40.54797682054231 ], [ -74.113334897389194, 40.548003264906647 ], [ -74.113350593549285, 40.548014351113579 ], [ -74.113371886892622, 40.548026290918727 ], [ -74.113394315994441, 40.548045912868567 ], [ -74.113749230302219, 40.548018229008129 ], [ -74.113873648150317, 40.548091562546844 ], [ -74.114245335801968, 40.54805019415609 ], [ -74.114737937954573, 40.547996744727506 ], [ -74.114798347614439, 40.547964225814866 ], [ -74.114856515786741, 40.547929147883067 ], [ -74.114903471162052, 40.547886392517796 ], [ -74.114944819448866, 40.54783851785961 ], [ -74.114978324465284, 40.547787232610887 ], [ -74.115011829434906, 40.547735950027359 ], [ -74.115049817898864, 40.547688079617203 ], [ -74.115084447377697, 40.54763935694838 ], [ -74.115130281969243, 40.547596600854227 ], [ -74.115147057646297, 40.547583773113757 ], [ -74.115261153987731, 40.547515323893329 ], [ -74.11532491830296, 40.547480240187575 ], [ -74.115387575318366, 40.54745198889924 ], [ -74.115458081096762, 40.547429710182662 ], [ -74.115524105393789, 40.547406581240537 ], [ -74.115590130475951, 40.547382598572156 ], [ -74.115664006836042, 40.547368004124806 ], [ -74.115734521290463, 40.547350849112433 ], [ -74.115765847576483, 40.547335868796338 ], [ -74.11581503703853, 40.547289267366345 ], [ -74.115853091166372, 40.547279832891434 ], [ -74.115924737898425, 40.547270366249023 ], [ -74.11599973963763, 40.547257476903575 ], [ -74.116068001249602, 40.547232637092435 ], [ -74.116139631602692, 40.54721377249016 ], [ -74.116178785489794, 40.547193234169185 ], [ -74.116234708391886, 40.547155592225721 ], [ -74.116290628656941, 40.547117100250496 ], [ -74.116353277668836, 40.54708543093102 ], [ -74.116414806145642, 40.547052910864778 ], [ -74.116478576560326, 40.547021241343394 ], [ -74.116543474940073, 40.546994696363868 ], [ -74.116612863830511, 40.546974126281768 ], [ -74.116677760622281, 40.546946726618813 ], [ -74.116733686300122, 40.546911649171733 ], [ -74.116790725064533, 40.546873153053696 ], [ -74.116846646259688, 40.546835512651889 ], [ -74.116910410301159, 40.546800428060962 ], [ -74.116964091561101, 40.546761934437058 ], [ -74.117006555394852, 40.546713203201094 ], [ -74.117036697640188, 40.546662778973641 ], [ -74.117060163660724, 40.546633712185972 ], [ -74.1171205751522, 40.54660289933237 ], [ -74.117145172568243, 40.546581520920896 ], [ -74.117170859754481, 40.546544766730356 ], [ -74.117174144736381, 40.546502054984337 ], [ -74.117207650255295, 40.546452478289176 ], [ -74.117232217973452, 40.546414871455895 ], [ -74.117259056061883, 40.546394341742548 ], [ -74.117320607403926, 40.5463754884492 ], [ -74.117394483370333, 40.546360891964497 ], [ -74.117458276742354, 40.546342889155902 ], [ -74.117523168077611, 40.546312926114666 ], [ -74.117585819668705, 40.54628211164291 ], [ -74.1176406147177, 40.546241055412509 ], [ -74.117695415999734, 40.546204270349683 ], [ -74.117734556508694, 40.546176043717431 ], [ -74.117778139709458, 40.546127311964106 ], [ -74.117825091541519, 40.546083699029559 ], [ -74.117870917009412, 40.546036674153228 ], [ -74.117916748130341, 40.545992210401387 ], [ -74.117969294920783, 40.545947737889442 ], [ -74.117997223207084, 40.545910982128049 ], [ -74.118024018709264, 40.545866536052884 ], [ -74.118058693676147, 40.54584600169116 ], [ -74.118121348004152, 40.545817748068124 ], [ -74.118159361375973, 40.54578525125094 ], [ -74.118197332908437, 40.545729691926198 ], [ -74.118240923924304, 40.545684375740102 ], [ -74.11828898819951, 40.545637348389853 ], [ -74.118335940864441, 40.545594589767596 ], [ -74.118378415041235, 40.545552693111496 ], [ -74.118413038383579, 40.54550311574166 ], [ -74.118443184647504, 40.545455251358852 ], [ -74.118468842572781, 40.545400558333149 ], [ -74.118491201151841, 40.545380034789453 ], [ -74.118509114656689, 40.545379160772768 ], [ -74.118530423989597, 40.545398786477449 ], [ -74.11855851353657, 40.545453424029816 ], [ -74.118582125795044, 40.545508919885791 ], [ -74.11861244723616, 40.545559284756401 ], [ -74.118642714553175, 40.545579753952822 ], [ -74.118669585480191, 40.545578869817028 ], [ -74.118702029507617, 40.545562608766417 ], [ -74.118744497373356, 40.545517294468901 ], [ -74.118756759973181, 40.545486531455701 ], [ -74.118754422150602, 40.545431012796001 ], [ -74.118745361283175, 40.545372085332779 ], [ -74.118718392316609, 40.545318299435571 ], [ -74.118688093611155, 40.545280746411976 ], [ -74.118694780319444, 40.545263657377724 ], [ -74.118748457808209, 40.545224310982817 ], [ -74.118755144076374, 40.545206366417581 ], [ -74.118746143029725, 40.545182458664186 ], [ -74.118696806217116, 40.545143218708951 ], [ -74.118669888429963, 40.545117621175898 ], [ -74.118667599123512, 40.54508943427529 ], [ -74.118666378948845, 40.545033059847981 ], [ -74.11867077681859, 40.544986076621917 ], [ -74.11869643379039, 40.544933093679035 ], [ -74.118719847307247, 40.544875839089961 ], [ -74.118729820788246, 40.544817744791573 ], [ -74.118743157008538, 40.544761356145791 ], [ -74.118767693729964, 40.544705808763375 ], [ -74.118794486730948, 40.544660513334996 ], [ -74.118813503950122, 40.544651094807392 ], [ -74.118844860876422, 40.544654480784899 ], [ -74.118912090599295, 40.544680890303823 ], [ -74.118968090594805, 40.54468937284858 ], [ -74.119031905035015, 40.544685036425513 ], [ -74.119072176826023, 40.544664495951018 ], [ -74.119084458859646, 40.544644835507398 ], [ -74.119078774859489, 40.544597009869072 ], [ -74.119087704868434, 40.544581625022822 ], [ -74.119125749083878, 40.544567064578551 ], [ -74.119188445425408, 40.544562728308179 ], [ -74.119265715522431, 40.544569481247834 ], [ -74.119337378650769, 40.544571114157421 ], [ -74.119416875291677, 40.54456932412149 ], [ -74.119489646824491, 40.544564978126786 ], [ -74.119551232447733, 40.544566622310889 ], [ -74.11958484963111, 40.544581108276688 ], [ -74.119592712747632, 40.544595621062577 ], [ -74.11959729135026, 40.54465028101199 ], [ -74.11962870203827, 40.544684416131084 ], [ -74.119669037108565, 40.544698040463174 ], [ -74.119703741499663, 40.544694588614078 ], [ -74.119749600144829, 40.544668062579859 ], [ -74.119803279587728, 40.544630422142092 ], [ -74.119854713842244, 40.544590222958554 ], [ -74.119870343336643, 40.544564581280468 ], [ -74.119862423707602, 40.544518465388919 ], [ -74.119853416241412, 40.544491140216053 ], [ -74.119870172099354, 40.544468914790407 ], [ -74.119924960101713, 40.544426147329446 ], [ -74.119971926501833, 40.544392786863682 ], [ -74.120022289960104, 40.544379066015175 ], [ -74.120055884620726, 40.544381595551137 ], [ -74.120100688188188, 40.544390945700414 ], [ -74.120174588400289, 40.54439001292485 ], [ -74.120239518033117, 40.544383111759181 ], [ -74.120308907897439, 40.544365955100929 ], [ -74.12036710426284, 40.54435051943728 ], [ -74.120427512499006, 40.544320559443108 ], [ -74.120495775175002, 40.544298279049897 ], [ -74.120527112034083, 40.544290559200405 ], [ -74.120583107296156, 40.544296479899437 ], [ -74.120654796437677, 40.544312633018606 ], [ -74.120729845100144, 40.544328783396679 ], [ -74.120802648751237, 40.544342374188531 ], [ -74.120874341079855, 40.544360236300584 ], [ -74.120928078593522, 40.544355909431538 ], [ -74.120976179799641, 40.544330232390571 ], [ -74.120981765173156, 40.544323393320298 ], [ -74.121053406128695, 40.544312213420184 ], [ -74.121104921256972, 40.544317285819702 ], [ -74.121173173672986, 40.544290733750159 ], [ -74.121231358501305, 40.544268465312861 ], [ -74.12126044819901, 40.54425647467783 ], [ -74.121338816640645, 40.54425126791083 ], [ -74.121412724766245, 40.544255459135229 ], [ -74.121461968361018, 40.544243449895731 ], [ -74.121514555684442, 40.544222040002623 ], [ -74.121571592155689, 40.544184394344448 ], [ -74.121634232933218, 40.544151016514732 ], [ -74.121681208805583, 40.54412278022491 ], [ -74.121705830128647, 40.544115920021902 ], [ -74.121762869858784, 40.544080838005634 ], [ -74.121826640027749, 40.544052583008018 ], [ -74.12189040001104, 40.544017496473231 ], [ -74.121931764337916, 40.543982429255948 ], [ -74.121958538139765, 40.543928588859394 ], [ -74.121958454139516, 40.543882463946822 ], [ -74.121933737707934, 40.543836365198146 ], [ -74.121934789883284, 40.543799633327062 ], [ -74.121950447952415, 40.543790223283622 ], [ -74.121970609281334, 40.54379361670096 ], [ -74.122003105243977, 40.543808103151171 ], [ -74.122064697559281, 40.543813163491585 ], [ -74.122136330348226, 40.543798566329855 ], [ -74.122209085034612, 40.54378482245329 ], [ -74.122279595589347, 40.543768517180816 ], [ -74.122305338651785, 40.54376251201824 ], [ -74.122430644586686, 40.543709419351451 ], [ -74.122457492958659, 40.543696577115313 ], [ -74.122586178294313, 40.543653733128068 ], [ -74.122937547187249, 40.543538897709922 ], [ -74.122980063867757, 40.5435217691277 ], [ -74.123151249783902, 40.543454105452675 ], [ -74.123175869141477, 40.543446392167645 ], [ -74.123190415762863, 40.543441253427439 ], [ -74.123221748761281, 40.543431821954755 ], [ -74.123234614810116, 40.543426255491539 ], [ -74.123246360354884, 40.543419839218508 ], [ -74.123263136824093, 40.543409570508771 ], [ -74.123273203260894, 40.543403581040096 ], [ -74.123311233675082, 40.543383037881014 ], [ -74.123326894228043, 40.543374479577636 ], [ -74.12337611007959, 40.543347949400896 ], [ -74.12339400687263, 40.543337679467911 ], [ -74.12344210519359, 40.543312001391328 ], [ -74.123455526787566, 40.543304299165527 ], [ -74.123504743739318, 40.543277767175653 ], [ -74.123522641965309, 40.543268354506758 ], [ -74.12352935086659, 40.543264075167251 ], [ -74.123568493014574, 40.543238407593854 ], [ -74.123584149253603, 40.543228141884093 ], [ -74.123626643863702, 40.543199907776717 ], [ -74.12364453768825, 40.543188785039845 ], [ -74.123687032249549, 40.543160551831406 ], [ -74.123702689546761, 40.543150284262666 ], [ -74.123746864242477, 40.543121621456855 ], [ -74.123820113420109, 40.543073283167523 ], [ -74.123826822593259, 40.543068577885734 ], [ -74.12390846088212, 40.54301510292413 ], [ -74.12401466927146, 40.542928719482632 ], [ -74.124106348266693, 40.542856869951855 ], [ -74.1242136255741, 40.542743147906634 ], [ -74.124309725187729, 40.542639689397866 ], [ -74.124391292457815, 40.542549059239086 ], [ -74.124502979415155, 40.542399458665663 ], [ -74.124600160564455, 40.542276353786711 ], [ -74.124711864205295, 40.542136148156175 ], [ -74.124819056160248, 40.541977157815666 ], [ -74.12490953271255, 40.541861745911078 ], [ -74.125016715784341, 40.541698484187279 ], [ -74.125141878151382, 40.541571077162075 ], [ -74.125263619376057, 40.541410360395219 ], [ -74.125343975704993, 40.541272751325039 ], [ -74.125418745844073, 40.541141981401864 ], [ -74.12551701167213, 40.541001790569048 ], [ -74.12560976657403, 40.54090858622785 ], [ -74.125691353506483, 40.540829911508148 ], [ -74.125775114195434, 40.540717069999346 ], [ -74.125852258518961, 40.540658902354345 ], [ -74.125921562774664, 40.540599033955537 ], [ -74.12598304476802, 40.540546862899106 ], [ -74.126042284360778, 40.540492985891312 ], [ -74.126132690721548, 40.540342550606148 ], [ -74.126191816542146, 40.540229735936244 ], [ -74.126257687392254, 40.540129727423164 ], [ -74.126317944282022, 40.540022888262435 ], [ -74.126428532345273, 40.539887807960035 ], [ -74.126532407688288, 40.539756152463667 ], [ -74.126655246821684, 40.539587746096501 ], [ -74.126850688577775, 40.539328716714415 ], [ -74.127033861074622, 40.539094471421457 ], [ -74.127165623394859, 40.538909826257033 ], [ -74.127238186719623, 40.538798702597077 ], [ -74.127308435863441, 40.538648291456504 ], [ -74.127366446943242, 40.538538894826175 ], [ -74.127419971755401, 40.5384260857128 ], [ -74.127504836923094, 40.538308115033658 ], [ -74.127616571687383, 40.538190969029344 ], [ -74.12773506220519, 40.538093462196244 ], [ -74.127824430608285, 40.537989156324258 ], [ -74.127916024893622, 40.537878010109168 ], [ -74.128019917154759, 40.537758310459211 ], [ -74.12809918642246, 40.537642056544591 ], [ -74.128189669436352, 40.537536037243306 ], [ -74.128273363318243, 40.537393299194314 ], [ -74.12835487789232, 40.537281311952128 ], [ -74.128457665776153, 40.537170155538895 ], [ -74.128476653179177, 40.537147070891891 ], [ -74.128555957111871, 40.537049607970836 ], [ -74.128660942791257, 40.536917946578832 ], [ -74.128772664124611, 40.536794821697669 ], [ -74.128888839954357, 40.536661440160152 ], [ -74.129008410945829, 40.536545141261669 ], [ -74.129096665141603, 40.536445956842051 ], [ -74.129200576027188, 40.536338215081933 ], [ -74.129256474836453, 40.536297152001346 ], [ -74.129275436546507, 40.536260402622936 ], [ -74.129364737947085, 40.536124487952883 ], [ -74.129394893264617, 40.536086869488926 ], [ -74.129409404348891, 40.536063790566736 ], [ -74.129456305659687, 40.536002238793863 ], [ -74.129503224607078, 40.535949227633395 ], [ -74.129538938334832, 40.535891103201848 ], [ -74.129553465089828, 40.535877419505226 ], [ -74.129589240340792, 40.53585175549005 ], [ -74.129614913908526, 40.535812434649721 ], [ -74.12965738713703, 40.535775655893339 ], [ -74.129680827117184, 40.535739755076754 ], [ -74.129726621821888, 40.535684183022482 ], [ -74.129751213182175, 40.53566450750187 ], [ -74.129767994987319, 40.535658510867407 ], [ -74.129792565370508, 40.535628588251015 ], [ -74.129824937285235, 40.535579008996926 ], [ -74.129828266635002, 40.535563630550996 ], [ -74.129869570227783, 40.535502082260123 ], [ -74.129900863667913, 40.535474713999974 ], [ -74.129916477993362, 40.535443092273205 ], [ -74.129960047544088, 40.535396064132406 ], [ -74.129995813975896, 40.535366126117594 ], [ -74.130049440383573, 40.535307983075747 ], [ -74.130085199751051, 40.535273775592614 ], [ -74.130109759438398, 40.535237872495692 ], [ -74.130128687182719, 40.535184038191851 ], [ -74.130142054468848, 40.5351490032226 ], [ -74.130172197744031, 40.53510626059024 ], [ -74.130223630064805, 40.535072033529367 ], [ -74.130229198317934, 40.535056653367079 ], [ -74.130228046648128, 40.535040425384089 ], [ -74.130250370478564, 40.535006232171355 ], [ -74.13028500770497, 40.534971174049616 ], [ -74.130305048803933, 40.53491392177159 ], [ -74.130321775970273, 40.534880588586695 ], [ -74.130361975961407, 40.534826732763854 ], [ -74.130383177877889, 40.534791685352275 ], [ -74.130445748326295, 40.534728406147018 ], [ -74.130504980728787, 40.534675382329638 ], [ -74.130545222985106, 40.53464458536272 ], [ -74.130607787683743, 40.534577888556818 ], [ -74.130650240511059, 40.534532570636799 ], [ -74.130713948439649, 40.534477829721411 ], [ -74.130747420592456, 40.534420562986142 ], [ -74.130769744585862, 40.534385516063317 ], [ -74.130798199399067, 40.534332528911804 ], [ -74.130819943064523, 40.534294062363578 ], [ -74.130874696803005, 40.534241042536628 ], [ -74.130939514810365, 40.5341820290217 ], [ -74.130978589701726, 40.534127317896292 ], [ -74.131027733416389, 40.534068325814488 ], [ -74.131067947855982, 40.534023008535726 ], [ -74.131098113440146, 40.533992223714954 ], [ -74.131133831320795, 40.533937517204784 ], [ -74.131158397853497, 40.533905031387377 ], [ -74.131205321137401, 40.533856288876365 ], [ -74.131225407868172, 40.533822952635028 ], [ -74.131233213085821, 40.53380671441905 ], [ -74.1312611474264, 40.533779349620914 ], [ -74.131285680817101, 40.533730633601451 ], [ -74.13133933755627, 40.53369042749916 ], [ -74.131354986433578, 40.533677595053547 ], [ -74.131373973056427, 40.533654511675294 ], [ -74.131424312169429, 40.533634809075018 ], [ -74.131446681278732, 40.533623678140486 ], [ -74.131493615902372, 40.533580917677419 ], [ -74.131550622584427, 40.533535580066747 ], [ -74.131615461723115, 40.533488527824915 ], [ -74.131671369989718, 40.533454294975229 ], [ -74.131714983464803, 40.533430328673163 ], [ -74.131767553964551, 40.533406352072795 ], [ -74.131829048322189, 40.533366134148217 ], [ -74.131887165067866, 40.533316527486285 ], [ -74.131948666591654, 40.533280581530569 ], [ -74.132002325461755, 40.53324122888673 ], [ -74.132049285925333, 40.533211278183941 ], [ -74.132106345108696, 40.53319412945492 ], [ -74.132167850867958, 40.533159890838697 ], [ -74.132206982212935, 40.533133366603124 ], [ -74.132236051022417, 40.53311368806154 ], [ -74.132293066314304, 40.533074329573225 ], [ -74.132345608356545, 40.533034978053429 ], [ -74.132397023745199, 40.532994773201445 ], [ -74.132454036074392, 40.532952852647966 ], [ -74.132516632169313, 40.532904947034389 ], [ -74.132559100158545, 40.53286731442585 ], [ -74.132583695321301, 40.532851057559007 ], [ -74.132633971979473, 40.532799749432066 ], [ -74.13268536186095, 40.532745022561279 ], [ -74.132739002218983, 40.532697981788324 ], [ -74.132803827360277, 40.532644092929459 ], [ -74.13285299717738, 40.532599619263287 ], [ -74.132895433667088, 40.53254746648868 ], [ -74.1329088357774, 40.532530366981021 ], [ -74.132940123191148, 40.53250128875306 ], [ -74.132980330794993, 40.532454262418938 ], [ -74.13300595148938, 40.532389314547189 ], [ -74.133033835202028, 40.532337181261951 ], [ -74.133072922576289, 40.532290156192907 ], [ -74.13312097698244, 40.53224824568975 ], [ -74.133165640784384, 40.532189255195163 ], [ -74.133195810881062, 40.532161033637855 ], [ -74.133256178075143, 40.532118254178094 ], [ -74.133269579898837, 40.532102863009342 ], [ -74.133291895000909, 40.532064401593772 ], [ -74.133338804033272, 40.532010534237834 ], [ -74.133351085862685, 40.531993436900301 ], [ -74.133413677012527, 40.531943821578331 ], [ -74.13345276449266, 40.531895943608511 ], [ -74.133504175639729, 40.531853173593902 ], [ -74.133554466778989, 40.531810407452127 ], [ -74.133595793485853, 40.531763380599635 ], [ -74.133620368247534, 40.531736018210879 ], [ -74.133660612419646, 40.53170778480029 ], [ -74.13369745897073, 40.531659052989866 ], [ -74.133744391979505, 40.531616289837928 ], [ -74.133768909120022, 40.531560740098278 ], [ -74.1338135746022, 40.53150431308886 ], [ -74.133847094527013, 40.531471815324082 ], [ -74.133892953366782, 40.531452116775263 ], [ -74.133908606356925, 40.531441848720881 ], [ -74.133915634545417, 40.531432623372517 ], [ -74.133955501489282, 40.531380293238314 ], [ -74.134004635932996, 40.531319589814302 ], [ -74.134058272705943, 40.531269984590793 ], [ -74.134129858766443, 40.531240006016127 ], [ -74.134171160250219, 40.531180165362798 ], [ -74.134218091412563, 40.531137402017649 ], [ -74.134291900728996, 40.531099733020895 ], [ -74.134328741966158, 40.531049293548286 ], [ -74.134348847365658, 40.531027061211226 ], [ -74.134403636770514, 40.530994538380995 ], [ -74.134418177006609, 40.530988541847243 ], [ -74.134427113165103, 40.530978282424499 ], [ -74.134444947667333, 40.530940676201986 ], [ -74.134467302864621, 40.530922713251172 ], [ -74.134531064798566, 40.530898722260957 ], [ -74.134551175855322, 40.530879908235292 ], [ -74.134577957771668, 40.530837166605707 ], [ -74.134601423770462, 40.530815785728372 ], [ -74.134668503755051, 40.530772143034447 ], [ -74.134718793227606, 40.530729376459966 ], [ -74.134782509095842, 40.530683176495586 ], [ -74.134817138955739, 40.530645551407886 ], [ -74.13484507910799, 40.530622456005887 ], [ -74.134869650421692, 40.530595095189483 ], [ -74.134919952878789, 40.530558305256378 ], [ -74.134973585439781, 40.530507847671764 ], [ -74.134990353020271, 40.530495014329951 ], [ -74.135070883467847, 40.53046075351979 ], [ -74.13512117589562, 40.530419695062932 ], [ -74.135163625324623, 40.53037437277402 ], [ -74.13518375328664, 40.53036409927342 ], [ -74.135226206720205, 40.530321341621402 ], [ -74.135276509293988, 40.530285405303069 ], [ -74.135292168181792, 40.530277699875995 ], [ -74.135313413197323, 40.530266572267983 ], [ -74.135371544858785, 40.530226357225935 ], [ -74.135419587705869, 40.530180174554019 ], [ -74.135446400516869, 40.530153664656474 ], [ -74.135514607439077, 40.530113438486126 ], [ -74.135578346268957, 40.530079196223767 ], [ -74.135630882133881, 40.530040696043038 ], [ -74.135648782661008, 40.53003554990638 ], [ -74.135712490875036, 40.529985079224971 ], [ -74.135768359486022, 40.529933761334441 ], [ -74.13579964628849, 40.529905538680886 ], [ -74.135815289281794, 40.529891852775151 ], [ -74.135879015200572, 40.529850778083976 ], [ -74.135934895181165, 40.529804584994139 ], [ -74.136001950735931, 40.529749838978084 ], [ -74.13605671226361, 40.529704503519355 ], [ -74.136074592373433, 40.529689962240369 ], [ -74.136091364635817, 40.529679691638037 ], [ -74.136110367016428, 40.529666856315743 ], [ -74.13614169457982, 40.529658278582133 ], [ -74.13616182458604, 40.529648003986139 ], [ -74.136188636245819, 40.529620637464888 ], [ -74.136254587137586, 40.529573579497089 ], [ -74.136307180516553, 40.529547561924204 ], [ -74.139572240273438, 40.53392799836238 ], [ -74.139575039510945, 40.533931752897509 ], [ -74.139551468628085, 40.534015275016742 ], [ -74.139313594280907, 40.53485812937015 ], [ -74.139164368967897, 40.535386861131343 ], [ -74.139088759783888, 40.535375969101175 ], [ -74.139004770583171, 40.535364110917044 ], [ -74.138948772310798, 40.535353930686377 ], [ -74.138929731679411, 40.535350536301152 ], [ -74.138875981877916, 40.53534547728669 ], [ -74.138819994793025, 40.535339564588853 ], [ -74.138722011494991, 40.535326862237227 ], [ -74.138644177116731, 40.535315859994633 ], [ -74.138572516254783, 40.535310822472788 ], [ -74.138491893998321, 40.535303231974794 ], [ -74.138412373683622, 40.535287953208972 ], [ -74.138331747384683, 40.535277799695521 ], [ -74.138245524062725, 40.535269362002175 ], [ -74.138160417462757, 40.535259214684679 ], [ -74.138088744366144, 40.535248197372376 ], [ -74.138007556295562, 40.535238043469633 ], [ -74.137927503762441, 40.535234724854035 ], [ -74.137842416483792, 40.53523397245911 ], [ -74.137804339467735, 40.535228039595431 ], [ -74.137730462024138, 40.535233253162062 ], [ -74.137637539430528, 40.535233364625853 ], [ -74.13755133851285, 40.535235176258524 ], [ -74.137464016926131, 40.53523613455841 ], [ -74.137382289336813, 40.535236232407733 ], [ -74.137327439554099, 40.535239713721239 ], [ -74.137247951092803, 40.535239808795957 ], [ -74.137151678541983, 40.535243341388892 ], [ -74.137067698598955, 40.535235754823461 ], [ -74.136993808842078, 40.535236696725079 ], [ -74.136894169190356, 40.535235107306328 ], [ -74.136786697458973, 40.535237796582727 ], [ -74.136694899555039, 40.535239614240936 ], [ -74.136604214683103, 40.535238013905754 ], [ -74.13650792075498, 40.535232148879381 ], [ -74.136423949600356, 40.535228833959721 ], [ -74.136322073645218, 40.53522980960895 ], [ -74.136241480716791, 40.535237592180493 ], [ -74.13619669893032, 40.535237645326376 ], [ -74.136136235298324, 40.535233446770029 ], [ -74.136045564436017, 40.535238677412366 ], [ -74.135962717931392, 40.53523877557739 ], [ -74.135877623852664, 40.535234607814509 ], [ -74.135797014113521, 40.535232992152814 ], [ -74.135722004277014, 40.535232227183577 ], [ -74.135660436662619, 40.535236572094149 ], [ -74.135579842494394, 40.535242645903601 ], [ -74.135508202788444, 40.535247855480364 ], [ -74.135458949859114, 40.535251331051064 ], [ -74.135420876498912, 40.535247104770534 ], [ -74.135345883911967, 40.535254880189299 ], [ -74.135258569690606, 40.535260108929705 ], [ -74.135180214589212, 40.535266178899811 ], [ -74.135105224198767, 40.535275665134122 ], [ -74.135019030669739, 40.535281744304058 ], [ -74.134963080647651, 40.535294623722571 ], [ -74.134898160151252, 40.535301534152723 ], [ -74.134820947331519, 40.535318706932905 ], [ -74.134738131146008, 40.535333324336356 ], [ -74.134656449406123, 40.5353556290707 ], [ -74.134571404411702, 40.535375374698567 ], [ -74.134541195693302, 40.535384805290711 ], [ -74.134490844795224, 40.535399386296668 ], [ -74.134472941647076, 40.535404531246378 ], [ -74.134437158224628, 40.535425073661173 ], [ -74.134356598498229, 40.53544908424476 ], [ -74.134300645398568, 40.535461108733188 ], [ -74.134215625337049, 40.535492812238942 ], [ -74.134141803193941, 40.535527066421722 ], [ -74.134081392334693, 40.535549345801215 ], [ -74.134007565432569, 40.535581889847585 ], [ -74.13396394182827, 40.535599878359662 ], [ -74.133915617595349, 40.535628159440108 ], [ -74.133906909898599, 40.535633255424059 ], [ -74.133866644187677, 40.535651240063984 ], [ -74.133809612171135, 40.535684620676477 ], [ -74.133776069636625, 40.535706866812561 ], [ -74.133712305762657, 40.535731712895945 ], [ -74.133644089716171, 40.535770229590732 ], [ -74.133582586924277, 40.535806177364833 ], [ -74.13352669129101, 40.535847242557701 ], [ -74.133468550829519, 40.535884892817222 ], [ -74.133417123545058, 40.535921680635433 ], [ -74.133380233007017, 40.535949058200096 ], [ -74.13333886263672, 40.535975585428091 ], [ -74.133304220078784, 40.53600808424747 ], [ -74.133255040763387, 40.53604828698014 ], [ -74.133221502962215, 40.536073095853304 ], [ -74.133194696709168, 40.53610387816655 ], [ -74.133179048108815, 40.536117563626846 ], [ -74.133118708911979, 40.536175716838102 ], [ -74.13304719019537, 40.536242423543762 ], [ -74.132643718898066, 40.536590538611513 ], [ -74.13232855419416, 40.536870215719155 ], [ -74.132214557446687, 40.53697113782011 ], [ -74.132019535642627, 40.537144759986901 ], [ -74.131615513122881, 40.537503120056229 ], [ -74.131377454794745, 40.537712663868362 ], [ -74.131165659688776, 40.537899113691942 ], [ -74.130866688802854, 40.53816424715221 ], [ -74.130507920282767, 40.538482406132765 ], [ -74.130213974855863, 40.538743263712909 ], [ -74.129906615768192, 40.539016944803528 ], [ -74.12962607469909, 40.539264971072591 ], [ -74.12932765098634, 40.539530099935405 ], [ -74.128822452549201, 40.539979959429637 ], [ -74.128797864690739, 40.540003049574509 ], [ -74.128667093524754, 40.540119364358127 ], [ -74.128583248259957, 40.540185229291609 ], [ -74.128467024070559, 40.540298110035984 ], [ -74.128293763389209, 40.540445219520997 ], [ -74.12819541504885, 40.540537581279565 ], [ -74.128118339233907, 40.540631624833473 ], [ -74.128023360326566, 40.540730813190798 ], [ -74.127946309309607, 40.540836816519317 ], [ -74.127881543658177, 40.540927431352159 ], [ -74.127813433606079, 40.541026590519138 ], [ -74.127764342667902, 40.541118041519034 ], [ -74.127715261727971, 40.541212907323363 ], [ -74.127668428866116, 40.541313752865719 ], [ -74.127617107633199, 40.541409476561945 ], [ -74.127581477163659, 40.541513725285455 ], [ -74.1275491593872, 40.541594051400359 ], [ -74.127521385752914, 40.541707686546907 ], [ -74.127485782617555, 40.541826455271647 ], [ -74.127473658035939, 40.541927262178255 ], [ -74.127459290491728, 40.542025507664682 ], [ -74.127451682823263, 40.542145952749713 ], [ -74.127446298661795, 40.542258708405527 ], [ -74.127445342025183, 40.542326173091588 ], [ -74.127320904949585, 40.542437231484556 ], [ -74.127310972024148, 40.542446094704779 ], [ -74.127457199908363, 40.542515245093227 ], [ -74.127459135967698, 40.542532883351335 ], [ -74.127472765064098, 40.542634513505398 ], [ -74.127493131119252, 40.542745531346895 ], [ -74.127522457726272, 40.542858250288845 ], [ -74.12754951780181, 40.542957304362901 ], [ -74.127588971226672, 40.543096489336754 ], [ -74.127699212543135, 40.543366283827176 ], [ -74.127730668168837, 40.543420916251407 ], [ -74.127681433243382, 40.543437199459326 ], [ -74.127735353797746, 40.543529389503554 ], [ -74.127753336227769, 40.543564391039972 ], [ -74.127756705983728, 40.543570365031123 ], [ -74.12781265889511, 40.543554074312468 ], [ -74.12785196155842, 40.543613823776283 ], [ -74.12788341263385, 40.543665890579952 ], [ -74.127992317719901, 40.543820376376843 ], [ -74.128135999224696, 40.544009840204133 ], [ -74.128157324449845, 40.544037150151311 ], [ -74.128444672896876, 40.5444058302066 ], [ -74.128507513711881, 40.544478364035413 ], [ -74.128708402879411, 40.544719013079344 ], [ -74.128792552703317, 40.544808604989235 ], [ -74.1288351891004, 40.544854683081795 ], [ -74.128887922512092, 40.544910145915388 ], [ -74.128942897441647, 40.544967312746756 ], [ -74.129023677841488, 40.54505093145054 ], [ -74.129141477809952, 40.545170382773769 ], [ -74.129213279181997, 40.545243759907592 ], [ -74.129296294664215, 40.545324812999958 ], [ -74.12937931375626, 40.545407572483747 ], [ -74.129449979495703, 40.545471555494217 ], [ -74.129537465375748, 40.545549186778686 ], [ -74.129589059899317, 40.545594398955458 ], [ -74.129669803816867, 40.545658370456394 ], [ -74.129724754761597, 40.545701870568074 ], [ -74.129830157590561, 40.545779481384464 ], [ -74.12992993619109, 40.545843432013356 ], [ -74.130001685520384, 40.545888621194976 ], [ -74.130049893840621, 40.545919316939191 ], [ -74.130088013968845, 40.545944043675604 ], [ -74.130112670863795, 40.545956828420167 ], [ -74.130131726702103, 40.545967911294454 ], [ -74.130358134250301, 40.546082967020098 ], [ -74.130578913512196, 40.546182653113512 ], [ -74.130901628577533, 40.546301869402143 ], [ -74.131162692964608, 40.546387842068818 ], [ -74.131517859656213, 40.546496771529895 ], [ -74.132019758502693, 40.546628590221438 ], [ -74.132233714061442, 40.546672759802497 ], [ -74.132600017988068, 40.54674921362264 ], [ -74.132628011205313, 40.546749181290856 ], [ -74.132659364247857, 40.546749145070407 ], [ -74.132734386480607, 40.546749058366593 ], [ -74.132751181446608, 40.546749038949798 ], [ -74.132807175968125, 40.546752389031575 ], [ -74.132882202084375, 40.546754865131852 ], [ -74.132957229304367, 40.546757342101927 ], [ -74.133031127350932, 40.546754692680771 ], [ -74.133103902076684, 40.546751193504249 ], [ -74.133180044618385, 40.546751105210532 ], [ -74.133253936838997, 40.546746748275623 ], [ -74.133326714443612, 40.546744100048286 ], [ -74.133398368446805, 40.546739746457042 ], [ -74.133470012109967, 40.546730266187623 ], [ -74.133542776174735, 40.546720786409267 ], [ -74.133615546427748, 40.546713868563963 ], [ -74.133689438082214, 40.546708658497735 ], [ -74.133764443094606, 40.546700029658702 ], [ -74.133838331305839, 40.546693110368366 ], [ -74.133915572882117, 40.546683624215454 ], [ -74.133988334507194, 40.546672434021168 ], [ -74.134061097227516, 40.54666295383182 ], [ -74.1341327475605, 40.546656889733882 ], [ -74.134206636895811, 40.546649972045238 ], [ -74.134279404587204, 40.546643052860439 ], [ -74.134354414704063, 40.546636987371357 ], [ -74.13442942297803, 40.546630064549504 ], [ -74.134502183875028, 40.546619730478341 ], [ -74.134573828462877, 40.546610250438547 ], [ -74.134645466776661, 40.546598206534618 ], [ -74.134720463572833, 40.546586161323198 ], [ -74.134790980397426, 40.546572412189747 ], [ -74.13486373882921, 40.546560367672122 ], [ -74.134935377044641, 40.54654832634877 ], [ -74.135009255146812, 40.546537135030995 ], [ -74.135080892683405, 40.546524239008143 ], [ -74.135152523917355, 40.546508778203687 ], [ -74.135225270144247, 40.546490756733832 ], [ -74.135298010047791, 40.546470168721811 ], [ -74.135364028838652, 40.546447028360099 ], [ -74.1354356547441, 40.546429006319634 ], [ -74.135507275319583, 40.546408423092956 ], [ -74.135581145730782, 40.546392960297865 ], [ -74.135651659236956, 40.546378355945563 ], [ -74.13568299878456, 40.546372341256394 ], [ -74.135722172824202, 40.546363752553646 ], [ -74.135793798433966, 40.546345730205836 ], [ -74.135865427053403, 40.546328560662623 ], [ -74.135937052587039, 40.546310538309072 ], [ -74.136001946659661, 40.54628654430158 ], [ -74.136065715221278, 40.54625828315109 ], [ -74.136123871812174, 40.546224901888607 ], [ -74.136179784943664, 40.546188958510321 ], [ -74.136245795636242, 40.54616325658403 ], [ -74.136310690021645, 40.546138408797901 ], [ -74.136324034708949, 40.546129364306289 ], [ -74.136382426518807, 40.546213788845002 ], [ -74.136909740963688, 40.546976177659545 ], [ -74.136941843092885, 40.547022588580525 ], [ -74.13704742874981, 40.54717524258578 ], [ -74.137149735960506, 40.547272211728774 ], [ -74.13788604556683, 40.547994294399857 ], [ -74.138400527484976, 40.548498825555143 ], [ -74.137508759619834, 40.549285462403994 ], [ -74.135863587581042, 40.550379933682045 ], [ -74.135636732120858, 40.55050256828612 ], [ -74.135450026970247, 40.550604126791093 ], [ -74.135267607494058, 40.550699641965601 ], [ -74.135105518499998, 40.55079059426216 ], [ -74.134936415946967, 40.550888962261965 ], [ -74.134751368326363, 40.550990953636983 ], [ -74.13460158905275, 40.551073705860198 ], [ -74.134458526697657, 40.55115516137522 ], [ -74.134379309331209, 40.551202152635582 ], [ -74.134270770105246, 40.551269325714657 ], [ -74.134149686478949, 40.551351052309123 ], [ -74.134031953658891, 40.551434874026377 ], [ -74.133913409235646, 40.551524454444106 ], [ -74.133795853932966, 40.551615244928975 ], [ -74.131751250656862, 40.553321181439934 ], [ -74.130299071167002, 40.554351294287294 ], [ -74.12884331773752, 40.555677028435348 ], [ -74.125477437762271, 40.553521812878401 ], [ -74.125305337376304, 40.553420523093067 ] ] ], [ [ [ -74.12098138360335, 40.544091902320588 ], [ -74.120959022872057, 40.544126966323432 ], [ -74.120949156703986, 40.544179287441189 ], [ -74.120962530807518, 40.544212372248062 ], [ -74.120956965074654, 40.544232024897404 ], [ -74.120936839673405, 40.544246567159938 ], [ -74.120908855101661, 40.544250867835039 ], [ -74.120865170908999, 40.544242370510219 ], [ -74.120800831267246, 40.544209748187725 ], [ -74.120734025116064, 40.544174200750334 ], [ -74.120671280624549, 40.544144377348324 ], [ -74.120652885054966, 40.544130343961704 ], [ -74.120639893988184, 40.544120460806504 ], [ -74.120638748664277, 40.544105941868992 ], [ -74.120667795305664, 40.544070037041585 ], [ -74.120682408804285, 40.54405989706347 ], [ -74.120715853032848, 40.544036663409507 ], [ -74.12074187118607, 40.544022091564123 ], [ -74.120749439766357, 40.544017846620562 ], [ -74.120760310807043, 40.544011419894986 ], [ -74.120774063805996, 40.544003279078204 ], [ -74.120791070050558, 40.543993763280909 ], [ -74.120836685202221, 40.543968212314432 ], [ -74.120898200812235, 40.543931419561559 ], [ -74.120942949530857, 40.543909164495993 ], [ -74.120973194349006, 40.543907422577526 ], [ -74.120993332212706, 40.543914224668846 ], [ -74.121005696744092, 40.543934722903714 ], [ -74.121013633734719, 40.543989381103728 ], [ -74.121011445352536, 40.544017570756566 ], [ -74.121009247704819, 40.544040634694682 ], [ -74.120993167867738, 40.544070190800355 ], [ -74.12098138360335, 40.544091902320588 ] ] ] ] } },
{ "type": "Feature", "properties": { "Borough": "SI", "Block": 5067, "Lot": 500, "CD": 503, "BCT2020": "5012805", "BCTCB2020": "50128053000", "CT2010": "128.05", "CB2010": "1021", "SchoolDist": "31", "Council": 50, "ZipCode": 10306, "FireComp": "E165", "PolicePrct": 122, "HealthCent": 51, "HealthArea": 920, "Sanitboro": "5", "SanitDistr": "03", "SanitSub": "1D", "Address": "751 MILL ROAD", "ZoneDist1": "R3X", "ZoneDist2": "M3-1", "ZoneDist3": null, "ZoneDist4": null, "Overlay1": null, "Overlay2": null, "SPDist1": null, "SPDist2": null, "SPDist3": null, "LtdHeight": null, "SplitZone": "Y", "BldgClass": "U9", "LandUse": "07", "Easements": 0, "OwnerType": "C", "OwnerName": "NYC DEPARTMENT OF ENVIRONMENTAL PROTECTION", "LotArea": 1142766, "BldgArea": 0, "ComArea": 0, "ResArea": 0, "OfficeArea": 0, "RetailArea": 0, "GarageArea": 0, "StrgeArea": 0, "FactryArea": 0, "OtherArea": 0, "AreaSource": "7", "NumBldgs": 21, "NumFloors": 0.0, "UnitsRes": 0, "UnitsTotal": 0, "LotFront": 100.83, "LotDepth": 550.0, "BldgFront": 0.0, "BldgDepth": 0.0, "Ext": "N", "ProxCode": "0", "IrrLotCode": "Y", "LotType": "5", "BsmtCode": "0", "AssessLand": 0.0, "AssessTot": 0.0, "ExemptTot": 0.0, "YearBuilt": 0, "YearAlter1": 0, "YearAlter2": 0, "HistDist": null, "Landmark": null, "BuiltFAR": 0.0, "ResidFAR": 0.75, "CommFAR": 0.0, "FacilFAR": 1.0, "BoroCode": 5, "BBL": 5050670500.0, "CondoNo": 0, "Tract2010": "012805", "XCoord": 951768, "YCoord": 140130, "ZoneMap": "34a", "ZMCode": null, "Sanborn": "504 406", "TaxMap": "52102", "EDesigNum": null, "APPBBL": 0.0, "APPDate": null, "PLUTOMapID": "1", "FIRM07_FLA": "1", "PFIRM15_FL": "1", "Version": "25v4", "DCPEdited": "t", "Latitude": 40.5512406, "Longitude": -74.116884, "Notes": null, "Shape_Leng": 0.0, "Shape_Area": 1142766.3027 }, "geometry": { "type": "MultiPolygon", "coordinates": [ [ [ [ -74.117112026114867, 40.553271152587079 ], [ -74.116983943052205, 40.553148914136202 ], [ -74.114376041029359, 40.550659892371726 ], [ -74.115210286035847, 40.550204916314762 ], [ -74.115157095606492, 40.550156192614779 ], [ -74.114871576878073, 40.5498946413732 ], [ -74.116367601794607, 40.548927102701484 ], [ -74.119328617004257, 40.55173057359989 ], [ -74.118817006024102, 40.552326373045034 ], [ -74.118658545848319, 40.552469958444135 ], [ -74.118543638936018, 40.552582227814682 ], [ -74.118498104841805, 40.55262671766436 ], [ -74.118452569588683, 40.552671207413098 ], [ -74.118407035371675, 40.552715696306088 ], [ -74.118361499889275, 40.552760186018382 ], [ -74.118315964344561, 40.552804675712387 ], [ -74.118270428741127, 40.552849165471855 ], [ -74.118224895489533, 40.552893655128116 ], [ -74.11791027287704, 40.553201049236257 ], [ -74.117736831980352, 40.553370504636142 ], [ -74.117726823407779, 40.553380284695621 ], [ -74.117676996856261, 40.553428964225638 ], [ -74.117629526374117, 40.55347534496606 ], [ -74.117557682269435, 40.553545537170159 ], [ -74.117460463812208, 40.553640520662569 ], [ -74.117364517871636, 40.553734260892099 ], [ -74.117282052746177, 40.553814829749662 ], [ -74.117112026114867, 40.553271152587079 ] ] ] ] } },
{ "type": "Feature", "properties": { "Borough": "SI", "Block": 5202, "Lot": 173, "CD": 503, "BCT2020": "5015603", "BCTCB2020": "50156033003", "CT2010": "156.03", "CB2010": "3015", "SchoolDist": "31", "Council": 51, "ZipCode": 10308, "FireComp": "E162", "PolicePrct": 122, "HealthCent": 51, "HealthArea": 920, "Sanitboro": "5", "SanitDistr": "03", "SanitSub": "3D", "Address": "MANSION AVENUE", "ZoneDist1": "C3A", "ZoneDist2": "R3-2", "ZoneDist3": "PARK", "ZoneDist4": null, "Overlay1": null, "Overlay2": null, "SPDist1": "SRD", "SPDist2": null, "SPDist3": null, "LtdHeight": null, "SplitZone": "Y", "BldgClass": "V1", "LandUse": "11", "Easements": 0, "OwnerType": null, "OwnerName": "BAYWATCH INC. A NEW YORK STATE DOMESTIC", "LotArea": 34879, "BldgArea": 0, "ComArea": 0, "ResArea": 0, "OfficeArea": 0, "RetailArea": 0, "GarageArea": 0, "StrgeArea": 0, "FactryArea": 0, "OtherArea": 0, "AreaSource": "7", "NumBldgs": 0, "NumFloors": 0.0, "UnitsRes": 0, "UnitsTotal": 0, "LotFront": 428.0, "LotDepth": 81.0, "BldgFront": 0.0, "BldgDepth": 0.0, "Ext": null, "ProxCode": "0", "IrrLotCode": "N", "LotType": "2", "BsmtCode": "5", "AssessLand": 450.0, "AssessTot": 450.0, "ExemptTot": 0.0, "YearBuilt": 0, "YearAlter1": 0, "YearAlter2": 0, "HistDist": null, "Landmark": null, "BuiltFAR": 0.0, "ResidFAR": 0.75, "CommFAR": 0.5, "FacilFAR": 1.0, "BoroCode": 5, "BBL": 5052020173.0, "CondoNo": 0, "Tract2010": "015603", "XCoord": 946263, "YCoord": 138389, "ZoneMap": "33c", "ZMCode": null, "Sanborn": "504 406", "TaxMap": "52201", "EDesigNum": null, "APPBBL": 5052020173.0, "APPDate": "08/13/2018", "PLUTOMapID": "1", "FIRM07_FLA": "1", "PFIRM15_FL": "1", "Version": "25v4", "DCPEdited": null, "Latitude": 40.54644, "Longitude": -74.1366835, "Notes": null, "Shape_Leng": 0.0, "Shape_Area": 27066.104193200001 }, "geometry": { "type": "MultiPolygon", "coordinates": [ [ [ [ -74.136690650048948, 40.546241798833542 ], [ -74.13674294622156, 40.546314111152839 ], [ -74.136952867043107, 40.546617611654497 ], [ -74.137138375368892, 40.546885816026339 ], [ -74.136941843092885, 40.547022588580525 ], [ -74.136909740963688, 40.546976177659545 ], [ -74.136382426518807, 40.546213788845002 ], [ -74.136324034708949, 40.546129364306289 ], [ -74.136349827317403, 40.546111883184196 ], [ -74.136393402128363, 40.546065706412058 ], [ -74.13639674494587, 40.546058015483254 ], [ -74.136404553282816, 40.546042630614977 ], [ -74.136416815349548, 40.546016136903248 ], [ -74.136426782438377, 40.545962311328985 ], [ -74.13644346580891, 40.545907626760922 ], [ -74.136445828277743, 40.545903282559067 ], [ -74.136690650048948, 40.546241798833542 ] ] ] ] } }
]
}
