{
"type": "FeatureCollection",
"name": "pluto_Lincoln_Terrace_Park",
"crs": { "type": "name", "properties": { "name": "urn:ogc:def:crs:OGC:1.3:CRS84" } },
"features": [
{ "type": "Feature", "properties": { "Borough": "BK", "Block": 1398, "Lot": 1, "CD": 308, "BCT2020": "3035702", "BCTCB2020": "30357021002", "CT2010": "357", "CB2010": "1003", "SchoolDist": "17", "Council": 41, "ZipCode": 11213, "FireComp": "L123", "PolicePrct": 77, "HealthCent": 32, "HealthArea": 5020, "Sanitboro": "3", "SanitDistr": "09", "SanitSub": "1B", "Address": "ROCHESTER AVENUE", "ZoneDist1": "PARK", "ZoneDist2": null, "ZoneDist3": null, "ZoneDist4": null, "Overlay1": null, "Overlay2": null, "SPDist1": null, "SPDist2": null, "SPDist3": null, "LtdHeight": null, "SplitZone": "N", "BldgClass": "Q1", "LandUse": "09", "Easements": 0, "OwnerType": "C", "OwnerName": "NYC DEPARTMENT OF PARKS AND RECREATION", "LotArea": 711800, "BldgArea": 757, "ComArea": 757, "ResArea": 0, "OfficeArea": 757, "RetailArea": 0, "GarageArea": 0, "StrgeArea": 0, "FactryArea": 0, "OtherArea": 0, "AreaSource": "2", "NumBldgs": 1, "NumFloors": 1.0, "UnitsRes": 0, "UnitsTotal": 1, "LotFront": 1231.0, "LotDepth": 670.0, "BldgFront": 22.17, "BldgDepth": 34.17, "Ext": "N", "ProxCode": "0", "IrrLotCode": "Y", "LotType": "3", "BsmtCode": "0", "AssessLand": 6883650.0, "AssessTot": 8270100.0, "ExemptTot": 8270100.0, "YearBuilt": 1925, "YearAlter1": 0, "YearAlter2": 0, "HistDist": null, "Landmark": null, "BuiltFAR": 0.0, "ResidFAR": 0.0, "CommFAR": 0.0, "FacilFAR": 0.0, "BoroCode": 3, "BBL": 3013980001.0, "CondoNo": 0, "Tract2010": "0357", "XCoord": 1004431, "YCoord": 182201, "ZoneMap": "17b", "ZMCode": null, "Sanborn": "307 999", "TaxMap": "30506", "EDesigNum": null, "APPBBL": 0.0, "APPDate": null, "PLUTOMapID": "1", "FIRM07_FLA": null, "PFIRM15_FL": null, "Version": "25v4", "DCPEdited": "t", "Latitude": 40.6667533, "Longitude": -73.9272545, "Notes": null, "Shape_Leng": 0.0, "Shape_Area": 723580.34457299998 }, "geometry": { "type": "MultiPolygon", "coordinates": [ [ [ [ -73.925840837852718, 40.668195093556697 ], [ -73.926065479376746, 40.665810909716086 ], [ -73.928224976725787, 40.664868104613547 ], [ -73.928242504964487, 40.664860482858728 ], [ -73.928256438817769, 40.664855594564997 ], [ -73.928271875164853, 40.664851256527271 ], [ -73.92829098415335, 40.664847312482664 ], [ -73.928315478800513, 40.664844395727208 ], [ -73.928344238749986, 40.664843879685954 ], [ -73.928366726260677, 40.664845640736104 ], [ -73.928391882438902, 40.664849952847177 ], [ -73.928416832438728, 40.664856887006657 ], [ -73.928445065004468, 40.664868460031144 ], [ -73.928467448460523, 40.664881183922034 ], [ -73.928483480075926, 40.66489288887437 ], [ -73.928500232578514, 40.664908440416696 ], [ -73.928512469635692, 40.664923100329652 ], [ -73.928521900563169, 40.664937680103101 ], [ -73.928529502980666, 40.664953487046262 ], [ -73.928535207548109, 40.66497145318192 ], [ -73.92853787937031, 40.664987658708668 ], [ -73.928537500375228, 40.665013515884112 ], [ -73.928228993839198, 40.66832533090539 ], [ -73.925840837852718, 40.668195093556697 ] ] ] ] } },
{ "type": "Feature", "properties": { "Borough": "BK", "Block": 1405, "Lot": 1, "CD": 308, "BCT2020": "3035702", "BCTCB2020": "30357021001", "CT2010": "357", "CB2010": "1004", "SchoolDist": "17", "Council": 41, "ZipCode": 11213, "FireComp": "L123", "PolicePrct": 77, "HealthCent": 32, "HealthArea": 5020, "Sanitboro": "3", "SanitDistr": "08", "SanitSub": "3A", "Address": "299 BUFFALO AVENUE", "ZoneDist1": "PARK", "ZoneDist2": null, "ZoneDist3": null, "ZoneDist4": null, "Overlay1": null, "Overlay2": null, "SPDist1": null, "SPDist2": null, "SPDist3": null, "LtdHeight": null, "SplitZone": "N", "BldgClass": "Q1", "LandUse": "09", "Easements": 0, "OwnerType": "C", "OwnerName": "NYC DEPARTMENT OF PARKS AND RECREATION", "LotArea": 137000, "BldgArea": 600, "ComArea": 600, "ResArea": 0, "OfficeArea": 600, "RetailArea": 0, "GarageArea": 0, "StrgeArea": 0, "FactryArea": 0, "OtherArea": 0, "AreaSource": "2", "NumBldgs": 1, "NumFloors": 1.0, "UnitsRes": 0, "UnitsTotal": 0, "LotFront": 372.33, "LotDepth": 826.42, "BldgFront": 0.0, "BldgDepth": 0.0, "Ext": "N", "ProxCode": "0", "IrrLotCode": "Y", "LotType": "3", "BsmtCode": "0", "AssessLand": 922500.0, "AssessTot": 1213200.0, "ExemptTot": 1213200.0, "YearBuilt": 1935, "YearAlter1": 0, "YearAlter2": 0, "HistDist": null, "Landmark": null, "BuiltFAR": 0.0, "ResidFAR": 0.0, "CommFAR": 0.0, "FacilFAR": 0.0, "BoroCode": 3, "BBL": 3014050000.9999995, "CondoNo": 0, "Tract2010": "0357", "XCoord": 1004991, "YCoord": 182266, "ZoneMap": "17b", "ZMCode": null, "Sanborn": "307 074", "TaxMap": "30506", "EDesigNum": null, "APPBBL": 0.0, "APPDate": null, "PLUTOMapID": "1", "FIRM07_FLA": null, "PFIRM15_FL": null, "Version": "25v4", "DCPEdited": "t", "Latitude": 40.6669305, "Longitude": -73.9252357, "Notes": null, "Shape_Leng": 0.0, "Shape_Area": 143282.04241200001 }, "geometry": { "type": "MultiPolygon", "coordinates": [ [ [ [ -73.925087846598785, 40.667924639147955 ], [ -73.925252686521176, 40.66783789477045 ], [ -73.925175531919493, 40.667755886770941 ], [ -73.92519679919117, 40.667539167497594 ], [ -73.925024109292764, 40.667529500383274 ], [ -73.924893845536374, 40.667284789424393 ], [ -73.924804669611191, 40.667063180088562 ], [ -73.924809447352146, 40.667060142229808 ], [ -73.924545426482695, 40.666432561327994 ], [ -73.925706911894054, 40.665923664827815 ], [ -73.925493982251254, 40.668209332909697 ], [ -73.925353293349517, 40.668206785775347 ], [ -73.925087846598785, 40.667924639147955 ] ] ] ] } },
{ "type": "Feature", "properties": { "Borough": "BK", "Block": 1405, "Lot": 98, "CD": 308, "BCT2020": "3035702", "BCTCB2020": "30357021001", "CT2010": "357", "CB2010": "1004", "SchoolDist": "17", "Council": 41, "ZipCode": 11233, "FireComp": "L123", "PolicePrct": 77, "HealthCent": 32, "HealthArea": 5020, "Sanitboro": "3", "SanitDistr": "08", "SanitSub": "3A", "Address": "EAST NEW YORK AVENUE", "ZoneDist1": "R6", "ZoneDist2": null, "ZoneDist3": null, "ZoneDist4": null, "Overlay1": null, "Overlay2": null, "SPDist1": null, "SPDist2": null, "SPDist3": null, "LtdHeight": null, "SplitZone": "N", "BldgClass": "U7", "LandUse": "07", "Easements": 0, "OwnerType": "C", "OwnerName": "NYC TRANSIT AUTHORITY", "LotArea": 31768, "BldgArea": 0, "ComArea": 0, "ResArea": 0, "OfficeArea": 0, "RetailArea": 0, "GarageArea": 0, "StrgeArea": 0, "FactryArea": 0, "OtherArea": 0, "AreaSource": "7", "NumBldgs": 0, "NumFloors": 0.0, "UnitsRes": 0, "UnitsTotal": 0, "LotFront": 56.0, "LotDepth": 504.0, "BldgFront": 0.0, "BldgDepth": 0.0, "Ext": "N", "ProxCode": "0", "IrrLotCode": "Y", "LotType": "5", "BsmtCode": "0", "AssessLand": 0.0, "AssessTot": 0.0, "ExemptTot": 0.0, "YearBuilt": 0, "YearAlter1": 0, "YearAlter2": 0, "HistDist": null, "Landmark": null, "BuiltFAR": 0.0, "ResidFAR": 2.43, "CommFAR": 0.0, "FacilFAR": 4.8, "BoroCode": 3, "BBL": 3014050098.0, "CondoNo": 0, "Tract2010": "0357", "XCoord": 1005112, "YCoord": 182371, "ZoneMap": "17b", "ZMCode": null, "Sanborn": "307 074", "TaxMap": "30506", "EDesigNum": null, "APPBBL": 0.0, "APPDate": null, "PLUTOMapID": "1", "FIRM07_FLA": null, "PFIRM15_FL": null, "Version": "25v4", "DCPEdited": "t", "Latitude": 40.6672184, "Longitude": -73.9247992, "Notes": null, "Shape_Leng": 0.0, "Shape_Area": 31768.4468939 }, "geometry": { "type": "MultiPolygon", "coordinates": [ [ [ [ -73.924545426482695, 40.666432561327994 ], [ -73.924809447352146, 40.667060142229808 ], [ -73.924804669611191, 40.667063180088562 ], [ -73.924893845536374, 40.667284789424393 ], [ -73.925024109292764, 40.667529500383274 ], [ -73.92519679919117, 40.667539167497594 ], [ -73.925175531919493, 40.667755886770941 ], [ -73.925252686521176, 40.66783789477045 ], [ -73.925087846598785, 40.667924639147955 ], [ -73.924991269047126, 40.667821984978517 ], [ -73.924888250594094, 40.667670510467005 ], [ -73.924806130471993, 40.66752689301601 ], [ -73.924806126367827, 40.667525273004543 ], [ -73.924628925746404, 40.66710406882855 ], [ -73.924621507866732, 40.66710443047522 ], [ -73.924483147193484, 40.666771683969024 ], [ -73.924371006147609, 40.666508981245904 ], [ -73.924545426482695, 40.666432561327994 ] ] ] ] } }
]
}
