{
"type": "FeatureCollection",
"name": "pluto_Highland_Park-Cypress_Hills_Cemeteries_(South)",
"crs": { "type": "name", "properties": { "name": "urn:ogc:def:crs:OGC:1.3:CRS84" } },
"features": [
{ "type": "Feature", "properties": { "Borough": "BK", "Block": 3889, "Lot": 1, "CD": 305, "BCT2020": "3118000", "BCTCB2020": "31180001002", "CT2010": "1180", "CB2010": "1001", "SchoolDist": "19", "Council": 37, "ZipCode": 11208, "FireComp": "L175", "PolicePrct": 75, "HealthCent": 34, "HealthArea": 3900, "Sanitboro": "3", "SanitDistr": "05", "SanitSub": "1E", "Address": "375 JAMAICA AVENUE", "ZoneDist1": "PARK", "ZoneDist2": null, "ZoneDist3": null, "ZoneDist4": null, "Overlay1": null, "Overlay2": null, "SPDist1": null, "SPDist2": null, "SPDist3": null, "LtdHeight": null, "SplitZone": "N", "BldgClass": "Q1", "LandUse": "09", "Easements": 0, "OwnerType": "C", "OwnerName": "NYC DEPARTMENT OF PARKS AND RECREATION", "LotArea": 1747770, "BldgArea": 2184, "ComArea": 2184, "ResArea": 0, "OfficeArea": 2184, "RetailArea": 0, "GarageArea": 0, "StrgeArea": 0, "FactryArea": 0, "OtherArea": 0, "AreaSource": "2", "NumBldgs": 2, "NumFloors": 1.0, "UnitsRes": 0, "UnitsTotal": 1, "LotFront": 2140.0, "LotDepth": 590.0, "BldgFront": 50.0, "BldgDepth": 35.0, "Ext": "N", "ProxCode": "0", "IrrLotCode": "Y", "LotType": "7", "BsmtCode": "0", "AssessLand": 4653953.0, "AssessTot": 6213150.0, "ExemptTot": 6213150.0, "YearBuilt": 1930, "YearAlter1": 2013, "YearAlter2": 0, "HistDist": null, "Landmark": null, "BuiltFAR": 0.0, "ResidFAR": 0.0, "CommFAR": 0.0, "FacilFAR": 0.0, "BoroCode": 3, "BBL": 3038890000.9999995, "CondoNo": 0, "Tract2010": "1180", "XCoord": 1015922, "YCoord": 188906, "ZoneMap": "17c", "ZMCode": null, "Sanborn": "308 001", "TaxMap": "31301", "EDesigNum": null, "APPBBL": 0.0, "APPDate": null, "PLUTOMapID": "1", "FIRM07_FLA": null, "PFIRM15_FL": null, "Version": "25v4", "DCPEdited": "t", "Latitude": 40.6851234, "Longitude": -73.8858019, "Notes": null, "Shape_Leng": 0.0, "Shape_Area": 1747775.61433 }, "geometry": { "type": "MultiPolygon", "coordinates": [ [ [ [ -73.881945430374373, 40.685593525496465 ], [ -73.888501323452388, 40.682510992829243 ], [ -73.888720304015621, 40.682777303355223 ], [ -73.888701546964853, 40.682786276795518 ], [ -73.888878430548786, 40.683070280965133 ], [ -73.888918667397462, 40.68313488575685 ], [ -73.888884790667049, 40.683152082516855 ], [ -73.888938066290038, 40.683217031376515 ], [ -73.889148090803317, 40.683473070067322 ], [ -73.889290692732118, 40.683699044663321 ], [ -73.889327763927369, 40.683757792092862 ], [ -73.889553022526414, 40.684114747287822 ], [ -73.889194180487664, 40.684388006518702 ], [ -73.888789897330767, 40.684727963199656 ], [ -73.888670582235662, 40.684828293603942 ], [ -73.888217291181078, 40.685185858788927 ], [ -73.888012107684162, 40.685347914419019 ], [ -73.88774103620247, 40.685559654108665 ], [ -73.887580000365645, 40.685682763416928 ], [ -73.887509030158924, 40.685735734203604 ], [ -73.887438157506168, 40.68578066072611 ], [ -73.887323310094757, 40.685845359888482 ], [ -73.887210318380824, 40.685896873647145 ], [ -73.887155833693697, 40.685922511780852 ], [ -73.886939587162502, 40.686010534179502 ], [ -73.886719861523233, 40.68608920457131 ], [ -73.886575012245999, 40.686131980971062 ], [ -73.886484900932686, 40.686160996550377 ], [ -73.886411720969136, 40.686186126024552 ], [ -73.886337307774667, 40.686212972372928 ], [ -73.886181923356503, 40.686278754100343 ], [ -73.886021466447048, 40.686371243465715 ], [ -73.885775424940434, 40.686522720329798 ], [ -73.885662011673446, 40.686595836367751 ], [ -73.88519600401456, 40.68689626192976 ], [ -73.884436160963546, 40.687389285858842 ], [ -73.883745901940543, 40.687831152131494 ], [ -73.881945430374373, 40.685593525496465 ] ] ] ] } },
{ "type": "Feature", "properties": { "Borough": "BK", "Block": 3892, "Lot": 1, "CD": 305, "BCT2020": "3118000", "BCTCB2020": "31180001001", "CT2010": "1180", "CB2010": "1001", "SchoolDist": "19", "Council": 37, "ZipCode": 11208, "FireComp": "E332", "PolicePrct": 75, "HealthCent": 34, "HealthArea": 3900, "Sanitboro": "3", "SanitDistr": "05", "SanitSub": "1E", "Address": "625 JAMAICA AVENUE", "ZoneDist1": "R3-2", "ZoneDist2": null, "ZoneDist3": null, "ZoneDist4": null, "Overlay1": null, "Overlay2": null, "SPDist1": null, "SPDist2": null, "SPDist3": null, "LtdHeight": null, "SplitZone": "N", "BldgClass": "Z8", "LandUse": "09", "Easements": 0, "OwnerType": "X", "OwnerName": "VETERANS ADMINISTRATI", "LotArea": 577255, "BldgArea": 1600, "ComArea": 1600, "ResArea": 0, "OfficeArea": 1600, "RetailArea": 0, "GarageArea": 0, "StrgeArea": 0, "FactryArea": 0, "OtherArea": 0, "AreaSource": "2", "NumBldgs": 3, "NumFloors": 1.0, "UnitsRes": 0, "UnitsTotal": 0, "LotFront": 1112.0, "LotDepth": 423.67, "BldgFront": 26.0, "BldgDepth": 41.0, "Ext": "N", "ProxCode": "0", "IrrLotCode": "Y", "LotType": "5", "BsmtCode": "0", "AssessLand": 2041650.0, "AssessTot": 2584800.0, "ExemptTot": 2584800.0, "YearBuilt": 1950, "YearAlter1": 0, "YearAlter2": 0, "HistDist": null, "Landmark": null, "BuiltFAR": 0.0, "ResidFAR": 0.75, "CommFAR": 0.0, "FacilFAR": 1.0, "BoroCode": 3, "BBL": 3038920001.0, "CondoNo": 0, "Tract2010": "1180", "XCoord": 1016958, "YCoord": 189691, "ZoneMap": "17c", "ZMCode": null, "Sanborn": "308 023", "TaxMap": "31301", "EDesigNum": null, "APPBBL": 0.0, "APPDate": null, "PLUTOMapID": "1", "FIRM07_FLA": null, "PFIRM15_FL": null, "Version": "25v4", "DCPEdited": null, "Latitude": 40.6872743, "Longitude": -73.8820626, "Notes": null, "Shape_Leng": 0.0, "Shape_Area": 584714.48485799995 }, "geometry": { "type": "MultiPolygon", "coordinates": [ [ [ [ -73.88037712307181, 40.686369762448898 ], [ -73.880680422498656, 40.686219647968649 ], [ -73.881945430374373, 40.685593525496465 ], [ -73.883745901940543, 40.687831152131494 ], [ -73.882149381366574, 40.689117598143753 ], [ -73.88037712307181, 40.686369762448898 ] ] ] ] } },
{ "type": "Feature", "properties": { "Borough": "BK", "Block": 4094, "Lot": 1, "CD": 305, "BCT2020": "3118000", "BCTCB2020": "31180001000", "CT2010": "1180", "CB2010": "1000", "SchoolDist": "19", "Council": 37, "ZipCode": 11208, "FireComp": "E236", "PolicePrct": 75, "HealthCent": 34, "HealthArea": 3900, "Sanitboro": "3", "SanitDistr": "05", "SanitSub": "2C", "Address": "985 JAMAICA AVENUE", "ZoneDist1": "R3-2", "ZoneDist2": null, "ZoneDist3": null, "ZoneDist4": null, "Overlay1": null, "Overlay2": null, "SPDist1": null, "SPDist2": null, "SPDist3": null, "LtdHeight": null, "SplitZone": "N", "BldgClass": "W1", "LandUse": "08", "Easements": 0, "OwnerType": "C", "OwnerName": "NYC DEPARTMENT OF EDUCATION", "LotArea": 275000, "BldgArea": 405440, "ComArea": 405440, "ResArea": 0, "OfficeArea": 405440, "RetailArea": 0, "GarageArea": 0, "StrgeArea": 0, "FactryArea": 0, "OtherArea": 0, "AreaSource": "2", "NumBldgs": 1, "NumFloors": 4.0, "UnitsRes": 0, "UnitsTotal": 1, "LotFront": 144.92, "LotDepth": 838.67, "BldgFront": 280.0, "BldgDepth": 362.0, "Ext": "N", "ProxCode": "0", "IrrLotCode": "Y", "LotType": "5", "BsmtCode": "0", "AssessLand": 1980000.0, "AssessTot": 24880950.0, "ExemptTot": 24880950.0, "YearBuilt": 1963, "YearAlter1": 2016, "YearAlter2": 0, "HistDist": null, "Landmark": null, "BuiltFAR": 1.47, "ResidFAR": 0.75, "CommFAR": 0.0, "FacilFAR": 1.0, "BoroCode": 3, "BBL": 3040940001.0, "CondoNo": 0, "Tract2010": "1180", "XCoord": 1020525, "YCoord": 191670, "ZoneMap": "17c", "ZMCode": "Y", "Sanborn": "308 062", "TaxMap": "31305", "EDesigNum": null, "APPBBL": 0.0, "APPDate": null, "PLUTOMapID": "1", "FIRM07_FLA": null, "PFIRM15_FL": null, "Version": "25v4", "DCPEdited": "t", "Latitude": 40.6926923, "Longitude": -73.8691902, "Notes": null, "Shape_Leng": 0.0, "Shape_Area": 320457.804733 }, "geometry": { "type": "MultiPolygon", "coordinates": [ [ [ [ -73.868620319005871, 40.69350922421679 ], [ -73.868134794664755, 40.691233434828668 ], [ -73.868651433797027, 40.691154753365602 ], [ -73.869121967917565, 40.692319742636094 ], [ -73.869975340970981, 40.692126998264172 ], [ -73.870477857734826, 40.693351813887681 ], [ -73.868828238988257, 40.693875403940282 ], [ -73.868620319005871, 40.69350922421679 ] ] ] ] } },
{ "type": "Feature", "properties": { "Borough": "BK", "Block": 4095, "Lot": 1, "CD": 305, "BCT2020": "3118000", "BCTCB2020": "31180001001", "CT2010": "1180", "CB2010": "1001", "SchoolDist": "19", "Council": 37, "ZipCode": 11208, "FireComp": "E236", "PolicePrct": 75, "HealthCent": 34, "HealthArea": 3900, "Sanitboro": "3", "SanitDistr": "05", "SanitSub": "2D", "Address": "775 JAMAICA AVENUE", "ZoneDist1": "R3-2", "ZoneDist2": null, "ZoneDist3": null, "ZoneDist4": null, "Overlay1": null, "Overlay2": null, "SPDist1": null, "SPDist2": null, "SPDist3": null, "LtdHeight": null, "SplitZone": "N", "BldgClass": "Z8", "LandUse": "09", "Easements": 0, "OwnerType": "X", "OwnerName": "SALEM FIELDS CEMETERY", "LotArea": 1500000, "BldgArea": 4500, "ComArea": 4500, "ResArea": 0, "OfficeArea": 4500, "RetailArea": 0, "GarageArea": 0, "StrgeArea": 0, "FactryArea": 0, "OtherArea": 0, "AreaSource": "2", "NumBldgs": 2, "NumFloors": 2.0, "UnitsRes": 0, "UnitsTotal": 0, "LotFront": 669.42, "LotDepth": 1516.67, "BldgFront": 30.0, "BldgDepth": 75.0, "Ext": "N", "ProxCode": "0", "IrrLotCode": "Y", "LotType": "5", "BsmtCode": "0", "AssessLand": 2214000.0, "AssessTot": 2924100.0, "ExemptTot": 2924100.0, "YearBuilt": 1965, "YearAlter1": 0, "YearAlter2": 0, "HistDist": null, "Landmark": null, "BuiltFAR": 0.0, "ResidFAR": 0.75, "CommFAR": 0.0, "FacilFAR": 1.0, "BoroCode": 3, "BBL": 3040950000.9999995, "CondoNo": 0, "Tract2010": "1180", "XCoord": 1017760, "YCoord": 190162, "ZoneMap": "17c", "ZMCode": null, "Sanborn": "308 021", "TaxMap": "31305", "EDesigNum": null, "APPBBL": 0.0, "APPDate": null, "PLUTOMapID": "1", "FIRM07_FLA": null, "PFIRM15_FL": null, "Version": "25v4", "DCPEdited": null, "Latitude": 40.6885641, "Longitude": -73.8791685, "Notes": null, "Shape_Leng": 0.0, "Shape_Area": 1373982.0337700001 }, "geometry": { "type": "MultiPolygon", "coordinates": [ [ [ [ -73.88037712307181, 40.686369762448898 ], [ -73.882149381366574, 40.689117598143753 ], [ -73.881117992067971, 40.689948634055966 ], [ -73.880731090669968, 40.689455465154694 ], [ -73.879065711199459, 40.68995230981907 ], [ -73.877609845741461, 40.690386623065372 ], [ -73.877295758559271, 40.690061912541871 ], [ -73.875878160156375, 40.688596315159806 ], [ -73.88037712307181, 40.686369762448898 ] ] ] ] } },
{ "type": "Feature", "properties": { "Borough": "BK", "Block": 4095, "Lot": 20, "CD": 305, "BCT2020": "3118000", "BCTCB2020": "31180001001", "CT2010": "1180", "CB2010": "1001", "SchoolDist": "19", "Council": 37, "ZipCode": 11208, "FireComp": "E236", "PolicePrct": 75, "HealthCent": 34, "HealthArea": 3900, "Sanitboro": "3", "SanitDistr": "05", "SanitSub": "2E", "Address": "777 JAMAICA AVENUE", "ZoneDist1": "R3-2", "ZoneDist2": null, "ZoneDist3": null, "ZoneDist4": null, "Overlay1": null, "Overlay2": null, "SPDist1": null, "SPDist2": null, "SPDist3": null, "LtdHeight": null, "SplitZone": "N", "BldgClass": "Z8", "LandUse": "09", "Easements": 0, "OwnerType": "X", "OwnerName": "CONG BNAI JESHURUN", "LotArea": 105861, "BldgArea": 0, "ComArea": 0, "ResArea": 0, "OfficeArea": 0, "RetailArea": 0, "GarageArea": 0, "StrgeArea": 0, "FactryArea": 0, "OtherArea": 0, "AreaSource": "7", "NumBldgs": 0, "NumFloors": 0.0, "UnitsRes": 0, "UnitsTotal": 0, "LotFront": 533.08, "LotDepth": 198.58, "BldgFront": 0.0, "BldgDepth": 0.0, "Ext": "N", "ProxCode": "0", "IrrLotCode": "N", "LotType": "5", "BsmtCode": "0", "AssessLand": 274050.0, "AssessTot": 274050.0, "ExemptTot": 274050.0, "YearBuilt": 0, "YearAlter1": 0, "YearAlter2": 0, "HistDist": null, "Landmark": null, "BuiltFAR": 0.0, "ResidFAR": 0.75, "CommFAR": 0.0, "FacilFAR": 1.0, "BoroCode": 3, "BBL": 3040950020.0000005, "CondoNo": 0, "Tract2010": "1180", "XCoord": 1017509, "YCoord": 190671, "ZoneMap": "17c", "ZMCode": null, "Sanborn": "308 021", "TaxMap": "31305", "EDesigNum": null, "APPBBL": 0.0, "APPDate": null, "PLUTOMapID": "1", "FIRM07_FLA": null, "PFIRM15_FL": null, "Version": "25v4", "DCPEdited": null, "Latitude": 40.6899621, "Longitude": -73.880071, "Notes": null, "Shape_Leng": 0.0, "Shape_Area": 106285.011292 }, "geometry": { "type": "MultiPolygon", "coordinates": [ [ [ [ -73.879065711199459, 40.68995230981907 ], [ -73.880731090669968, 40.689455465154694 ], [ -73.881117992067971, 40.689948634055966 ], [ -73.881108447761918, 40.689956324399418 ], [ -73.879356708726604, 40.690478935793656 ], [ -73.879065711199459, 40.68995230981907 ] ] ] ] } },
{ "type": "Feature", "properties": { "Borough": "BK", "Block": 4095, "Lot": 30, "CD": 305, "BCT2020": "3118000", "BCTCB2020": "31180001001", "CT2010": "1180", "CB2010": "1001", "SchoolDist": "19", "Council": 37, "ZipCode": 11208, "FireComp": "E236", "PolicePrct": 75, "HealthCent": 34, "HealthArea": 3900, "Sanitboro": "3", "SanitDistr": "05", "SanitSub": "2E", "Address": "779 JAMAICA AVENUE", "ZoneDist1": "R3-2", "ZoneDist2": null, "ZoneDist3": null, "ZoneDist4": null, "Overlay1": null, "Overlay2": null, "SPDist1": null, "SPDist2": null, "SPDist3": null, "LtdHeight": null, "SplitZone": "N", "BldgClass": "Z8", "LandUse": "09", "Easements": 0, "OwnerType": "X", "OwnerName": "CONG SHEARITH ISRAEL", "LotArea": 65160, "BldgArea": 0, "ComArea": 0, "ResArea": 0, "OfficeArea": 0, "RetailArea": 0, "GarageArea": 0, "StrgeArea": 0, "FactryArea": 0, "OtherArea": 0, "AreaSource": "7", "NumBldgs": 0, "NumFloors": 0.0, "UnitsRes": 0, "UnitsTotal": 0, "LotFront": 587.25, "LotDepth": 240.67, "BldgFront": 0.0, "BldgDepth": 0.0, "Ext": "N", "ProxCode": "0", "IrrLotCode": "N", "LotType": "5", "BsmtCode": "0", "AssessLand": 195300.0, "AssessTot": 195300.0, "ExemptTot": 195300.0, "YearBuilt": 0, "YearAlter1": 0, "YearAlter2": 0, "HistDist": null, "Landmark": null, "BuiltFAR": 0.0, "ResidFAR": 0.75, "CommFAR": 0.0, "FacilFAR": 1.0, "BoroCode": 3, "BBL": 3040950030.0, "CondoNo": 0, "Tract2010": "1180", "XCoord": 1017517, "YCoord": 190872, "ZoneMap": "17c", "ZMCode": null, "Sanborn": "308 021", "TaxMap": "31305", "EDesigNum": null, "APPBBL": 0.0, "APPDate": null, "PLUTOMapID": "1", "FIRM07_FLA": null, "PFIRM15_FL": null, "Version": "25v4", "DCPEdited": null, "Latitude": 40.6905138, "Longitude": -73.8800412, "Notes": null, "Shape_Leng": 0.0, "Shape_Area": 64870.524203399997 }, "geometry": { "type": "MultiPolygon", "coordinates": [ [ [ [ -73.881108447761918, 40.689956324399418 ], [ -73.879771225495205, 40.691033738629983 ], [ -73.879634262482014, 40.69103731798765 ], [ -73.879328431643927, 40.690487371899209 ], [ -73.879356708726604, 40.690478935793656 ], [ -73.881108447761918, 40.689956324399418 ] ] ] ] } },
{ "type": "Feature", "properties": { "Borough": "BK", "Block": 4095, "Lot": 40, "CD": 305, "BCT2020": "3118000", "BCTCB2020": "31180001001", "CT2010": "1180", "CB2010": "1001", "SchoolDist": "19", "Council": 37, "ZipCode": 11208, "FireComp": "E236", "PolicePrct": 75, "HealthCent": 34, "HealthArea": 3900, "Sanitboro": "3", "SanitDistr": "05", "SanitSub": "2E", "Address": "781 JAMAICA AVENUE", "ZoneDist1": "R3-2", "ZoneDist2": null, "ZoneDist3": null, "ZoneDist4": null, "Overlay1": null, "Overlay2": null, "SPDist1": null, "SPDist2": null, "SPDist3": null, "LtdHeight": null, "SplitZone": "N", "BldgClass": "Z8", "LandUse": "09", "Easements": 0, "OwnerType": "X", "OwnerName": "CONG BNAI JESHURUN", "LotArea": 65600, "BldgArea": 0, "ComArea": 0, "ResArea": 0, "OfficeArea": 0, "RetailArea": 0, "GarageArea": 0, "StrgeArea": 0, "FactryArea": 0, "OtherArea": 0, "AreaSource": "7", "NumBldgs": 0, "NumFloors": 0.0, "UnitsRes": 0, "UnitsTotal": 0, "LotFront": 240.67, "LotDepth": 370.5, "BldgFront": 0.0, "BldgDepth": 0.0, "Ext": "N", "ProxCode": "0", "IrrLotCode": "Y", "LotType": "5", "BsmtCode": "0", "AssessLand": 197100.0, "AssessTot": 197100.0, "ExemptTot": 197100.0, "YearBuilt": 0, "YearAlter1": 0, "YearAlter2": 0, "HistDist": null, "Landmark": null, "BuiltFAR": 0.0, "ResidFAR": 0.75, "CommFAR": 0.0, "FacilFAR": 1.0, "BoroCode": 3, "BBL": 3040950040.0, "CondoNo": 0, "Tract2010": "1180", "XCoord": 1017816, "YCoord": 190998, "ZoneMap": "17c", "ZMCode": null, "Sanborn": "308 021", "TaxMap": "31305", "EDesigNum": null, "APPBBL": 0.0, "APPDate": null, "PLUTOMapID": "1", "FIRM07_FLA": null, "PFIRM15_FL": null, "Version": "25v4", "DCPEdited": null, "Latitude": 40.6908585, "Longitude": -73.8789624, "Notes": null, "Shape_Leng": 0.0, "Shape_Area": 57079.128032799999 }, "geometry": { "type": "MultiPolygon", "coordinates": [ [ [ [ -73.878110818634582, 40.690850611772781 ], [ -73.879328431643927, 40.690487371899209 ], [ -73.879634262482014, 40.69103731798765 ], [ -73.879589362119518, 40.69104110804745 ], [ -73.879554460663712, 40.691045103918981 ], [ -73.879517239559718, 40.691050190625099 ], [ -73.879475240702931, 40.69105756143405 ], [ -73.879381064938954, 40.691077657484783 ], [ -73.879323680745173, 40.691088779831908 ], [ -73.879259261387872, 40.691099608389173 ], [ -73.879190789343653, 40.69111010662337 ], [ -73.879117666641378, 40.69111806592516 ], [ -73.879072833465173, 40.691122035056146 ], [ -73.879047741561465, 40.691122864079361 ], [ -73.879017418254222, 40.69112309242896 ], [ -73.878952118467978, 40.691122893068403 ], [ -73.878845652767737, 40.691116984273812 ], [ -73.878818626777587, 40.691114547854205 ], [ -73.878788675680184, 40.691111063672274 ], [ -73.878764897238838, 40.691107886838559 ], [ -73.878728451507357, 40.691102317406276 ], [ -73.878677505121729, 40.691092765044324 ], [ -73.878646420575322, 40.691086725801853 ], [ -73.878614278372794, 40.691079419311492 ], [ -73.878576949509451, 40.691070249563111 ], [ -73.878541675809373, 40.691060326434076 ], [ -73.878478136443405, 40.691040101293879 ], [ -73.878456467632162, 40.691032960691011 ], [ -73.87841232391213, 40.691017552127953 ], [ -73.878375001369577, 40.691002365106925 ], [ -73.878334943163424, 40.690984181879124 ], [ -73.878305412864108, 40.690969938746413 ], [ -73.878274863927018, 40.690954435599259 ], [ -73.878255847403992, 40.690944164925696 ], [ -73.878239580900328, 40.690934819270197 ], [ -73.878208238806565, 40.690916352503578 ], [ -73.878110818634582, 40.690850611772781 ] ] ] ] } },
{ "type": "Feature", "properties": { "Borough": "BK", "Block": 4095, "Lot": 50, "CD": 305, "BCT2020": "3118000", "BCTCB2020": "31180001001", "CT2010": "1180", "CB2010": "1001", "SchoolDist": "19", "Council": 37, "ZipCode": 11208, "FireComp": "E236", "PolicePrct": 75, "HealthCent": 34, "HealthArea": 3900, "Sanitboro": "3", "SanitDistr": "05", "SanitSub": "2E", "Address": "2 CYPRESS HILLS", "ZoneDist1": "R3-2", "ZoneDist2": null, "ZoneDist3": null, "ZoneDist4": null, "Overlay1": null, "Overlay2": null, "SPDist1": null, "SPDist2": null, "SPDist3": null, "LtdHeight": null, "SplitZone": "N", "BldgClass": "Z8", "LandUse": "09", "Easements": 0, "OwnerType": "X", "OwnerName": "UNAVAILABLE OWNER", "LotArea": 80000, "BldgArea": 2400, "ComArea": 2400, "ResArea": 0, "OfficeArea": 0, "RetailArea": 0, "GarageArea": 0, "StrgeArea": 0, "FactryArea": 0, "OtherArea": 2400, "AreaSource": "2", "NumBldgs": 1, "NumFloors": 2.0, "UnitsRes": 0, "UnitsTotal": 0, "LotFront": 380.83, "LotDepth": 198.58, "BldgFront": 40.0, "BldgDepth": 30.0, "Ext": "N", "ProxCode": "0", "IrrLotCode": "N", "LotType": "5", "BsmtCode": "0", "AssessLand": 168300.0, "AssessTot": 315000.0, "ExemptTot": 315000.0, "YearBuilt": 1960, "YearAlter1": 0, "YearAlter2": 0, "HistDist": null, "Landmark": null, "BuiltFAR": 0.03, "ResidFAR": 0.75, "CommFAR": 0.0, "FacilFAR": 1.0, "BoroCode": 3, "BBL": 3040950050.0, "CondoNo": 0, "Tract2010": "1180", "XCoord": 1017937, "YCoord": 190836, "ZoneMap": "17c", "ZMCode": null, "Sanborn": "308 021", "TaxMap": "31305", "EDesigNum": null, "APPBBL": 0.0, "APPDate": null, "PLUTOMapID": "1", "FIRM07_FLA": null, "PFIRM15_FL": null, "Version": "25v4", "DCPEdited": null, "Latitude": 40.6904134, "Longitude": -73.8785269, "Notes": null, "Shape_Leng": 0.0, "Shape_Area": 84690.013189300022 }, "geometry": { "type": "MultiPolygon", "coordinates": [ [ [ [ -73.877609845741461, 40.690386623065372 ], [ -73.879065711199459, 40.68995230981907 ], [ -73.879356708726604, 40.690478935793656 ], [ -73.879328431643927, 40.690487371899209 ], [ -73.878110818634582, 40.690850611772781 ], [ -73.877963496947572, 40.69075223103458 ], [ -73.877609845741461, 40.690386623065372 ] ] ] ] } },
{ "type": "Feature", "properties": { "Borough": "BK", "Block": 4096, "Lot": 1, "CD": 305, "BCT2020": "3118000", "BCTCB2020": "31180001000", "CT2010": "1180", "CB2010": "1000", "SchoolDist": "19", "Council": 37, "ZipCode": 11208, "FireComp": "E236", "PolicePrct": 75, "HealthCent": 34, "HealthArea": 3900, "Sanitboro": "3", "SanitDistr": "05", "SanitSub": "2D", "Address": "785 JAMAICA AVENUE", "ZoneDist1": "R3-2", "ZoneDist2": null, "ZoneDist3": null, "ZoneDist4": null, "Overlay1": null, "Overlay2": null, "SPDist1": null, "SPDist2": null, "SPDist3": null, "LtdHeight": null, "SplitZone": "N", "BldgClass": "Z8", "LandUse": "09", "Easements": 0, "OwnerType": "X", "OwnerName": "CYPRESS HILLS CEMETER", "LotArea": 3050000, "BldgArea": 9932, "ComArea": 9932, "ResArea": 0, "OfficeArea": 6632, "RetailArea": 0, "GarageArea": 0, "StrgeArea": 0, "FactryArea": 0, "OtherArea": 3300, "AreaSource": "2", "NumBldgs": 2, "NumFloors": 2.0, "UnitsRes": 0, "UnitsTotal": 1, "LotFront": 199.5, "LotDepth": 244.42, "BldgFront": 30.0, "BldgDepth": 35.0, "Ext": "N", "ProxCode": "0", "IrrLotCode": "Y", "LotType": "5", "BsmtCode": "0", "AssessLand": 5078250.0, "AssessTot": 8843850.0, "ExemptTot": 8843850.0, "YearBuilt": 1965, "YearAlter1": 2007, "YearAlter2": 2009, "HistDist": null, "Landmark": null, "BuiltFAR": 0.0, "ResidFAR": 0.75, "CommFAR": 0.0, "FacilFAR": 1.0, "BoroCode": 3, "BBL": 3040960001.0, "CondoNo": 0, "Tract2010": "1180", "XCoord": 1019171, "YCoord": 191426, "ZoneMap": "17c", "ZMCode": "Y", "Sanborn": "308 023", "TaxMap": "31305", "EDesigNum": null, "APPBBL": 0.0, "APPDate": null, "PLUTOMapID": "1", "FIRM07_FLA": null, "PFIRM15_FL": null, "Version": "25v4", "DCPEdited": null, "Latitude": 40.692028, "Longitude": -73.8740741, "Notes": null, "Shape_Leng": 0.0, "Shape_Area": 2827382.2670999998 }, "geometry": { "type": "MultiPolygon", "coordinates": [ [ [ [ -73.872938389542753, 40.692517879537839 ], [ -73.871689117027486, 40.690372426875363 ], [ -73.871746671556835, 40.690352469180262 ], [ -73.871927361444577, 40.690286660351184 ], [ -73.872166933372597, 40.690193739307936 ], [ -73.875646998934187, 40.688701726096802 ], [ -73.877065264789138, 40.690183610083174 ], [ -73.877252898418661, 40.690379652395009 ], [ -73.87761426530372, 40.690732612986494 ], [ -73.877727894571834, 40.690835386991928 ], [ -73.877860959353725, 40.690951696513636 ], [ -73.877954786763041, 40.69101859711094 ], [ -73.878021079568654, 40.691054646625993 ], [ -73.87813404037226, 40.691115337671583 ], [ -73.878228069728664, 40.691154229651744 ], [ -73.878350549948337, 40.691187681939091 ], [ -73.878526954612084, 40.691227998079164 ], [ -73.878686210236538, 40.691251196934054 ], [ -73.878873348999946, 40.691270785050698 ], [ -73.879029012884956, 40.691276479077032 ], [ -73.879076007516119, 40.691276528537749 ], [ -73.879332684023836, 40.691276773162087 ], [ -73.878963047481491, 40.691568332475846 ], [ -73.878804737433313, 40.691652501400412 ], [ -73.878259400389993, 40.691941677592659 ], [ -73.874000051779262, 40.694219347060987 ], [ -73.871499851937358, 40.694648625929879 ], [ -73.868932151899884, 40.695114587528977 ], [ -73.868716335906868, 40.694073600663906 ], [ -73.868688253973119, 40.693919717795808 ], [ -73.868828238988257, 40.693875403940282 ], [ -73.870477857734826, 40.693351813887681 ], [ -73.87160719474393, 40.692995673775016 ], [ -73.872078227830244, 40.692848115119062 ], [ -73.872938389542753, 40.692517879537839 ] ] ] ] } },
{ "type": "Feature", "properties": { "Borough": "BK", "Block": 4097, "Lot": 1, "CD": 305, "BCT2020": "3118000", "BCTCB2020": "31180001000", "CT2010": "1180", "CB2010": "1000", "SchoolDist": "19", "Council": 37, "ZipCode": 11208, "FireComp": "E236", "PolicePrct": 75, "HealthCent": 34, "HealthArea": 3900, "Sanitboro": "3", "SanitDistr": "05", "SanitSub": "2C", "Address": "895 JAMAICA AVENUE", "ZoneDist1": "R3-2", "ZoneDist2": null, "ZoneDist3": null, "ZoneDist4": null, "Overlay1": null, "Overlay2": null, "SPDist1": null, "SPDist2": null, "SPDist3": null, "LtdHeight": null, "SplitZone": "N", "BldgClass": "Z8", "LandUse": "09", "Easements": 0, "OwnerType": "X", "OwnerName": "MAIMONIDES BENEVOLENT", "LotArea": 309000, "BldgArea": 3000, "ComArea": 3000, "ResArea": 0, "OfficeArea": 3000, "RetailArea": 0, "GarageArea": 0, "StrgeArea": 0, "FactryArea": 0, "OtherArea": 0, "AreaSource": "2", "NumBldgs": 1, "NumFloors": 2.0, "UnitsRes": 0, "UnitsTotal": 0, "LotFront": 305.5, "LotDepth": 858.0, "BldgFront": 30.0, "BldgDepth": 50.0, "Ext": "N", "ProxCode": "0", "IrrLotCode": "Y", "LotType": "5", "BsmtCode": "0", "AssessLand": 435150.0, "AssessTot": 648000.0, "ExemptTot": 648000.0, "YearBuilt": 1965, "YearAlter1": 0, "YearAlter2": 0, "HistDist": null, "Landmark": null, "BuiltFAR": 0.01, "ResidFAR": 0.75, "CommFAR": 0.0, "FacilFAR": 1.0, "BoroCode": 3, "BBL": 3040970000.9999995, "CondoNo": 0, "Tract2010": "1180", "XCoord": 1019824, "YCoord": 191309, "ZoneMap": "17c", "ZMCode": null, "Sanborn": "399 999", "TaxMap": "31305", "EDesigNum": null, "APPBBL": 0.0, "APPDate": null, "PLUTOMapID": "1", "FIRM07_FLA": null, "PFIRM15_FL": null, "Version": "25v4", "DCPEdited": null, "Latitude": 40.6917043, "Longitude": -73.87172, "Notes": null, "Shape_Leng": 0.0, "Shape_Area": 326075.88656499999 }, "geometry": { "type": "MultiPolygon", "coordinates": [ [ [ [ -73.870659720049829, 40.690653908068477 ], [ -73.871533809000482, 40.690415524882582 ], [ -73.871689117027486, 40.690372426875363 ], [ -73.872938389542753, 40.692517879537839 ], [ -73.872078227830244, 40.692848115119062 ], [ -73.87160719474393, 40.692995673775016 ], [ -73.871106176799415, 40.692070387119173 ], [ -73.870659720049829, 40.690653908068477 ] ] ] ] } },
{ "type": "Feature", "properties": { "Borough": "BK", "Block": 4098, "Lot": 1, "CD": 305, "BCT2020": "3118000", "BCTCB2020": "31180001000", "CT2010": "1180", "CB2010": "1000", "SchoolDist": "19", "Council": 37, "ZipCode": 11208, "FireComp": "E236", "PolicePrct": 75, "HealthCent": 34, "HealthArea": 3900, "Sanitboro": "3", "SanitDistr": "05", "SanitSub": "2C", "Address": "927 JAMAICA AVENUE", "ZoneDist1": "R3-2", "ZoneDist2": null, "ZoneDist3": null, "ZoneDist4": null, "Overlay1": null, "Overlay2": null, "SPDist1": null, "SPDist2": null, "SPDist3": null, "LtdHeight": null, "SplitZone": "N", "BldgClass": "Z8", "LandUse": "09", "Easements": 0, "OwnerType": "X", "OwnerName": "MOUNT HOPE CEMETERY ASSOCIATIO", "LotArea": 425000, "BldgArea": 2610, "ComArea": 2610, "ResArea": 0, "OfficeArea": 2610, "RetailArea": 0, "GarageArea": 0, "StrgeArea": 0, "FactryArea": 0, "OtherArea": 0, "AreaSource": "2", "NumBldgs": 1, "NumFloors": 2.0, "UnitsRes": 0, "UnitsTotal": 0, "LotFront": 591.25, "LotDepth": 532.42, "BldgFront": 29.67, "BldgDepth": 44.0, "Ext": "N", "ProxCode": "0", "IrrLotCode": "Y", "LotType": "5", "BsmtCode": "0", "AssessLand": 598500.0, "AssessTot": 839250.0, "ExemptTot": 839250.0, "YearBuilt": 1965, "YearAlter1": 0, "YearAlter2": 0, "HistDist": null, "Landmark": null, "BuiltFAR": 0.01, "ResidFAR": 0.75, "CommFAR": 0.0, "FacilFAR": 1.0, "BoroCode": 3, "BBL": 3040980001.0, "CondoNo": 0, "Tract2010": "1180", "XCoord": 1020247, "YCoord": 191378, "ZoneMap": "17c", "ZMCode": "Y", "Sanborn": "399 999", "TaxMap": "31305", "EDesigNum": null, "APPBBL": 0.0, "APPDate": null, "PLUTOMapID": "1", "FIRM07_FLA": null, "PFIRM15_FL": null, "Version": "25v4", "DCPEdited": null, "Latitude": 40.6918919, "Longitude": -73.8701943, "Notes": null, "Shape_Leng": 0.0, "Shape_Area": 402341.04740400001 }, "geometry": { "type": "MultiPolygon", "coordinates": [ [ [ [ -73.869975340970981, 40.692126998264172 ], [ -73.869121967917565, 40.692319742636094 ], [ -73.868651433797027, 40.691154753365602 ], [ -73.870659720049829, 40.690653908068477 ], [ -73.871106176799415, 40.692070387119173 ], [ -73.87160719474393, 40.692995673775016 ], [ -73.870477857734826, 40.693351813887681 ], [ -73.869975340970981, 40.692126998264172 ] ] ] ] } },
{ "type": "Feature", "properties": { "Borough": "BK", "Block": 3888, "Lot": 19, "CD": 305, "BCT2020": "3114202", "BCTCB2020": "31142021001", "CT2010": "1142.02", "CB2010": "1003", "SchoolDist": "19", "Council": 37, "ZipCode": 11207, "FireComp": "L175", "PolicePrct": 75, "HealthCent": 34, "HealthArea": 3820, "Sanitboro": "3", "SanitDistr": "05", "SanitSub": "1C", "Address": "245 SUNNYSIDE AVENUE", "ZoneDist1": "R3-1", "ZoneDist2": null, "ZoneDist3": null, "ZoneDist4": null, "Overlay1": null, "Overlay2": null, "SPDist1": null, "SPDist2": null, "SPDist3": null, "LtdHeight": null, "SplitZone": "N", "BldgClass": "B3", "LandUse": "01", "Easements": 0, "OwnerType": null, "OwnerName": "TROTMAN, REGINA", "LotArea": 6483, "BldgArea": 3326, "ComArea": 0, "ResArea": 3326, "OfficeArea": 0, "RetailArea": 0, "GarageArea": 0, "StrgeArea": 0, "FactryArea": 0, "OtherArea": 0, "AreaSource": "2", "NumBldgs": 1, "NumFloors": 2.75, "UnitsRes": 2, "UnitsTotal": 2, "LotFront": 32.42, "LotDepth": 200.0, "BldgFront": 26.0, "BldgDepth": 35.0, "Ext": "N", "ProxCode": "1", "IrrLotCode": "N", "LotType": "5", "BsmtCode": "2", "AssessLand": 17280.0, "AssessTot": 93120.0, "ExemptTot": 0.0, "YearBuilt": 1901, "YearAlter1": 0, "YearAlter2": 0, "HistDist": null, "Landmark": null, "BuiltFAR": 0.51, "ResidFAR": 0.75, "CommFAR": 0.0, "FacilFAR": 1.0, "BoroCode": 3, "BBL": 3038880019.0, "CondoNo": 0, "Tract2010": "114202", "XCoord": 1014984, "YCoord": 188291, "ZoneMap": "17c", "ZMCode": null, "Sanborn": "308 001", "TaxMap": "31301", "EDesigNum": null, "APPBBL": 0.0, "APPDate": null, "PLUTOMapID": "1", "FIRM07_FLA": null, "PFIRM15_FL": null, "Version": "25v4", "DCPEdited": null, "Latitude": 40.6834387, "Longitude": -73.8891868, "Notes": null, "Shape_Leng": 0.0, "Shape_Area": 7270.2155193 }, "geometry": { "type": "MultiPolygon", "coordinates": [ [ [ [ -73.889148090803317, 40.683473070067322 ], [ -73.888938066290038, 40.683217031376515 ], [ -73.889042128650189, 40.683168060195953 ], [ -73.889194015968343, 40.683353226297399 ], [ -73.889234852810873, 40.683403008286689 ], [ -73.88927298149963, 40.68344949083118 ], [ -73.889310239092111, 40.683494909947441 ], [ -73.889350041973287, 40.683543434648961 ], [ -73.88938580270397, 40.683587029580721 ], [ -73.889425608002327, 40.683635554257719 ], [ -73.889290692732118, 40.683699044663321 ], [ -73.889148090803317, 40.683473070067322 ] ] ] ] } },
{ "type": "Feature", "properties": { "Borough": "QN", "Block": 3866, "Lot": 70, "CD": 482, "BCT2020": "4064102", "BCTCB2020": "40641021014", "CT2010": "641.02", "CB2010": "1027", "SchoolDist": "24", "Council": 32, "ZipCode": 11385, "FireComp": "E319", "PolicePrct": 102, "HealthCent": 46, "HealthArea": 1810, "Sanitboro": "4", "SanitDistr": "82", "SanitSub": "3E", "Address": "83-98 FOREST PARKWAY", "ZoneDist1": "PARK", "ZoneDist2": "R3-2", "ZoneDist3": null, "ZoneDist4": null, "Overlay1": null, "Overlay2": null, "SPDist1": null, "SPDist2": null, "SPDist3": null, "LtdHeight": null, "SplitZone": "Y", "BldgClass": "Q1", "LandUse": "09", "Easements": 0, "OwnerType": "C", "OwnerName": "NYC DEPARTMENT OF PARKS AND RECREATION", "LotArea": 10000000, "BldgArea": 54170, "ComArea": 54170, "ResArea": 0, "OfficeArea": 0, "RetailArea": 0, "GarageArea": 0, "StrgeArea": 0, "FactryArea": 0, "OtherArea": 54170, "AreaSource": "2", "NumBldgs": 32, "NumFloors": 3.0, "UnitsRes": 0, "UnitsTotal": 0, "LotFront": 610.17, "LotDepth": 534.42, "BldgFront": 20.0, "BldgDepth": 20.0, "Ext": "N", "ProxCode": "0", "IrrLotCode": "Y", "LotType": "3", "BsmtCode": "0", "AssessLand": 85837401.0, "AssessTot": 126442800.0, "ExemptTot": 126442800.0, "YearBuilt": 1931, "YearAlter1": 0, "YearAlter2": 0, "HistDist": null, "Landmark": "INDIVIDUAL LANDMARK", "BuiltFAR": 0.01, "ResidFAR": 0.0, "CommFAR": 0.0, "FacilFAR": 0.0, "BoroCode": 4, "BBL": 4038660069.9999995, "CondoNo": 0, "Tract2010": "064102", "XCoord": 1022337, "YCoord": 194077, "ZoneMap": "14b", "ZMCode": "Y", "Sanborn": "403 100", "TaxMap": "42003", "EDesigNum": null, "APPBBL": 0.0, "APPDate": null, "PLUTOMapID": "1", "FIRM07_FLA": null, "PFIRM15_FL": null, "Version": "25v4", "DCPEdited": "t", "Latitude": 40.6992913, "Longitude": -73.8626425, "Notes": null, "Shape_Leng": 0.0, "Shape_Area": 10175418.2269 }, "geometry": { "type": "MultiPolygon", "coordinates": [ [ [ [ -73.858738597435334, 40.702816392446238 ], [ -73.858787196759422, 40.702372526805853 ], [ -73.858792808651586, 40.702321270223138 ], [ -73.858799244777202, 40.702262493643978 ], [ -73.858806928433083, 40.702192323431582 ], [ -73.858814703923073, 40.702121295223584 ], [ -73.858822346538417, 40.70205149055532 ], [ -73.858829756288699, 40.701983822627206 ], [ -73.858837556919411, 40.701912579188615 ], [ -73.858845357645464, 40.701841334827584 ], [ -73.858859626820063, 40.701710994167932 ], [ -73.858867128184173, 40.701642491580998 ], [ -73.858874628327996, 40.701573987068905 ], [ -73.858882129661282, 40.701505484479817 ], [ -73.858897780280358, 40.701362520361435 ], [ -73.858363223059229, 40.701304117685879 ], [ -73.8581581573726, 40.701281713109822 ], [ -73.857798947167723, 40.7012424662962 ], [ -73.857444069253091, 40.701203689304016 ], [ -73.857345761736184, 40.701192949401424 ], [ -73.857251543343324, 40.701658250471112 ], [ -73.857165990375876, 40.701673521374126 ], [ -73.85678484845009, 40.701741552823542 ], [ -73.856396499296594, 40.701810867987305 ], [ -73.856223096142301, 40.701841817952321 ], [ -73.855848384466256, 40.701908697148077 ], [ -73.855527865897898, 40.701965903298394 ], [ -73.85539781415207, 40.701989114417991 ], [ -73.855386268965475, 40.701453346438278 ], [ -73.855236196393307, 40.701118248056538 ], [ -73.855062843344385, 40.700918404093443 ], [ -73.854972564863274, 40.700814144180185 ], [ -73.854760233518249, 40.700630415654828 ], [ -73.854416754863706, 40.700344828595881 ], [ -73.854081892989143, 40.70012137241099 ], [ -73.853969103995368, 40.700002601041362 ], [ -73.853746899011796, 40.699736525177052 ], [ -73.853228875335589, 40.699121815420419 ], [ -73.85319055296776, 40.699074970464835 ], [ -73.853162457020417, 40.699038854657068 ], [ -73.853130952200544, 40.698996889198419 ], [ -73.853100738296718, 40.698953305457842 ], [ -73.853077759168826, 40.698918525282743 ], [ -73.853058158724053, 40.698887204693563 ], [ -73.853028460211064, 40.698831572695148 ], [ -73.853002419389, 40.69877411554036 ], [ -73.85297272108869, 40.698708767008192 ], [ -73.852934597976457, 40.69861845178859 ], [ -73.852905332861653, 40.69853485036618 ], [ -73.852884131762195, 40.698471392035017 ], [ -73.85287329185384, 40.698423516799146 ], [ -73.85286683084378, 40.698372993366938 ], [ -73.852862234771592, 40.698330885824184 ], [ -73.852860047541697, 40.698279766339475 ], [ -73.85288338259204, 40.697692354866213 ], [ -73.852970693562909, 40.697679634268255 ], [ -73.853030153005676, 40.697670970766524 ], [ -73.85656635107668, 40.697155700996014 ], [ -73.858329551485667, 40.696838736712301 ], [ -73.864666834654969, 40.695575347468278 ], [ -73.868718938316675, 40.694767319034092 ], [ -73.868932151899884, 40.695114587528977 ], [ -73.870445621068484, 40.697579515638772 ], [ -73.870595492805606, 40.697824151972767 ], [ -73.869259039080319, 40.699121825762312 ], [ -73.868959341623764, 40.699316086037562 ], [ -73.869567223824546, 40.70164360865332 ], [ -73.86904635929352, 40.701779095502623 ], [ -73.869279173318006, 40.702794195835772 ], [ -73.862858425145632, 40.703319676312432 ], [ -73.858738597435334, 40.702816392446238 ] ] ] ] } },
{ "type": "Feature", "properties": { "Borough": "QN", "Block": 3740, "Lot": 1, "CD": 405, "BCT2020": "4056100", "BCTCB2020": "40561001010", "CT2010": "561", "CB2010": "1011", "SchoolDist": "24", "Council": 32, "ZipCode": 11432, "FireComp": "E286", "PolicePrct": 104, "HealthCent": 46, "HealthArea": 2400, "Sanitboro": "4", "SanitDistr": "05", "SanitSub": "4C", "Address": "58-02 VERMONT AVENUE", "ZoneDist1": "PARK", "ZoneDist2": "R3-2", "ZoneDist3": null, "ZoneDist4": null, "Overlay1": null, "Overlay2": null, "SPDist1": null, "SPDist2": null, "SPDist3": null, "LtdHeight": null, "SplitZone": "Y", "BldgClass": "Y9", "LandUse": "07", "Easements": 0, "OwnerType": "C", "OwnerName": "NYC DEPARTMENT OF PARKS AND RECREATION", "LotArea": 2654546, "BldgArea": 1254, "ComArea": 1254, "ResArea": 0, "OfficeArea": 1254, "RetailArea": 0, "GarageArea": 0, "StrgeArea": 0, "FactryArea": 0, "OtherArea": 0, "AreaSource": "2", "NumBldgs": 1, "NumFloors": 1.0, "UnitsRes": 0, "UnitsTotal": 0, "LotFront": 882.0, "LotDepth": 1255.0, "BldgFront": 38.0, "BldgDepth": 33.0, "Ext": "N", "ProxCode": "0", "IrrLotCode": "Y", "LotType": "5", "BsmtCode": "0", "AssessLand": 13574541.0, "AssessTot": 20090250.0, "ExemptTot": 20090250.0, "YearBuilt": 1931, "YearAlter1": 0, "YearAlter2": 0, "HistDist": null, "Landmark": null, "BuiltFAR": 0.0, "ResidFAR": 0.0, "CommFAR": 0.0, "FacilFAR": 0.0, "BoroCode": 4, "BBL": 4037400001.0, "CondoNo": 0, "Tract2010": "0561", "XCoord": 1014792, "YCoord": 189681, "ZoneMap": "17c", "ZMCode": null, "Sanborn": "403 104", "TaxMap": "41903", "EDesigNum": null, "APPBBL": 0.0, "APPDate": null, "PLUTOMapID": "1", "FIRM07_FLA": null, "PFIRM15_FL": null, "Version": "25v4", "DCPEdited": "t", "Latitude": 40.6872546, "Longitude": -73.8898728, "Notes": null, "Shape_Leng": 0.0, "Shape_Area": 2842611.06134 }, "geometry": { "type": "MultiPolygon", "coordinates": [ [ [ [ -73.882201922921197, 40.692154446163833 ], [ -73.882201706653248, 40.692154300037615 ], [ -73.882014020972022, 40.692028132958534 ], [ -73.881883521394627, 40.691941011173441 ], [ -73.881742895480883, 40.691857724032232 ], [ -73.881498294998707, 40.691714320220839 ], [ -73.881346668165392, 40.691635974964441 ], [ -73.881273164404348, 40.691597994637888 ], [ -73.881225502866315, 40.691576408692065 ], [ -73.881055064923103, 40.691499214268951 ], [ -73.880827519405031, 40.691411663925209 ], [ -73.880750872671157, 40.691386986908888 ], [ -73.880562897895203, 40.691326468132473 ], [ -73.880590539312308, 40.691243732484232 ], [ -73.879925147814788, 40.691095656736863 ], [ -73.879711042230639, 40.691082227728238 ], [ -73.879771225495205, 40.691033738629983 ], [ -73.879810017769245, 40.69103119200139 ], [ -73.879848673796161, 40.691029412554208 ], [ -73.879899998090124, 40.691028218991619 ], [ -73.879952055688037, 40.69102849667658 ], [ -73.880122559953378, 40.691033863391134 ], [ -73.880271810672667, 40.691047761768239 ], [ -73.880412084505423, 40.691068910436847 ], [ -73.880587909516706, 40.691107038265805 ], [ -73.880739995398145, 40.691151209603738 ], [ -73.880789231887249, 40.691168396580714 ], [ -73.880884751784606, 40.691203004172245 ], [ -73.880958236819126, 40.69123055408032 ], [ -73.881073046794967, 40.691275643685884 ], [ -73.881171741603964, 40.69131594375272 ], [ -73.881286006960934, 40.691364781419061 ], [ -73.881366987285972, 40.691400829701344 ], [ -73.881452458062725, 40.691439800226114 ], [ -73.881583444628347, 40.691501645678613 ], [ -73.881825610941959, 40.691621709070112 ], [ -73.881999797182274, 40.691714661599853 ], [ -73.882150578193119, 40.691799536601877 ], [ -73.882171636290266, 40.691807253976407 ], [ -73.882204913545408, 40.691817341349676 ], [ -73.882242136927445, 40.691825828143408 ], [ -73.882292320775662, 40.691832983690865 ], [ -73.882338777874139, 40.691835470730801 ], [ -73.882405371552778, 40.691832261069969 ], [ -73.882479491958534, 40.6918189552824 ], [ -73.882670007181204, 40.691768879749851 ], [ -73.884558419460177, 40.691129165301994 ], [ -73.883546259886501, 40.69003344009402 ], [ -73.883343439295061, 40.689776301823919 ], [ -73.8831997478852, 40.689594125257351 ], [ -73.883215255843837, 40.689495133232597 ], [ -73.883375432237514, 40.688472666093823 ], [ -73.883811812185641, 40.687914239789912 ], [ -73.883745901940543, 40.687831152131494 ], [ -73.884436160963546, 40.687389285858842 ], [ -73.88519600401456, 40.68689626192976 ], [ -73.885662011673446, 40.686595836367751 ], [ -73.885825805058417, 40.687055865251054 ], [ -73.885758986507028, 40.687065547736026 ], [ -73.885786754486418, 40.687150555003356 ], [ -73.885859133423708, 40.687140066599142 ], [ -73.88598407783023, 40.687570906123213 ], [ -73.885824591655023, 40.687603032934653 ], [ -73.885799238682694, 40.687594902183683 ], [ -73.884920142413335, 40.68777935971638 ], [ -73.884820931049177, 40.687737794360139 ], [ -73.884720892846474, 40.687757161305171 ], [ -73.884690243437461, 40.687818807594013 ], [ -73.883943154828131, 40.687956402179466 ], [ -73.883616201061869, 40.688422525620375 ], [ -73.883369900346707, 40.689515359086705 ], [ -73.885285377771453, 40.691057845150297 ], [ -73.88554309095602, 40.691265366858495 ], [ -73.885600450014451, 40.691262858439273 ], [ -73.885664253394467, 40.69125749629432 ], [ -73.885726950344406, 40.691249543213409 ], [ -73.88580688904942, 40.691235420693445 ], [ -73.888922351002648, 40.690573638737142 ], [ -73.889043350203096, 40.690537071430803 ], [ -73.889138327788785, 40.690503577602385 ], [ -73.889233412266591, 40.690465496514548 ], [ -73.889358397544143, 40.690407859005738 ], [ -73.889455700910887, 40.690356343374845 ], [ -73.889550002408157, 40.690300123211976 ], [ -73.889631881275761, 40.690245585754262 ], [ -73.889697134203047, 40.690197777172465 ], [ -73.889770444379408, 40.690138775703296 ], [ -73.889829225787309, 40.690086792274826 ], [ -73.889894766257939, 40.690023031264872 ], [ -73.88994512501165, 40.68996909827483 ], [ -73.889931941157045, 40.689772297494947 ], [ -73.888856890656697, 40.686635554721605 ], [ -73.888019729854278, 40.685493316890529 ], [ -73.887580000365645, 40.685682763416928 ], [ -73.88774103620247, 40.685559654108665 ], [ -73.888012107684162, 40.685347914419019 ], [ -73.888217291181078, 40.685185858788927 ], [ -73.888670582235662, 40.684828293603942 ], [ -73.888789897330767, 40.684727963199656 ], [ -73.889194180487664, 40.684388006518702 ], [ -73.889553022526414, 40.684114747287822 ], [ -73.88975312964439, 40.684363691912935 ], [ -73.890158468287765, 40.684995668766959 ], [ -73.890235427463594, 40.685107641937442 ], [ -73.892671353141083, 40.683580969076331 ], [ -73.893037149443558, 40.684135271883271 ], [ -73.893088423427869, 40.684104515719355 ], [ -73.893885593324171, 40.685275354815225 ], [ -73.893888974522596, 40.685280321614719 ], [ -73.8939122043693, 40.685314438256313 ], [ -73.893945870339877, 40.685367783326264 ], [ -73.894018583767888, 40.685292989032895 ], [ -73.894049684639114, 40.685268520095555 ], [ -73.894383709653241, 40.684874475808641 ], [ -73.895049815791623, 40.684061851667835 ], [ -73.895048162018554, 40.684060400316518 ], [ -73.89578283247323, 40.683139812459345 ], [ -73.896120733012026, 40.682705635166499 ], [ -73.896185787075197, 40.682619825478774 ], [ -73.896192973853744, 40.68260804065627 ], [ -73.896221884128749, 40.682560200935129 ], [ -73.896246872277516, 40.682509050886878 ], [ -73.896250043246681, 40.682501692105404 ], [ -73.896263750702104, 40.682464484473464 ], [ -73.896276708243164, 40.682430291967925 ], [ -73.896283809015245, 40.682399328748083 ], [ -73.896287967801342, 40.68238203454947 ], [ -73.896293574401611, 40.682349601315828 ], [ -73.896296562303874, 40.682327609008368 ], [ -73.896308148436432, 40.682340775042171 ], [ -73.89645516365664, 40.682507839442387 ], [ -73.896617592840002, 40.682692422622246 ], [ -73.896550350316431, 40.68283571214279 ], [ -73.896418861443422, 40.683064735571456 ], [ -73.89623212824273, 40.68334149297079 ], [ -73.89611538018967, 40.683505950856677 ], [ -73.896039945565477, 40.68360499041875 ], [ -73.895945599607387, 40.68372885887851 ], [ -73.895870490757275, 40.683816655704 ], [ -73.895756335209853, 40.683950092901618 ], [ -73.895635540962445, 40.684084819775592 ], [ -73.895500691632805, 40.684231648315489 ], [ -73.895230436763356, 40.684507758905603 ], [ -73.894562412920777, 40.685173321328584 ], [ -73.894291196906906, 40.685448012266185 ], [ -73.892906684305416, 40.686686766344437 ], [ -73.892332417159807, 40.687388949500836 ], [ -73.892350806215035, 40.687398043003348 ], [ -73.892016124001913, 40.687837133322709 ], [ -73.89096351589113, 40.689218079808008 ], [ -73.890983700596749, 40.689229724623054 ], [ -73.890829424724629, 40.689414517345334 ], [ -73.890722088243251, 40.689543086908529 ], [ -73.89062538649948, 40.689658916099397 ], [ -73.890433917671444, 40.689888255414829 ], [ -73.890534705529703, 40.690343023090904 ], [ -73.890913039281287, 40.691371183984785 ], [ -73.890898678344186, 40.691429512808817 ], [ -73.89074621644049, 40.691385837104029 ], [ -73.890243965383846, 40.691241958146954 ], [ -73.888991689461903, 40.690883209196151 ], [ -73.88897126799192, 40.690878672539789 ], [ -73.888938857506517, 40.69087344881526 ], [ -73.888916720363056, 40.69087121216495 ], [ -73.888887502344815, 40.690869862911214 ], [ -73.888858926212791, 40.690870285536363 ], [ -73.888831612030899, 40.690872307712063 ], [ -73.888808542308993, 40.690875271491485 ], [ -73.888782694069832, 40.690880011119333 ], [ -73.882925913658369, 40.692119488772441 ], [ -73.882825468546827, 40.692195239294662 ], [ -73.882717804801757, 40.692179865819128 ], [ -73.882673189794602, 40.692153663087623 ], [ -73.8825296263403, 40.692196990453802 ], [ -73.88234872856313, 40.692251583573984 ], [ -73.882201922921197, 40.692154446163833 ] ] ] ] } },
{ "type": "Feature", "properties": { "Borough": "QN", "Block": 3740, "Lot": 350, "CD": 405, "BCT2020": "4056100", "BCTCB2020": "40561001009", "CT2010": "561", "CB2010": "1004", "SchoolDist": "24", "Council": 32, "ZipCode": 11385, "FireComp": "E286", "PolicePrct": 104, "HealthCent": 46, "HealthArea": 2400, "Sanitboro": "4", "SanitDistr": "05", "SanitSub": "4C", "Address": "CYPRESS AVENUE", "ZoneDist1": "R3-2", "ZoneDist2": null, "ZoneDist3": null, "ZoneDist4": null, "Overlay1": null, "Overlay2": null, "SPDist1": null, "SPDist2": null, "SPDist3": null, "LtdHeight": null, "SplitZone": "N", "BldgClass": "Z8", "LandUse": "09", "Easements": 0, "OwnerType": "X", "OwnerName": "CONGREGATION EMANU-EL", "LotArea": 95000, "BldgArea": 0, "ComArea": 0, "ResArea": 0, "OfficeArea": 0, "RetailArea": 0, "GarageArea": 0, "StrgeArea": 0, "FactryArea": 0, "OtherArea": 0, "AreaSource": "7", "NumBldgs": 0, "NumFloors": 0.0, "UnitsRes": 0, "UnitsTotal": 0, "LotFront": 391.42, "LotDepth": 320.0, "BldgFront": 0.0, "BldgDepth": 0.0, "Ext": "N", "ProxCode": "0", "IrrLotCode": "Y", "LotType": "5", "BsmtCode": "0", "AssessLand": 238050.0, "AssessTot": 238050.0, "ExemptTot": 238050.0, "YearBuilt": 0, "YearAlter1": 0, "YearAlter2": 0, "HistDist": null, "Landmark": null, "BuiltFAR": 0.0, "ResidFAR": 0.75, "CommFAR": 0.0, "FacilFAR": 1.0, "BoroCode": 4, "BBL": 4037400350.0, "CondoNo": 0, "Tract2010": "0561", "XCoord": 1017000, "YCoord": 190608, "ZoneMap": "17c", "ZMCode": null, "Sanborn": "403 104", "TaxMap": "41903", "EDesigNum": null, "APPBBL": 0.0, "APPDate": null, "PLUTOMapID": "1", "FIRM07_FLA": null, "PFIRM15_FL": null, "Version": "25v4", "DCPEdited": null, "Latitude": 40.6897911, "Longitude": -73.8819067, "Notes": null, "Shape_Leng": 0.0, "Shape_Area": 95939.537048300001 }, "geometry": { "type": "MultiPolygon", "coordinates": [ [ [ [ -73.882691718999823, 40.689874882045153 ], [ -73.881465652177312, 40.690356390650464 ], [ -73.881117992067971, 40.689948634055966 ], [ -73.882149381366574, 40.689117598143753 ], [ -73.882602142198436, 40.689749805704686 ], [ -73.882691718999823, 40.689874882045153 ] ] ] ] } },
{ "type": "Feature", "properties": { "Borough": "QN", "Block": 3740, "Lot": 375, "CD": 405, "BCT2020": "4056100", "BCTCB2020": "40561001009", "CT2010": "561", "CB2010": "1004", "SchoolDist": "24", "Council": 32, "ZipCode": 11385, "FireComp": "E286", "PolicePrct": 104, "HealthCent": 46, "HealthArea": 2400, "Sanitboro": "4", "SanitDistr": "05", "SanitSub": "4C", "Address": "CYPRESS AVENUE", "ZoneDist1": "R3-2", "ZoneDist2": null, "ZoneDist3": null, "ZoneDist4": null, "Overlay1": null, "Overlay2": null, "SPDist1": null, "SPDist2": null, "SPDist3": null, "LtdHeight": null, "SplitZone": "N", "BldgClass": "Z8", "LandUse": "09", "Easements": 0, "OwnerType": "X", "OwnerName": "VETERANS ADMINISTRATI", "LotArea": 115870, "BldgArea": 0, "ComArea": 0, "ResArea": 0, "OfficeArea": 0, "RetailArea": 0, "GarageArea": 0, "StrgeArea": 0, "FactryArea": 0, "OtherArea": 0, "AreaSource": "7", "NumBldgs": 0, "NumFloors": 0.0, "UnitsRes": 0, "UnitsTotal": 0, "LotFront": 177.83, "LotDepth": 420.83, "BldgFront": 0.0, "BldgDepth": 0.0, "Ext": "N", "ProxCode": "0", "IrrLotCode": "Y", "LotType": "5", "BsmtCode": "0", "AssessLand": 297000.0, "AssessTot": 297000.0, "ExemptTot": 297000.0, "YearBuilt": 0, "YearAlter1": 0, "YearAlter2": 0, "HistDist": null, "Landmark": null, "BuiltFAR": 0.0, "ResidFAR": 0.75, "CommFAR": 0.0, "FacilFAR": 1.0, "BoroCode": 4, "BBL": 4037400375.0, "CondoNo": 0, "Tract2010": "0561", "XCoord": 1016718, "YCoord": 190304, "ZoneMap": "17c", "ZMCode": null, "Sanborn": "403 104", "TaxMap": "41903", "EDesigNum": null, "APPBBL": 0.0, "APPDate": null, "PLUTOMapID": "1", "FIRM07_FLA": null, "PFIRM15_FL": null, "Version": "25v4", "DCPEdited": null, "Latitude": 40.6889577, "Longitude": -73.8829251, "Notes": null, "Shape_Leng": 0.0, "Shape_Area": 114873.92271499999 }, "geometry": { "type": "MultiPolygon", "coordinates": [ [ [ [ -73.883811812185641, 40.687914239789912 ], [ -73.883375432237514, 40.688472666093823 ], [ -73.883215255843837, 40.689495133232597 ], [ -73.882602142198436, 40.689749805704686 ], [ -73.882149381366574, 40.689117598143753 ], [ -73.883745901940543, 40.687831152131494 ], [ -73.883811812185641, 40.687914239789912 ] ] ] ] } },
{ "type": "Feature", "properties": { "Borough": "QN", "Block": 8834, "Lot": 1, "CD": 409, "BCT2020": "4000200", "BCTCB2020": "40002002003", "CT2010": "2", "CB2010": "2006", "SchoolDist": "27", "Council": 32, "ZipCode": 11421, "FireComp": "E293", "PolicePrct": 75, "HealthCent": 45, "HealthArea": 2500, "Sanitboro": "4", "SanitDistr": "09", "SanitSub": "2C", "Address": "74-01 JAMAICA AVENUE", "ZoneDist1": "R3-2", "ZoneDist2": null, "ZoneDist3": null, "ZoneDist4": null, "Overlay1": null, "Overlay2": null, "SPDist1": null, "SPDist2": null, "SPDist3": null, "LtdHeight": null, "SplitZone": "N", "BldgClass": "W1", "LandUse": "08", "Easements": 0, "OwnerType": "C", "OwnerName": "NYC DEPARTMENT OF EDUCATION", "LotArea": 98780, "BldgArea": 10265, "ComArea": 10265, "ResArea": 0, "OfficeArea": 0, "RetailArea": 0, "GarageArea": 0, "StrgeArea": 2265, "FactryArea": 0, "OtherArea": 8000, "AreaSource": "2", "NumBldgs": 1, "NumFloors": 4.0, "UnitsRes": 0, "UnitsTotal": 1, "LotFront": 213.25, "LotDepth": 839.75, "BldgFront": 85.5, "BldgDepth": 26.5, "Ext": "N", "ProxCode": "0", "IrrLotCode": "Y", "LotType": "3", "BsmtCode": "0", "AssessLand": 1395000.0, "AssessTot": 2680650.0, "ExemptTot": 2680650.0, "YearBuilt": 1936, "YearAlter1": 0, "YearAlter2": 0, "HistDist": null, "Landmark": null, "BuiltFAR": 0.1, "ResidFAR": 0.75, "CommFAR": 0.0, "FacilFAR": 1.0, "BoroCode": 4, "BBL": 4088340001.0, "CondoNo": 0, "Tract2010": "0002", "XCoord": 1020854, "YCoord": 191434, "ZoneMap": "17c", "ZMCode": "Y", "Sanborn": "404 001", "TaxMap": "43901", "EDesigNum": null, "APPBBL": 0.0, "APPDate": null, "PLUTOMapID": "1", "FIRM07_FLA": null, "PFIRM15_FL": null, "Version": "25v4", "DCPEdited": "t", "Latitude": 40.6920431, "Longitude": -73.8680051, "Notes": null, "Shape_Leng": 0.0, "Shape_Area": 105247.52989000001 }, "geometry": { "type": "MultiPolygon", "coordinates": [ [ [ [ -73.867325649432729, 40.691356659164462 ], [ -73.868134794664755, 40.691233434828668 ], [ -73.868620319005871, 40.69350922421679 ], [ -73.868033490488855, 40.69259765518175 ], [ -73.86739405492375, 40.69161664692426 ], [ -73.867325649432729, 40.691356659164462 ] ] ] ] } },
{ "type": "Feature", "properties": { "Borough": "QN", "Block": 8839, "Lot": 87, "CD": 409, "BCT2020": "4000200", "BCTCB2020": "40002002000", "CT2010": "2", "CB2010": "2000", "SchoolDist": "27", "Council": 32, "ZipCode": 11421, "FireComp": "E293", "PolicePrct": 102, "HealthCent": 45, "HealthArea": 2500, "Sanitboro": "4", "SanitDistr": "09", "SanitSub": "2C", "Address": "74-07 85 ROAD", "ZoneDist1": "R3-2", "ZoneDist2": null, "ZoneDist3": null, "ZoneDist4": null, "Overlay1": null, "Overlay2": null, "SPDist1": null, "SPDist2": null, "SPDist3": null, "LtdHeight": null, "SplitZone": "N", "BldgClass": "Z8", "LandUse": "09", "Easements": 0, "OwnerType": "X", "OwnerName": "UNAVAILABLE OWNER", "LotArea": 28000, "BldgArea": 0, "ComArea": 0, "ResArea": 0, "OfficeArea": 0, "RetailArea": 0, "GarageArea": 0, "StrgeArea": 0, "FactryArea": 0, "OtherArea": 0, "AreaSource": "7", "NumBldgs": 1, "NumFloors": 0.0, "UnitsRes": 0, "UnitsTotal": 0, "LotFront": 115.25, "LotDepth": 441.58, "BldgFront": 0.0, "BldgDepth": 0.0, "Ext": "N", "ProxCode": "0", "IrrLotCode": "Y", "LotType": "5", "BsmtCode": "0", "AssessLand": 174150.0, "AssessTot": 174150.0, "ExemptTot": 174150.0, "YearBuilt": 0, "YearAlter1": 0, "YearAlter2": 0, "HistDist": null, "Landmark": null, "BuiltFAR": 0.0, "ResidFAR": 0.75, "CommFAR": 0.0, "FacilFAR": 1.0, "BoroCode": 4, "BBL": 4088390087.0, "CondoNo": 0, "Tract2010": "0002", "XCoord": 1020686, "YCoord": 192282, "ZoneMap": "13d", "ZMCode": null, "Sanborn": "404 001", "TaxMap": "43901", "EDesigNum": null, "APPBBL": 0.0, "APPDate": null, "PLUTOMapID": "1", "FIRM07_FLA": null, "PFIRM15_FL": null, "Version": "25v4", "DCPEdited": null, "Latitude": 40.6943714, "Longitude": -73.8686064, "Notes": null, "Shape_Leng": 0.0, "Shape_Area": 31102.823100699999 }, "geometry": { "type": "MultiPolygon", "coordinates": [ [ [ [ -73.868716335906868, 40.694073600663906 ], [ -73.868932151899884, 40.695114587528977 ], [ -73.868718938316675, 40.694767319034092 ], [ -73.868544132901022, 40.694625270430151 ], [ -73.868440405029546, 40.694462946025908 ], [ -73.868227788820448, 40.694087576723902 ], [ -73.868639703949938, 40.693935943528928 ], [ -73.868639596072086, 40.693935412160648 ], [ -73.868688253973119, 40.693919717795808 ], [ -73.868716335906868, 40.694073600663906 ] ] ] ] } },
{ "type": "Feature", "properties": { "Borough": "QN", "Block": 3750, "Lot": 400, "CD": 405, "BCT2020": "4056100", "BCTCB2020": "40561001007", "CT2010": "561", "CB2010": "1001", "SchoolDist": "24", "Council": 32, "ZipCode": 11385, "FireComp": "E286", "PolicePrct": 104, "HealthCent": 46, "HealthArea": 2400, "Sanitboro": "4", "SanitDistr": "05", "SanitSub": "4C", "Address": "JACKIE ROBINSON PKWY", "ZoneDist1": "R3-2", "ZoneDist2": null, "ZoneDist3": null, "ZoneDist4": null, "Overlay1": null, "Overlay2": null, "SPDist1": null, "SPDist2": null, "SPDist3": null, "LtdHeight": null, "SplitZone": "N", "BldgClass": "Z8", "LandUse": "09", "Easements": 0, "OwnerType": "X", "OwnerName": "CYPRESS HILLS CEMETER", "LotArea": 2199780, "BldgArea": 38157, "ComArea": 38157, "ResArea": 0, "OfficeArea": 38157, "RetailArea": 0, "GarageArea": 0, "StrgeArea": 0, "FactryArea": 0, "OtherArea": 0, "AreaSource": "2", "NumBldgs": 1, "NumFloors": 3.0, "UnitsRes": 0, "UnitsTotal": 0, "LotFront": 213.83, "LotDepth": 997.83, "BldgFront": 79.0, "BldgDepth": 161.0, "Ext": "N", "ProxCode": "0", "IrrLotCode": "Y", "LotType": "5", "BsmtCode": "0", "AssessLand": 4504050.0, "AssessTot": 6009750.0, "ExemptTot": 6009750.0, "YearBuilt": 1931, "YearAlter1": 0, "YearAlter2": 0, "HistDist": null, "Landmark": null, "BuiltFAR": 0.02, "ResidFAR": 0.75, "CommFAR": 0.0, "FacilFAR": 1.0, "BoroCode": 4, "BBL": 4037500400.0000005, "CondoNo": 0, "Tract2010": "0561", "XCoord": 1019124, "YCoord": 192416, "ZoneMap": "13d", "ZMCode": "Y", "Sanborn": "499 999", "TaxMap": "41903", "EDesigNum": null, "APPBBL": 0.0, "APPDate": null, "PLUTOMapID": "1", "FIRM07_FLA": null, "PFIRM15_FL": null, "Version": "25v4", "DCPEdited": null, "Latitude": 40.6947455, "Longitude": -73.8742385, "Notes": null, "Shape_Leng": 0.0, "Shape_Area": 2167867.4755699998 }, "geometry": { "type": "MultiPolygon", "coordinates": [ [ [ [ -73.879332684023836, 40.691276773162087 ], [ -73.879711042230639, 40.691082227728238 ], [ -73.879925147814788, 40.691095656736863 ], [ -73.880590539312308, 40.691243732484232 ], [ -73.880562897895203, 40.691326468132473 ], [ -73.880750872671157, 40.691386986908888 ], [ -73.880827519405031, 40.691411663925209 ], [ -73.881055064923103, 40.691499214268951 ], [ -73.881225502866315, 40.691576408692065 ], [ -73.881273164404348, 40.691597994637888 ], [ -73.881346668165392, 40.691635974964441 ], [ -73.881498294998707, 40.691714320220839 ], [ -73.881742895480883, 40.691857724032232 ], [ -73.881883521394627, 40.691941011173441 ], [ -73.882014020972022, 40.692028132958534 ], [ -73.882022869975586, 40.692037681204681 ], [ -73.882028858706931, 40.692045701881376 ], [ -73.882032323563195, 40.6920512247018 ], [ -73.882035191429935, 40.69205653432752 ], [ -73.882038314225682, 40.692063494004685 ], [ -73.882041686869087, 40.692073734525678 ], [ -73.882043400807362, 40.692081942646709 ], [ -73.882044165228095, 40.692088530707906 ], [ -73.882044352947347, 40.692097413575468 ], [ -73.882043295298217, 40.692108071784475 ], [ -73.88204215547205, 40.692113743897046 ], [ -73.882041077577085, 40.692117834719639 ], [ -73.882038761858183, 40.692124717618803 ], [ -73.88203623853525, 40.692130658451617 ], [ -73.882032886047497, 40.692137152184394 ], [ -73.88203036447922, 40.692141355888424 ], [ -73.882025562060022, 40.692148268694226 ], [ -73.882020138981133, 40.692154863872076 ], [ -73.882014494669079, 40.692160764606164 ], [ -73.882008739175745, 40.692166015851804 ], [ -73.882001173445943, 40.692172005468464 ], [ -73.881993860291772, 40.692177001203937 ], [ -73.881981073717498, 40.692184246224272 ], [ -73.881973586892812, 40.692187757721989 ], [ -73.881963720181076, 40.692191682903506 ], [ -73.881954086770392, 40.692194824757841 ], [ -73.881945015456765, 40.692197218007742 ], [ -73.881916406372, 40.692199823507316 ], [ -73.87852510333461, 40.692508639671203 ], [ -73.878322360254529, 40.692534834529098 ], [ -73.878079075004067, 40.692589561093499 ], [ -73.877911723380635, 40.692659048952649 ], [ -73.87778355577025, 40.692738596363895 ], [ -73.877665832434744, 40.692836703500035 ], [ -73.877564086463977, 40.692975255233321 ], [ -73.877508112230359, 40.693130888821258 ], [ -73.87749770485182, 40.69334368235539 ], [ -73.87750333539995, 40.693467123442908 ], [ -73.877503126476157, 40.693495803696436 ], [ -73.877500882736271, 40.693525068828194 ], [ -73.877497242788621, 40.69355054950254 ], [ -73.877491948490899, 40.693576285000944 ], [ -73.877480085913092, 40.693617211464918 ], [ -73.877471460026982, 40.69364029856068 ], [ -73.877462889931266, 40.693660119602136 ], [ -73.877450022172283, 40.693685979457264 ], [ -73.877428098684575, 40.693722940127799 ], [ -73.877411244454123, 40.693747224244262 ], [ -73.877393604123156, 40.693769884000325 ], [ -73.877372674454833, 40.693793929596573 ], [ -73.877352660828535, 40.69381461643718 ], [ -73.877322351513669, 40.693842510779795 ], [ -73.877300221071806, 40.693860718073765 ], [ -73.877272670165368, 40.693881256386561 ], [ -73.877242114309752, 40.693901661725228 ], [ -73.877210777146118, 40.693920345405068 ], [ -73.87717789484266, 40.693937804555347 ], [ -73.877131592397561, 40.693959117903788 ], [ -73.877083990424183, 40.693977498708222 ], [ -73.876656963331797, 40.694129869042094 ], [ -73.876330448451156, 40.694246372230296 ], [ -73.876257960618062, 40.694272237052061 ], [ -73.876231872289566, 40.694285980514501 ], [ -73.876206289949423, 40.694300578188191 ], [ -73.876181459639255, 40.69431789714541 ], [ -73.876158885700292, 40.694335135620889 ], [ -73.876137892454452, 40.694357452912875 ], [ -73.875985101773566, 40.694519898171997 ], [ -73.875893912116538, 40.694605408800662 ], [ -73.8757624253318, 40.694783468271424 ], [ -73.875701754336887, 40.6949517210276 ], [ -73.875676848965995, 40.695026200706195 ], [ -73.875643797212845, 40.695125036733955 ], [ -73.875637053243892, 40.695139064854544 ], [ -73.875629470784716, 40.695152232035774 ], [ -73.875620034132297, 40.69516616621916 ], [ -73.875614206098405, 40.69517377286752 ], [ -73.875596712395705, 40.695193373367758 ], [ -73.875552366090318, 40.695229569257144 ], [ -73.875383392966512, 40.695358333215275 ], [ -73.87522119104041, 40.695498683080331 ], [ -73.875148027351827, 40.695569265945394 ], [ -73.874085541220978, 40.696594248891593 ], [ -73.873919718237687, 40.696729407822076 ], [ -73.873690504429533, 40.696870161949064 ], [ -73.873518360730358, 40.696953528486283 ], [ -73.873270647005668, 40.69704492153511 ], [ -73.873022899967424, 40.697111163524603 ], [ -73.872771006140283, 40.697152311225743 ], [ -73.870445621068484, 40.697579515638772 ], [ -73.868932151899884, 40.695114587528977 ], [ -73.871499851937358, 40.694648625929879 ], [ -73.874000051779262, 40.694219347060987 ], [ -73.878259400389993, 40.691941677592659 ], [ -73.878804737433313, 40.691652501400412 ], [ -73.878963047481491, 40.691568332475846 ], [ -73.879332684023836, 40.691276773162087 ] ] ] ] } },
{ "type": "Feature", "properties": { "Borough": "QN", "Block": 8839, "Lot": 92, "CD": 409, "BCT2020": "4000200", "BCTCB2020": "40002002000", "CT2010": "2", "CB2010": "2000", "SchoolDist": "27", "Council": 32, "ZipCode": 11421, "FireComp": "E293", "PolicePrct": 102, "HealthCent": 45, "HealthArea": 2500, "Sanitboro": "4", "SanitDistr": "09", "SanitSub": "2C", "Address": "74-02 PARK LANE SOUTH", "ZoneDist1": "R3-1", "ZoneDist2": null, "ZoneDist3": null, "ZoneDist4": null, "Overlay1": null, "Overlay2": null, "SPDist1": null, "SPDist2": null, "SPDist3": null, "LtdHeight": null, "SplitZone": "N", "BldgClass": "V0", "LandUse": "11", "Easements": 0, "OwnerType": null, "OwnerName": "AKLU  NARAINDAT", "LotArea": 5550, "BldgArea": 0, "ComArea": 0, "ResArea": 0, "OfficeArea": 0, "RetailArea": 0, "GarageArea": 0, "StrgeArea": 0, "FactryArea": 0, "OtherArea": 0, "AreaSource": "7", "NumBldgs": 0, "NumFloors": 0.0, "UnitsRes": 0, "UnitsTotal": 0, "LotFront": 98.17, "LotDepth": 74.67, "BldgFront": 0.0, "BldgDepth": 0.0, "Ext": null, "ProxCode": "0", "IrrLotCode": "Y", "LotType": "5", "BsmtCode": "5", "AssessLand": 20460.0, "AssessTot": 20460.0, "ExemptTot": 0.0, "YearBuilt": 0, "YearAlter1": 0, "YearAlter2": 0, "HistDist": null, "Landmark": null, "BuiltFAR": 0.0, "ResidFAR": 0.75, "CommFAR": 0.0, "FacilFAR": 1.0, "BoroCode": 4, "BBL": 4088390092.0, "CondoNo": 0, "Tract2010": "0002", "XCoord": 1020759, "YCoord": 192348, "ZoneMap": "13d", "ZMCode": null, "Sanborn": "404 001", "TaxMap": "43901", "EDesigNum": null, "APPBBL": 0.0, "APPDate": null, "PLUTOMapID": "1", "FIRM07_FLA": null, "PFIRM15_FL": null, "Version": "25v4", "DCPEdited": null, "Latitude": 40.6945523, "Longitude": -73.8683428, "Notes": null, "Shape_Leng": 0.0, "Shape_Area": 4447.0846013 }, "geometry": { "type": "MultiPolygon", "coordinates": [ [ [ [ -73.86817094518625, 40.694489903896617 ], [ -73.868216177639908, 40.694485379359492 ], [ -73.868295556877541, 40.694477437745931 ], [ -73.868440405029546, 40.694462946025908 ], [ -73.868544132901022, 40.694625270430151 ], [ -73.868526519740698, 40.694628896469005 ], [ -73.868519543448571, 40.694625016252409 ], [ -73.868512497803678, 40.694621468340756 ], [ -73.868504462096666, 40.694617835468215 ], [ -73.868499705172624, 40.69461587679961 ], [ -73.868494168693587, 40.694613767737735 ], [ -73.868488368360346, 40.694611743121612 ], [ -73.86848137336699, 40.694609543206859 ], [ -73.868474329430612, 40.694607581920259 ], [ -73.86846561393034, 40.694605490886474 ], [ -73.868458406878773, 40.694604031041493 ], [ -73.868451305840125, 40.694602822550848 ], [ -73.868441322925804, 40.69460149723394 ], [ -73.86843136158808, 40.694600601537246 ], [ -73.868422118782405, 40.694600145213592 ], [ -73.868413311869105, 40.694600039673482 ], [ -73.868398593935538, 40.694600583852306 ], [ -73.868389649209846, 40.694601357008978 ], [ -73.868381135789349, 40.694602411675554 ], [ -73.868374833685579, 40.694603395922222 ], [ -73.868369610695481, 40.694604344509123 ], [ -73.868362200045866, 40.694605906500698 ], [ -73.868356256797725, 40.694607345936539 ], [ -73.868348746995807, 40.694609412119483 ], [ -73.868342486854473, 40.69461135457864 ], [ -73.868335880473552, 40.694613631617038 ], [ -73.868330371319985, 40.694615718998854 ], [ -73.868323565124626, 40.694618545960935 ], [ -73.868317278297184, 40.694621420451483 ], [ -73.868311861378089, 40.694624111215894 ], [ -73.86830704449855, 40.694626685709892 ], [ -73.868297174005392, 40.694632544871595 ], [ -73.868287453415746, 40.694639192957084 ], [ -73.868279219167604, 40.694645643799817 ], [ -73.868271912295853, 40.694652141634812 ], [ -73.868265739607637, 40.694658325620161 ], [ -73.868259894967977, 40.694664923264639 ], [ -73.868254075698175, 40.694672420541501 ], [ -73.8682516410814, 40.694675910836295 ], [ -73.868249304416551, 40.694679503058055 ], [ -73.868246728511366, 40.694683794660001 ], [ -73.868245042437209, 40.69468683278992 ], [ -73.868243301424982, 40.694687191956987 ], [ -73.86817094518625, 40.694489903896617 ] ] ] ] } }
]
}
