{
"type": "FeatureCollection",
"name": "pluto_North_&_South_Brother_Islands",
"crs": { "type": "name", "properties": { "name": "urn:ogc:def:crs:OGC:1.3:CRS84" } },
"features": [
{ "type": "Feature", "properties": { "Borough": "BX", "Block": 2595, "Lot": 1, "CD": 201, "BCT2020": "2001903", "BCTCB2020": "20019032005", "CT2010": "19", "CB2010": "4004", "SchoolDist": "07", "Council": 8, "ZipCode": 10454, "FireComp": "L029", "PolicePrct": 40, "HealthCent": 23, "HealthArea": 4700, "Sanitboro": "2", "SanitDistr": "01", "SanitSub": "2A", "Address": "106 LOCUST AVENUE", "ZoneDist1": "M3-1", "ZoneDist2": null, "ZoneDist3": null, "ZoneDist4": null, "Overlay1": null, "Overlay2": null, "SPDist1": null, "SPDist2": null, "SPDist3": null, "LtdHeight": null, "SplitZone": "N", "BldgClass": "Z9", "LandUse": null, "Easements": 0, "OwnerType": "C", "OwnerName": "NYC DEPARTMENT OF GENERAL SERVICES", "LotArea": 93072, "BldgArea": 30150, "ComArea": 30150, "ResArea": 0, "OfficeArea": 2400, "RetailArea": 0, "GarageArea": 27750, "StrgeArea": 0, "FactryArea": 0, "OtherArea": 0, "AreaSource": "2", "NumBldgs": 5, "NumFloors": 2.0, "UnitsRes": 0, "UnitsTotal": 1, "LotFront": 207.75, "LotDepth": 448.0, "BldgFront": 150.0, "BldgDepth": 185.0, "Ext": "N", "ProxCode": "0", "IrrLotCode": "N", "LotType": "3", "BsmtCode": "0", "AssessLand": 697500.0, "AssessTot": 3453750.0, "ExemptTot": 3453750.0, "YearBuilt": 1973, "YearAlter1": 0, "YearAlter2": 0, "HistDist": null, "Landmark": null, "BuiltFAR": 0.32, "ResidFAR": 0.0, "CommFAR": 2.0, "FacilFAR": 0.0, "BoroCode": 2, "BBL": 2025950001.0, "CondoNo": 0, "Tract2010": "0019", "XCoord": 1009551, "YCoord": 230618, "ZoneMap": "6d", "ZMCode": null, "Sanborn": "209S024", "TaxMap": "21002", "EDesigNum": null, "APPBBL": 0.0, "APPDate": null, "PLUTOMapID": "1", "FIRM07_FLA": "1", "PFIRM15_FL": "1", "Version": "25v4", "DCPEdited": "t", "Latitude": 40.7996329, "Longitude": -73.9086166, "Notes": null, "Shape_Leng": 0.0, "Shape_Area": 79710.201145400002 }, "geometry": { "type": "MultiPolygon", "coordinates": [ [ [ [ -73.907757238763679, 40.799425995791097 ], [ -73.907768303149567, 40.799431389329172 ], [ -73.907796382505524, 40.799445079642084 ], [ -73.907825589900213, 40.799457059928017 ], [ -73.907854797411474, 40.799469041962965 ], [ -73.907885129357211, 40.7994801693875 ], [ -73.907915461391923, 40.799490443223632 ], [ -73.907946920384077, 40.799499865127956 ], [ -73.907977255898814, 40.799508431541057 ], [ -73.90800983822848, 40.799516997901996 ], [ -73.908041303102152, 40.799523856034988 ], [ -73.908049166706235, 40.799525570649244 ], [ -73.908073888986337, 40.799529860555651 ], [ -73.908092425173777, 40.799536282434659 ], [ -73.908115497227911, 40.799515374065649 ], [ -73.908166147690466, 40.799462457851469 ], [ -73.90813302138271, 40.799441076867168 ], [ -73.908130222387868, 40.799432532480708 ], [ -73.90795846354311, 40.799281212787896 ], [ -73.908020341657576, 40.799237702267995 ], [ -73.908101206058234, 40.799283036031184 ], [ -73.908129278268731, 40.799302703739521 ], [ -73.908159599685092, 40.799321517816615 ], [ -73.908189922262082, 40.799338625395826 ], [ -73.908220245955064, 40.799355733052941 ], [ -73.908252820063097, 40.799371987828103 ], [ -73.90828539297793, 40.799388242676834 ], [ -73.908317969363935, 40.799402788269347 ], [ -73.908352792529698, 40.799416481142693 ], [ -73.908386493538558, 40.799429321204343 ], [ -73.908421322605619, 40.799441306650742 ], [ -73.908442667753306, 40.79944730387799 ], [ -73.908457273891798, 40.799452441157875 ], [ -73.908485173995857, 40.799460416619965 ], [ -73.908581016913516, 40.799374810921947 ], [ -73.908614778937647, 40.799343234634016 ], [ -73.908472160835359, 40.799251728556648 ], [ -73.908238582589377, 40.79909950367005 ], [ -73.908226262083687, 40.799068745323815 ], [ -73.908222905019542, 40.799059347667395 ], [ -73.908207180294369, 40.79904908388967 ], [ -73.908204946573477, 40.7990396880475 ], [ -73.908209756320971, 40.799034985024662 ], [ -73.909522061477631, 40.799784554455087 ], [ -73.909049570702976, 40.800252077932889 ], [ -73.907986791409584, 40.799639223546635 ], [ -73.907990565044855, 40.799638271086117 ], [ -73.908061472976485, 40.799567433062734 ], [ -73.908032257150964, 40.799562284058396 ], [ -73.908003042617878, 40.799556283142508 ], [ -73.907974950120973, 40.799550281358734 ], [ -73.907946920295345, 40.799543703036896 ], [ -73.907945735570834, 40.799543425007705 ], [ -73.907917646657211, 40.799535714966957 ], [ -73.907889560144099, 40.799527151258403 ], [ -73.907862598275955, 40.799517734696771 ], [ -73.907834511749044, 40.79950831731054 ], [ -73.907808673218724, 40.799498045295209 ], [ -73.907781713633611, 40.799486919632926 ], [ -73.907755877483851, 40.799474942038216 ], [ -73.907731168218803, 40.79946296266472 ], [ -73.907724102409674, 40.799459049173088 ], [ -73.907757238763679, 40.799425995791097 ] ] ] ] } },
{ "type": "Feature", "properties": { "Borough": "BX", "Block": 2605, "Lot": 10, "CD": 202, "BCT2020": "2001904", "BCTCB2020": "20019042000", "CT2010": "19", "CB2010": "5000", "SchoolDist": "07", "Council": 17, "ZipCode": 0, "FireComp": null, "PolicePrct": 41, "HealthCent": 23, "HealthArea": 4700, "Sanitboro": null, "SanitDistr": null, "SanitSub": null, "Address": "NORTH BROTHER ISLAND", "ZoneDist1": "C8-2", "ZoneDist2": null, "ZoneDist3": null, "ZoneDist4": null, "Overlay1": null, "Overlay2": null, "SPDist1": null, "SPDist2": null, "SPDist3": null, "LtdHeight": null, "SplitZone": "N", "BldgClass": "Z9", "LandUse": null, "Easements": 0, "OwnerType": "X", "OwnerName": "US COAST GUARD", "LotArea": 33300, "BldgArea": 1200, "ComArea": 1200, "ResArea": 0, "OfficeArea": 0, "RetailArea": 0, "GarageArea": 0, "StrgeArea": 0, "FactryArea": 0, "OtherArea": 1200, "AreaSource": "2", "NumBldgs": 1, "NumFloors": 1.0, "UnitsRes": 0, "UnitsTotal": 1, "LotFront": 1600.0, "LotDepth": 6400.0, "BldgFront": 30.0, "BldgDepth": 40.0, "Ext": "N", "ProxCode": "0", "IrrLotCode": "Y", "LotType": "5", "BsmtCode": "0", "AssessLand": 34650.0, "AssessTot": 46350.0, "ExemptTot": 46350.0, "YearBuilt": 1931, "YearAlter1": 0, "YearAlter2": 0, "HistDist": null, "Landmark": null, "BuiltFAR": 0.04, "ResidFAR": 0.0, "CommFAR": 2.0, "FacilFAR": 4.8, "BoroCode": 2, "BBL": 2026050010.0, "CondoNo": 0, "Tract2010": "0019", "XCoord": 1012283, "YCoord": 230685, "ZoneMap": "6d", "ZMCode": null, "Sanborn": "299 999", "TaxMap": "21002", "EDesigNum": null, "APPBBL": 0.0, "APPDate": null, "PLUTOMapID": "1", "FIRM07_FLA": "1", "PFIRM15_FL": "1", "Version": "25v4", "DCPEdited": null, "Latitude": 40.7998085, "Longitude": -73.8987487, "Notes": null, "Shape_Leng": 0.0, "Shape_Area": 32149.8760325 }, "geometry": { "type": "MultiPolygon", "coordinates": [ [ [ [ -73.898212329660353, 40.799781385054395 ], [ -73.898286910603829, 40.79966424079376 ], [ -73.898312216209064, 40.799618322289 ], [ -73.898336852786457, 40.799590696794759 ], [ -73.898373581883021, 40.799572575167595 ], [ -73.898420794170775, 40.799566226835744 ], [ -73.898643572361607, 40.799561723563123 ], [ -73.898676256795653, 40.799563124694281 ], [ -73.898711268058236, 40.799568007435568 ], [ -73.898751764634525, 40.7995791102339 ], [ -73.89906630132586, 40.799722795791716 ], [ -73.899084230918731, 40.799733255583867 ], [ -73.89909777042844, 40.799742732624878 ], [ -73.89910763057155, 40.799756904346062 ], [ -73.899111764014449, 40.799768434344543 ], [ -73.899160633874843, 40.799926574592398 ], [ -73.899174964691824, 40.799994155367102 ], [ -73.899177670795552, 40.800041398084325 ], [ -73.899173989354793, 40.800077169985762 ], [ -73.899159880936182, 40.800151385906489 ], [ -73.898212329660353, 40.799781385054395 ] ] ] ] } },
{ "type": "Feature", "properties": { "Borough": "BX", "Block": 2605, "Lot": 20, "CD": 202, "BCT2020": "2001904", "BCTCB2020": "20019042000", "CT2010": "19", "CB2010": "5000", "SchoolDist": "07", "Council": 17, "ZipCode": 0, "FireComp": null, "PolicePrct": 41, "HealthCent": 23, "HealthArea": 4700, "Sanitboro": null, "SanitDistr": null, "SanitSub": null, "Address": "NORTH BROTHER ISLAND", "ZoneDist1": "C8-2", "ZoneDist2": null, "ZoneDist3": null, "ZoneDist4": null, "Overlay1": null, "Overlay2": null, "SPDist1": null, "SPDist2": null, "SPDist3": null, "LtdHeight": null, "SplitZone": "N", "BldgClass": "I9", "LandUse": "08", "Easements": 0, "OwnerType": "C", "OwnerName": "NYC DEPARTMENT OF PARKS AND RECREATION", "LotArea": 892110, "BldgArea": 24600, "ComArea": 24600, "ResArea": 0, "OfficeArea": 24600, "RetailArea": 0, "GarageArea": 0, "StrgeArea": 0, "FactryArea": 0, "OtherArea": 0, "AreaSource": "2", "NumBldgs": 11, "NumFloors": 0.0, "UnitsRes": 0, "UnitsTotal": 1, "LotFront": 1100.0, "LotDepth": 900.0, "BldgFront": 0.0, "BldgDepth": 0.0, "Ext": "N", "ProxCode": "0", "IrrLotCode": "Y", "LotType": "5", "BsmtCode": "0", "AssessLand": 677700.0, "AssessTot": 3384450.0, "ExemptTot": 3384450.0, "YearBuilt": 1931, "YearAlter1": 0, "YearAlter2": 0, "HistDist": null, "Landmark": null, "BuiltFAR": 0.03, "ResidFAR": 0.0, "CommFAR": 2.0, "FacilFAR": 4.8, "BoroCode": 2, "BBL": 2026050020.0, "CondoNo": 0, "Tract2010": "0019", "XCoord": 1012510, "YCoord": 231151, "ZoneMap": "6d", "ZMCode": null, "Sanborn": "299 999", "TaxMap": "21002", "EDesigNum": null, "APPBBL": 0.0, "APPDate": null, "PLUTOMapID": "1", "FIRM07_FLA": "1", "PFIRM15_FL": "1", "Version": "25v4", "DCPEdited": "t", "Latitude": 40.8010868, "Longitude": -73.8979269, "Notes": null, "Shape_Leng": 0.0, "Shape_Area": 389133.86714500003 }, "geometry": { "type": "MultiPolygon", "coordinates": [ [ [ [ -73.896843587038006, 40.800743823608229 ], [ -73.897011805440826, 40.800655912427715 ], [ -73.897241194121946, 40.800562168999512 ], [ -73.897337257895472, 40.800499669943207 ], [ -73.89745264953747, 40.800405311945561 ], [ -73.897521670106144, 40.800341276656894 ], [ -73.897608702637854, 40.800258638560408 ], [ -73.897812307341169, 40.800147745336425 ], [ -73.897903096645763, 40.800083826436989 ], [ -73.897933418092151, 40.800053020982332 ], [ -73.897956777249931, 40.800018669623739 ], [ -73.897999317797485, 40.799959594757198 ], [ -73.898042479753769, 40.799915664244899 ], [ -73.898170043633158, 40.799825337990598 ], [ -73.898212329660353, 40.799781385054395 ], [ -73.899159880936182, 40.800151385906489 ], [ -73.899143960366473, 40.800235866948313 ], [ -73.899143859369261, 40.800254056056197 ], [ -73.899147109956502, 40.800275081989312 ], [ -73.899157168819329, 40.800310667821194 ], [ -73.899197639860461, 40.800430478956947 ], [ -73.899212159092869, 40.800527925961816 ], [ -73.899206184616958, 40.800623119883802 ], [ -73.899160374809227, 40.800764645762683 ], [ -73.899126248115849, 40.800848086011648 ], [ -73.899057037779883, 40.800955885618038 ], [ -73.898953684896057, 40.801069735343106 ], [ -73.898839788223881, 40.801224391823524 ], [ -73.898799213225089, 40.801279031910596 ], [ -73.898755869334551, 40.801306758084152 ], [ -73.89869611317873, 40.801340581467095 ], [ -73.8986426706076, 40.801369073983324 ], [ -73.898540794288152, 40.80149676444605 ], [ -73.899062741025205, 40.801662289738225 ], [ -73.899218919475189, 40.8017118172301 ], [ -73.899104862329565, 40.801896988245659 ], [ -73.898955023309099, 40.801858430598095 ], [ -73.89901228078638, 40.801754174023799 ], [ -73.898509326744104, 40.80160826737535 ], [ -73.898391495639402, 40.801899104503981 ], [ -73.898373235582255, 40.802029463880281 ], [ -73.898348852818003, 40.802121487012002 ], [ -73.898327174773058, 40.802157370894768 ], [ -73.898308330140551, 40.802182402608388 ], [ -73.898277451249371, 40.80220983249626 ], [ -73.898275335762008, 40.802211155961679 ], [ -73.898256761700623, 40.802206018404462 ], [ -73.898239785141698, 40.802198117725666 ], [ -73.898221056028717, 40.802187036677886 ], [ -73.898207008424052, 40.802178692845374 ], [ -73.898183749337448, 40.80217593836052 ], [ -73.898156973578054, 40.802172798016748 ], [ -73.898133873679058, 40.80217436694096 ], [ -73.898108932258822, 40.80217599915165 ], [ -73.898083986151406, 40.802180619087508 ], [ -73.898063223143595, 40.802186897007729 ], [ -73.898056936209926, 40.802193250827173 ], [ -73.898077766590603, 40.802197974374913 ], [ -73.898092239022219, 40.802201294755541 ], [ -73.898106711563898, 40.802204615050677 ], [ -73.898103183091905, 40.802213514315532 ], [ -73.898092212630743, 40.802218528530787 ], [ -73.898071462902948, 40.802216920709036 ], [ -73.898056912048261, 40.802209023070112 ], [ -73.898040346659442, 40.802205826905606 ], [ -73.898023697058562, 40.802202697341748 ], [ -73.898011236629088, 40.80219791544458 ], [ -73.897992579685067, 40.802194721016512 ], [ -73.897973336159069, 40.802191460394269 ], [ -73.897961379338454, 40.802185217403753 ], [ -73.897938540445566, 40.802178900848695 ], [ -73.897923734954972, 40.80217481751194 ], [ -73.897913195033595, 40.802171883255646 ], [ -73.897897046937615, 40.802169389931372 ], [ -73.897886671987052, 40.802167788601025 ], [ -73.897859652439749, 40.802159879874949 ], [ -73.897816064964402, 40.802151955432969 ], [ -73.897786615621442, 40.80214658753377 ], [ -73.897751647177358, 40.802137717168719 ], [ -73.897730482570623, 40.802132293535841 ], [ -73.897333960620244, 40.801979443435357 ], [ -73.897336074044176, 40.801965264177049 ], [ -73.897377566735514, 40.801974456636884 ], [ -73.897448158830713, 40.802001358062348 ], [ -73.897618438807342, 40.802069364213125 ], [ -73.897695220410583, 40.80209785860081 ], [ -73.897745066678382, 40.802118441498742 ], [ -73.897816064983772, 40.802133516349222 ], [ -73.897909290437951, 40.802153310619026 ], [ -73.897986163712076, 40.802175510343773 ], [ -73.897998461389562, 40.802179017879247 ], [ -73.898044306829988, 40.802188151797452 ], [ -73.89806303158322, 40.802147151490118 ], [ -73.898036099673547, 40.802137651593881 ], [ -73.897988310929634, 40.802139199535858 ], [ -73.897940553670821, 40.802121795569583 ], [ -73.897892783125201, 40.802112278164678 ], [ -73.897853312751707, 40.802093292984125 ], [ -73.897816064986671, 40.802085621130175 ], [ -73.897799351722441, 40.802082178839953 ], [ -73.897747421147002, 40.802056887172633 ], [ -73.897668535786039, 40.802036275702172 ], [ -73.89762906563324, 40.80201728952337 ], [ -73.89756675536033, 40.801993577071322 ], [ -73.897519103151197, 40.801961929721685 ], [ -73.897471346169482, 40.801942936194038 ], [ -73.897402762630676, 40.801917627695822 ], [ -73.897348828597458, 40.801889153490265 ], [ -73.897308523037012, 40.801867942281525 ], [ -73.897213866843572, 40.801817997910582 ], [ -73.897128419246556, 40.801766793829536 ], [ -73.897088965308825, 40.8017367421551 ], [ -73.897072335334144, 40.801720956860123 ], [ -73.897043329318706, 40.801700390470906 ], [ -73.89701012809455, 40.801686179624888 ], [ -73.896974827953031, 40.801676671239456 ], [ -73.896947819605515, 40.801660875632805 ], [ -73.896927078617693, 40.801652973228336 ], [ -73.896901235388057, 40.801643155297945 ], [ -73.896864783721583, 40.801619721286293 ], [ -73.896819113730828, 40.80160550021607 ], [ -73.896794188433546, 40.801596000990997 ], [ -73.896784152499706, 40.801592175606707 ], [ -73.89677134744062, 40.801592800856817 ], [ -73.896758892048808, 40.801584902172074 ], [ -73.896750634534087, 40.801567535809056 ], [ -73.896739205512574, 40.801543549710217 ], [ -73.896727846228245, 40.8015296123653 ], [ -73.89671951060339, 40.801507538068094 ], [ -73.896711248174356, 40.801493349593407 ], [ -73.89670089184952, 40.801480686446013 ], [ -73.896694644255064, 40.801461728919151 ], [ -73.896696752960693, 40.801450666323262 ], [ -73.896699200985736, 40.801437821077954 ], [ -73.896694733005234, 40.801404557928826 ], [ -73.896678202027317, 40.801379298461882 ], [ -73.896669958015408, 40.801354044590504 ], [ -73.896659517559712, 40.80133985415651 ], [ -73.89664690862115, 40.801322545954513 ], [ -73.896645084398656, 40.80131141507546 ], [ -73.896649734872852, 40.800957775314686 ], [ -73.896660118176158, 40.800953078615244 ], [ -73.89667057812261, 40.800954677372467 ], [ -73.896676762460345, 40.800959388945984 ], [ -73.896672481427331, 40.801020945128705 ], [ -73.896691225946768, 40.801021724679195 ], [ -73.896716171791496, 40.801016276562244 ], [ -73.896730745331425, 40.801009993329416 ], [ -73.896757724263793, 40.800989478922148 ], [ -73.896778512946213, 40.8009657765448 ], [ -73.896793603273267, 40.80094868234854 ], [ -73.896811894660217, 40.800919129833538 ], [ -73.896809849844303, 40.8008875213038 ], [ -73.896807887776419, 40.80085750313502 ], [ -73.896795377739281, 40.800829129793215 ], [ -73.896782938548256, 40.800810166635031 ], [ -73.896779360517428, 40.800807441308883 ], [ -73.896843587038006, 40.800743823608229 ] ] ] ] } },
{ "type": "Feature", "properties": { "Borough": "BX", "Block": 2605, "Lot": 35, "CD": 202, "BCT2020": "2001904", "BCTCB2020": "20019041000", "CT2010": "19", "CB2010": "5001", "SchoolDist": "07", "Council": 17, "ZipCode": 0, "FireComp": null, "PolicePrct": 114, "HealthCent": 23, "HealthArea": 4700, "Sanitboro": null, "SanitDistr": null, "SanitSub": null, "Address": "SOUTH BROTHER ISLAND", "ZoneDist1": "M3-1", "ZoneDist2": null, "ZoneDist3": null, "ZoneDist4": null, "Overlay1": null, "Overlay2": null, "SPDist1": null, "SPDist2": null, "SPDist3": null, "LtdHeight": null, "SplitZone": "N", "BldgClass": "V1", "LandUse": "11", "Easements": 0, "OwnerType": "C", "OwnerName": "NYC DEPARTMENT OF PARKS AND RECREATION", "LotArea": 254700, "BldgArea": 0, "ComArea": 0, "ResArea": 0, "OfficeArea": 0, "RetailArea": 0, "GarageArea": 0, "StrgeArea": 0, "FactryArea": 0, "OtherArea": 0, "AreaSource": "7", "NumBldgs": 0, "NumFloors": 0.0, "UnitsRes": 0, "UnitsTotal": 0, "LotFront": 96.85, "LotDepth": 106.65, "BldgFront": 0.0, "BldgDepth": 0.0, "Ext": null, "ProxCode": "0", "IrrLotCode": "Y", "LotType": "7", "BsmtCode": "5", "AssessLand": 8772750.0, "AssessTot": 8772750.0, "ExemptTot": 8772750.0, "YearBuilt": 0, "YearAlter1": 0, "YearAlter2": 0, "HistDist": null, "Landmark": null, "BuiltFAR": 0.0, "ResidFAR": 0.0, "CommFAR": 2.0, "FacilFAR": 0.0, "BoroCode": 2, "BBL": 2026050034.9999998, "CondoNo": 0, "Tract2010": "0019", "XCoord": 1012627, "YCoord": 229605, "ZoneMap": "6d", "ZMCode": null, "Sanborn": "299 999", "TaxMap": "21002", "EDesigNum": null, "APPBBL": 0.0, "APPDate": null, "PLUTOMapID": "1", "FIRM07_FLA": "1", "PFIRM15_FL": "1", "Version": "25v4", "DCPEdited": "t", "Latitude": 40.7968431, "Longitude": -73.8975108, "Notes": null, "Shape_Leng": 0.0, "Shape_Area": 108921.46803 }, "geometry": { "type": "MultiPolygon", "coordinates": [ [ [ [ -73.89850680264253, 40.796515092335127 ], [ -73.898587436456339, 40.796548998907028 ], [ -73.898676463384788, 40.796590575119687 ], [ -73.89874654692504, 40.796632132841957 ], [ -73.898795687728253, 40.796673142625927 ], [ -73.898845534777962, 40.796733638859493 ], [ -73.898865792941876, 40.79677537783639 ], [ -73.898868647626486, 40.796785609749577 ], [ -73.898868297939046, 40.796786300303715 ], [ -73.898856799812151, 40.796808548782735 ], [ -73.898848662382846, 40.796822150052428 ], [ -73.898841941485657, 40.796839250042723 ], [ -73.898824203984447, 40.796837008435325 ], [ -73.898804709703739, 40.796834510368534 ], [ -73.898791662766541, 40.796829539884811 ], [ -73.89877863203661, 40.79681471061965 ], [ -73.898768928265497, 40.796813430625491 ], [ -73.898751017243313, 40.796814686330443 ], [ -73.898731421192494, 40.79682452687932 ], [ -73.898716767645269, 40.796831954009384 ], [ -73.898702105476985, 40.796841860134592 ], [ -73.898693985425282, 40.796845541376058 ], [ -73.898674408880609, 40.796841835755032 ], [ -73.898646772608956, 40.796856630062884 ], [ -73.898635293185762, 40.796866540738648 ], [ -73.898615774394599, 40.796880131047629 ], [ -73.898607645561597, 40.796888774131013 ], [ -73.898581185240062, 40.796900134058774 ], [ -73.898564931505831, 40.79691252052757 ], [ -73.898551861987926, 40.796922365041091 ], [ -73.898544734957014, 40.796932279543931 ], [ -73.898543716919846, 40.796940927050436 ], [ -73.898561622891748, 40.796942215297832 ], [ -73.898581113622029, 40.796947130246075 ], [ -73.898563191111563, 40.796955825015559 ], [ -73.898535578572705, 40.796955800676749 ], [ -73.898514423164443, 40.79694458877654 ], [ -73.898475341412691, 40.796947036994716 ], [ -73.898426443848578, 40.796965562206402 ], [ -73.898380807869955, 40.796985300579522 ], [ -73.89833199767817, 40.797000137354871 ], [ -73.898312403358659, 40.797008768450112 ], [ -73.898301012966442, 40.797016199246421 ], [ -73.898273626708573, 40.797030164366952 ], [ -73.89824724829117, 40.797042097860349 ], [ -73.898206554005654, 40.797060631150558 ], [ -73.898170719034169, 40.79707300024392 ], [ -73.898141334139524, 40.797080414182716 ], [ -73.898082745829413, 40.797089010722061 ], [ -73.898040399411755, 40.797091455065598 ], [ -73.898006247694141, 40.797098801668611 ], [ -73.897963819885305, 40.797099398035485 ], [ -73.897937793423978, 40.797101219154342 ], [ -73.897903647988713, 40.797103670719537 ], [ -73.897875952668969, 40.797101164300777 ], [ -73.89786289935067, 40.797101152718064 ], [ -73.897846675143981, 40.797094970843084 ], [ -73.897812453116472, 40.797092458699971 ], [ -73.897802749964185, 40.797089971834112 ], [ -73.89778803183934, 40.797083790368049 ], [ -73.897756664329506, 40.797075113184235 ], [ -73.897740362446015, 40.797063970289678 ], [ -73.897709499444701, 40.797054020240047 ], [ -73.897678557257237, 40.797041593699902 ], [ -73.897641178910959, 40.797024261815601 ], [ -73.897602121729832, 40.797010618737801 ], [ -73.897564651031217, 40.796999456983322 ], [ -73.897528847172609, 40.796990776709052 ], [ -73.897489791246414, 40.796977132590349 ], [ -73.897463774093765, 40.796972148562489 ], [ -73.89744588835778, 40.796958522450232 ], [ -73.897421463995272, 40.796951061666299 ], [ -73.897387264358031, 40.796934942836074 ], [ -73.897364523916309, 40.796921312382921 ], [ -73.897349888762307, 40.796915131771016 ], [ -73.897330410919395, 40.796902712685757 ], [ -73.897299484737701, 40.796879219804971 ], [ -73.897263862288597, 40.796862908757504 ], [ -73.897238863176582, 40.796848638693255 ], [ -73.897216541046916, 40.796835837066332 ], [ -73.897196977179206, 40.796824692017744 ], [ -73.897182347860465, 40.796814758164999 ], [ -73.897170983099912, 40.796804826306911 ], [ -73.897153092420197, 40.796793683665719 ], [ -73.897134882429384, 40.796774396716899 ], [ -73.897123524138351, 40.796759506600488 ], [ -73.897110514488304, 40.796729796447764 ], [ -73.897102434035034, 40.796706322177108 ], [ -73.897091091447024, 40.796682783667038 ], [ -73.89708292962365, 40.796656766317426 ], [ -73.897078106708321, 40.79663698426743 ], [ -73.897063495871663, 40.7966159220028 ], [ -73.897046959268081, 40.796595048840786 ], [ -73.897025320855278, 40.796573087887872 ], [ -73.897001758907336, 40.796549094536608 ], [ -73.89698922770836, 40.796536428537095 ], [ -73.896972435130579, 40.796519369684603 ], [ -73.896957812492857, 40.796504474955228 ], [ -73.896941610803808, 40.796484681790183 ], [ -73.896920464606595, 40.796468575428655 ], [ -73.896902581635388, 40.796452470982395 ], [ -73.896873326052543, 40.796431649481192 ], [ -73.896858643416877, 40.796401936879334 ], [ -73.896832662248499, 40.796374695077461 ], [ -73.896813214121153, 40.796342564784474 ], [ -73.896795093437106, 40.796318574510295 ], [ -73.896785245522537, 40.796301777603801 ], [ -73.896775814838662, 40.796285615042834 ], [ -73.896762879308071, 40.79626328177757 ], [ -73.896759672292916, 40.796226204351065 ], [ -73.896764573804603, 40.796195237841133 ], [ -73.896764632387558, 40.796194303163702 ], [ -73.896797155844823, 40.79620436045203 ], [ -73.896830117374478, 40.796220072264362 ], [ -73.896856568501832, 40.796235333331637 ], [ -73.896885682542035, 40.796247340575043 ], [ -73.896924767480996, 40.79625717849374 ], [ -73.896965994584349, 40.796263295542154 ], [ -73.897024053012927, 40.796264457832386 ], [ -73.897087276852147, 40.796258532376903 ], [ -73.897133145502266, 40.796253777253774 ], [ -73.897234635558874, 40.796244607202837 ], [ -73.897323856452658, 40.796242632733055 ], [ -73.897470237607081, 40.796245593514911 ], [ -73.897515654397765, 40.796246511971916 ], [ -73.897578752727853, 40.796259725383507 ], [ -73.897646080257815, 40.79628512178499 ], [ -73.897732678874206, 40.796321698822169 ], [ -73.897810543535385, 40.796352897421812 ], [ -73.897903313472014, 40.796381758018875 ], [ -73.898024259807784, 40.796410684836573 ], [ -73.898226274310971, 40.796443486159752 ], [ -73.898411410393749, 40.796492141722624 ], [ -73.89850680264253, 40.796515092335127 ] ] ] ] } },
{ "type": "Feature", "properties": { "Borough": "BX", "Block": 2595, "Lot": 107, "CD": 201, "BCT2020": "2001903", "BCTCB2020": "20019032005", "CT2010": "19", "CB2010": "4004", "SchoolDist": "07", "Council": 8, "ZipCode": 10454, "FireComp": "L029", "PolicePrct": 40, "HealthCent": 23, "HealthArea": 4700, "Sanitboro": "2", "SanitDistr": "01", "SanitSub": "2A", "Address": "220 LOCUST AVENUE", "ZoneDist1": "M3-1", "ZoneDist2": null, "ZoneDist3": null, "ZoneDist4": null, "Overlay1": null, "Overlay2": null, "SPDist1": null, "SPDist2": null, "SPDist3": null, "LtdHeight": null, "SplitZone": "N", "BldgClass": "F8", "LandUse": "06", "Easements": 1, "OwnerType": null, "OwnerName": "SPRAGUE OPERATING RESOURCES LLC", "LotArea": 102813, "BldgArea": 32085, "ComArea": 32085, "ResArea": 0, "OfficeArea": 0, "RetailArea": 0, "GarageArea": 0, "StrgeArea": 0, "FactryArea": 32085, "OtherArea": 0, "AreaSource": "2", "NumBldgs": 3, "NumFloors": 1.0, "UnitsRes": 0, "UnitsTotal": 1, "LotFront": 233.89, "LotDepth": 442.22, "BldgFront": 68.0, "BldgDepth": 127.0, "Ext": "N", "ProxCode": "0", "IrrLotCode": "N", "LotType": "3", "BsmtCode": "0", "AssessLand": 578700.0, "AssessTot": 3143700.0, "ExemptTot": 0.0, "YearBuilt": 1931, "YearAlter1": 0, "YearAlter2": 0, "HistDist": null, "Landmark": null, "BuiltFAR": 0.31, "ResidFAR": 0.0, "CommFAR": 2.0, "FacilFAR": 0.0, "BoroCode": 2, "BBL": 2025950107.0, "CondoNo": 0, "Tract2010": "0019", "XCoord": 1010034, "YCoord": 231234, "ZoneMap": "6d", "ZMCode": null, "Sanborn": "209S024", "TaxMap": "21002", "EDesigNum": null, "APPBBL": 0.0, "APPDate": null, "PLUTOMapID": "1", "FIRM07_FLA": "1", "PFIRM15_FL": "1", "Version": "25v4", "DCPEdited": null, "Latitude": 40.8013222, "Longitude": -73.9068697, "Notes": null, "Shape_Leng": 0.0, "Shape_Area": 86086.429225100001 }, "geometry": { "type": "MultiPolygon", "coordinates": [ [ [ [ -73.906199691741008, 40.801493746427653 ], [ -73.906217696240873, 40.801480934238768 ], [ -73.906316705842215, 40.801411830205019 ], [ -73.906297625165195, 40.801393023045776 ], [ -73.906324640474224, 40.80136485667871 ], [ -73.906497980524236, 40.801192461615237 ], [ -73.906521617237487, 40.801169419871592 ], [ -73.906396956542338, 40.801095861963177 ], [ -73.906387970704813, 40.801090728995412 ], [ -73.906380109352696, 40.801086450605624 ], [ -73.906417239922831, 40.801058296041447 ], [ -73.906449873151459, 40.801032697877559 ], [ -73.90658464541697, 40.801109679593345 ], [ -73.906815938137811, 40.800889072260503 ], [ -73.906698576586791, 40.800820219411982 ], [ -73.906716938320983, 40.800797792096972 ], [ -73.906825894122974, 40.800860617473752 ], [ -73.907842261320894, 40.801446654375042 ], [ -73.907322856028159, 40.801960563924652 ], [ -73.906372896255633, 40.80142762226275 ], [ -73.906310628522064, 40.801471190967149 ], [ -73.906242643367506, 40.80151876127065 ], [ -73.906199691741008, 40.801493746427653 ] ] ] ] } },
{ "type": "Feature", "properties": { "Borough": "BX", "Block": 2595, "Lot": 500, "CD": 202, "BCT2020": "2001904", "BCTCB2020": "20019040003", "CT2010": "19", "CB2010": "0001", "SchoolDist": null, "Council": 17, "ZipCode": 0, "FireComp": null, "PolicePrct": 0, "HealthCent": 0, "HealthArea": 0, "Sanitboro": null, "SanitDistr": null, "SanitSub": null, "Address": "EAST 138 STREET", "ZoneDist1": "M3-1", "ZoneDist2": null, "ZoneDist3": null, "ZoneDist4": null, "Overlay1": null, "Overlay2": null, "SPDist1": null, "SPDist2": null, "SPDist3": null, "LtdHeight": null, "SplitZone": "N", "BldgClass": "T2", "LandUse": "07", "Easements": 0, "OwnerType": "C", "OwnerName": "NYC DEPARTMENT OF SMALL BUSINESS SERVICES", "LotArea": 129844, "BldgArea": 0, "ComArea": 0, "ResArea": 0, "OfficeArea": 0, "RetailArea": 0, "GarageArea": 0, "StrgeArea": 0, "FactryArea": 0, "OtherArea": 0, "AreaSource": "7", "NumBldgs": 0, "NumFloors": 0.0, "UnitsRes": 0, "UnitsTotal": 0, "LotFront": 1087.0, "LotDepth": 85.0, "BldgFront": 0.0, "BldgDepth": 0.0, "Ext": "N", "ProxCode": "0", "IrrLotCode": "Y", "LotType": "5", "BsmtCode": "0", "AssessLand": 253800.0, "AssessTot": 340200.0, "ExemptTot": 340200.0, "YearBuilt": 0, "YearAlter1": 0, "YearAlter2": 0, "HistDist": null, "Landmark": null, "BuiltFAR": 0.0, "ResidFAR": 0.0, "CommFAR": 2.0, "FacilFAR": 0.0, "BoroCode": 2, "BBL": 2025950500.0, "CondoNo": 0, "Tract2010": "0019", "XCoord": 1010011, "YCoord": 230764, "ZoneMap": "6d", "ZMCode": null, "Sanborn": "209S024", "TaxMap": "21002", "EDesigNum": null, "APPBBL": 0.0, "APPDate": null, "PLUTOMapID": "1", "FIRM07_FLA": "1", "PFIRM15_FL": "1", "Version": "25v4", "DCPEdited": "t", "Latitude": 40.8000323, "Longitude": -73.9069546, "Notes": null, "Shape_Leng": 0.0, "Shape_Area": 352.2152574 }, "geometry": { "type": "MultiPolygon", "coordinates": [ [ [ [ -73.907724102409674, 40.799459049173088 ], [ -73.907706460115563, 40.799449277717422 ], [ -73.907681749738899, 40.799436445588263 ], [ -73.907658165086517, 40.799421906948794 ], [ -73.907686315474521, 40.799386909935507 ], [ -73.907713267871969, 40.799402304934212 ], [ -73.907740222593603, 40.799417700848529 ], [ -73.907757238763679, 40.799425995791097 ], [ -73.907724102409674, 40.799459049173088 ] ] ] ] } },
{ "type": "Feature", "properties": { "Borough": "BX", "Block": 2599, "Lot": 92, "CD": 201, "BCT2020": "2001903", "BCTCB2020": "20019032004", "CT2010": "19", "CB2010": "4003", "SchoolDist": "07", "Council": 8, "ZipCode": 10455, "FireComp": "L029", "PolicePrct": 40, "HealthCent": 23, "HealthArea": 4700, "Sanitboro": "2", "SanitDistr": "01", "SanitSub": "2A", "Address": "1040 EAST 149 STREET", "ZoneDist1": "M3-1", "ZoneDist2": null, "ZoneDist3": null, "ZoneDist4": null, "Overlay1": null, "Overlay2": null, "SPDist1": null, "SPDist2": null, "SPDist3": null, "LtdHeight": null, "SplitZone": "N", "BldgClass": "F8", "LandUse": "06", "Easements": 0, "OwnerType": null, "OwnerName": "149TH LLC", "LotArea": 261000, "BldgArea": 7480, "ComArea": 7480, "ResArea": 0, "OfficeArea": 7480, "RetailArea": 0, "GarageArea": 0, "StrgeArea": 0, "FactryArea": 0, "OtherArea": 0, "AreaSource": "2", "NumBldgs": 3, "NumFloors": 2.0, "UnitsRes": 0, "UnitsTotal": 4, "LotFront": 324.75, "LotDepth": 662.0, "BldgFront": 227.0, "BldgDepth": 270.0, "Ext": "N", "ProxCode": "0", "IrrLotCode": "Y", "LotType": "5", "BsmtCode": "0", "AssessLand": 3523500.0, "AssessTot": 6629400.0, "ExemptTot": 0.0, "YearBuilt": 1935, "YearAlter1": 1997, "YearAlter2": 2016, "HistDist": null, "Landmark": null, "BuiltFAR": 0.03, "ResidFAR": 0.0, "CommFAR": 2.0, "FacilFAR": 0.0, "BoroCode": 2, "BBL": 2025990092.0, "CondoNo": 0, "Tract2010": "0019", "XCoord": 1010995, "YCoord": 232307, "ZoneMap": "6d", "ZMCode": "Y", "Sanborn": "209S040", "TaxMap": "21002", "EDesigNum": null, "APPBBL": 0.0, "APPDate": null, "PLUTOMapID": "1", "FIRM07_FLA": "1", "PFIRM15_FL": "1", "Version": "25v4", "DCPEdited": null, "Latitude": 40.8042644, "Longitude": -73.9033943, "Notes": null, "Shape_Leng": 0.0, "Shape_Area": 213791.69669000001 }, "geometry": { "type": "MultiPolygon", "coordinates": [ [ [ [ -73.902562698981882, 40.805169514971304 ], [ -73.902407014050382, 40.805314361860447 ], [ -73.902289255176456, 40.804646217338949 ], [ -73.902298129843075, 40.804632022151324 ], [ -73.902307142221701, 40.804618362919449 ], [ -73.902316157059389, 40.804603850864318 ], [ -73.902323471937947, 40.804597024091343 ], [ -73.902290347458447, 40.804573934122985 ], [ -73.902297119233012, 40.804556003673284 ], [ -73.902441195488535, 40.804421171503172 ], [ -73.902511944201819, 40.804467355073662 ], [ -73.902685189682359, 40.804371837858916 ], [ -73.902851729085214, 40.804250690125123 ], [ -73.902913630260912, 40.804196077421629 ], [ -73.902866477542815, 40.804157171147878 ], [ -73.90287773596522, 40.804143942437911 ], [ -73.903011663274825, 40.804033016416383 ], [ -73.903092681904184, 40.803972443081705 ], [ -73.903118562518927, 40.803953671410703 ], [ -73.903207458444697, 40.803887124468204 ], [ -73.903255752540687, 40.803915351664202 ], [ -73.903334536207637, 40.803847938862923 ], [ -73.903355879830769, 40.803855644352033 ], [ -73.903371610073577, 40.803860784051281 ], [ -73.903398568106226, 40.803873618143768 ], [ -73.903451419101629, 40.80385999736454 ], [ -73.903559370351658, 40.80383104585794 ], [ -73.903685319645007, 40.803791859757858 ], [ -73.903739313704762, 40.80376457475986 ], [ -73.903764062097878, 40.803751782150833 ], [ -73.903776436854415, 40.803744958595466 ], [ -73.903829341984235, 40.803693755369899 ], [ -73.903870977241326, 40.803661333406694 ], [ -73.903924973569005, 40.803633190059124 ], [ -73.903948594803239, 40.803621252977017 ], [ -73.904072385180569, 40.803520566728245 ], [ -73.904097146937644, 40.803499233835531 ], [ -73.904145542054394, 40.803455713265627 ], [ -73.904202941518719, 40.803405366351775 ], [ -73.904345865894044, 40.803286759612931 ], [ -73.904389793055216, 40.803256171594505 ], [ -73.90457168091109, 40.803362846824065 ], [ -73.904568165074281, 40.803451090233104 ], [ -73.904567817634316, 40.80345706299024 ], [ -73.904567720502044, 40.80346276397654 ], [ -73.904567755532611, 40.803468967532694 ], [ -73.90456787913439, 40.803473675495084 ], [ -73.904683835428671, 40.803679765614838 ], [ -73.90339602140098, 40.804915309088109 ], [ -73.903534931001673, 40.804997589093389 ], [ -73.903033535076034, 40.805458499658677 ], [ -73.902948961884249, 40.805408422622769 ], [ -73.902562698981882, 40.805169514971304 ] ] ] ] } },
{ "type": "Feature", "properties": { "Borough": "BX", "Block": 2605, "Lot": 37, "CD": 202, "BCT2020": "2001904", "BCTCB2020": "20019040002", "CT2010": "19", "CB2010": "0002", "SchoolDist": null, "Council": 17, "ZipCode": 0, "FireComp": null, "PolicePrct": 0, "HealthCent": 0, "HealthArea": 0, "Sanitboro": null, "SanitDistr": null, "SanitSub": null, "Address": "SOUTH BROTHER ISLAND", "ZoneDist1": "M3-1", "ZoneDist2": null, "ZoneDist3": null, "ZoneDist4": null, "Overlay1": null, "Overlay2": null, "SPDist1": null, "SPDist2": null, "SPDist3": null, "LtdHeight": null, "SplitZone": "N", "BldgClass": "V1", "LandUse": "11", "Easements": 0, "OwnerType": "C", "OwnerName": "NYC DEPARTMENT OF PARKS AND RECREATION", "LotArea": 452250, "BldgArea": 0, "ComArea": 0, "ResArea": 0, "OfficeArea": 0, "RetailArea": 0, "GarageArea": 0, "StrgeArea": 0, "FactryArea": 0, "OtherArea": 0, "AreaSource": "7", "NumBldgs": 0, "NumFloors": 0.0, "UnitsRes": 0, "UnitsTotal": 0, "LotFront": 603.0, "LotDepth": 750.0, "BldgFront": 0.0, "BldgDepth": 0.0, "Ext": null, "ProxCode": "0", "IrrLotCode": "N", "LotType": "7", "BsmtCode": "5", "AssessLand": 16235550.0, "AssessTot": 16235550.0, "ExemptTot": 16235550.0, "YearBuilt": 0, "YearAlter1": 0, "YearAlter2": 0, "HistDist": null, "Landmark": null, "BuiltFAR": 0.0, "ResidFAR": 0.0, "CommFAR": 2.0, "FacilFAR": 0.0, "BoroCode": 2, "BBL": 2026050037.0, "CondoNo": 0, "Tract2010": "0019", "XCoord": 1012700, "YCoord": 229932, "ZoneMap": "6d", "ZMCode": null, "Sanborn": "299 999", "TaxMap": "21002", "EDesigNum": null, "APPBBL": 0.0, "APPDate": null, "PLUTOMapID": "1", "FIRM07_FLA": "1", "PFIRM15_FL": "1", "Version": "25v4", "DCPEdited": "t", "Latitude": 40.7977404, "Longitude": -73.8972458, "Notes": null, "Shape_Leng": 0.0, "Shape_Area": 134335.010733 }, "geometry": { "type": "MultiPolygon", "coordinates": [ [ [ [ -73.897937600503695, 40.795572637436052 ], [ -73.897935095680964, 40.795585848512943 ], [ -73.897920422181684, 40.795605614161715 ], [ -73.897909008799473, 40.795626652403904 ], [ -73.897884548131373, 40.795643928437251 ], [ -73.897869876569345, 40.795662485532212 ], [ -73.897860073437158, 40.795671124402276 ], [ -73.897856788163281, 40.795684729826512 ], [ -73.897877950672296, 40.795690981003439 ], [ -73.897912167066337, 40.795695908294462 ], [ -73.897934924912022, 40.795697200859401 ], [ -73.897962633652156, 40.79568978456588 ], [ -73.897969189906689, 40.795671221184179 ], [ -73.897990366416437, 40.795667552402222 ], [ -73.898008262583346, 40.795675008203993 ], [ -73.898006561827714, 40.79569230442948 ], [ -73.898014672786644, 40.795695999169503 ], [ -73.898047305703784, 40.795697300462052 ], [ -73.898056996159724, 40.795707229914868 ], [ -73.898074883005393, 40.795720855937397 ], [ -73.898086243282336, 40.795734473499159 ], [ -73.898104123173027, 40.795751787062315 ], [ -73.898136033327276, 40.795787172579018 ], [ -73.898159257371418, 40.795812949277753 ], [ -73.89818942856482, 40.79583720491015 ], [ -73.898204800660665, 40.795852607207678 ], [ -73.898248862692114, 40.795878464475905 ], [ -73.898273097434569, 40.795899663851465 ], [ -73.898307283538557, 40.795924432655127 ], [ -73.898340641073034, 40.795944875592745 ], [ -73.898388538618093, 40.795977731318409 ], [ -73.898424565367009, 40.796002374715947 ], [ -73.898438941336849, 40.79601364281222 ], [ -73.898453657346835, 40.796021094818023 ], [ -73.898475818908736, 40.796028937052995 ], [ -73.898502985540233, 40.796049183571235 ], [ -73.898528479760245, 40.796068157985019 ], [ -73.898551217210439, 40.796082993995093 ], [ -73.898578895173031, 40.796096628567007 ], [ -73.898598043987633, 40.796104848106346 ], [ -73.898611677193344, 40.796108294682391 ], [ -73.898629328210959, 40.796112761344695 ], [ -73.898650824981914, 40.796118249947526 ], [ -73.898696673077524, 40.796123822978387 ], [ -73.898727284455148, 40.796133134136255 ], [ -73.898759821553199, 40.796143083547371 ], [ -73.898790772166791, 40.7961505507092 ], [ -73.898834691929153, 40.79615803018303 ], [ -73.898862379452112, 40.796165432381407 ], [ -73.89887266836304, 40.796166838957916 ], [ -73.898893246095724, 40.796172899441892 ], [ -73.898914406531546, 40.796179086426093 ], [ -73.898932727920339, 40.79618215433851 ], [ -73.898945357289804, 40.796186554466566 ], [ -73.898963255636332, 40.796192736821183 ], [ -73.898977895790594, 40.796194022052163 ], [ -73.899003154487858, 40.796202058736121 ], [ -73.89902187843569, 40.796216317475739 ], [ -73.89904620160894, 40.796234909009051 ], [ -73.899059227311227, 40.796252218164547 ], [ -73.899064059313531, 40.79626710404056 ], [ -73.899072233978231, 40.796284407183713 ], [ -73.899073807877656, 40.796294330269895 ], [ -73.899091692543948, 40.796310433460846 ], [ -73.899109565274784, 40.796331946827777 ], [ -73.899119335709557, 40.796345561972487 ], [ -73.899134462332867, 40.796358995417485 ], [ -73.899143728136863, 40.796374073411172 ], [ -73.899156664088835, 40.796395071869107 ], [ -73.899163164911656, 40.79641364675502 ], [ -73.899176191793075, 40.796431019897767 ], [ -73.899189128263075, 40.796453288892003 ], [ -73.899182659625652, 40.796470579199877 ], [ -73.899161460376362, 40.796489130739815 ], [ -73.899153223802728, 40.796512652729064 ], [ -73.899138553117311, 40.796529938523825 ], [ -73.899133678282467, 40.796544815053075 ], [ -73.899110890764419, 40.796562091054078 ], [ -73.899092950928079, 40.796583125445579 ], [ -73.899077116652961, 40.796594874784802 ], [ -73.899058695466934, 40.796602872226153 ], [ -73.899035920198699, 40.796612773033594 ], [ -73.898986277281935, 40.796626974546257 ], [ -73.898977550997287, 40.796642866162678 ], [ -73.898969409262932, 40.796657737977121 ], [ -73.898953067167142, 40.796673812059389 ], [ -73.898922167689392, 40.796688603568619 ], [ -73.89888792259265, 40.79670218366806 ], [ -73.898870665338947, 40.796714631458478 ], [ -73.898868393803326, 40.796723214786844 ], [ -73.898865110408735, 40.79673561361556 ], [ -73.898873200971394, 40.796752917617738 ], [ -73.898871509056178, 40.79676525116728 ], [ -73.898873836284338, 40.796775366749536 ], [ -73.898868647626543, 40.796785609749577 ], [ -73.898865792941763, 40.79677537783639 ], [ -73.898845534777962, 40.796733638859521 ], [ -73.898795687728253, 40.796673142625977 ], [ -73.898746546925096, 40.796632132841957 ], [ -73.898676463384675, 40.796590575119723 ], [ -73.898587436456239, 40.79654899890707 ], [ -73.898506802642487, 40.796515092335127 ], [ -73.898411410393749, 40.796492141722624 ], [ -73.898226274310971, 40.796443486159795 ], [ -73.898024259807784, 40.796410684836616 ], [ -73.897903313471957, 40.796381758018875 ], [ -73.897810543535385, 40.796352897421812 ], [ -73.897732678874206, 40.796321698822169 ], [ -73.897646080257815, 40.796285121785026 ], [ -73.897578752727796, 40.796259725383507 ], [ -73.897515654397765, 40.796246511971916 ], [ -73.897470237606967, 40.796245593514911 ], [ -73.897323856452658, 40.796242632733076 ], [ -73.897234635558945, 40.796244607202873 ], [ -73.89713314550221, 40.796253777253831 ], [ -73.897087276852048, 40.796258532376903 ], [ -73.897024053012885, 40.796264457832422 ], [ -73.896965994584306, 40.796263295542154 ], [ -73.896924767481039, 40.79625717849374 ], [ -73.896885682542035, 40.796247340575043 ], [ -73.896856568501832, 40.796235333331637 ], [ -73.896830117374435, 40.796220072264397 ], [ -73.896797155844766, 40.796204360452073 ], [ -73.896764632387445, 40.796194303163738 ], [ -73.896766890894867, 40.796158230120248 ], [ -73.896772782710386, 40.796135850744491 ], [ -73.896776066259022, 40.796123515053964 ], [ -73.89677609890532, 40.796102466720519 ], [ -73.896776135400842, 40.796078936623971 ], [ -73.896785962815784, 40.79605547930764 ], [ -73.896794103319223, 40.796039396419253 ], [ -73.896795294581182, 40.796026870617439 ], [ -73.896806366632973, 40.796009202747676 ], [ -73.896819287096349, 40.795988546033279 ], [ -73.896824329899999, 40.795973350086257 ], [ -73.896829290425956, 40.795958536725934 ], [ -73.89682839605041, 40.795942384581288 ], [ -73.896830932535607, 40.795925089959148 ], [ -73.89683254103771, 40.795913962150316 ], [ -73.896824795755137, 40.795889215692391 ], [ -73.896826169198647, 40.795866959174816 ], [ -73.896827800328239, 40.795839743874232 ], [ -73.896827844492947, 40.795811254770918 ], [ -73.89682787515153, 40.795791477978383 ], [ -73.896825319267563, 40.795767818562105 ], [ -73.896830873341543, 40.795746899493771 ], [ -73.896836091642129, 40.795727128270997 ], [ -73.896841059065537, 40.795708562525427 ], [ -73.896852474671903, 40.795686315090748 ], [ -73.896870398387804, 40.795675203657602 ], [ -73.8968834725124, 40.795661606027807 ], [ -73.896894865805564, 40.795652966907369 ], [ -73.896912786106256, 40.79564554209724 ], [ -73.896942088819543, 40.795635712388915 ], [ -73.896955153371394, 40.795628284144286 ], [ -73.89697632805661, 40.79562582133434 ], [ -73.897005615609487, 40.795625847545942 ], [ -73.897028372753113, 40.79562834967318 ], [ -73.897044691221552, 40.795626900979066 ], [ -73.89707849012602, 40.79563201813643 ], [ -73.897102918453385, 40.795635792367015 ], [ -73.897125758238872, 40.795639244587974 ], [ -73.897152110529404, 40.795643276276181 ], [ -73.897176538755005, 40.795647050491112 ], [ -73.897196027794138, 40.795651964836992 ], [ -73.897223718213539, 40.795655741035588 ], [ -73.897256256817343, 40.795664417572056 ], [ -73.897287212828303, 40.795668135515761 ], [ -73.897311639712157, 40.795672861497529 ], [ -73.897329291342245, 40.795675230257743 ], [ -73.897350624778383, 40.79567811287442 ], [ -73.897373466497854, 40.795681185065092 ], [ -73.897397814829702, 40.795681461601163 ], [ -73.89743028331641, 40.795681871443314 ], [ -73.897456388796428, 40.795682213531549 ], [ -73.897475800453407, 40.795683500527979 ], [ -73.89749052647899, 40.795684404201509 ], [ -73.897510022234414, 40.795685694027405 ], [ -73.897529601092018, 40.795686919925295 ], [ -73.897547506354783, 40.79568693586495 ], [ -73.897562154922866, 40.795685740438209 ], [ -73.897571881518857, 40.795672139752277 ], [ -73.897580092578195, 40.795664706196121 ], [ -73.897584957347178, 40.79565726974694 ], [ -73.897593061216128, 40.795667199584848 ], [ -73.897602843337353, 40.795672167302079 ], [ -73.897609351467352, 40.795683304183015 ], [ -73.897623911296421, 40.795684332931273 ], [ -73.897654962246534, 40.795679591524397 ], [ -73.89766308313294, 40.795678391117789 ], [ -73.897695639204613, 40.795673457449531 ], [ -73.897702181578921, 40.795664688699219 ], [ -73.897698947285207, 40.795645035998916 ], [ -73.897695713398463, 40.795625191466577 ], [ -73.897689219092072, 40.795604198568114 ], [ -73.897694180250454, 40.795588114630455 ], [ -73.897707153433288, 40.795586856457611 ], [ -73.897716929031603, 40.795596782418436 ], [ -73.897731556305331, 40.795607924667401 ], [ -73.89774136128969, 40.795598013429682 ], [ -73.897767395022015, 40.795591869078805 ], [ -73.897768246289303, 40.795582266870895 ], [ -73.897777224617059, 40.795565929829209 ], [ -73.897785364065996, 40.795551056254112 ], [ -73.897804279860964, 40.795548912706948 ], [ -73.897816316355858, 40.795557253056337 ], [ -73.897835792043338, 40.79557087876929 ], [ -73.89783418286622, 40.795583279055798 ], [ -73.897817858946837, 40.795588224498765 ], [ -73.897801581185718, 40.795589418510133 ], [ -73.897799934309134, 40.795599337918659 ], [ -73.897808127504717, 40.79560430420635 ], [ -73.897821101335907, 40.795601835799644 ], [ -73.897825610409498, 40.795608517019701 ], [ -73.897813532413764, 40.795625550039198 ], [ -73.897803136013422, 40.795640231619998 ], [ -73.897821031036486, 40.795647624455086 ], [ -73.897842188611179, 40.795656291641933 ], [ -73.897855249260317, 40.79565134330084 ], [ -73.897869908872181, 40.795641435439109 ], [ -73.897873184108533, 40.795632789018256 ], [ -73.897865003546443, 40.795620445800708 ], [ -73.897861851008855, 40.795603081354145 ], [ -73.897865056736222, 40.795585786382318 ], [ -73.897873109567811, 40.795573328817014 ], [ -73.897884667661984, 40.795566025204963 ], [ -73.89789262506676, 40.795560944415712 ], [ -73.897897739336202, 40.795554844972692 ], [ -73.897937600503695, 40.795572637436052 ] ] ] ] } }
]
}
