{
"type": "FeatureCollection",
"name": "pluto_Green-Wood_Cemetery",
"crs": { "type": "name", "properties": { "name": "urn:ogc:def:crs:OGC:1.3:CRS84" } },
"features": [
{ "type": "Feature", "properties": { "Borough": "BK", "Block": 902, "Lot": 1, "CD": 307, "BCT2020": "3008400", "BCTCB2020": "30084001001", "CT2010": "84", "CB2010": "1001", "SchoolDist": "15", "Council": 38, "ZipCode": 11232, "FireComp": "E228", "PolicePrct": 72, "HealthCent": 39, "HealthArea": 4400, "Sanitboro": "3", "SanitDistr": "07", "SanitSub": "2D", "Address": "500 20 STREET", "ZoneDist1": "R5", "ZoneDist2": null, "ZoneDist3": null, "ZoneDist4": null, "Overlay1": null, "Overlay2": null, "SPDist1": null, "SPDist2": null, "SPDist3": null, "LtdHeight": null, "SplitZone": "N", "BldgClass": "Z8", "LandUse": "09", "Easements": 0, "OwnerType": "X", "OwnerName": "GREENWOOD CEMETRY", "LotArea": 20309060, "BldgArea": 92440, "ComArea": 85915, "ResArea": 6525, "OfficeArea": 0, "RetailArea": 0, "GarageArea": 0, "StrgeArea": 0, "FactryArea": 0, "OtherArea": 85915, "AreaSource": "2", "NumBldgs": 20, "NumFloors": 5.0, "UnitsRes": 0, "UnitsTotal": 1, "LotFront": 3064.83, "LotDepth": 4770.83, "BldgFront": 45.0, "BldgDepth": 145.0, "Ext": "N", "ProxCode": "0", "IrrLotCode": "Y", "LotType": "3", "BsmtCode": "0", "AssessLand": 137268900.0, "AssessTot": 217323450.0, "ExemptTot": 217323450.0, "YearBuilt": 1930, "YearAlter1": 0, "YearAlter2": 0, "HistDist": null, "Landmark": "INDIVIDUAL LANDMARK", "BuiltFAR": 0.0, "ResidFAR": 1.5, "CommFAR": 0.0, "FacilFAR": 2.0, "BoroCode": 3, "BBL": 3009020001.0, "CondoNo": 0, "Tract2010": "0084", "XCoord": 986954, "YCoord": 176868, "ZoneMap": "16d", "ZMCode": "Y", "Sanborn": "306 031", "TaxMap": "30309", "EDesigNum": null, "APPBBL": 0.0, "APPDate": null, "PLUTOMapID": "1", "FIRM07_FLA": null, "PFIRM15_FL": null, "Version": "25v4", "DCPEdited": null, "Latitude": 40.652138, "Longitude": -73.9902551, "Notes": null, "Shape_Leng": 0.0, "Shape_Area": 20283448.1985 }, "geometry": { "type": "MultiPolygon", "coordinates": [ [ [ [ -73.998143110610414, 40.649753075552887 ], [ -73.997567391646157, 40.650315374603089 ], [ -74.001952023567341, 40.652962888017647 ], [ -73.995132208947524, 40.659521872638834 ], [ -73.992925250110957, 40.658188062974169 ], [ -73.992345933077701, 40.658751178980332 ], [ -73.99014684304602, 40.657425778516711 ], [ -73.988404237432832, 40.659099012009889 ], [ -73.98199223612599, 40.655226309412413 ], [ -73.980561415627534, 40.647732825239338 ], [ -73.988496134087654, 40.644642530337542 ], [ -73.989065100492951, 40.644265112030347 ], [ -73.998143110610414, 40.649753075552887 ] ] ] ] } }
]
}
