{
"type": "FeatureCollection",
"name": "pluto_Highbridge_Park",
"crs": { "type": "name", "properties": { "name": "urn:ogc:def:crs:OGC:1.3:CRS84" } },
"features": [
{ "type": "Feature", "properties": { "Borough": "MN", "Block": 2106, "Lot": 1, "CD": 112, "BCT2020": "1031100", "BCTCB2020": "10311001003", "CT2010": "311", "CB2010": "1004", "SchoolDist": "06", "Council": 10, "ZipCode": 10033, "FireComp": "L045", "PolicePrct": 34, "HealthCent": 17, "HealthArea": 8600, "Sanitboro": "1", "SanitDistr": "12", "SanitSub": "2A", "Address": "506 EDGECOMBE AVENUE", "ZoneDist1": "PARK", "ZoneDist2": null, "ZoneDist3": null, "ZoneDist4": null, "Overlay1": null, "Overlay2": null, "SPDist1": null, "SPDist2": null, "SPDist3": null, "LtdHeight": null, "SplitZone": "N", "BldgClass": "Q3", "LandUse": "09", "Easements": 0, "OwnerType": "C", "OwnerName": "NYC DEPARTMENT OF PARKS AND RECREATION", "LotArea": 3293950, "BldgArea": 20054, "ComArea": 20054, "ResArea": 0, "OfficeArea": 0, "RetailArea": 0, "GarageArea": 0, "StrgeArea": 0, "FactryArea": 0, "OtherArea": 20054, "AreaSource": "2", "NumBldgs": 9, "NumFloors": 1.0, "UnitsRes": 0, "UnitsTotal": 1, "LotFront": 558.08, "LotDepth": 718.92, "BldgFront": 45.8, "BldgDepth": 246.0, "Ext": "N", "ProxCode": "0", "IrrLotCode": "Y", "LotType": "3", "BsmtCode": "0", "AssessLand": 23627700.0, "AssessTot": 28888200.0, "ExemptTot": 28888200.0, "YearBuilt": 1949, "YearAlter1": 2023, "YearAlter2": 0, "HistDist": null, "Landmark": "INDIVIDUAL LANDMARK", "BuiltFAR": 0.01, "ResidFAR": 0.0, "CommFAR": 0.0, "FacilFAR": 0.0, "BoroCode": 1, "BBL": 1021060001.0000001, "CondoNo": 0, "Tract2010": "0311", "XCoord": 1002597, "YCoord": 245726, "ZoneMap": "3b", "ZMCode": null, "Sanborn": "111 N74", "TaxMap": "10801", "EDesigNum": null, "APPBBL": 0.0, "APPDate": null, "PLUTOMapID": "1", "FIRM07_FLA": "1", "PFIRM15_FL": "1", "Version": "25v4", "DCPEdited": "t", "Latitude": 40.8411172, "Longitude": -73.9336921, "Notes": null, "Shape_Leng": 0.0, "Shape_Area": 3270429.51138 }, "geometry": { "type": "MultiPolygon", "coordinates": [ [ [ [ -73.939547709914294, 40.831652413130662 ], [ -73.939561551655345, 40.831627253376332 ], [ -73.93957648613457, 40.831602427324363 ], [ -73.939592462296389, 40.831577998948326 ], [ -73.939609499172491, 40.831553989842263 ], [ -73.939627564712652, 40.831530399986292 ], [ -73.939646629237018, 40.831507287092187 ], [ -73.939925476441488, 40.831230057571197 ], [ -73.939943057925618, 40.831209278779269 ], [ -73.939961032193679, 40.831186758657488 ], [ -73.940005603667885, 40.831122779112007 ], [ -73.94003447339982, 40.831077531610049 ], [ -73.940076257772844, 40.831005302035436 ], [ -73.940115452756899, 40.830927926641969 ], [ -73.940154528214208, 40.830838356502831 ], [ -73.940167749566498, 40.830799981540693 ], [ -73.940180997536231, 40.830746444028208 ], [ -73.940195153721078, 40.830683454415592 ], [ -73.94019857200206, 40.830843990436115 ], [ -73.940216892329943, 40.831421506392715 ], [ -73.940217370931236, 40.831437766978823 ], [ -73.940217572515166, 40.831452199299676 ], [ -73.940216634866758, 40.831470593294512 ], [ -73.940215799851345, 40.831481533895207 ], [ -73.940212634638527, 40.831505133345502 ], [ -73.940196694887959, 40.831572273277409 ], [ -73.940192470778598, 40.831588131526686 ], [ -73.940187091343532, 40.831605876610183 ], [ -73.940176362963811, 40.831640517649149 ], [ -73.940162540466929, 40.83167490400939 ], [ -73.940148507684455, 40.831708444714558 ], [ -73.940133726024285, 40.83173880807027 ], [ -73.940118049111149, 40.831768074101355 ], [ -73.940094906329577, 40.831804388963924 ], [ -73.940049334225449, 40.831868060986189 ], [ -73.939995171790841, 40.831941741090837 ], [ -73.939662645824669, 40.832395044521164 ], [ -73.939588227893125, 40.832512272544434 ], [ -73.939584917420532, 40.832517845770091 ], [ -73.93957832856951, 40.832528945472518 ], [ -73.939566207275277, 40.832552446582163 ], [ -73.939560155433796, 40.832564927862563 ], [ -73.939554770796434, 40.832576488321521 ], [ -73.939541165223645, 40.83260903948451 ], [ -73.939528955139622, 40.832641491489099 ], [ -73.939523575121314, 40.832656923111252 ], [ -73.939517289445902, 40.832676286822043 ], [ -73.939507595032183, 40.832704857191203 ], [ -73.939499423806581, 40.832728686306226 ], [ -73.939487953274011, 40.832752205735808 ], [ -73.939476244208151, 40.832773372040599 ], [ -73.939461237478028, 40.832797864821721 ], [ -73.939446378599655, 40.832820004763072 ], [ -73.939430283358604, 40.832842006182737 ], [ -73.939413332650446, 40.832863365147865 ], [ -73.939395105268801, 40.832884583810134 ], [ -73.939376787390842, 40.832904775924384 ], [ -73.939356254982471, 40.832924920018826 ], [ -73.939334803928844, 40.83294485556371 ], [ -73.939313192996792, 40.832963273778759 ], [ -73.939250318134725, 40.83301650847649 ], [ -73.939164300085764, 40.833089804836469 ], [ -73.938080792958587, 40.834009844451984 ], [ -73.938066362966083, 40.834023889832629 ], [ -73.938053228107023, 40.83403753610181 ], [ -73.9380155992488, 40.834077324039995 ], [ -73.937980120839299, 40.834117231166999 ], [ -73.937947628973646, 40.834158471664871 ], [ -73.93791531321753, 40.834201454701095 ], [ -73.9378866141072, 40.834242637830556 ], [ -73.937860386214396, 40.834283227889287 ], [ -73.937833261666427, 40.834329152987301 ], [ -73.937808239816832, 40.83437574639666 ], [ -73.937785102478301, 40.834419114421294 ], [ -73.937766786403955, 40.834465716885823 ], [ -73.937748851295353, 40.834511737788624 ], [ -73.936295714470404, 40.837686862248489 ], [ -73.936279121181514, 40.837726373121775 ], [ -73.936261273440053, 40.837764638783845 ], [ -73.936241848082588, 40.837802438924534 ], [ -73.936220841374336, 40.837839757313361 ], [ -73.936198284415255, 40.837876553475638 ], [ -73.936174213702813, 40.837912790451043 ], [ -73.936148631929484, 40.837948411605197 ], [ -73.936121569828842, 40.837983414108891 ], [ -73.936093038114365, 40.838017769355716 ], [ -73.936061913880309, 40.838052742565807 ], [ -73.9360052787397, 40.838119679102086 ], [ -73.93594707289536, 40.838183785466867 ], [ -73.935885223016882, 40.838245778883817 ], [ -73.935820836758083, 40.838306616524122 ], [ -73.935754785749296, 40.838364940748143 ], [ -73.935686474233108, 40.838421373560436 ], [ -73.935614691823588, 40.838476845319953 ], [ -73.93554136556115, 40.838529857847931 ], [ -73.935461073364138, 40.838584034384951 ], [ -73.935380169684677, 40.838636510402033 ], [ -73.935345696406515, 40.838660526123668 ], [ -73.935314508329768, 40.838683639579251 ], [ -73.93528317984071, 40.8387083937534 ], [ -73.935259122745904, 40.838728686372527 ], [ -73.935233150479476, 40.838751714480686 ], [ -73.93520736078122, 40.838775924202118 ], [ -73.935183091808753, 40.838800741722352 ], [ -73.935157817313723, 40.838826706807787 ], [ -73.935133650909378, 40.838853279376451 ], [ -73.935110642304764, 40.838880427162842 ], [ -73.935089699799605, 40.83890694389779 ], [ -73.93506510629453, 40.838937216368777 ], [ -73.935040839725204, 40.838969157682406 ], [ -73.935017858992623, 40.839001635469749 ], [ -73.934996153678441, 40.839034601120147 ], [ -73.934975749665782, 40.839068060170661 ], [ -73.934956652928847, 40.839101989953313 ], [ -73.934937736090149, 40.83913869781771 ], [ -73.934920347165161, 40.839175876623699 ], [ -73.934904541860391, 40.839213449855428 ], [ -73.934890308535657, 40.839251382370101 ], [ -73.9348776801491, 40.839289653522556 ], [ -73.934866660505449, 40.839328206427943 ], [ -73.934857482927541, 40.839366127411409 ], [ -73.934846874853548, 40.839410584286128 ], [ -73.934838020418383, 40.839456183094235 ], [ -73.934831147137174, 40.83950198012618 ], [ -73.934826258585488, 40.83954792878388 ], [ -73.934823362975237, 40.839593973021032 ], [ -73.934822462900982, 40.839640054445262 ], [ -73.934823558396104, 40.83968614151766 ], [ -73.934826635317876, 40.839732171234502 ], [ -73.934831720801157, 40.839778111066842 ], [ -73.934838787707051, 40.839823891730418 ], [ -73.934847825614469, 40.839869475405692 ], [ -73.934858847360417, 40.839914804456711 ], [ -73.934871811581118, 40.839959827577523 ], [ -73.934886725477796, 40.84000450511676 ], [ -73.934904420433952, 40.840051058106241 ], [ -73.934960097051885, 40.840155958595687 ], [ -73.935515881504259, 40.841220482947485 ], [ -73.935533177035239, 40.841270200848413 ], [ -73.9355418848601, 40.841319256541624 ], [ -73.935542397629291, 40.841372581448326 ], [ -73.935535416669197, 40.841418389322804 ], [ -73.935522390100502, 40.841461349147522 ], [ -73.935496987851465, 40.841514206596678 ], [ -73.935479304689721, 40.841541533030899 ], [ -73.933419109054739, 40.844366117216758 ], [ -73.933452496820934, 40.844379512522522 ], [ -73.932241590478498, 40.846029874913938 ], [ -73.932231337976901, 40.846025237681779 ], [ -73.932211977606116, 40.84605162244678 ], [ -73.932205765563879, 40.846048811944144 ], [ -73.932170565619472, 40.84609678485765 ], [ -73.932178020980118, 40.846100157028005 ], [ -73.932130502142343, 40.84616492055742 ], [ -73.932123045676576, 40.846161547378252 ], [ -73.932094886005672, 40.84619992605726 ], [ -73.932102340160625, 40.84620329831678 ], [ -73.932082982110813, 40.846229683980809 ], [ -73.93207148847803, 40.846224483980144 ], [ -73.932064976401008, 40.846233359952116 ], [ -73.932085479246581, 40.846242633607162 ], [ -73.931054882769857, 40.847647160807639 ], [ -73.930980959671601, 40.847747904301279 ], [ -73.930861124014598, 40.847911213559605 ], [ -73.930197249331073, 40.847610892333876 ], [ -73.930063272756456, 40.847550283382752 ], [ -73.929110013846739, 40.847119038804699 ], [ -73.930173810017521, 40.845427839636756 ], [ -73.930303586357226, 40.845224269706648 ], [ -73.930423643926119, 40.8450189575723 ], [ -73.930534742587028, 40.84481075918432 ], [ -73.930636541662324, 40.844600319204645 ], [ -73.93074282110166, 40.844359195696818 ], [ -73.930840953891419, 40.84411658583452 ], [ -73.931327847345372, 40.842830532411291 ], [ -73.931344219015102, 40.842788145117055 ], [ -73.931371472376469, 40.842731830897613 ], [ -73.931394638451877, 40.842684658754798 ], [ -73.931412747314454, 40.842650136519289 ], [ -73.93143678353232, 40.842604312046319 ], [ -73.93146613302045, 40.842555121113811 ], [ -73.931605685906931, 40.842276518047733 ], [ -73.931624089712685, 40.842244307535218 ], [ -73.93410633364536, 40.837899429162583 ], [ -73.934390713732427, 40.837401614918093 ], [ -73.934480372473075, 40.837244764594139 ], [ -73.934822364831675, 40.836604028322974 ], [ -73.934921779363805, 40.836376803076377 ], [ -73.935029032983778, 40.836090966222727 ], [ -73.935045085861418, 40.836056441214218 ], [ -73.93506242375588, 40.836023238912034 ], [ -73.935091889960887, 40.835973784128271 ], [ -73.935130598210989, 40.835918215635886 ], [ -73.935169255030274, 40.835870257238462 ], [ -73.935210614758702, 40.835825108955234 ], [ -73.935275569793717, 40.835763882935652 ], [ -73.936651015426136, 40.8346952673621 ], [ -73.938217347103119, 40.833478288379418 ], [ -73.938370296740615, 40.833352408080053 ], [ -73.938519427806312, 40.833223238816124 ], [ -73.938615058170598, 40.833133367238723 ], [ -73.938706539462629, 40.83304134475145 ], [ -73.93879394658299, 40.832947058881253 ], [ -73.938877203642264, 40.832850636592163 ], [ -73.938955877194871, 40.83275260354538 ], [ -73.93902440576899, 40.832663521365539 ], [ -73.939089738211749, 40.832572653586773 ], [ -73.939151579101946, 40.832480389910707 ], [ -73.939209879692953, 40.832386807866591 ], [ -73.939264477424118, 40.832292149485696 ], [ -73.939296344678581, 40.832233193692169 ], [ -73.939326889328029, 40.832173700518247 ], [ -73.939391797212451, 40.832036474771151 ], [ -73.93945061396532, 40.831897408789736 ], [ -73.93948717666656, 40.831799606173313 ], [ -73.939512788998101, 40.83172980956035 ], [ -73.939523314338629, 40.831703731329064 ], [ -73.939534961009343, 40.831677917547502 ], [ -73.939547709914294, 40.831652413130662 ] ] ] ] } },
{ "type": "Feature", "properties": { "Borough": "MN", "Block": 2149, "Lot": 525, "CD": 112, "BCT2020": "1031100", "BCTCB2020": "10311001000", "CT2010": "311", "CB2010": "1000", "SchoolDist": "06", "Council": 10, "ZipCode": 10040, "FireComp": "L045", "PolicePrct": 34, "HealthCent": 17, "HealthArea": 8600, "Sanitboro": "1", "SanitDistr": "12", "SanitSub": "3A", "Address": "LAUREL HILL TERRACE", "ZoneDist1": "PARK", "ZoneDist2": null, "ZoneDist3": null, "ZoneDist4": null, "Overlay1": null, "Overlay2": null, "SPDist1": null, "SPDist2": null, "SPDist3": null, "LtdHeight": null, "SplitZone": "N", "BldgClass": "Q1", "LandUse": "09", "Easements": 0, "OwnerType": "C", "OwnerName": "NYC DEPARTMENT OF PARKS AND RECREATION", "LotArea": 2237500, "BldgArea": 0, "ComArea": 0, "ResArea": 0, "OfficeArea": 0, "RetailArea": 0, "GarageArea": 0, "StrgeArea": 0, "FactryArea": 0, "OtherArea": 0, "AreaSource": "7", "NumBldgs": 1, "NumFloors": 0.0, "UnitsRes": 0, "UnitsTotal": 0, "LotFront": 2020.0, "LotDepth": 1030.0, "BldgFront": 0.0, "BldgDepth": 0.0, "Ext": "N", "ProxCode": "0", "IrrLotCode": "Y", "LotType": "2", "BsmtCode": "0", "AssessLand": 22544100.0, "AssessTot": 27558900.0, "ExemptTot": 27558900.0, "YearBuilt": 0, "YearAlter1": 0, "YearAlter2": 0, "HistDist": null, "Landmark": "INDIVIDUAL LANDMARK", "BuiltFAR": 0.0, "ResidFAR": 0.0, "CommFAR": 0.0, "FacilFAR": 0.0, "BoroCode": 1, "BBL": 1021490525.0, "CondoNo": 0, "Tract2010": "0311", "XCoord": 1004868, "YCoord": 250750, "ZoneMap": "3a", "ZMCode": "Y", "Sanborn": "112 048", "TaxMap": "10803", "EDesigNum": null, "APPBBL": 0.0, "APPDate": null, "PLUTOMapID": "1", "FIRM07_FLA": "1", "PFIRM15_FL": "1", "Version": "25v4", "DCPEdited": "t", "Latitude": 40.8549016, "Longitude": -73.925469, "Notes": null, "Shape_Leng": 0.0, "Shape_Area": 2266821.7560399999 }, "geometry": { "type": "MultiPolygon", "coordinates": [ [ [ [ -73.92310342212933, 40.858747048377914 ], [ -73.923013188610028, 40.857323874084926 ], [ -73.922986165232857, 40.856824269938798 ], [ -73.922985647593194, 40.856556479222519 ], [ -73.923004176744286, 40.856343212589913 ], [ -73.923055012002692, 40.856056364907218 ], [ -73.923098100819757, 40.855883531504119 ], [ -73.923174670794594, 40.855631907511203 ], [ -73.923247591513203, 40.855450643732226 ], [ -73.923368667260789, 40.855198337826423 ], [ -73.923547758012759, 40.854895052056953 ], [ -73.923704997186647, 40.854660707590057 ], [ -73.924148540403053, 40.854083736081613 ], [ -73.924825749178709, 40.853164264489521 ], [ -73.925083572519085, 40.852807411310557 ], [ -73.925632688716718, 40.852014749777702 ], [ -73.925995143614657, 40.851476646827159 ], [ -73.92637810752565, 40.850926693561981 ], [ -73.926871091235057, 40.850193015526308 ], [ -73.927212419329578, 40.849708542965644 ], [ -73.927468233144268, 40.849361997209584 ], [ -73.928287236675132, 40.848287529710724 ], [ -73.928536434467745, 40.847955112483902 ], [ -73.928765542187421, 40.847632032076902 ], [ -73.92894815633835, 40.847368497395806 ], [ -73.929892984484439, 40.847809429293619 ], [ -73.929666904257104, 40.848115726770956 ], [ -73.929445934677901, 40.848409288507561 ], [ -73.929281414501588, 40.848631768039681 ], [ -73.929122933786161, 40.848841108310154 ], [ -73.929053162362891, 40.848933321817547 ], [ -73.929020121047259, 40.84899626576334 ], [ -73.928924658765283, 40.849150613661351 ], [ -73.928846187713447, 40.849261267375809 ], [ -73.92873164401621, 40.849387865345562 ], [ -73.928616937465677, 40.849491188008322 ], [ -73.928523870212572, 40.849563849608209 ], [ -73.928428178936514, 40.849631666651803 ], [ -73.928318055621602, 40.849700261688895 ], [ -73.928225384480797, 40.849759143074998 ], [ -73.928133597307522, 40.84982291731324 ], [ -73.928011221820185, 40.849931144938701 ], [ -73.92782606502918, 40.850123728379671 ], [ -73.927609891853223, 40.850340935758233 ], [ -73.927499157394848, 40.850474384034115 ], [ -73.927431347051154, 40.850565597294214 ], [ -73.927259000786947, 40.850838064338888 ], [ -73.927160091245767, 40.850987187396711 ], [ -73.927055087648355, 40.851191823819143 ], [ -73.926980978253425, 40.85137425190333 ], [ -73.926945392838377, 40.851486396605658 ], [ -73.926929653908573, 40.851565788546743 ], [ -73.926912435052557, 40.851675363180817 ], [ -73.926894009401238, 40.851896564887021 ], [ -73.926890086536375, 40.851990312746231 ], [ -73.926901427889277, 40.852081557018131 ], [ -73.926926157436981, 40.85214784454957 ], [ -73.926971632716175, 40.85221590124209 ], [ -73.927011977657486, 40.852253905971153 ], [ -73.92707291936118, 40.852307372696565 ], [ -73.927177055326084, 40.852365860829742 ], [ -73.927495773995886, 40.852496394103525 ], [ -73.924653720987706, 40.856382068223368 ], [ -73.924620552840778, 40.856427487147357 ], [ -73.924558741911838, 40.856539647133992 ], [ -73.924526033029821, 40.856616080254838 ], [ -73.924512156662033, 40.856654866186709 ], [ -73.924499969908283, 40.856693973804965 ], [ -73.924480670519728, 40.856772987462101 ], [ -73.924468227589173, 40.856852798950122 ], [ -73.924464592026894, 40.856892892825037 ], [ -73.924462683194363, 40.856933050826932 ], [ -73.924464085452826, 40.857014084368096 ], [ -73.924480824466883, 40.85713239940425 ], [ -73.924493017873445, 40.857190846615396 ], [ -73.924525008394468, 40.857306661044952 ], [ -73.924567067974067, 40.857420602749933 ], [ -73.924582506704297, 40.857453770794237 ], [ -73.924808076151749, 40.857883834231835 ], [ -73.924827050581186, 40.85791081546958 ], [ -73.924847217457327, 40.857937308498286 ], [ -73.924868536502302, 40.857963270119711 ], [ -73.924890992547205, 40.857988668786987 ], [ -73.924914547378435, 40.858013484646563 ], [ -73.924988932446055, 40.858081943560656 ], [ -73.925042290976265, 40.858123705333711 ], [ -73.925099038705355, 40.858162803835157 ], [ -73.925128553640661, 40.858181265122361 ], [ -73.925188652870332, 40.858215388729157 ], [ -73.925251872577306, 40.858246331948202 ], [ -73.925317770751278, 40.858273840668488 ], [ -73.925351616830511, 40.858286272322808 ], [ -73.925386039098029, 40.858297808353882 ], [ -73.925420964097484, 40.858308416255923 ], [ -73.925456340922935, 40.858318094237802 ], [ -73.9254921504062, 40.858326837852573 ], [ -73.925528340572228, 40.858334616278498 ], [ -73.925564853234746, 40.858341435922028 ], [ -73.925601668231863, 40.858347291329231 ], [ -73.925638731041829, 40.858352164396955 ], [ -73.925675985913003, 40.858356051572216 ], [ -73.925713042703961, 40.858358924664564 ], [ -73.925747303669539, 40.858360970144368 ], [ -73.925781960630175, 40.858362144228401 ], [ -73.925816664754947, 40.858362425107202 ], [ -73.925851359305511, 40.858361805382231 ], [ -73.925885995461613, 40.858360292382642 ], [ -73.925954986249778, 40.858354589844495 ], [ -73.926023291857248, 40.85834534696896 ], [ -73.926057096823854, 40.858339411933855 ], [ -73.926090616813553, 40.858332610416511 ], [ -73.926123814138265, 40.858324946914827 ], [ -73.92615665650159, 40.858316427763803 ], [ -73.926189091773566, 40.858307065395081 ], [ -73.926221074971039, 40.85829688153337 ], [ -73.92625260708607, 40.858285876095927 ], [ -73.926283623102776, 40.858274054476816 ], [ -73.926313315952285, 40.858261769202656 ], [ -73.926345445020289, 40.858248281462998 ], [ -73.926377680954687, 40.8582335997191 ], [ -73.926409238278055, 40.858218086466081 ], [ -73.926470115093792, 40.858184582034617 ], [ -73.926527771708905, 40.858147939984114 ], [ -73.926581924408993, 40.85810834652797 ], [ -73.926632300290592, 40.858065976262147 ], [ -73.926656014384193, 40.858043819445953 ], [ -73.926700300483049, 40.857997689322119 ], [ -73.92672082966854, 40.85797377906627 ], [ -73.926749016876229, 40.857937053301747 ], [ -73.926758837365227, 40.857923981669018 ], [ -73.926785262935226, 40.857883305240613 ], [ -73.926808601296884, 40.857847929808678 ], [ -73.926838859217554, 40.857805806917774 ], [ -73.926863814113389, 40.85777358334321 ], [ -73.927058219084515, 40.857906080909274 ], [ -73.927012254369316, 40.857976624260864 ], [ -73.926963599725212, 40.858064396843297 ], [ -73.926922235862534, 40.85815497091555 ], [ -73.926883289043317, 40.858267188038752 ], [ -73.926757412427037, 40.858636091987037 ], [ -73.926725204122974, 40.85872028462142 ], [ -73.926713870989389, 40.858742335892529 ], [ -73.926686874037756, 40.85878781512195 ], [ -73.926655865159347, 40.858831772710637 ], [ -73.926620982168956, 40.858874027706563 ], [ -73.926602131138281, 40.858894457800787 ], [ -73.926582377005161, 40.858914385696558 ], [ -73.926540243270395, 40.858952641417879 ], [ -73.926494766144216, 40.858988636618946 ], [ -73.9264090938847, 40.859045024714092 ], [ -73.926371948973809, 40.859067921212521 ], [ -73.925950564203262, 40.8593113529123 ], [ -73.925797034840954, 40.859404921443335 ], [ -73.925735719636364, 40.859447336480478 ], [ -73.925676792083664, 40.859490585097696 ], [ -73.925619586340943, 40.859535139623745 ], [ -73.925564125044843, 40.859580955903219 ], [ -73.925480894543313, 40.859654263368391 ], [ -73.925342658248695, 40.859798180528458 ], [ -73.925303087939369, 40.859841391980844 ], [ -73.925255975847236, 40.859898875815141 ], [ -73.925242665313021, 40.859916348428648 ], [ -73.925211613927871, 40.859957691423908 ], [ -73.925165568682203, 40.860021986408555 ], [ -73.925124323070236, 40.860081207411817 ], [ -73.925043770822583, 40.860208175715023 ], [ -73.925002967105783, 40.860282404595203 ], [ -73.92496781622431, 40.860351192798028 ], [ -73.924889480294937, 40.86053255938328 ], [ -73.924865798971567, 40.86059890751477 ], [ -73.924844543788225, 40.860665725462127 ], [ -73.9248257646464, 40.860732841258496 ], [ -73.924805706296951, 40.860813179991254 ], [ -73.924789253798252, 40.860894279190113 ], [ -73.924776501369976, 40.860975754593063 ], [ -73.924762108115033, 40.861139461817373 ], [ -73.92476049474574, 40.861221504590709 ], [ -73.924764731372946, 40.861338945957925 ], [ -73.92310342212933, 40.858747048377914 ] ] ] ] } },
{ "type": "Feature", "properties": { "Borough": "MN", "Block": 2149, "Lot": 2, "CD": 112, "BCT2020": "1031100", "BCTCB2020": "10311001003", "CT2010": "311", "CB2010": "1002", "SchoolDist": "06", "Council": 10, "ZipCode": 10033, "FireComp": "L045", "PolicePrct": 34, "HealthCent": 17, "HealthArea": 8600, "Sanitboro": "1", "SanitDistr": "12", "SanitSub": "2A", "Address": "AMSTERDAM AVENUE", "ZoneDist1": "R7-2", "ZoneDist2": "PARK", "ZoneDist3": null, "ZoneDist4": null, "Overlay1": null, "Overlay2": null, "SPDist1": null, "SPDist2": null, "SPDist3": null, "LtdHeight": null, "SplitZone": "Y", "BldgClass": "Q1", "LandUse": "09", "Easements": 0, "OwnerType": "P", "OwnerName": "NYC DEPARTMENT OF PARKS AND RECREATION", "LotArea": 28000, "BldgArea": 0, "ComArea": 0, "ResArea": 0, "OfficeArea": 0, "RetailArea": 0, "GarageArea": 0, "StrgeArea": 0, "FactryArea": 0, "OtherArea": 0, "AreaSource": "7", "NumBldgs": 0, "NumFloors": 0.0, "UnitsRes": 0, "UnitsTotal": 0, "LotFront": 150.0, "LotDepth": 189.92, "BldgFront": 0.0, "BldgDepth": 0.0, "Ext": "N", "ProxCode": "0", "IrrLotCode": "N", "LotType": "3", "BsmtCode": "0", "AssessLand": 411750.0, "AssessTot": 411750.0, "ExemptTot": 411750.0, "YearBuilt": 0, "YearAlter1": 0, "YearAlter2": 0, "HistDist": null, "Landmark": null, "BuiltFAR": 0.0, "ResidFAR": 3.44, "CommFAR": 0.0, "FacilFAR": 6.5, "BoroCode": 1, "BBL": 1021490002.0, "CondoNo": 0, "Tract2010": "0311", "XCoord": 1003556, "YCoord": 248315, "ZoneMap": "3b", "ZMCode": null, "Sanborn": "112 083", "TaxMap": "10803", "EDesigNum": null, "APPBBL": 0.0, "APPDate": null, "PLUTOMapID": "1", "FIRM07_FLA": null, "PFIRM15_FL": null, "Version": "25v4", "DCPEdited": "t", "Latitude": 40.8482212, "Longitude": -73.9302187, "Notes": null, "Shape_Leng": 0.0, "Shape_Area": 30900.601413600001 }, "geometry": { "type": "MultiPolygon", "coordinates": [ [ [ [ -73.930062309408697, 40.848400815663496 ], [ -73.929767582620798, 40.848277742983178 ], [ -73.929862515304308, 40.848147941591336 ], [ -73.929997076484668, 40.847963952637052 ], [ -73.930043967174655, 40.847899838065416 ], [ -73.930666358458168, 40.848173860481289 ], [ -73.93053801165793, 40.848349590128443 ], [ -73.930444292218453, 40.848477907021092 ], [ -73.930398165108386, 40.848541062308321 ], [ -73.930062309408697, 40.848400815663496 ] ] ] ] } },
{ "type": "Feature", "properties": { "Borough": "MN", "Block": 2106, "Lot": 400, "CD": 112, "BCT2020": "1031100", "BCTCB2020": "10311001009", "CT2010": "311", "CB2010": "1007", "SchoolDist": "06", "Council": 10, "ZipCode": 10033, "FireComp": "E067", "PolicePrct": 33, "HealthCent": 17, "HealthArea": 8600, "Sanitboro": "1", "SanitDistr": "12", "SanitSub": "2A", "Address": "AMSTERDAM AVENUE", "ZoneDist1": "R7-2", "ZoneDist2": "PARK", "ZoneDist3": null, "ZoneDist4": null, "Overlay1": null, "Overlay2": null, "SPDist1": null, "SPDist2": null, "SPDist3": null, "LtdHeight": null, "SplitZone": "Y", "BldgClass": "V7", "LandUse": "11", "Easements": 0, "OwnerType": "X", "OwnerName": "PORT AUTHORITY OF NY AND NJ", "LotArea": 450, "BldgArea": 0, "ComArea": 0, "ResArea": 0, "OfficeArea": 0, "RetailArea": 0, "GarageArea": 0, "StrgeArea": 0, "FactryArea": 0, "OtherArea": 0, "AreaSource": "7", "NumBldgs": 0, "NumFloors": 0.0, "UnitsRes": 0, "UnitsTotal": 0, "LotFront": 86.42, "LotDepth": 33.83, "BldgFront": 0.0, "BldgDepth": 0.0, "Ext": null, "ProxCode": "0", "IrrLotCode": "Y", "LotType": "5", "BsmtCode": "5", "AssessLand": 450.0, "AssessTot": 450.0, "ExemptTot": 450.0, "YearBuilt": 0, "YearAlter1": 0, "YearAlter2": 0, "HistDist": null, "Landmark": null, "BuiltFAR": 0.0, "ResidFAR": 3.44, "CommFAR": 0.0, "FacilFAR": 6.5, "BoroCode": 1, "BBL": 1021060400.0, "CondoNo": 0, "Tract2010": "0311", "XCoord": 1003020, "YCoord": 247554, "ZoneMap": "3b", "ZMCode": null, "Sanborn": "112 083", "TaxMap": "10801", "EDesigNum": null, "APPBBL": 0.0, "APPDate": null, "PLUTOMapID": "1", "FIRM07_FLA": null, "PFIRM15_FL": null, "Version": "25v4", "DCPEdited": null, "Latitude": 40.8461337, "Longitude": -73.9321582, "Notes": null, "Shape_Leng": 0.0, "Shape_Area": 361.8909115 }, "geometry": { "type": "MultiPolygon", "coordinates": [ [ [ [ -73.93207148847803, 40.846224483980144 ], [ -73.932082982110813, 40.846229683980809 ], [ -73.932102340160625, 40.84620329831678 ], [ -73.932094886005672, 40.84619992605726 ], [ -73.932123045676576, 40.846161547378252 ], [ -73.932130502142343, 40.84616492055742 ], [ -73.932178020980118, 40.846100157028005 ], [ -73.932170565619472, 40.84609678485765 ], [ -73.932205765563879, 40.846048811944144 ], [ -73.932211977606116, 40.84605162244678 ], [ -73.932231337976901, 40.846025237681779 ], [ -73.932241590478498, 40.846029874913938 ], [ -73.932085479246581, 40.846242633607162 ], [ -73.932064976401008, 40.846233359952116 ], [ -73.93207148847803, 40.846224483980144 ] ] ] ] } },
{ "type": "Feature", "properties": { "Borough": "MN", "Block": 2149, "Lot": 265, "CD": 112, "BCT2020": "1027700", "BCTCB2020": "10277001001", "CT2010": "277", "CB2010": "1001", "SchoolDist": "06", "Council": 10, "ZipCode": 10040, "FireComp": "L045", "PolicePrct": 34, "HealthCent": 17, "HealthArea": 210, "Sanitboro": "1", "SanitDistr": "12", "SanitSub": "3A", "Address": "121 FT GEORGE AVENUE", "ZoneDist1": "R7-2", "ZoneDist2": null, "ZoneDist3": null, "ZoneDist4": null, "Overlay1": "C1-4", "Overlay2": null, "SPDist1": null, "SPDist2": null, "SPDist3": null, "LtdHeight": null, "SplitZone": "N", "BldgClass": "C6", "LandUse": "02", "Easements": 0, "OwnerType": null, "OwnerName": "FORT GEORGE HOUSING DEVELOPMENT FUND COR PORATION", "LotArea": 7600, "BldgArea": 40304, "ComArea": 0, "ResArea": 40304, "OfficeArea": 0, "RetailArea": 0, "GarageArea": 0, "StrgeArea": 0, "FactryArea": 0, "OtherArea": 0, "AreaSource": "2", "NumBldgs": 1, "NumFloors": 6.0, "UnitsRes": 44, "UnitsTotal": 44, "LotFront": 125.0, "LotDepth": 61.08, "BldgFront": 56.0, "BldgDepth": 129.0, "Ext": "N", "ProxCode": "2", "IrrLotCode": "Y", "LotType": "5", "BsmtCode": "2", "AssessLand": 90000.0, "AssessTot": 2986200.0, "ExemptTot": 0.0, "YearBuilt": 1960, "YearAlter1": 1989, "YearAlter2": 0, "HistDist": null, "Landmark": null, "BuiltFAR": 5.3, "ResidFAR": 3.44, "CommFAR": 0.0, "FacilFAR": 6.5, "BoroCode": 1, "BBL": 1021490265.0000001, "CondoNo": 0, "Tract2010": "0277", "XCoord": 1004418, "YCoord": 251766, "ZoneMap": "3a", "ZMCode": null, "Sanborn": "112 032", "TaxMap": "10803", "EDesigNum": null, "APPBBL": 0.0, "APPDate": null, "PLUTOMapID": "1", "FIRM07_FLA": null, "PFIRM15_FL": null, "Version": "25v4", "DCPEdited": null, "Latitude": 40.8576913, "Longitude": -73.9270926, "Notes": null, "Shape_Leng": 0.0, "Shape_Area": 8901.1522504999994 }, "geometry": { "type": "MultiPolygon", "coordinates": [ [ [ [ -73.926863814113389, 40.85777358334321 ], [ -73.926904656086663, 40.857723905739874 ], [ -73.926977295962487, 40.857645413529859 ], [ -73.927016088269625, 40.85760753466289 ], [ -73.927056460500438, 40.857570639105774 ], [ -73.927098395983819, 40.857534754957513 ], [ -73.927157259573306, 40.857487922536095 ], [ -73.927321115065141, 40.857613605137594 ], [ -73.927201328904175, 40.857730099139822 ], [ -73.927165500288439, 40.857769186638535 ], [ -73.927098932831925, 40.857849886302049 ], [ -73.927058219084515, 40.857906080909274 ], [ -73.926863814113389, 40.85777358334321 ] ] ] ] } }
]
}
