{
"type": "FeatureCollection",
"name": "pluto_Middle_Village_Cemetery",
"crs": { "type": "name", "properties": { "name": "urn:ogc:def:crs:OGC:1.3:CRS84" } },
"features": [
{ "type": "Feature", "properties": { "Borough": "QN", "Block": 3667, "Lot": 384, "CD": 405, "BCT2020": "4061900", "BCTCB2020": "40619002002", "CT2010": "619", "CB2010": "2002", "SchoolDist": "24", "Council": 30, "ZipCode": 11379, "FireComp": "L135", "PolicePrct": 104, "HealthCent": 46, "HealthArea": 1810, "Sanitboro": "4", "SanitDistr": "05", "SanitSub": "4D", "Address": "67-44 73 PLACE", "ZoneDist1": "R5", "ZoneDist2": null, "ZoneDist3": null, "ZoneDist4": null, "Overlay1": null, "Overlay2": null, "SPDist1": null, "SPDist2": null, "SPDist3": null, "LtdHeight": null, "SplitZone": "N", "BldgClass": "G0", "LandUse": "10", "Easements": 0, "OwnerType": null, "OwnerName": "STANISLAW BALDYGA", "LotArea": 2081, "BldgArea": 0, "ComArea": 0, "ResArea": 0, "OfficeArea": 0, "RetailArea": 0, "GarageArea": 0, "StrgeArea": 0, "FactryArea": 0, "OtherArea": 0, "AreaSource": "7", "NumBldgs": 1, "NumFloors": 0.0, "UnitsRes": 3, "UnitsTotal": 3, "LotFront": 25.0, "LotDepth": 83.25, "BldgFront": 20.0, "BldgDepth": 30.0, "Ext": null, "ProxCode": "0", "IrrLotCode": "N", "LotType": "5", "BsmtCode": "5", "AssessLand": 9360.0, "AssessTot": 20280.0, "ExemptTot": 0.0, "YearBuilt": 1950, "YearAlter1": 0, "YearAlter2": 0, "HistDist": null, "Landmark": null, "BuiltFAR": 0.0, "ResidFAR": 1.5, "CommFAR": 0.0, "FacilFAR": 2.0, "BoroCode": 4, "BBL": 4036670384.0000005, "CondoNo": 0, "Tract2010": "0619", "XCoord": 1017692, "YCoord": 198488, "ZoneMap": "13d", "ZMCode": null, "Sanborn": "403 090", "TaxMap": "41902", "EDesigNum": null, "APPBBL": 0.0, "APPDate": null, "PLUTOMapID": "1", "FIRM07_FLA": null, "PFIRM15_FL": null, "Version": "25v4", "DCPEdited": null, "Latitude": 40.7114172, "Longitude": -73.8793723, "Notes": null, "Shape_Leng": 0.0, "Shape_Area": 2140.0816073000001 }, "geometry": { "type": "MultiPolygon", "coordinates": [ [ [ [ -73.879213556264915, 40.71139813451952 ], [ -73.879509604059791, 40.711367867427249 ], [ -73.879539256242055, 40.711434318412095 ], [ -73.879225430053907, 40.711466403922429 ], [ -73.879213556264915, 40.71139813451952 ] ] ] ] } },
{ "type": "Feature", "properties": { "Borough": "QN", "Block": 3667, "Lot": 500, "CD": 405, "BCT2020": "4061302", "BCTCB2020": "40613021000", "CT2010": "613.02", "CB2010": "1000", "SchoolDist": "24", "Council": 30, "ZipCode": 11385, "FireComp": "L135", "PolicePrct": 104, "HealthCent": 46, "HealthArea": 1700, "Sanitboro": "4", "SanitDistr": "05", "SanitSub": "4D", "Address": "OTTO ROAD", "ZoneDist1": "M1-1", "ZoneDist2": null, "ZoneDist3": null, "ZoneDist4": null, "Overlay1": null, "Overlay2": null, "SPDist1": null, "SPDist2": null, "SPDist3": null, "LtdHeight": null, "SplitZone": "N", "BldgClass": "V7", "LandUse": "11", "Easements": 0, "OwnerType": "X", "OwnerName": "MTA - LIRR", "LotArea": 4025, "BldgArea": 0, "ComArea": 0, "ResArea": 0, "OfficeArea": 0, "RetailArea": 0, "GarageArea": 0, "StrgeArea": 0, "FactryArea": 0, "OtherArea": 0, "AreaSource": "7", "NumBldgs": 0, "NumFloors": 0.0, "UnitsRes": 0, "UnitsTotal": 0, "LotFront": 50.0, "LotDepth": 89.0, "BldgFront": 0.0, "BldgDepth": 0.0, "Ext": null, "ProxCode": "0", "IrrLotCode": "Y", "LotType": "5", "BsmtCode": "5", "AssessLand": 50850.0, "AssessTot": 50850.0, "ExemptTot": 50850.0, "YearBuilt": 0, "YearAlter1": 0, "YearAlter2": 0, "HistDist": null, "Landmark": null, "BuiltFAR": 0.0, "ResidFAR": 0.0, "CommFAR": 1.0, "FacilFAR": 2.4, "BoroCode": 4, "BBL": 4036670500.0000005, "CondoNo": 0, "Tract2010": "061302", "XCoord": 1016736, "YCoord": 196675, "ZoneMap": "13d", "ZMCode": null, "Sanborn": "403 999", "TaxMap": "41902", "EDesigNum": null, "APPBBL": 0.0, "APPDate": null, "PLUTOMapID": "1", "FIRM07_FLA": null, "PFIRM15_FL": null, "Version": "25v4", "DCPEdited": "t", "Latitude": 40.7064445, "Longitude": -73.8828294, "Notes": null, "Shape_Leng": 0.0, "Shape_Area": 4059.9929444 }, "geometry": { "type": "MultiPolygon", "coordinates": [ [ [ [ -73.882911728121229, 40.706332931426559 ], [ -73.882926893636252, 40.706524084873102 ], [ -73.882751440235722, 40.706589802697245 ], [ -73.882731305377817, 40.706336016374124 ], [ -73.882911728121229, 40.706332931426559 ] ] ] ] } },
{ "type": "Feature", "properties": { "Borough": "QN", "Block": 3667, "Lot": 775, "CD": 405, "BCT2020": "4061301", "BCTCB2020": "40613011001", "CT2010": "613.01", "CB2010": "1001", "SchoolDist": "24", "Council": 30, "ZipCode": 11379, "FireComp": "L135", "PolicePrct": 104, "HealthCent": 46, "HealthArea": 1700, "Sanitboro": "4", "SanitDistr": "05", "SanitSub": "2E", "Address": "65 PLACE", "ZoneDist1": "M1-1", "ZoneDist2": null, "ZoneDist3": null, "ZoneDist4": null, "Overlay1": null, "Overlay2": null, "SPDist1": null, "SPDist2": null, "SPDist3": null, "LtdHeight": null, "SplitZone": "N", "BldgClass": "U7", "LandUse": "07", "Easements": 1, "OwnerType": "X", "OwnerName": "MTA - LIRR", "LotArea": 300292, "BldgArea": 0, "ComArea": 0, "ResArea": 0, "OfficeArea": 0, "RetailArea": 0, "GarageArea": 0, "StrgeArea": 0, "FactryArea": 0, "OtherArea": 0, "AreaSource": "7", "NumBldgs": 2, "NumFloors": 0.0, "UnitsRes": 0, "UnitsTotal": 0, "LotFront": 1036.42, "LotDepth": 40.0, "BldgFront": 0.0, "BldgDepth": 0.0, "Ext": "N", "ProxCode": "0", "IrrLotCode": "Y", "LotType": "5", "BsmtCode": "0", "AssessLand": 0.0, "AssessTot": 0.0, "ExemptTot": 0.0, "YearBuilt": 0, "YearAlter1": 0, "YearAlter2": 0, "HistDist": null, "Landmark": null, "BuiltFAR": 0.0, "ResidFAR": 0.0, "CommFAR": 1.0, "FacilFAR": 2.4, "BoroCode": 4, "BBL": 4036670775.0, "CondoNo": 0, "Tract2010": "061301", "XCoord": 1014066, "YCoord": 197698, "ZoneMap": "13d", "ZMCode": null, "Sanborn": "403 087", "TaxMap": "41902", "EDesigNum": null, "APPBBL": 0.0, "APPDate": null, "PLUTOMapID": "1", "FIRM07_FLA": null, "PFIRM15_FL": null, "Version": "25v4", "DCPEdited": "t", "Latitude": 40.7092618, "Longitude": -73.8924551, "Notes": null, "Shape_Leng": 0.0, "Shape_Area": 315891.198218 }, "geometry": { "type": "MultiPolygon", "coordinates": [ [ [ [ -73.890999149030762, 40.708898478952307 ], [ -73.890935970659086, 40.708871982721071 ], [ -73.890794882073678, 40.708809816170294 ], [ -73.890696881949538, 40.708765359359617 ], [ -73.890621891853996, 40.708731364944889 ], [ -73.890574796478276, 40.70879377143531 ], [ -73.890361352897841, 40.708698971180034 ], [ -73.890376295409226, 40.708631300314181 ], [ -73.889379184007268, 40.708192615824679 ], [ -73.88765165283003, 40.707432543606608 ], [ -73.886782380569286, 40.707050068657388 ], [ -73.886525106724079, 40.706933511257759 ], [ -73.886281008137459, 40.706837579018817 ], [ -73.886047926433605, 40.706754529107108 ], [ -73.88581290701751, 40.706681042043229 ], [ -73.885387750981053, 40.706574852073693 ], [ -73.885084871456613, 40.706512989822215 ], [ -73.884686888782738, 40.706443966943645 ], [ -73.88440825640167, 40.706407565809158 ], [ -73.884087442684987, 40.706373643753942 ], [ -73.883845585229238, 40.706358303486041 ], [ -73.883583455912074, 40.706349959793265 ], [ -73.883394567789324, 40.706348913745614 ], [ -73.882926893636252, 40.706524084873102 ], [ -73.882911728121229, 40.706332931426559 ], [ -73.882731305377817, 40.706336016374124 ], [ -73.882751440235722, 40.706589802697245 ], [ -73.881455550172944, 40.707075176443624 ], [ -73.881403763934955, 40.706462920492356 ], [ -73.88011959117928, 40.706546530087905 ], [ -73.87904014771685, 40.706616799000372 ], [ -73.879051395969782, 40.706643153452468 ], [ -73.87886690659883, 40.706655161171106 ], [ -73.878855658413514, 40.706628807537307 ], [ -73.878764260012289, 40.706634757246547 ], [ -73.87847737992017, 40.706653428967897 ], [ -73.878270667221301, 40.706666884579093 ], [ -73.878185791873335, 40.706672408462872 ], [ -73.878092214605346, 40.706678498472463 ], [ -73.87790437327736, 40.706690724301616 ], [ -73.877915621097202, 40.706717078027012 ], [ -73.877821770297786, 40.706723186434679 ], [ -73.877810522515531, 40.70669683186248 ], [ -73.877718278860726, 40.706702835645203 ], [ -73.877729525396759, 40.706729190223818 ], [ -73.877455372971554, 40.706747031897351 ], [ -73.877444125330072, 40.706720677289368 ], [ -73.877348540697056, 40.706726897826222 ], [ -73.877303682388558, 40.706621785515978 ], [ -73.881016185425523, 40.706380125038159 ], [ -73.880991420558487, 40.706319256344443 ], [ -73.881057244923525, 40.706303060359879 ], [ -73.881221865001464, 40.706291607617267 ], [ -73.881386010286477, 40.706286903547493 ], [ -73.881509186985141, 40.706279929225055 ], [ -73.881652891926208, 40.706269627727394 ], [ -73.882118263700463, 40.706238832924626 ], [ -73.882570436091129, 40.706212864862593 ], [ -73.882903675582341, 40.706189554641114 ], [ -73.882930942699062, 40.706187647262261 ], [ -73.883134882863374, 40.706182309427106 ], [ -73.883373154845117, 40.706174874565924 ], [ -73.883513183795458, 40.70617005205392 ], [ -73.883581260737671, 40.706169954370552 ], [ -73.883604260867301, 40.706225573443533 ], [ -73.883760254248202, 40.706220677613267 ], [ -73.883842723798864, 40.706221351706674 ], [ -73.883996035237303, 40.706225573269222 ], [ -73.884159784824277, 40.706235221664471 ], [ -73.884385941794619, 40.706256550136061 ], [ -73.884657671450299, 40.706289346912385 ], [ -73.884947325015645, 40.706335999111054 ], [ -73.885241684699977, 40.706391111017382 ], [ -73.885514143020401, 40.706451449556255 ], [ -73.885712189662584, 40.706503278329699 ], [ -73.885723304231931, 40.706533209736136 ], [ -73.885841447751119, 40.706555477932632 ], [ -73.885919046843384, 40.706572888016012 ], [ -73.885995330473776, 40.706592873988633 ], [ -73.886181896602906, 40.706652007180878 ], [ -73.886311715290589, 40.706695745632459 ], [ -73.886710730177867, 40.706842945346821 ], [ -73.886989790273006, 40.706970780111071 ], [ -73.88777586380084, 40.707318270380767 ], [ -73.888168024828374, 40.70748790453262 ], [ -73.888511724192369, 40.707648713940493 ], [ -73.888740796775593, 40.707748183881549 ], [ -73.889292895372009, 40.707986390554701 ], [ -73.889575951282666, 40.708115314300578 ], [ -73.889680982797913, 40.708158833288941 ], [ -73.889705757626103, 40.708170297137798 ], [ -73.889862639911229, 40.7082428891243 ], [ -73.89008466839428, 40.708345219601917 ], [ -73.89076325208363, 40.708631417475594 ], [ -73.89085381421225, 40.708634973158013 ], [ -73.890893670317766, 40.708657901098263 ], [ -73.890982133383147, 40.708706139857277 ], [ -73.890952952033359, 40.70873836213115 ], [ -73.891056341516375, 40.708783419076241 ], [ -73.89118005060277, 40.708837331890997 ], [ -73.891347747774887, 40.708872024167235 ], [ -73.891521717705956, 40.70890253934359 ], [ -73.891671468807729, 40.708924457571797 ], [ -73.891787652815438, 40.708938745625389 ], [ -73.891779094125326, 40.708950049723505 ], [ -73.892907332572264, 40.709265013617561 ], [ -73.892673414744522, 40.709576521563818 ], [ -73.890999149030762, 40.708898478952307 ] ] ] ] } },
{ "type": "Feature", "properties": { "Borough": "QN", "Block": 3667, "Lot": 7501, "CD": 405, "BCT2020": "4061900", "BCTCB2020": "40619002002", "CT2010": "619", "CB2010": "2002", "SchoolDist": "24", "Council": 30, "ZipCode": 11379, "FireComp": "L135", "PolicePrct": 104, "HealthCent": 46, "HealthArea": 1810, "Sanitboro": "4", "SanitDistr": "05", "SanitSub": "4D", "Address": "72-52 METROPOLITAN AVENUE", "ZoneDist1": "R5", "ZoneDist2": null, "ZoneDist3": null, "ZoneDist4": null, "Overlay1": "C1-3", "Overlay2": null, "SPDist1": null, "SPDist2": null, "SPDist3": null, "LtdHeight": null, "SplitZone": "N", "BldgClass": "RM", "LandUse": "04", "Easements": 0, "OwnerType": null, "OwnerName": "METRO VILLAGE CONDO", "LotArea": 14129, "BldgArea": 22309, "ComArea": 12431, "ResArea": 9878, "OfficeArea": 12431, "RetailArea": 0, "GarageArea": 0, "StrgeArea": 0, "FactryArea": 0, "OtherArea": 0, "AreaSource": "2", "NumBldgs": 1, "NumFloors": 3.0, "UnitsRes": 12, "UnitsTotal": 13, "LotFront": 0.0, "LotDepth": 0.0, "BldgFront": 0.0, "BldgDepth": 0.0, "Ext": null, "ProxCode": "0", "IrrLotCode": "Y", "LotType": "5", "BsmtCode": "5", "AssessLand": 166500.0, "AssessTot": 1296449.0, "ExemptTot": 6870.0, "YearBuilt": 1988, "YearAlter1": 0, "YearAlter2": 0, "HistDist": null, "Landmark": null, "BuiltFAR": 1.58, "ResidFAR": 1.5, "CommFAR": 0.0, "FacilFAR": 2.0, "BoroCode": 4, "BBL": 4036677501.0, "CondoNo": 226, "Tract2010": "0619", "XCoord": 1017574, "YCoord": 198823, "ZoneMap": "13d", "ZMCode": null, "Sanborn": "403 090", "TaxMap": "41902", "EDesigNum": null, "APPBBL": 4036670351.0000005, "APPDate": "03/06/1989", "PLUTOMapID": "1", "FIRM07_FLA": null, "PFIRM15_FL": null, "Version": "25v4", "DCPEdited": null, "Latitude": 40.7123372, "Longitude": -73.8797963, "Notes": null, "Shape_Leng": 0.0, "Shape_Area": 15290.0033214 }, "geometry": { "type": "MultiPolygon", "coordinates": [ [ [ [ -73.879646997301649, 40.712305145584999 ], [ -73.879631748614273, 40.712217468570358 ], [ -73.879616666345811, 40.712130748049162 ], [ -73.879605140077643, 40.712056542926156 ], [ -73.879806692948804, 40.712035936660563 ], [ -73.880044173424949, 40.712565829793789 ], [ -73.879698195783774, 40.712599529232754 ], [ -73.879648920706884, 40.712304948653696 ], [ -73.879646997301649, 40.712305145584999 ] ] ] ] } },
{ "type": "Feature", "properties": { "Borough": "QN", "Block": 3667, "Lot": 200, "CD": 405, "BCT2020": "4061301", "BCTCB2020": "40613011001", "CT2010": "613.01", "CB2010": "1001", "SchoolDist": "24", "Council": 30, "ZipCode": 11379, "FireComp": "L135", "PolicePrct": 104, "HealthCent": 46, "HealthArea": 1700, "Sanitboro": "4", "SanitDistr": "05", "SanitSub": "2E", "Address": "67-24 METROPOLITAN AVENUE", "ZoneDist1": "R4", "ZoneDist2": null, "ZoneDist3": null, "ZoneDist4": null, "Overlay1": null, "Overlay2": null, "SPDist1": null, "SPDist2": null, "SPDist3": null, "LtdHeight": null, "SplitZone": "N", "BldgClass": "Z8", "LandUse": "09", "Easements": 0, "OwnerType": "X", "OwnerName": "LUTHERAN CEMETERY", "LotArea": 1867890, "BldgArea": 450, "ComArea": 450, "ResArea": 0, "OfficeArea": 0, "RetailArea": 0, "GarageArea": 0, "StrgeArea": 0, "FactryArea": 0, "OtherArea": 450, "AreaSource": "2", "NumBldgs": 6, "NumFloors": 1.0, "UnitsRes": 0, "UnitsTotal": 0, "LotFront": 1653.0, "LotDepth": 1130.0, "BldgFront": 15.0, "BldgDepth": 30.0, "Ext": "N", "ProxCode": "0", "IrrLotCode": "N", "LotType": "5", "BsmtCode": "0", "AssessLand": 7245450.0, "AssessTot": 13176450.0, "ExemptTot": 13176450.0, "YearBuilt": 1931, "YearAlter1": 0, "YearAlter2": 0, "HistDist": null, "Landmark": null, "BuiltFAR": 0.0, "ResidFAR": 1.0, "CommFAR": 0.0, "FacilFAR": 2.0, "BoroCode": 4, "BBL": 4036670200.0, "CondoNo": 0, "Tract2010": "061301", "XCoord": 1016572, "YCoord": 197719, "ZoneMap": "13d", "ZMCode": null, "Sanborn": "403 089", "TaxMap": "41902", "EDesigNum": null, "APPBBL": 0.0, "APPDate": null, "PLUTOMapID": "1", "FIRM07_FLA": null, "PFIRM15_FL": null, "Version": "25v4", "DCPEdited": null, "Latitude": 40.7093107, "Longitude": -73.8834159, "Notes": null, "Shape_Leng": 0.0, "Shape_Area": 5369134.8746699998 }, "geometry": { "type": "MultiPolygon", "coordinates": [ [ [ [ -73.879806692948804, 40.712035936660563 ], [ -73.879777921129786, 40.711969230085479 ], [ -73.879755981624157, 40.711920010503682 ], [ -73.879747552989329, 40.711901115247848 ], [ -73.879705834476781, 40.711807622077927 ], [ -73.879675077533193, 40.711738698067194 ], [ -73.879628154342697, 40.711633538736478 ], [ -73.879599915084214, 40.711570254550992 ], [ -73.879539256242055, 40.711434318412095 ], [ -73.879509604059791, 40.711367867427249 ], [ -73.879480433956473, 40.711302494904757 ], [ -73.87945026440147, 40.711234882739419 ], [ -73.879391263323981, 40.711102659181499 ], [ -73.879361128114354, 40.711035123492401 ], [ -73.879332593604133, 40.710971178008336 ], [ -73.879303366027401, 40.710905678380797 ], [ -73.879183419294364, 40.710636867970528 ], [ -73.879047700267222, 40.710332708404124 ], [ -73.879404034125059, 40.710255277717771 ], [ -73.879270058590507, 40.709901840585232 ], [ -73.878725650033331, 40.710020133195776 ], [ -73.877568145182593, 40.707177545943296 ], [ -73.877891570082639, 40.707110702822192 ], [ -73.878246815311115, 40.707040731718614 ], [ -73.878333216134621, 40.707017829511464 ], [ -73.8784448792766, 40.706988237936443 ], [ -73.878602533345273, 40.706946663187686 ], [ -73.878867562646917, 40.70687679113022 ], [ -73.878952116542806, 40.706854804185141 ], [ -73.87912278589927, 40.706810415705135 ], [ -73.879227715413009, 40.706782589391366 ], [ -73.87998530958501, 40.706582358153348 ], [ -73.88011959117928, 40.706546530087905 ], [ -73.881403763934955, 40.706462920492356 ], [ -73.881455550172944, 40.707075176443624 ], [ -73.882751440235722, 40.706589802697245 ], [ -73.882926893636252, 40.706524084873102 ], [ -73.883394567789324, 40.706348913745614 ], [ -73.883583455912074, 40.706349959793265 ], [ -73.883845585229238, 40.706358303486041 ], [ -73.884087442684987, 40.706373643753942 ], [ -73.88440825640167, 40.706407565809158 ], [ -73.884686888782738, 40.706443966943645 ], [ -73.885084871456613, 40.706512989822215 ], [ -73.885387750981053, 40.706574852073693 ], [ -73.88581290701751, 40.706681042043229 ], [ -73.886047926433605, 40.706754529107108 ], [ -73.886281008137459, 40.706837579018817 ], [ -73.886525106724079, 40.706933511257759 ], [ -73.886782380569286, 40.707050068657388 ], [ -73.88765165283003, 40.707432543606608 ], [ -73.889379184007268, 40.708192615824679 ], [ -73.889439399493497, 40.708347907436533 ], [ -73.889475237672585, 40.708465563901584 ], [ -73.889503935836785, 40.708588021291895 ], [ -73.889519909698024, 40.708680292187829 ], [ -73.889528946484276, 40.708751262889876 ], [ -73.889533908307399, 40.708804785037174 ], [ -73.889538679847803, 40.708894554254066 ], [ -73.889537339022212, 40.708998018091393 ], [ -73.889315627941969, 40.709239301912817 ], [ -73.889449422658487, 40.709433507812683 ], [ -73.887790693575155, 40.709937171628326 ], [ -73.888052504973288, 40.710375695467043 ], [ -73.887119461494464, 40.710578293045927 ], [ -73.887680272622376, 40.711353707254247 ], [ -73.888275642219526, 40.712107287893282 ], [ -73.888335881167279, 40.712183532252837 ], [ -73.886206846180173, 40.712107204615194 ], [ -73.886160376931954, 40.712039101644081 ], [ -73.886043955554783, 40.711868477366743 ], [ -73.885955523451173, 40.711738875630758 ], [ -73.885795477957871, 40.711776416587476 ], [ -73.885735634126647, 40.71179045282414 ], [ -73.885704632441673, 40.711797725984354 ], [ -73.885601222212586, 40.711821981963041 ], [ -73.885597124451337, 40.711810030832481 ], [ -73.88528300221563, 40.711872395066571 ], [ -73.885240916592991, 40.712070514043681 ], [ -73.885240485843596, 40.712072546898327 ], [ -73.885227610412002, 40.712073076164415 ], [ -73.884884475458307, 40.712087167357218 ], [ -73.882633941778195, 40.712306006715572 ], [ -73.882242776249285, 40.712342401599791 ], [ -73.882107438394641, 40.71235589754653 ], [ -73.880044173424949, 40.712565829793789 ], [ -73.879806692948804, 40.712035936660563 ] ] ] ] } },
{ "type": "Feature", "properties": { "Borough": "QN", "Block": 3667, "Lot": 230, "CD": 405, "BCT2020": "4061302", "BCTCB2020": "40613021000", "CT2010": "613.02", "CB2010": "1000", "SchoolDist": "24", "Council": 30, "ZipCode": 11379, "FireComp": "L135", "PolicePrct": 104, "HealthCent": 46, "HealthArea": 1700, "Sanitboro": "4", "SanitDistr": "05", "SanitSub": "4D", "Address": "69-08 METROPOLITAN AVENUE", "ZoneDist1": "R4", "ZoneDist2": null, "ZoneDist3": null, "ZoneDist4": null, "Overlay1": "C2-2", "Overlay2": null, "SPDist1": null, "SPDist2": null, "SPDist3": null, "LtdHeight": null, "SplitZone": "N", "BldgClass": "K1", "LandUse": "05", "Easements": 0, "OwnerType": null, "OwnerName": "69-16 METROPOLITAN AVENUE REALTY ASSOCIA TES, LLC", "LotArea": 12470, "BldgArea": 4214, "ComArea": 4214, "ResArea": 0, "OfficeArea": 0, "RetailArea": 4214, "GarageArea": 0, "StrgeArea": 0, "FactryArea": 0, "OtherArea": 0, "AreaSource": "2", "NumBldgs": 1, "NumFloors": 1.0, "UnitsRes": 0, "UnitsTotal": 2, "LotFront": 117.84, "LotDepth": 115.19, "BldgFront": 91.0, "BldgDepth": 40.0, "Ext": "N", "ProxCode": "1", "IrrLotCode": "Y", "LotType": "5", "BsmtCode": "0", "AssessLand": 337050.0, "AssessTot": 485100.0, "ExemptTot": 118800.0, "YearBuilt": 2006, "YearAlter1": 0, "YearAlter2": 0, "HistDist": null, "Landmark": null, "BuiltFAR": 0.34, "ResidFAR": 1.0, "CommFAR": 0.0, "FacilFAR": 2.0, "BoroCode": 4, "BBL": 4036670230.0, "CondoNo": 0, "Tract2010": "061302", "XCoord": 1015875, "YCoord": 198677, "ZoneMap": "13d", "ZMCode": null, "Sanborn": "403 089", "TaxMap": "41902", "EDesigNum": null, "APPBBL": 4036670230.0, "APPDate": "04/02/2008", "PLUTOMapID": "1", "FIRM07_FLA": null, "PFIRM15_FL": null, "Version": "25v4", "DCPEdited": null, "Latitude": 40.7119427, "Longitude": -73.8859255, "Notes": null, "Shape_Leng": 0.0, "Shape_Area": 11619.1830384 }, "geometry": { "type": "MultiPolygon", "coordinates": [ [ [ [ -73.88578528334881, 40.712092086657826 ], [ -73.885767293033027, 40.712026427848102 ], [ -73.885704632441673, 40.711797725984354 ], [ -73.885735634126647, 40.71179045282414 ], [ -73.885795477957871, 40.711776416587476 ], [ -73.885955523451173, 40.711738875630758 ], [ -73.886043955554783, 40.711868477366743 ], [ -73.886160376931954, 40.712039101644081 ], [ -73.886206846180173, 40.712107204615194 ], [ -73.88578528334881, 40.712092086657826 ] ] ] ] } },
{ "type": "Feature", "properties": { "Borough": "QN", "Block": 3667, "Lot": 250, "CD": 405, "BCT2020": "4061302", "BCTCB2020": "40613021000", "CT2010": "613.02", "CB2010": "1000", "SchoolDist": "24", "Council": 30, "ZipCode": 11379, "FireComp": "L135", "PolicePrct": 104, "HealthCent": 46, "HealthArea": 1700, "Sanitboro": "4", "SanitDistr": "05", "SanitSub": "4D", "Address": "69-16 METROPOLITAN AVENUE", "ZoneDist1": "R4", "ZoneDist2": null, "ZoneDist3": null, "ZoneDist4": null, "Overlay1": "C2-2", "Overlay2": null, "SPDist1": null, "SPDist2": null, "SPDist3": null, "LtdHeight": null, "SplitZone": "N", "BldgClass": "K5", "LandUse": "05", "Easements": 0, "OwnerType": null, "OwnerName": "69-16 METROPOLITAN AVENUE REALTY ASSOCIA TES, LLC", "LotArea": 12482, "BldgArea": 2825, "ComArea": 2825, "ResArea": 0, "OfficeArea": 0, "RetailArea": 2825, "GarageArea": 0, "StrgeArea": 0, "FactryArea": 0, "OtherArea": 0, "AreaSource": "2", "NumBldgs": 1, "NumFloors": 1.0, "UnitsRes": 0, "UnitsTotal": 1, "LotFront": 153.39, "LotDepth": 70.71, "BldgFront": 50.0, "BldgDepth": 58.0, "Ext": "N", "ProxCode": "1", "IrrLotCode": "Y", "LotType": "5", "BsmtCode": "0", "AssessLand": 393300.0, "AssessTot": 631800.0, "ExemptTot": 238500.0, "YearBuilt": 2006, "YearAlter1": 0, "YearAlter2": 0, "HistDist": null, "Landmark": null, "BuiltFAR": 0.23, "ResidFAR": 1.0, "CommFAR": 0.0, "FacilFAR": 2.0, "BoroCode": 4, "BBL": 4036670250.0, "CondoNo": 0, "Tract2010": "061302", "XCoord": 1015987, "YCoord": 198684, "ZoneMap": "13d", "ZMCode": null, "Sanborn": "403 089", "TaxMap": "41902", "EDesigNum": null, "APPBBL": 4036670230.0, "APPDate": "04/02/2008", "PLUTOMapID": "1", "FIRM07_FLA": null, "PFIRM15_FL": null, "Version": "25v4", "DCPEdited": null, "Latitude": 40.7119615, "Longitude": -73.8855215, "Notes": null, "Shape_Leng": 0.0, "Shape_Area": 12196.779325 }, "geometry": { "type": "MultiPolygon", "coordinates": [ [ [ [ -73.885240485843596, 40.712072546898327 ], [ -73.885240916592991, 40.712070514043681 ], [ -73.88528300221563, 40.711872395066571 ], [ -73.885597124451337, 40.711810030832481 ], [ -73.885601222212586, 40.711821981963041 ], [ -73.885704632441673, 40.711797725984354 ], [ -73.885767293033027, 40.712026427848102 ], [ -73.88578528334881, 40.712092086657826 ], [ -73.885240485843596, 40.712072546898327 ] ] ] ] } },
{ "type": "Feature", "properties": { "Borough": "QN", "Block": 3667, "Lot": 368, "CD": 405, "BCT2020": "4061900", "BCTCB2020": "40619002002", "CT2010": "619", "CB2010": "2002", "SchoolDist": "24", "Council": 30, "ZipCode": 11379, "FireComp": "L135", "PolicePrct": 104, "HealthCent": 46, "HealthArea": 1810, "Sanitboro": "4", "SanitDistr": "05", "SanitSub": "4D", "Address": "67-22 73 PLACE", "ZoneDist1": "R5", "ZoneDist2": null, "ZoneDist3": null, "ZoneDist4": null, "Overlay1": null, "Overlay2": null, "SPDist1": null, "SPDist2": null, "SPDist3": null, "LtdHeight": null, "SplitZone": "N", "BldgClass": "C0", "LandUse": "02", "Easements": 0, "OwnerType": null, "OwnerName": "DHIMOSHI, PIRO", "LotArea": 2425, "BldgArea": 2420, "ComArea": 0, "ResArea": 2420, "OfficeArea": 0, "RetailArea": 0, "GarageArea": 0, "StrgeArea": 0, "FactryArea": 0, "OtherArea": 0, "AreaSource": "2", "NumBldgs": 1, "NumFloors": 3.0, "UnitsRes": 3, "UnitsTotal": 3, "LotFront": 19.5, "LotDepth": 126.29, "BldgFront": 19.0, "BldgDepth": 60.0, "Ext": "N", "ProxCode": "2", "IrrLotCode": "Y", "LotType": "5", "BsmtCode": "4", "AssessLand": 12480.0, "AssessTot": 84060.0, "ExemptTot": 0.0, "YearBuilt": 2000, "YearAlter1": 0, "YearAlter2": 0, "HistDist": null, "Landmark": null, "BuiltFAR": 1.0, "ResidFAR": 1.5, "CommFAR": 0.0, "FacilFAR": 2.0, "BoroCode": 4, "BBL": 4036670368.0, "CondoNo": 0, "Tract2010": "0619", "XCoord": 1017637, "YCoord": 198708, "ZoneMap": "13d", "ZMCode": null, "Sanborn": "403 090", "TaxMap": "41902", "EDesigNum": null, "APPBBL": 4036670370.0, "APPDate": "09/24/2002", "PLUTOMapID": "1", "FIRM07_FLA": null, "PFIRM15_FL": null, "Version": "25v4", "DCPEdited": null, "Latitude": 40.7120213, "Longitude": -73.8795696, "Notes": null, "Shape_Leng": 0.0, "Shape_Area": 2984.2292459 }, "geometry": { "type": "MultiPolygon", "coordinates": [ [ [ [ -73.879320998913855, 40.712015945344675 ], [ -73.879777921129786, 40.711969230085479 ], [ -73.879806692948804, 40.712035936660563 ], [ -73.879605140077643, 40.712056542926156 ], [ -73.879603432215774, 40.712046194259152 ], [ -73.879331101904242, 40.712074036158967 ], [ -73.879320998913855, 40.712015945344675 ] ] ] ] } },
{ "type": "Feature", "properties": { "Borough": "QN", "Block": 3667, "Lot": 369, "CD": 405, "BCT2020": "4061900", "BCTCB2020": "40619002002", "CT2010": "619", "CB2010": "2002", "SchoolDist": "24", "Council": 30, "ZipCode": 11379, "FireComp": "L135", "PolicePrct": 104, "HealthCent": 46, "HealthArea": 1810, "Sanitboro": "4", "SanitDistr": "05", "SanitSub": "4D", "Address": "67-24 73 PLACE", "ZoneDist1": "R5", "ZoneDist2": null, "ZoneDist3": null, "ZoneDist4": null, "Overlay1": null, "Overlay2": null, "SPDist1": null, "SPDist2": null, "SPDist3": null, "LtdHeight": null, "SplitZone": "N", "BldgClass": "C0", "LandUse": "02", "Easements": 0, "OwnerType": null, "OwnerName": "SEROWIK, ADRIAN R", "LotArea": 2356, "BldgArea": 3420, "ComArea": 0, "ResArea": 3420, "OfficeArea": 0, "RetailArea": 0, "GarageArea": 0, "StrgeArea": 0, "FactryArea": 0, "OtherArea": 0, "AreaSource": "2", "NumBldgs": 1, "NumFloors": 3.0, "UnitsRes": 3, "UnitsTotal": 3, "LotFront": 19.5, "LotDepth": 122.42, "BldgFront": 32.0, "BldgDepth": 60.0, "Ext": "N", "ProxCode": "2", "IrrLotCode": "Y", "LotType": "5", "BsmtCode": "4", "AssessLand": 11760.0, "AssessTot": 80460.0, "ExemptTot": 0.0, "YearBuilt": 2000, "YearAlter1": 0, "YearAlter2": 0, "HistDist": null, "Landmark": null, "BuiltFAR": 1.45, "ResidFAR": 1.5, "CommFAR": 0.0, "FacilFAR": 2.0, "BoroCode": 4, "BBL": 4036670369.0, "CondoNo": 0, "Tract2010": "0619", "XCoord": 1017644, "YCoord": 198688, "ZoneMap": "13d", "ZMCode": null, "Sanborn": "403 090", "TaxMap": "41902", "EDesigNum": null, "APPBBL": 4036670370.0, "APPDate": "09/24/2002", "PLUTOMapID": "1", "FIRM07_FLA": null, "PFIRM15_FL": null, "Version": "25v4", "DCPEdited": null, "Latitude": 40.7119664, "Longitude": -73.8795445, "Notes": null, "Shape_Leng": 0.0, "Shape_Area": 2340.8734463000001 }, "geometry": { "type": "MultiPolygon", "coordinates": [ [ [ [ -73.879312205259424, 40.711965382335279 ], [ -73.879755981624157, 40.711920010503682 ], [ -73.879777921129786, 40.711969230085479 ], [ -73.879320998913855, 40.712015945344675 ], [ -73.879312205259424, 40.711965382335279 ] ] ] ] } },
{ "type": "Feature", "properties": { "Borough": "QN", "Block": 3667, "Lot": 376, "CD": 405, "BCT2020": "4061900", "BCTCB2020": "40619002002", "CT2010": "619", "CB2010": "2002", "SchoolDist": "24", "Council": 30, "ZipCode": 11379, "FireComp": "L135", "PolicePrct": 104, "HealthCent": 46, "HealthArea": 1810, "Sanitboro": "4", "SanitDistr": "05", "SanitSub": "4D", "Address": "67-28 73 PLACE", "ZoneDist1": "R5", "ZoneDist2": null, "ZoneDist3": null, "ZoneDist4": null, "Overlay1": null, "Overlay2": null, "SPDist1": null, "SPDist2": null, "SPDist3": null, "LtdHeight": null, "SplitZone": "N", "BldgClass": "B2", "LandUse": "01", "Easements": 0, "OwnerType": null, "OwnerName": "CHARLES FRAGAPANE", "LotArea": 3851, "BldgArea": 3840, "ComArea": 0, "ResArea": 3840, "OfficeArea": 0, "RetailArea": 0, "GarageArea": 0, "StrgeArea": 0, "FactryArea": 0, "OtherArea": 0, "AreaSource": "2", "NumBldgs": 1, "NumFloors": 2.0, "UnitsRes": 2, "UnitsTotal": 2, "LotFront": 40.0, "LotDepth": 113.0, "BldgFront": 32.0, "BldgDepth": 60.0, "Ext": "N", "ProxCode": "2", "IrrLotCode": "Y", "LotType": "5", "BsmtCode": "4", "AssessLand": 16920.0, "AssessTot": 96720.0, "ExemptTot": 1420.0, "YearBuilt": 2001, "YearAlter1": 0, "YearAlter2": 0, "HistDist": null, "Landmark": null, "BuiltFAR": 1.0, "ResidFAR": 1.5, "CommFAR": 0.0, "FacilFAR": 2.0, "BoroCode": 4, "BBL": 4036670376.0, "CondoNo": 0, "Tract2010": "0619", "XCoord": 1017651, "YCoord": 198659, "ZoneMap": "13d", "ZMCode": null, "Sanborn": "403 090", "TaxMap": "41902", "EDesigNum": null, "APPBBL": 4036670375.0, "APPDate": "09/24/2002", "PLUTOMapID": "1", "FIRM07_FLA": null, "PFIRM15_FL": null, "Version": "25v4", "DCPEdited": null, "Latitude": 40.7118867, "Longitude": -73.8795194, "Notes": null, "Shape_Leng": 0.0, "Shape_Area": 4946.5241489 }, "geometry": { "type": "MultiPolygon", "coordinates": [ [ [ [ -73.879705834476781, 40.711807622077927 ], [ -73.879747552989329, 40.711901115247848 ], [ -73.879755981624157, 40.711920010503682 ], [ -73.879312205259424, 40.711965382335279 ], [ -73.879293291283219, 40.711856619563413 ], [ -73.879705834476781, 40.711807622077927 ] ] ] ] } },
{ "type": "Feature", "properties": { "Borough": "QN", "Block": 3667, "Lot": 378, "CD": 405, "BCT2020": "4061900", "BCTCB2020": "40619002002", "CT2010": "619", "CB2010": "2002", "SchoolDist": "24", "Council": 30, "ZipCode": 11379, "FireComp": "L135", "PolicePrct": 104, "HealthCent": 46, "HealthArea": 1810, "Sanitboro": "4", "SanitDistr": "05", "SanitSub": "4D", "Address": "67-34 73 PLACE", "ZoneDist1": "R5", "ZoneDist2": null, "ZoneDist3": null, "ZoneDist4": null, "Overlay1": null, "Overlay2": null, "SPDist1": null, "SPDist2": null, "SPDist3": null, "LtdHeight": null, "SplitZone": "N", "BldgClass": "B2", "LandUse": "01", "Easements": 0, "OwnerType": null, "OwnerName": "FRAGAPANE, JR., CHARLES", "LotArea": 3873, "BldgArea": 2046, "ComArea": 0, "ResArea": 2046, "OfficeArea": 0, "RetailArea": 0, "GarageArea": 0, "StrgeArea": 0, "FactryArea": 0, "OtherArea": 0, "AreaSource": "2", "NumBldgs": 2, "NumFloors": 2.0, "UnitsRes": 2, "UnitsTotal": 2, "LotFront": 38.28, "LotDepth": 113.12, "BldgFront": 22.0, "BldgDepth": 46.5, "Ext": "N", "ProxCode": "1", "IrrLotCode": "Y", "LotType": "5", "BsmtCode": "2", "AssessLand": 10440.0, "AssessTot": 66000.0, "ExemptTot": 0.0, "YearBuilt": 1905, "YearAlter1": 0, "YearAlter2": 0, "HistDist": null, "Landmark": null, "BuiltFAR": 0.53, "ResidFAR": 1.5, "CommFAR": 0.0, "FacilFAR": 2.0, "BoroCode": 4, "BBL": 4036670378.0, "CondoNo": 0, "Tract2010": "0619", "XCoord": 1017664, "YCoord": 198622, "ZoneMap": "13d", "ZMCode": null, "Sanborn": "403 090", "TaxMap": "41902", "EDesigNum": null, "APPBBL": 4036670378.0, "APPDate": "10/16/2002", "PLUTOMapID": "1", "FIRM07_FLA": null, "PFIRM15_FL": null, "Version": "25v4", "DCPEdited": null, "Latitude": 40.7117851, "Longitude": -73.8794727, "Notes": null, "Shape_Leng": 0.0, "Shape_Area": 3889.3905962 }, "geometry": { "type": "MultiPolygon", "coordinates": [ [ [ [ -73.879503894536398, 40.711726053951168 ], [ -73.879577727652475, 40.711748650373465 ], [ -73.879675077533193, 40.711738698067194 ], [ -73.879705834476781, 40.711807622077927 ], [ -73.879293291283219, 40.711856619563413 ], [ -73.879274660699807, 40.711749490555853 ], [ -73.879503894536398, 40.711726053951168 ] ] ] ] } },
{ "type": "Feature", "properties": { "Borough": "QN", "Block": 3667, "Lot": 379, "CD": 405, "BCT2020": "4061900", "BCTCB2020": "40619002002", "CT2010": "619", "CB2010": "2002", "SchoolDist": "24", "Council": 30, "ZipCode": 11379, "FireComp": "L135", "PolicePrct": 104, "HealthCent": 46, "HealthArea": 1810, "Sanitboro": "4", "SanitDistr": "05", "SanitSub": "4D", "Address": "67-36 73 PLACE", "ZoneDist1": "R5", "ZoneDist2": null, "ZoneDist3": null, "ZoneDist4": null, "Overlay1": null, "Overlay2": null, "SPDist1": null, "SPDist2": null, "SPDist3": null, "LtdHeight": null, "SplitZone": "N", "BldgClass": "B2", "LandUse": "01", "Easements": 0, "OwnerType": null, "OwnerName": "LEGGIO, LISA", "LotArea": 2797, "BldgArea": 1720, "ComArea": 0, "ResArea": 1720, "OfficeArea": 0, "RetailArea": 0, "GarageArea": 0, "StrgeArea": 0, "FactryArea": 0, "OtherArea": 0, "AreaSource": "2", "NumBldgs": 2, "NumFloors": 2.0, "UnitsRes": 2, "UnitsTotal": 2, "LotFront": 28.25, "LotDepth": 99.0, "BldgFront": 22.0, "BldgDepth": 46.0, "Ext": "N", "ProxCode": "1", "IrrLotCode": "N", "LotType": "5", "BsmtCode": "1", "AssessLand": 13080.0, "AssessTot": 68400.0, "ExemptTot": 0.0, "YearBuilt": 1920, "YearAlter1": 0, "YearAlter2": 0, "HistDist": null, "Landmark": null, "BuiltFAR": 0.61, "ResidFAR": 1.5, "CommFAR": 0.0, "FacilFAR": 2.0, "BoroCode": 4, "BBL": 4036670379.0, "CondoNo": 0, "Tract2010": "0619", "XCoord": 1017663, "YCoord": 198589, "ZoneMap": "13d", "ZMCode": null, "Sanborn": "403 090", "TaxMap": "41902", "EDesigNum": null, "APPBBL": 0.0, "APPDate": null, "PLUTOMapID": "1", "FIRM07_FLA": null, "PFIRM15_FL": null, "Version": "25v4", "DCPEdited": null, "Latitude": 40.7116945, "Longitude": -73.8794764, "Notes": null, "Shape_Leng": 0.0, "Shape_Area": 3431.0650374000002 }, "geometry": { "type": "MultiPolygon", "coordinates": [ [ [ [ -73.879628154342697, 40.711633538736478 ], [ -73.879675077533193, 40.711738698067194 ], [ -73.879577727652475, 40.711748650373465 ], [ -73.879503894536398, 40.711726053951168 ], [ -73.879274660699807, 40.711749490555853 ], [ -73.879261021911347, 40.711671075136941 ], [ -73.879628154342697, 40.711633538736478 ] ] ] ] } },
{ "type": "Feature", "properties": { "Borough": "QN", "Block": 3667, "Lot": 381, "CD": 405, "BCT2020": "4061900", "BCTCB2020": "40619002002", "CT2010": "619", "CB2010": "2002", "SchoolDist": "24", "Council": 30, "ZipCode": 11379, "FireComp": "L135", "PolicePrct": 104, "HealthCent": 46, "HealthArea": 1810, "Sanitboro": "4", "SanitDistr": "05", "SanitSub": "4D", "Address": "67-38 73 PLACE", "ZoneDist1": "R5", "ZoneDist2": null, "ZoneDist3": null, "ZoneDist4": null, "Overlay1": null, "Overlay2": null, "SPDist1": null, "SPDist2": null, "SPDist3": null, "LtdHeight": null, "SplitZone": "N", "BldgClass": "C0", "LandUse": "02", "Easements": 0, "OwnerType": null, "OwnerName": "PERRICONE, MICHELE", "LotArea": 3335, "BldgArea": 3925, "ComArea": 0, "ResArea": 2750, "OfficeArea": 0, "RetailArea": 0, "GarageArea": 0, "StrgeArea": 0, "FactryArea": 0, "OtherArea": 0, "AreaSource": "2", "NumBldgs": 1, "NumFloors": 2.0, "UnitsRes": 3, "UnitsTotal": 3, "LotFront": 35.0, "LotDepth": 99.0, "BldgFront": 25.0, "BldgDepth": 55.0, "Ext": "N", "ProxCode": "1", "IrrLotCode": "Y", "LotType": "5", "BsmtCode": "1", "AssessLand": 15900.0, "AssessTot": 92580.0, "ExemptTot": 0.0, "YearBuilt": 1986, "YearAlter1": 0, "YearAlter2": 0, "HistDist": null, "Landmark": null, "BuiltFAR": 1.18, "ResidFAR": 1.5, "CommFAR": 0.0, "FacilFAR": 2.0, "BoroCode": 4, "BBL": 4036670381.0, "CondoNo": 0, "Tract2010": "0619", "XCoord": 1017677, "YCoord": 198558, "ZoneMap": "13d", "ZMCode": null, "Sanborn": "403 090", "TaxMap": "41902", "EDesigNum": null, "APPBBL": 0.0, "APPDate": null, "PLUTOMapID": "1", "FIRM07_FLA": null, "PFIRM15_FL": null, "Version": "25v4", "DCPEdited": null, "Latitude": 40.7116094, "Longitude": -73.8794261, "Notes": null, "Shape_Leng": 0.0, "Shape_Area": 3183.0049564000001 }, "geometry": { "type": "MultiPolygon", "coordinates": [ [ [ [ -73.879493543519459, 40.711555130729245 ], [ -73.879599915084214, 40.711570254550992 ], [ -73.879628154342697, 40.711633538736478 ], [ -73.879261021911347, 40.711671075136941 ], [ -73.879245272595128, 40.711580514010848 ], [ -73.879493543519459, 40.711555130729245 ] ] ] ] } },
{ "type": "Feature", "properties": { "Borough": "QN", "Block": 3667, "Lot": 415, "CD": 405, "BCT2020": "4061900", "BCTCB2020": "40619002002", "CT2010": "619", "CB2010": "2002", "SchoolDist": "24", "Council": 30, "ZipCode": 11379, "FireComp": "L135", "PolicePrct": 104, "HealthCent": 46, "HealthArea": 1810, "Sanitboro": "4", "SanitDistr": "05", "SanitSub": "4D", "Address": "68-10 73 PLACE", "ZoneDist1": "R4-1", "ZoneDist2": null, "ZoneDist3": null, "ZoneDist4": null, "Overlay1": null, "Overlay2": null, "SPDist1": null, "SPDist2": null, "SPDist3": null, "LtdHeight": null, "SplitZone": "N", "BldgClass": "C0", "LandUse": "02", "Easements": 0, "OwnerType": null, "OwnerName": "JAMES AND MARIA NESSENTHALER IRREVOCABLE  TRUST", "LotArea": 18295, "BldgArea": 2169, "ComArea": 0, "ResArea": 2169, "OfficeArea": 0, "RetailArea": 0, "GarageArea": 0, "StrgeArea": 0, "FactryArea": 0, "OtherArea": 0, "AreaSource": "2", "NumBldgs": 2, "NumFloors": 2.0, "UnitsRes": 3, "UnitsTotal": 3, "LotFront": 150.0, "LotDepth": 134.0, "BldgFront": 35.0, "BldgDepth": 20.0, "Ext": "G", "ProxCode": "1", "IrrLotCode": "Y", "LotType": "5", "BsmtCode": "2", "AssessLand": 37380.0, "AssessTot": 77580.0, "ExemptTot": 1420.0, "YearBuilt": 1899, "YearAlter1": 0, "YearAlter2": 0, "HistDist": null, "Landmark": null, "BuiltFAR": 0.12, "ResidFAR": 1.0, "CommFAR": 0.0, "FacilFAR": 2.0, "BoroCode": 4, "BBL": 4036670415.0000005, "CondoNo": 0, "Tract2010": "0619", "XCoord": 1017772, "YCoord": 198016, "ZoneMap": "13d", "ZMCode": null, "Sanborn": "403 090", "TaxMap": "41902", "EDesigNum": null, "APPBBL": 0.0, "APPDate": null, "PLUTOMapID": "1", "FIRM07_FLA": null, "PFIRM15_FL": null, "Version": "25v4", "DCPEdited": null, "Latitude": 40.7101214, "Longitude": -73.8790861, "Notes": null, "Shape_Leng": 0.0, "Shape_Area": 18922.3229225 }, "geometry": { "type": "MultiPolygon", "coordinates": [ [ [ [ -73.878777035750119, 40.710147987027689 ], [ -73.878725650033331, 40.710020133195776 ], [ -73.879270058590507, 40.709901840585232 ], [ -73.879404034125059, 40.710255277717771 ], [ -73.879047700267222, 40.710332708404124 ], [ -73.879029024314988, 40.710337021114093 ], [ -73.879029313632316, 40.7103386819119 ], [ -73.878777035750119, 40.710147987027689 ] ] ] ] } },
{ "type": "Feature", "properties": { "Borough": "QN", "Block": 3667, "Lot": 430, "CD": 405, "BCT2020": "4061900", "BCTCB2020": "40619002002", "CT2010": "619", "CB2010": "2002", "SchoolDist": "24", "Council": 30, "ZipCode": 11375, "FireComp": "L135", "PolicePrct": 104, "HealthCent": 46, "HealthArea": 1810, "Sanitboro": "4", "SanitDistr": "05", "SanitSub": "4D", "Address": "69-80 73 PLACE", "ZoneDist1": "M1-1", "ZoneDist2": null, "ZoneDist3": null, "ZoneDist4": null, "Overlay1": null, "Overlay2": null, "SPDist1": null, "SPDist2": null, "SPDist3": null, "LtdHeight": null, "SplitZone": "N", "BldgClass": "G2", "LandUse": "07", "Easements": 0, "OwnerType": null, "OwnerName": "69-80 73RD PLACE, LLC", "LotArea": 15147, "BldgArea": 5000, "ComArea": 5000, "ResArea": 0, "OfficeArea": 0, "RetailArea": 0, "GarageArea": 5000, "StrgeArea": 0, "FactryArea": 0, "OtherArea": 0, "AreaSource": "2", "NumBldgs": 1, "NumFloors": 1.0, "UnitsRes": 0, "UnitsTotal": 1, "LotFront": 63.08, "LotDepth": 188.75, "BldgFront": 50.0, "BldgDepth": 100.0, "Ext": "N", "ProxCode": "0", "IrrLotCode": "Y", "LotType": "5", "BsmtCode": "0", "AssessLand": 158850.0, "AssessTot": 791550.0, "ExemptTot": 0.0, "YearBuilt": 1955, "YearAlter1": 0, "YearAlter2": 0, "HistDist": null, "Landmark": null, "BuiltFAR": 0.33, "ResidFAR": 0.0, "CommFAR": 1.0, "FacilFAR": 2.4, "BoroCode": 4, "BBL": 4036670430.0, "CondoNo": 0, "Tract2010": "0619", "XCoord": 1018103, "YCoord": 196871, "ZoneMap": "13d", "ZMCode": null, "Sanborn": "403 087", "TaxMap": "41902", "EDesigNum": null, "APPBBL": 0.0, "APPDate": null, "PLUTOMapID": "1", "FIRM07_FLA": null, "PFIRM15_FL": null, "Version": "25v4", "DCPEdited": null, "Latitude": 40.7069774, "Longitude": -73.877898, "Notes": null, "Shape_Leng": 0.0, "Shape_Area": 16960.1349467 }, "geometry": { "type": "MultiPolygon", "coordinates": [ [ [ [ -73.877468510754383, 40.707007997807459 ], [ -73.877995081745397, 40.706882661032864 ], [ -73.87792417534348, 40.706716522486261 ], [ -73.878103462387443, 40.706704852096969 ], [ -73.878246815311115, 40.707040731718614 ], [ -73.877891570082639, 40.707110702822192 ], [ -73.877568145182593, 40.707177545943296 ], [ -73.87748305639893, 40.707042081477603 ], [ -73.877468510754383, 40.707007997807459 ] ] ] ] } },
{ "type": "Feature", "properties": { "Borough": "QN", "Block": 3667, "Lot": 23, "CD": 405, "BCT2020": "4061301", "BCTCB2020": "40613011000", "CT2010": "613.01", "CB2010": "1000", "SchoolDist": "24", "Council": 30, "ZipCode": 11379, "FireComp": "L135", "PolicePrct": 104, "HealthCent": 46, "HealthArea": 1700, "Sanitboro": "4", "SanitDistr": "05", "SanitSub": "4D", "Address": "68-02 METROPOLITAN AVENUE", "ZoneDist1": "M1-1", "ZoneDist2": null, "ZoneDist3": null, "ZoneDist4": null, "Overlay1": null, "Overlay2": null, "SPDist1": null, "SPDist2": null, "SPDist3": null, "LtdHeight": null, "SplitZone": "N", "BldgClass": "W2", "LandUse": "08", "Easements": 0, "OwnerType": "X", "OwnerName": "CHRIST THE KING REGIONAL HIGH SCHOOL", "LotArea": 82000, "BldgArea": 227500, "ComArea": 227500, "ResArea": 0, "OfficeArea": 0, "RetailArea": 0, "GarageArea": 0, "StrgeArea": 0, "FactryArea": 0, "OtherArea": 227500, "AreaSource": "2", "NumBldgs": 1, "NumFloors": 4.0, "UnitsRes": 0, "UnitsTotal": 1, "LotFront": 88.0, "LotDepth": 338.5, "BldgFront": 614.0, "BldgDepth": 420.0, "Ext": "N", "ProxCode": "0", "IrrLotCode": "Y", "LotType": "5", "BsmtCode": "0", "AssessLand": 1057500.0, "AssessTot": 18011250.0, "ExemptTot": 18011250.0, "YearBuilt": 1962, "YearAlter1": 0, "YearAlter2": 0, "HistDist": null, "Landmark": null, "BuiltFAR": 2.77, "ResidFAR": 0.0, "CommFAR": 1.0, "FacilFAR": 2.4, "BoroCode": 4, "BBL": 4036670023.0, "CondoNo": 0, "Tract2010": "061301", "XCoord": 1015169, "YCoord": 198228, "ZoneMap": "13d", "ZMCode": null, "Sanborn": "499 999", "TaxMap": "41902", "EDesigNum": null, "APPBBL": 0.0, "APPDate": null, "PLUTOMapID": "1", "FIRM07_FLA": null, "PFIRM15_FL": null, "Version": "25v4", "DCPEdited": null, "Latitude": 40.7107128, "Longitude": -73.8884742, "Notes": null, "Shape_Leng": 0.0, "Shape_Area": 349743.133394 }, "geometry": { "type": "MultiPolygon", "coordinates": [ [ [ [ -73.888335881167279, 40.712183532252837 ], [ -73.888275642219526, 40.712107287893282 ], [ -73.887680272622376, 40.711353707254247 ], [ -73.887119461494464, 40.710578293045927 ], [ -73.888052504973288, 40.710375695467043 ], [ -73.887790693575155, 40.709937171628326 ], [ -73.889449422658487, 40.709433507812683 ], [ -73.889315627941969, 40.709239301912817 ], [ -73.889537339022212, 40.708998018091393 ], [ -73.88942226183255, 40.710159607472569 ], [ -73.889100659673261, 40.711048703880742 ], [ -73.888893514991466, 40.711524811686338 ], [ -73.888675025290198, 40.711990373913466 ], [ -73.888662094241269, 40.712119740475394 ], [ -73.888654575574819, 40.712194953665716 ], [ -73.888335881167279, 40.712183532252837 ] ] ] ] } },
{ "type": "Feature", "properties": { "Borough": "QN", "Block": 3667, "Lot": 383, "CD": 405, "BCT2020": "4061900", "BCTCB2020": "40619002002", "CT2010": "619", "CB2010": "2002", "SchoolDist": "24", "Council": 30, "ZipCode": 11379, "FireComp": "L135", "PolicePrct": 104, "HealthCent": 46, "HealthArea": 1810, "Sanitboro": "4", "SanitDistr": "05", "SanitSub": "4D", "Address": "67-42 73 PLACE", "ZoneDist1": "R5", "ZoneDist2": null, "ZoneDist3": null, "ZoneDist4": null, "Overlay1": null, "Overlay2": null, "SPDist1": null, "SPDist2": null, "SPDist3": null, "LtdHeight": null, "SplitZone": "N", "BldgClass": "C0", "LandUse": "02", "Easements": 0, "OwnerType": null, "OwnerName": "MICHELE PERRICONE, AS TRUSTEE", "LotArea": 3708, "BldgArea": 1800, "ComArea": 0, "ResArea": 1200, "OfficeArea": 0, "RetailArea": 0, "GarageArea": 0, "StrgeArea": 0, "FactryArea": 0, "OtherArea": 0, "AreaSource": "2", "NumBldgs": 2, "NumFloors": 2.0, "UnitsRes": 3, "UnitsTotal": 3, "LotFront": 40.0, "LotDepth": 83.3, "BldgFront": 20.0, "BldgDepth": 30.0, "Ext": "G", "ProxCode": "1", "IrrLotCode": "N", "LotType": "5", "BsmtCode": "1", "AssessLand": 16560.0, "AssessTot": 66540.0, "ExemptTot": 0.0, "YearBuilt": 1931, "YearAlter1": 0, "YearAlter2": 0, "HistDist": null, "Landmark": null, "BuiltFAR": 0.49, "ResidFAR": 1.5, "CommFAR": 0.0, "FacilFAR": 2.0, "BoroCode": 4, "BBL": 4036670383.0000005, "CondoNo": 0, "Tract2010": "0619", "XCoord": 1017682, "YCoord": 198521, "ZoneMap": "13d", "ZMCode": null, "Sanborn": "403 090", "TaxMap": "41902", "EDesigNum": null, "APPBBL": 0.0, "APPDate": null, "PLUTOMapID": "1", "FIRM07_FLA": null, "PFIRM15_FL": null, "Version": "25v4", "DCPEdited": null, "Latitude": 40.7115078, "Longitude": -73.8794082, "Notes": null, "Shape_Leng": 0.0, "Shape_Area": 3980.7752786000001 }, "geometry": { "type": "MultiPolygon", "coordinates": [ [ [ [ -73.879225430053907, 40.711466403922429 ], [ -73.879539256242055, 40.711434318412095 ], [ -73.879599915084214, 40.711570254550992 ], [ -73.879493543519459, 40.711555130729245 ], [ -73.879245272595128, 40.711580514010848 ], [ -73.879225430053907, 40.711466403922429 ] ] ] ] } },
{ "type": "Feature", "properties": { "Borough": "QN", "Block": 3667, "Lot": 571, "CD": 405, "BCT2020": "4061301", "BCTCB2020": "40613012000", "CT2010": "613.01", "CB2010": "2000", "SchoolDist": "24", "Council": 30, "ZipCode": 11379, "FireComp": "L135", "PolicePrct": 104, "HealthCent": 46, "HealthArea": 1700, "Sanitboro": "4", "SanitDistr": "05", "SanitSub": "4D", "Address": "OTTO ROAD", "ZoneDist1": "M1-1", "ZoneDist2": null, "ZoneDist3": null, "ZoneDist4": null, "Overlay1": null, "Overlay2": null, "SPDist1": null, "SPDist2": null, "SPDist3": null, "LtdHeight": null, "SplitZone": "N", "BldgClass": "U7", "LandUse": "07", "Easements": 0, "OwnerType": "X", "OwnerName": "MTA - LIRR", "LotArea": 245524, "BldgArea": 0, "ComArea": 0, "ResArea": 0, "OfficeArea": 0, "RetailArea": 0, "GarageArea": 0, "StrgeArea": 0, "FactryArea": 0, "OtherArea": 0, "AreaSource": "7", "NumBldgs": 3, "NumFloors": 0.0, "UnitsRes": 0, "UnitsTotal": 0, "LotFront": 0.0, "LotDepth": 0.0, "BldgFront": 0.0, "BldgDepth": 0.0, "Ext": "N", "ProxCode": "0", "IrrLotCode": "N", "LotType": "5", "BsmtCode": "0", "AssessLand": 0.0, "AssessTot": 0.0, "ExemptTot": 0.0, "YearBuilt": 0, "YearAlter1": 0, "YearAlter2": 0, "HistDist": null, "Landmark": null, "BuiltFAR": 0.0, "ResidFAR": 0.0, "CommFAR": 1.0, "FacilFAR": 2.4, "BoroCode": 4, "BBL": 4036670571.0, "CondoNo": 0, "Tract2010": "061301", "XCoord": 1015410, "YCoord": 196885, "ZoneMap": "13d", "ZMCode": null, "Sanborn": "403 999", "TaxMap": "41902", "EDesigNum": null, "APPBBL": 0.0, "APPDate": null, "PLUTOMapID": "1", "FIRM07_FLA": null, "PFIRM15_FL": null, "Version": "25v4", "DCPEdited": "t", "Latitude": 40.7070257, "Longitude": -73.8876111, "Notes": null, "Shape_Leng": 0.0, "Shape_Area": 245524.43062500001 }, "geometry": { "type": "MultiPolygon", "coordinates": [ [ [ [ -73.883581260737671, 40.706169954370552 ], [ -73.88363541218682, 40.70616987685051 ], [ -73.883870107181096, 40.706170409603864 ], [ -73.884308881028517, 40.706172195559809 ], [ -73.884656066480289, 40.706175483797942 ], [ -73.884731430049243, 40.706176196891484 ], [ -73.885427526737018, 40.706216948499303 ], [ -73.885627554495727, 40.706226865127107 ], [ -73.886126578748275, 40.70625160775149 ], [ -73.886599052413843, 40.706278143728085 ], [ -73.887482574045904, 40.706664749496596 ], [ -73.888683508063295, 40.707186262813934 ], [ -73.888735138818689, 40.707199478209873 ], [ -73.888795766783289, 40.707211920732135 ], [ -73.888869858488775, 40.707223838636992 ], [ -73.888942534676602, 40.707228833723207 ], [ -73.889059747127547, 40.707231044200014 ], [ -73.889157856115474, 40.707223078410564 ], [ -73.889187819518341, 40.707218817272114 ], [ -73.889267743678204, 40.707207452381134 ], [ -73.889398498837764, 40.707176582716201 ], [ -73.88944725576917, 40.707161053453753 ], [ -73.889504318711374, 40.70733661614608 ], [ -73.889579928807734, 40.707512763843482 ], [ -73.889642561980168, 40.707635096276455 ], [ -73.889710532377293, 40.707752337780214 ], [ -73.889759481587319, 40.707832520222226 ], [ -73.889910736161582, 40.70804904358539 ], [ -73.88970698798714, 40.708093269486071 ], [ -73.889729725817901, 40.70816285485526 ], [ -73.889705757626103, 40.708170297137798 ], [ -73.889680982797913, 40.708158833288941 ], [ -73.889575951282666, 40.708115314300578 ], [ -73.889292895372009, 40.707986390554701 ], [ -73.888740796775593, 40.707748183881549 ], [ -73.888511724192369, 40.707648713940493 ], [ -73.888168024828374, 40.70748790453262 ], [ -73.88777586380084, 40.707318270380767 ], [ -73.886989790273006, 40.706970780111071 ], [ -73.886710730177867, 40.706842945346821 ], [ -73.886311715290589, 40.706695745632459 ], [ -73.886181896602906, 40.706652007180878 ], [ -73.885995330473776, 40.706592873988633 ], [ -73.885919046843384, 40.706572888016012 ], [ -73.885841447751119, 40.706555477932632 ], [ -73.885723304231931, 40.706533209736136 ], [ -73.885712189662584, 40.706503278329699 ], [ -73.885514143020401, 40.706451449556255 ], [ -73.885241684699977, 40.706391111017382 ], [ -73.884947325015645, 40.706335999111054 ], [ -73.884657671450299, 40.706289346912385 ], [ -73.884385941794619, 40.706256550136061 ], [ -73.884159784824277, 40.706235221664471 ], [ -73.883996035237303, 40.706225573269222 ], [ -73.883842723798864, 40.706221351706674 ], [ -73.883760254248202, 40.706220677613267 ], [ -73.883604260867301, 40.706225573443533 ], [ -73.883581260737671, 40.706169954370552 ] ] ] ] } }
]
}
