{
"type": "FeatureCollection",
"name": "pluto_Van_Cortlandt_Park",
"crs": { "type": "name", "properties": { "name": "urn:ogc:def:crs:OGC:1.3:CRS84" } },
"features": [
{ "type": "Feature", "properties": { "Borough": "BX", "Block": 5900, "Lot": 1, "CD": 226, "BCT2020": "2043503", "BCTCB2020": "20435031016", "CT2010": "435", "CB2010": "1024", "SchoolDist": "10", "Council": 11, "ZipCode": 10467, "FireComp": "L039", "PolicePrct": 50, "HealthCent": 21, "HealthArea": 100, "Sanitboro": "2", "SanitDistr": "26", "SanitSub": null, "Address": "3545 JEROME AVENUE", "ZoneDist1": "PARK", "ZoneDist2": null, "ZoneDist3": null, "ZoneDist4": null, "Overlay1": null, "Overlay2": null, "SPDist1": null, "SPDist2": null, "SPDist3": null, "LtdHeight": null, "SplitZone": "N", "BldgClass": "Q1", "LandUse": "09", "Easements": 0, "OwnerType": "C", "OwnerName": "NYC DEPARTMENT OF PARKS AND RECREATION", "LotArea": 22251600, "BldgArea": 18445, "ComArea": 18445, "ResArea": 0, "OfficeArea": 0, "RetailArea": 0, "GarageArea": 0, "StrgeArea": 4500, "FactryArea": 0, "OtherArea": 13945, "AreaSource": "2", "NumBldgs": 17, "NumFloors": 1.0, "UnitsRes": 0, "UnitsTotal": 3, "LotFront": 183.58, "LotDepth": 396.25, "BldgFront": 54.0, "BldgDepth": 22.0, "Ext": "N", "ProxCode": "1", "IrrLotCode": "Y", "LotType": "5", "BsmtCode": "0", "AssessLand": 35030313.0, "AssessTot": 45229950.0, "ExemptTot": 45229950.0, "YearBuilt": 1943, "YearAlter1": 0, "YearAlter2": 0, "HistDist": null, "Landmark": null, "BuiltFAR": 0.0, "ResidFAR": 0.0, "CommFAR": 0.0, "FacilFAR": 0.0, "BoroCode": 2, "BBL": 2059000001.0, "CondoNo": 0, "Tract2010": "0435", "XCoord": 1016103, "YCoord": 264755, "ZoneMap": "1d", "ZMCode": "Y", "Sanborn": "213 089", "TaxMap": "21904", "EDesigNum": null, "APPBBL": 0.0, "APPDate": null, "PLUTOMapID": "1", "FIRM07_FLA": null, "PFIRM15_FL": null, "Version": "25v4", "DCPEdited": "t", "Latitude": 40.8933076, "Longitude": -73.8847896, "Notes": null, "Shape_Leng": 0.0, "Shape_Area": 22201539.2016 }, "geometry": { "type": "MultiPolygon", "coordinates": [ [ [ [ -73.878498187507859, 40.906002742973449 ], [ -73.87981617313983, 40.898079089849951 ], [ -73.880320696505748, 40.895045403999745 ], [ -73.880567681447062, 40.893299855603495 ], [ -73.880581182298954, 40.893129314622946 ], [ -73.880585128092122, 40.892968120751661 ], [ -73.880577947873277, 40.892816796315344 ], [ -73.880555982125799, 40.892652862374618 ], [ -73.880519648364825, 40.892490414695843 ], [ -73.880469108025309, 40.892330163774666 ], [ -73.880438583925823, 40.892251090044134 ], [ -73.880383084782238, 40.892123258732489 ], [ -73.880284931312943, 40.891925496253805 ], [ -73.879487381987303, 40.890505325777241 ], [ -73.879326063104628, 40.890207171226287 ], [ -73.878239251701103, 40.887733514630327 ], [ -73.878095379298131, 40.88723734670306 ], [ -73.881309632732666, 40.882857989729771 ], [ -73.882312561111064, 40.883341608248358 ], [ -73.882502913002227, 40.883431308447491 ], [ -73.882577340644204, 40.883452965354593 ], [ -73.882635379299188, 40.883463938482983 ], [ -73.882694603292776, 40.883470269742865 ], [ -73.882774319791437, 40.883471363886507 ], [ -73.882814057237127, 40.883468751494839 ], [ -73.882835998126879, 40.883465824677941 ], [ -73.883624070431395, 40.88327490299281 ], [ -73.883715002937549, 40.883252688767691 ], [ -73.883867720468331, 40.883232236865176 ], [ -73.883945506971671, 40.883230978037155 ], [ -73.883997286355552, 40.883233498435743 ], [ -73.884048708679373, 40.883238693766195 ], [ -73.884124681439275, 40.883251442774487 ], [ -73.884198532218036, 40.883270020261868 ], [ -73.884292210557106, 40.883303439636919 ], [ -73.884369830145502, 40.883340827473049 ], [ -73.88505630355202, 40.883665703739275 ], [ -73.886325938104108, 40.88426654008525 ], [ -73.886444944511084, 40.884134065886769 ], [ -73.887927162649461, 40.884414020176273 ], [ -73.894414195870326, 40.885639010571893 ], [ -73.896615045364541, 40.886054518802744 ], [ -73.896920033522392, 40.886112094670317 ], [ -73.894599427882611, 40.888289257762196 ], [ -73.893649140166076, 40.888965861967307 ], [ -73.890983036089253, 40.890931778340082 ], [ -73.890492393248792, 40.891290590465388 ], [ -73.890230904356017, 40.891525102273775 ], [ -73.889985892459279, 40.891770936640228 ], [ -73.889724805547814, 40.89207841237176 ], [ -73.8882327802323, 40.894617417939273 ], [ -73.888027734032278, 40.895002490317196 ], [ -73.887905861129695, 40.895307223453628 ], [ -73.887841447749707, 40.895562242568694 ], [ -73.887526839188922, 40.896639032134004 ], [ -73.886574950042004, 40.899863102079429 ], [ -73.886505807409648, 40.900097276490847 ], [ -73.885354863280838, 40.903995091055563 ], [ -73.884995002251273, 40.905189187262877 ], [ -73.884821161778646, 40.90574502621692 ], [ -73.88471481760206, 40.906250423299767 ], [ -73.884687188960783, 40.906755937665686 ], [ -73.884665592358473, 40.907843660090677 ], [ -73.878498187507859, 40.906002742973449 ] ] ] ] } },
{ "type": "Feature", "properties": { "Borough": "BX", "Block": 5900, "Lot": 50, "CD": 226, "BCT2020": "2043503", "BCTCB2020": "20435031000", "CT2010": "435", "CB2010": "1000", "SchoolDist": "10", "Council": 11, "ZipCode": 10470, "FireComp": "L039", "PolicePrct": 47, "HealthCent": 21, "HealthArea": 100, "Sanitboro": "2", "SanitDistr": "26", "SanitSub": null, "Address": "EAST 233 STREET", "ZoneDist1": "PARK", "ZoneDist2": null, "ZoneDist3": null, "ZoneDist4": null, "Overlay1": null, "Overlay2": null, "SPDist1": null, "SPDist2": null, "SPDist3": null, "LtdHeight": null, "SplitZone": "N", "BldgClass": "Q1", "LandUse": "09", "Easements": 0, "OwnerType": "C", "OwnerName": "NYC DEPARTMENT OF PARKS AND RECREATION", "LotArea": 5954400, "BldgArea": 13225, "ComArea": 13225, "ResArea": 0, "OfficeArea": 0, "RetailArea": 0, "GarageArea": 0, "StrgeArea": 0, "FactryArea": 0, "OtherArea": 13225, "AreaSource": "2", "NumBldgs": 9, "NumFloors": 1.0, "UnitsRes": 0, "UnitsTotal": 1, "LotFront": 722.0, "LotDepth": 190.17, "BldgFront": 115.0, "BldgDepth": 115.0, "Ext": "N", "ProxCode": "1", "IrrLotCode": "Y", "LotType": "5", "BsmtCode": "0", "AssessLand": 13049100.0, "AssessTot": 15714000.0, "ExemptTot": 15714000.0, "YearBuilt": 1943, "YearAlter1": 0, "YearAlter2": 0, "HistDist": null, "Landmark": null, "BuiltFAR": 0.0, "ResidFAR": 0.0, "CommFAR": 0.0, "FacilFAR": 0.0, "BoroCode": 2, "BBL": 2059000050.0000002, "CondoNo": 0, "Tract2010": "0435", "XCoord": 1018798, "YCoord": 267611, "ZoneMap": "1c", "ZMCode": null, "Sanborn": "213 089", "TaxMap": "21904", "EDesigNum": null, "APPBBL": 0.0, "APPDate": null, "PLUTOMapID": "1", "FIRM07_FLA": null, "PFIRM15_FL": null, "Version": "25v4", "DCPEdited": "t", "Latitude": 40.9011363, "Longitude": -73.8750272, "Notes": null, "Shape_Leng": 0.0, "Shape_Area": 5851356.078470001 }, "geometry": { "type": "MultiPolygon", "coordinates": [ [ [ [ -73.868004994472201, 40.902917841960445 ], [ -73.868027323701384, 40.902892055044497 ], [ -73.868030954028342, 40.902889166885963 ], [ -73.868045343263759, 40.902877712064779 ], [ -73.868092486431308, 40.902852596533322 ], [ -73.868116386837613, 40.902840629387654 ], [ -73.868163888028661, 40.902817482713978 ], [ -73.868189660600251, 40.902802806416226 ], [ -73.8682186703452, 40.902781820380397 ], [ -73.868235328313204, 40.902768826558422 ], [ -73.868292476612311, 40.902717762243583 ], [ -73.868301741966789, 40.90270948481318 ], [ -73.868422722761721, 40.902545559892573 ], [ -73.868452738708925, 40.902470027131642 ], [ -73.868460688416263, 40.902447033297101 ], [ -73.86846711407857, 40.902418151281765 ], [ -73.868470621505509, 40.902381410097369 ], [ -73.868469176386, 40.902350582079521 ], [ -73.86846488399182, 40.902318049873443 ], [ -73.868465736085383, 40.902306683119711 ], [ -73.868466726672608, 40.902300325893016 ], [ -73.868468726557069, 40.902293642044789 ], [ -73.868472303751076, 40.902285819150826 ], [ -73.868474491756857, 40.902282468207595 ], [ -73.868480324874497, 40.902275305188596 ], [ -73.868861341195597, 40.901873923691632 ], [ -73.86929866391219, 40.901478251609213 ], [ -73.869967776942261, 40.900978185134221 ], [ -73.870409930343882, 40.900692050278224 ], [ -73.871186597339573, 40.900234600518367 ], [ -73.871575514167006, 40.900042806788022 ], [ -73.872048772837857, 40.899819481247071 ], [ -73.87245722555835, 40.899655777152219 ], [ -73.873138008231436, 40.899388992168127 ], [ -73.873675655945036, 40.899160426938451 ], [ -73.874054394831433, 40.898987326767774 ], [ -73.874610668419251, 40.89868941304502 ], [ -73.874797107256143, 40.898576073408371 ], [ -73.875155493589432, 40.898336366414057 ], [ -73.875452929098188, 40.898114150060785 ], [ -73.875691923989734, 40.897912888304084 ], [ -73.876029115139204, 40.897570343564254 ], [ -73.876432596747279, 40.897112408543357 ], [ -73.876719935937246, 40.896719740315838 ], [ -73.876941825570597, 40.896372659747463 ], [ -73.877106531577653, 40.896046092103568 ], [ -73.877291629745443, 40.895527148844472 ], [ -73.87977745704373, 40.89536736858711 ], [ -73.879067109175253, 40.898060547854278 ], [ -73.87890680895319, 40.898789227620547 ], [ -73.877788362370651, 40.905803963343729 ], [ -73.868004994472201, 40.902917841960445 ] ] ] ] } },
{ "type": "Feature", "properties": { "Borough": "BX", "Block": 5900, "Lot": 100, "CD": 226, "BCT2020": "2043503", "BCTCB2020": "20435031009", "CT2010": "435", "CB2010": "1018", "SchoolDist": "10", "Council": 11, "ZipCode": 10463, "FireComp": "E052", "PolicePrct": 50, "HealthCent": 21, "HealthArea": 100, "Sanitboro": "2", "SanitDistr": "08", "SanitSub": "2A", "Address": "JEROME AVENUE", "ZoneDist1": "PARK", "ZoneDist2": null, "ZoneDist3": null, "ZoneDist4": null, "Overlay1": null, "Overlay2": null, "SPDist1": null, "SPDist2": null, "SPDist3": null, "LtdHeight": null, "SplitZone": "N", "BldgClass": "U6", "LandUse": "07", "Easements": 0, "OwnerType": "C", "OwnerName": "NYC DEPARTMENT OF PARKS AND RECREATION", "LotArea": 619327, "BldgArea": 0, "ComArea": 0, "ResArea": 0, "OfficeArea": 0, "RetailArea": 0, "GarageArea": 0, "StrgeArea": 0, "FactryArea": 0, "OtherArea": 0, "AreaSource": "7", "NumBldgs": 1, "NumFloors": 0.0, "UnitsRes": 0, "UnitsTotal": 0, "LotFront": 73.17, "LotDepth": 882.58, "BldgFront": 0.0, "BldgDepth": 0.0, "Ext": "N", "ProxCode": "0", "IrrLotCode": "N", "LotType": "5", "BsmtCode": "0", "AssessLand": 0.0, "AssessTot": 0.0, "ExemptTot": 0.0, "YearBuilt": 0, "YearAlter1": 0, "YearAlter2": 0, "HistDist": null, "Landmark": null, "BuiltFAR": 0.0, "ResidFAR": 0.0, "CommFAR": 0.0, "FacilFAR": 0.0, "BoroCode": 2, "BBL": 2059000100.0, "CondoNo": 0, "Tract2010": "0435", "XCoord": 1016107, "YCoord": 269927, "ZoneMap": "1c", "ZMCode": "Y", "Sanborn": "213 089", "TaxMap": "21904", "EDesigNum": null, "APPBBL": 0.0, "APPDate": null, "PLUTOMapID": "1", "FIRM07_FLA": null, "PFIRM15_FL": null, "Version": "25v4", "DCPEdited": "t", "Latitude": 40.9075031, "Longitude": -73.8847505, "Notes": null, "Shape_Leng": 0.0, "Shape_Area": 619327.48775900004 }, "geometry": { "type": "MultiPolygon", "coordinates": [ [ [ [ -73.884665592358473, 40.907843660090677 ], [ -73.884687188960783, 40.906755937665686 ], [ -73.88471481760206, 40.906250423299767 ], [ -73.884821161778646, 40.90574502621692 ], [ -73.884995002251273, 40.905189187262877 ], [ -73.885354863280838, 40.903995091055563 ], [ -73.886505807409648, 40.900097276490847 ], [ -73.886574950042004, 40.899863102079429 ], [ -73.887526839188922, 40.896639032134004 ], [ -73.887841447749707, 40.895562242568694 ], [ -73.887905861129695, 40.895307223453628 ], [ -73.888027734032278, 40.895002490317196 ], [ -73.8882327802323, 40.894617417939273 ], [ -73.889724805547814, 40.89207841237176 ], [ -73.889985892459279, 40.891770936640228 ], [ -73.890230904356017, 40.891525102273775 ], [ -73.890492393248792, 40.891290590465388 ], [ -73.890983036089253, 40.890931778340082 ], [ -73.893649140166076, 40.888965861967307 ], [ -73.894599427882611, 40.888289257762196 ], [ -73.896920033522392, 40.886112094670317 ], [ -73.897163468777023, 40.886158049782146 ], [ -73.894744941910119, 40.888414733299406 ], [ -73.893843306955105, 40.889104177648647 ], [ -73.89116796281084, 40.891044784251363 ], [ -73.890605376159087, 40.891472282812451 ], [ -73.89017411372356, 40.891899165473802 ], [ -73.889979364334224, 40.892162573037268 ], [ -73.88846475608014, 40.894698691854082 ], [ -73.888324727916611, 40.894965433538232 ], [ -73.888184609378925, 40.895291572751056 ], [ -73.888093075379118, 40.895600074358434 ], [ -73.886802913413746, 40.899980379526035 ], [ -73.886736634214088, 40.900205394384699 ], [ -73.885249847819722, 40.905252504022101 ], [ -73.885111009177848, 40.905666247539848 ], [ -73.885055081029847, 40.905839224454816 ], [ -73.884922127323847, 40.906746769640549 ], [ -73.884896179648166, 40.907914738870879 ], [ -73.884665592358473, 40.907843660090677 ] ] ] ] } },
{ "type": "Feature", "properties": { "Borough": "BX", "Block": 5900, "Lot": 150, "CD": 226, "BCT2020": "2043503", "BCTCB2020": "20435031007", "CT2010": "435", "CB2010": "1013", "SchoolDist": "10", "Council": 11, "ZipCode": 10471, "FireComp": "E052", "PolicePrct": 50, "HealthCent": 21, "HealthArea": 100, "Sanitboro": "2", "SanitDistr": "26", "SanitSub": null, "Address": "6200 BROADWAY", "ZoneDist1": "PARK", "ZoneDist2": null, "ZoneDist3": null, "ZoneDist4": null, "Overlay1": null, "Overlay2": null, "SPDist1": null, "SPDist2": null, "SPDist3": null, "LtdHeight": null, "SplitZone": "N", "BldgClass": "Q1", "LandUse": "09", "Easements": 0, "OwnerType": "C", "OwnerName": "NYC DEPARTMENT OF PARKS AND RECREATION", "LotArea": 19850400, "BldgArea": 87000, "ComArea": 87000, "ResArea": 0, "OfficeArea": 0, "RetailArea": 0, "GarageArea": 0, "StrgeArea": 0, "FactryArea": 0, "OtherArea": 87000, "AreaSource": "2", "NumBldgs": 35, "NumFloors": 1.0, "UnitsRes": 0, "UnitsTotal": 2, "LotFront": 735.0, "LotDepth": 103.58, "BldgFront": 60.0, "BldgDepth": 30.0, "Ext": "N", "ProxCode": "1", "IrrLotCode": "Y", "LotType": "5", "BsmtCode": "0", "AssessLand": 38499750.0, "AssessTot": 47454300.0, "ExemptTot": 47454300.0, "YearBuilt": 1943, "YearAlter1": 0, "YearAlter2": 0, "HistDist": null, "Landmark": "INDIVIDUAL AND INTERIOR LANDMARK", "BuiltFAR": 0.0, "ResidFAR": 0.0, "CommFAR": 0.0, "FacilFAR": 0.0, "BoroCode": 2, "BBL": 2059000150.0, "CondoNo": 0, "Tract2010": "0435", "XCoord": 1014046, "YCoord": 267188, "ZoneMap": "1c", "ZMCode": "Y", "Sanborn": "213 089", "TaxMap": "21904", "EDesigNum": null, "APPBBL": 0.0, "APPDate": null, "PLUTOMapID": "1", "FIRM07_FLA": null, "PFIRM15_FL": null, "Version": "25v4", "DCPEdited": "t", "Latitude": 40.8999926, "Longitude": -73.8922188, "Notes": null, "Shape_Leng": 0.0, "Shape_Area": 19950515.459199999 }, "geometry": { "type": "MultiPolygon", "coordinates": [ [ [ [ -73.884896179648166, 40.907914738870879 ], [ -73.884922127323847, 40.906746769640549 ], [ -73.885055081029847, 40.905839224454816 ], [ -73.885111009177848, 40.905666247539848 ], [ -73.885249847819722, 40.905252504022101 ], [ -73.886736634214088, 40.900205394384699 ], [ -73.886802913413746, 40.899980379526035 ], [ -73.888093075379118, 40.895600074358434 ], [ -73.888184609378925, 40.895291572751056 ], [ -73.888324727916611, 40.894965433538232 ], [ -73.88846475608014, 40.894698691854082 ], [ -73.889979364334224, 40.892162573037268 ], [ -73.89017411372356, 40.891899165473802 ], [ -73.890605376159087, 40.891472282812451 ], [ -73.89116796281084, 40.891044784251363 ], [ -73.893843306955105, 40.889104177648647 ], [ -73.894744941910119, 40.888414733299406 ], [ -73.897163468777023, 40.886158049782146 ], [ -73.898597865187014, 40.886428389769556 ], [ -73.899531747647984, 40.886604388013147 ], [ -73.897600788404304, 40.890383982550212 ], [ -73.897559688612759, 40.890475911887329 ], [ -73.897424105302676, 40.890779171722322 ], [ -73.8973530716531, 40.890980953619 ], [ -73.89725518664865, 40.891286402599235 ], [ -73.897157843092572, 40.89156110208868 ], [ -73.897055169797014, 40.891798121277397 ], [ -73.896895304211014, 40.89210359373687 ], [ -73.896783163878808, 40.892289102619053 ], [ -73.896663218312227, 40.892479259052109 ], [ -73.896579622950242, 40.892653824463572 ], [ -73.896526461346895, 40.892783355932522 ], [ -73.896447498371344, 40.893005664762676 ], [ -73.896361259844909, 40.893220126444511 ], [ -73.89628674108036, 40.893455363767309 ], [ -73.896263277020324, 40.893577131730119 ], [ -73.896253227432325, 40.893657559552437 ], [ -73.896247668241671, 40.893733310732998 ], [ -73.896249753881676, 40.893916115945942 ], [ -73.896273121236277, 40.894095053799767 ], [ -73.896310467296317, 40.894309292459859 ], [ -73.896421966631891, 40.894988836969915 ], [ -73.896971016537563, 40.898886449224626 ], [ -73.896994375846802, 40.899192375070136 ], [ -73.896983769640386, 40.899446599793301 ], [ -73.896917769744462, 40.899911150074402 ], [ -73.896858814341485, 40.900176429919178 ], [ -73.896689475217926, 40.900926805963792 ], [ -73.896328830814369, 40.90257328271565 ], [ -73.896264429380878, 40.902867288113512 ], [ -73.896238843342914, 40.90297695589058 ], [ -73.896213204854106, 40.90308675872182 ], [ -73.896197567171427, 40.903187803345851 ], [ -73.896194375052545, 40.903253624207871 ], [ -73.896193656959454, 40.903317471543069 ], [ -73.896221646042974, 40.903716416180288 ], [ -73.896228935777046, 40.90413048200363 ], [ -73.896157715009053, 40.904075219873356 ], [ -73.895426404267255, 40.903507786934235 ], [ -73.895198390009554, 40.903646221160201 ], [ -73.896169387022269, 40.904390069659243 ], [ -73.896241431915541, 40.90444525957016 ], [ -73.896252261853149, 40.904734202573614 ], [ -73.896378408177171, 40.907458873091102 ], [ -73.896435748901268, 40.910087396713877 ], [ -73.896483091736499, 40.911328421361745 ], [ -73.896405226061276, 40.911305486316309 ], [ -73.886162647191725, 40.908287933724992 ], [ -73.885829271278496, 40.908189698760786 ], [ -73.884896179648166, 40.907914738870879 ] ] ] ] } },
{ "type": "Feature", "properties": { "Borough": "BX", "Block": 3271, "Lot": 100, "CD": 208, "BCT2020": "2028300", "BCTCB2020": "20283002000", "CT2010": "283", "CB2010": "2000", "SchoolDist": "10", "Council": 11, "ZipCode": 10463, "FireComp": "L046", "PolicePrct": 50, "HealthCent": 21, "HealthArea": 310, "Sanitboro": "2", "SanitDistr": "08", "SanitSub": "2A", "Address": "WEST 238 STREET", "ZoneDist1": "PARK", "ZoneDist2": "R7-1", "ZoneDist3": null, "ZoneDist4": null, "Overlay1": null, "Overlay2": null, "SPDist1": null, "SPDist2": null, "SPDist3": null, "LtdHeight": null, "SplitZone": "Y", "BldgClass": "U1", "LandUse": "07", "Easements": 3, "OwnerType": "C", "OwnerName": "NYC DEPARTMENT OF TRANSPORTATION", "LotArea": 38770, "BldgArea": 0, "ComArea": 0, "ResArea": 0, "OfficeArea": 0, "RetailArea": 0, "GarageArea": 0, "StrgeArea": 0, "FactryArea": 0, "OtherArea": 0, "AreaSource": "7", "NumBldgs": 0, "NumFloors": 0.0, "UnitsRes": 0, "UnitsTotal": 0, "LotFront": 66.17, "LotDepth": 732.08, "BldgFront": 0.0, "BldgDepth": 0.0, "Ext": "N", "ProxCode": "0", "IrrLotCode": "Y", "LotType": "3", "BsmtCode": "0", "AssessLand": 0.0, "AssessTot": 0.0, "ExemptTot": 0.0, "YearBuilt": 0, "YearAlter1": 0, "YearAlter2": 0, "HistDist": null, "Landmark": null, "BuiltFAR": 0.0, "ResidFAR": 0.0, "CommFAR": 0.0, "FacilFAR": 0.0, "BoroCode": 2, "BBL": 2032710100.0, "CondoNo": 0, "Tract2010": "0283", "XCoord": 1012521, "YCoord": 261899, "ZoneMap": "1d", "ZMCode": null, "Sanborn": "213 039", "TaxMap": "21201", "EDesigNum": null, "APPBBL": 0.0, "APPDate": null, "PLUTOMapID": "1", "FIRM07_FLA": null, "PFIRM15_FL": null, "Version": "25v4", "DCPEdited": "t", "Latitude": 40.885481, "Longitude": -73.8977575, "Notes": null, "Shape_Leng": 0.0, "Shape_Area": 38769.536674800001 }, "geometry": { "type": "MultiPolygon", "coordinates": [ [ [ [ -73.898299300547933, 40.884841645662853 ], [ -73.898587401893749, 40.88454380287039 ], [ -73.898591140507023, 40.884539937627466 ], [ -73.89868507349037, 40.884598203547782 ], [ -73.898680962062343, 40.884602225994861 ], [ -73.898164446632364, 40.885107563198758 ], [ -73.898100143359613, 40.885170474785568 ], [ -73.898227674363412, 40.885209146439948 ], [ -73.897417745508534, 40.885961981783858 ], [ -73.897413172022695, 40.885966234335839 ], [ -73.897209267561777, 40.88615576018001 ], [ -73.896948149543633, 40.886108960881131 ], [ -73.897150025319178, 40.885918096488226 ], [ -73.897258444137762, 40.885817511404376 ], [ -73.898076829532698, 40.885055958899073 ], [ -73.898217541214947, 40.884920401286323 ], [ -73.898299300547933, 40.884841645662853 ] ] ] ] } }
]
}
