{
"type": "FeatureCollection",
"name": "pluto_United_Nations",
"crs": { "type": "name", "properties": { "name": "urn:ogc:def:crs:OGC:1.3:CRS84" } },
"features": [
{ "type": "Feature", "properties": { "Borough": "MN", "Block": 1354, "Lot": 11, "CD": 106, "BCT2020": "1008601", "BCTCB2020": "10086013000", "CT2010": "86.02", "CB2010": "1002", "SchoolDist": "02", "Council": 4, "ZipCode": 10017, "FireComp": "E021", "PolicePrct": 17, "HealthCent": 13, "HealthArea": 5000, "Sanitboro": "1", "SanitDistr": "06", "SanitSub": "2B", "Address": "421 EAST 42 STREET", "ZoneDist1": "C5-2", "ZoneDist2": null, "ZoneDist3": null, "ZoneDist4": null, "Overlay1": null, "Overlay2": null, "SPDist1": null, "SPDist2": null, "SPDist3": null, "LtdHeight": null, "SplitZone": "N", "BldgClass": "U7", "LandUse": "07", "Easements": 0, "OwnerType": "C", "OwnerName": "NYC TRANSIT AUTHORITY", "LotArea": 2500, "BldgArea": 0, "ComArea": 0, "ResArea": 0, "OfficeArea": 0, "RetailArea": 0, "GarageArea": 0, "StrgeArea": 0, "FactryArea": 0, "OtherArea": 0, "AreaSource": "7", "NumBldgs": 1, "NumFloors": 0.0, "UnitsRes": 0, "UnitsTotal": 0, "LotFront": 50.67, "LotDepth": 50.0, "BldgFront": 0.0, "BldgDepth": 0.0, "Ext": "N", "ProxCode": "0", "IrrLotCode": "N", "LotType": "5", "BsmtCode": "0", "AssessLand": 0.0, "AssessTot": 0.0, "ExemptTot": 0.0, "YearBuilt": 0, "YearAlter1": 0, "YearAlter2": 0, "HistDist": null, "Landmark": null, "BuiltFAR": 0.0, "ResidFAR": 10.0, "CommFAR": 10.0, "FacilFAR": 10.0, "BoroCode": 1, "BBL": 1013540011.0, "CondoNo": 0, "Tract2010": "008602", "XCoord": 992926, "YCoord": 212002, "ZoneMap": "8d", "ZMCode": null, "Sanborn": "104 038", "TaxMap": "10507", "EDesigNum": null, "APPBBL": 0.0, "APPDate": null, "PLUTOMapID": "1", "FIRM07_FLA": null, "PFIRM15_FL": null, "Version": "25v4", "DCPEdited": "t", "Latitude": 40.7485688, "Longitude": -73.9686876, "Notes": null, "Shape_Leng": 0.0, "Shape_Area": 2500.0094439 }, "geometry": { "type": "MultiPolygon", "coordinates": [ [ [ [ -73.968563029424075, 40.748595252144753 ], [ -73.968650660542409, 40.748475282076107 ], [ -73.96880869866213, 40.748541529375125 ], [ -73.968721066641891, 40.748661498642399 ], [ -73.968563029424075, 40.748595252144753 ] ] ] ] } },
{ "type": "Feature", "properties": { "Borough": "MN", "Block": 1354, "Lot": 1, "CD": 106, "BCT2020": "1008602", "BCTCB2020": "10086021002", "CT2010": "86.02", "CB2010": "1002", "SchoolDist": "02", "Council": 4, "ZipCode": 10017, "FireComp": "L002", "PolicePrct": 17, "HealthCent": 13, "HealthArea": 5000, "Sanitboro": "1", "SanitDistr": "06", "SanitSub": "2B", "Address": "752 1 AVENUE", "ZoneDist1": "C5-2", "ZoneDist2": null, "ZoneDist3": null, "ZoneDist4": null, "Overlay1": null, "Overlay2": null, "SPDist1": null, "SPDist2": null, "SPDist3": null, "LtdHeight": null, "SplitZone": "N", "BldgClass": "Z5", "LandUse": "08", "Easements": 0, "OwnerType": "X", "OwnerName": "DADA, LLC", "LotArea": 659375, "BldgArea": 2400000, "ComArea": 2400000, "ResArea": 0, "OfficeArea": 2400000, "RetailArea": 0, "GarageArea": 0, "StrgeArea": 0, "FactryArea": 0, "OtherArea": 0, "AreaSource": "2", "NumBldgs": 8, "NumFloors": 39.0, "UnitsRes": 0, "UnitsTotal": 0, "LotFront": 120.08, "LotDepth": 426.5, "BldgFront": 73.0, "BldgDepth": 287.0, "Ext": "N", "ProxCode": "0", "IrrLotCode": "Y", "LotType": "3", "BsmtCode": "0", "AssessLand": 172509300.0, "AssessTot": 342517500.0, "ExemptTot": 342517500.0, "YearBuilt": 1952, "YearAlter1": 2010, "YearAlter2": 0, "HistDist": null, "Landmark": null, "BuiltFAR": 3.64, "ResidFAR": 10.0, "CommFAR": 10.0, "FacilFAR": 10.0, "BoroCode": 1, "BBL": 1013540001.0000001, "CondoNo": 0, "Tract2010": "008602", "XCoord": 993264, "YCoord": 212651, "ZoneMap": "8d", "ZMCode": null, "Sanborn": "104 038", "TaxMap": "10507", "EDesigNum": null, "APPBBL": 0.0, "APPDate": null, "PLUTOMapID": "1", "FIRM07_FLA": null, "PFIRM15_FL": null, "Version": "25v4", "DCPEdited": null, "Latitude": 40.7503498, "Longitude": -73.9674669, "Notes": null, "Shape_Leng": 0.0, "Shape_Area": 653955.323905 }, "geometry": { "type": "MultiPolygon", "coordinates": [ [ [ [ -73.966647831969397, 40.752246831739463 ], [ -73.965390293263923, 40.751710988682646 ], [ -73.965606950659037, 40.751446816886919 ], [ -73.965896417513122, 40.751093698100675 ], [ -73.96769800753826, 40.748897065406197 ], [ -73.967729659845233, 40.748910334248521 ], [ -73.968230772269479, 40.748299266491728 ], [ -73.968650660542409, 40.748475282076107 ], [ -73.968563029424075, 40.748595252144753 ], [ -73.968721066641891, 40.748661498642399 ], [ -73.96880869866213, 40.748541529375125 ], [ -73.969506725224392, 40.748834129829504 ], [ -73.968203850390722, 40.750617789464137 ], [ -73.967385990385125, 40.751737401600444 ], [ -73.967354384072905, 40.751724151539221 ], [ -73.967000509872207, 40.752208573905193 ], [ -73.966971507439155, 40.752228450509662 ], [ -73.96694060167502, 40.752244593136773 ], [ -73.966902133405426, 40.75225921079069 ], [ -73.966855945095645, 40.752270309712692 ], [ -73.966814607882512, 40.752275085806957 ], [ -73.96677259791322, 40.752275296018396 ], [ -73.966732602102695, 40.752271162824258 ], [ -73.966689833364612, 40.752258887332673 ], [ -73.966647831969397, 40.752246831739463 ] ] ] ] } },
{ "type": "Feature", "properties": { "Borough": "MN", "Block": 1354, "Lot": 50, "CD": 106, "BCT2020": "1008602", "BCTCB2020": "10086020001", "CT2010": "86.02", "CB2010": "0001", "SchoolDist": null, "Council": 5, "ZipCode": 0, "FireComp": null, "PolicePrct": 0, "HealthCent": 0, "HealthArea": 0, "Sanitboro": null, "SanitDistr": null, "SanitSub": null, "Address": "EAST 42 STREET", "ZoneDist1": "C5-2", "ZoneDist2": null, "ZoneDist3": null, "ZoneDist4": null, "Overlay1": null, "Overlay2": null, "SPDist1": null, "SPDist2": null, "SPDist3": null, "LtdHeight": null, "SplitZone": "N", "BldgClass": "T2", "LandUse": "07", "Easements": 0, "OwnerType": "C", "OwnerName": "NYC DEPARTMENT OF SMALL BUSINESS SERVICES", "LotArea": 140400, "BldgArea": 0, "ComArea": 0, "ResArea": 0, "OfficeArea": 0, "RetailArea": 0, "GarageArea": 0, "StrgeArea": 0, "FactryArea": 0, "OtherArea": 0, "AreaSource": "7", "NumBldgs": 0, "NumFloors": 0.0, "UnitsRes": 0, "UnitsTotal": 0, "LotFront": 1050.92, "LotDepth": 87.0, "BldgFront": 0.0, "BldgDepth": 0.0, "Ext": "N", "ProxCode": "0", "IrrLotCode": "N", "LotType": "2", "BsmtCode": "0", "AssessLand": 5292000.0, "AssessTot": 5292000.0, "ExemptTot": 5292000.0, "YearBuilt": 0, "YearAlter1": 0, "YearAlter2": 0, "HistDist": null, "Landmark": null, "BuiltFAR": 0.0, "ResidFAR": 10.0, "CommFAR": 10.0, "FacilFAR": 10.0, "BoroCode": 1, "BBL": 1013540050.0, "CondoNo": 0, "Tract2010": "008602", "XCoord": 993612, "YCoord": 212447, "ZoneMap": "8d", "ZMCode": null, "Sanborn": "104 038", "TaxMap": "10507", "EDesigNum": null, "APPBBL": 0.0, "APPDate": null, "PLUTOMapID": "1", "FIRM07_FLA": "1", "PFIRM15_FL": "1", "Version": "25v4", "DCPEdited": "t", "Latitude": 40.7497895, "Longitude": -73.9662112, "Notes": null, "Shape_Leng": 0.0, "Shape_Area": 3705.3194675 }, "geometry": { "type": "MultiPolygon", "coordinates": [ [ [ [ -73.965726283879135, 40.750613274205719 ], [ -73.965475339200665, 40.750922257760081 ], [ -73.965414211131502, 40.750993417323926 ], [ -73.965253886937646, 40.751175646915534 ], [ -73.965021397188636, 40.751426059739771 ], [ -73.964875850744917, 40.751584418170054 ], [ -73.964814318505873, 40.751649452937798 ], [ -73.964800530647366, 40.751643190672532 ], [ -73.964924263762384, 40.751510416504949 ], [ -73.965371553048371, 40.750993792392315 ], [ -73.965553613484246, 40.750783727196492 ], [ -73.965636968505166, 40.750686769294781 ], [ -73.965644646189077, 40.750677839439277 ], [ -73.965733856963894, 40.75057861050405 ], [ -73.96587621806637, 40.750420262484688 ], [ -73.965956726668807, 40.750330688859492 ], [ -73.965726283879135, 40.750613274205719 ] ] ] ] } },
{ "type": "Feature", "properties": { "Borough": "MN", "Block": 1360, "Lot": 60, "CD": 106, "BCT2020": "1008603", "BCTCB2020": "10086030001", "CT2010": "86.03", "CB2010": "0001", "SchoolDist": null, "Council": 5, "ZipCode": 0, "FireComp": null, "PolicePrct": 0, "HealthCent": 0, "HealthArea": 0, "Sanitboro": null, "SanitDistr": null, "SanitSub": null, "Address": "EAST 49 STREET", "ZoneDist1": "C5-2", "ZoneDist2": null, "ZoneDist3": null, "ZoneDist4": null, "Overlay1": null, "Overlay2": null, "SPDist1": null, "SPDist2": null, "SPDist3": null, "LtdHeight": null, "SplitZone": "N", "BldgClass": "T2", "LandUse": "07", "Easements": 0, "OwnerType": "C", "OwnerName": "NYC DEPARTMENT OF SMALL BUSINESS SERVICES", "LotArea": 16125, "BldgArea": 0, "ComArea": 0, "ResArea": 0, "OfficeArea": 0, "RetailArea": 0, "GarageArea": 0, "StrgeArea": 0, "FactryArea": 0, "OtherArea": 0, "AreaSource": "7", "NumBldgs": 0, "NumFloors": 0.0, "UnitsRes": 0, "UnitsTotal": 0, "LotFront": 262.67, "LotDepth": 69.0, "BldgFront": 0.0, "BldgDepth": 0.0, "Ext": "N", "ProxCode": "0", "IrrLotCode": "N", "LotType": "2", "BsmtCode": "0", "AssessLand": 666450.0, "AssessTot": 666450.0, "ExemptTot": 666450.0, "YearBuilt": 0, "YearAlter1": 0, "YearAlter2": 0, "HistDist": null, "Landmark": null, "BuiltFAR": 0.0, "ResidFAR": 10.0, "CommFAR": 10.0, "FacilFAR": 10.0, "BoroCode": 1, "BBL": 1013600060.0000001, "CondoNo": 0, "Tract2010": "008603", "XCoord": 994103, "YCoord": 213212, "ZoneMap": "8d", "ZMCode": null, "Sanborn": "104 054", "TaxMap": "10507", "EDesigNum": null, "APPBBL": 0.0, "APPDate": null, "PLUTOMapID": "1", "FIRM07_FLA": "1", "PFIRM15_FL": "1", "Version": "25v4", "DCPEdited": "t", "Latitude": 40.7518887, "Longitude": -73.9644379, "Notes": null, "Shape_Leng": 0.0, "Shape_Area": 1469.8788742 }, "geometry": { "type": "MultiPolygon", "coordinates": [ [ [ [ -73.964814318505873, 40.751649452937798 ], [ -73.964254467522096, 40.752252992849286 ], [ -73.964232542690524, 40.752243154436933 ], [ -73.964257845250941, 40.752216592581874 ], [ -73.964388948899767, 40.752078905168439 ], [ -73.964648929474961, 40.751805867002368 ], [ -73.964663349780551, 40.751790395302535 ], [ -73.964800530647366, 40.751643190672532 ], [ -73.964814318505873, 40.751649452937798 ] ] ] ] } }
]
}
