{
"type": "FeatureCollection",
"name": "pluto_Crotona_Park",
"crs": { "type": "name", "properties": { "name": "urn:ogc:def:crs:OGC:1.3:CRS84" } },
"features": [
{ "type": "Feature", "properties": { "Borough": "BX", "Block": 2941, "Lot": 1, "CD": 203, "BCT2020": "2016300", "BCTCB2020": "20163001002", "CT2010": "163", "CB2010": "1000", "SchoolDist": "09", "Council": 15, "ZipCode": 10457, "FireComp": "L058", "PolicePrct": 42, "HealthCent": 25, "HealthArea": 2400, "Sanitboro": "2", "SanitDistr": "03", "SanitSub": "1B", "Address": "1700 FULTON AVENUE", "ZoneDist1": "PARK", "ZoneDist2": null, "ZoneDist3": null, "ZoneDist4": null, "Overlay1": null, "Overlay2": null, "SPDist1": null, "SPDist2": null, "SPDist3": null, "LtdHeight": null, "SplitZone": "N", "BldgClass": "Q3", "LandUse": "09", "Easements": 0, "OwnerType": "C", "OwnerName": "NYC DEPARTMENT OF PARKS AND RECREATION", "LotArea": 1514000, "BldgArea": 28400, "ComArea": 28400, "ResArea": 0, "OfficeArea": 28400, "RetailArea": 0, "GarageArea": 0, "StrgeArea": 0, "FactryArea": 0, "OtherArea": 0, "AreaSource": "2", "NumBldgs": 4, "NumFloors": 0.0, "UnitsRes": 0, "UnitsTotal": 1, "LotFront": 2271.0, "LotDepth": 790.0, "BldgFront": 0.0, "BldgDepth": 0.0, "Ext": "N", "ProxCode": "0", "IrrLotCode": "Y", "LotType": "1", "BsmtCode": "0", "AssessLand": 8502750.0, "AssessTot": 13117950.0, "ExemptTot": 13117950.0, "YearBuilt": 1943, "YearAlter1": 0, "YearAlter2": 0, "HistDist": null, "Landmark": "INDIVIDUAL AND INTERIOR LANDMARK", "BuiltFAR": 0.02, "ResidFAR": 0.0, "CommFAR": 0.0, "FacilFAR": 0.0, "BoroCode": 2, "BBL": 2029410001.0, "CondoNo": 0, "Tract2010": "0163", "XCoord": 1012721, "YCoord": 245378, "ZoneMap": "3d", "ZMCode": null, "Sanborn": "215 100", "TaxMap": "21105", "EDesigNum": null, "APPBBL": 0.0, "APPDate": null, "PLUTOMapID": "1", "FIRM07_FLA": null, "PFIRM15_FL": null, "Version": "25v4", "DCPEdited": "t", "Latitude": 40.8401352, "Longitude": -73.8971044, "Notes": null, "Shape_Leng": 0.0, "Shape_Area": 1493639.27788 }, "geometry": { "type": "MultiPolygon", "coordinates": [ [ [ [ -73.894343169354457, 40.842134208824959 ], [ -73.894916697691528, 40.841419991591238 ], [ -73.895008300436572, 40.841290651444801 ], [ -73.895115050698521, 40.841129501521415 ], [ -73.895320205633766, 40.840790087084422 ], [ -73.895509819297232, 40.840462950863682 ], [ -73.895639528208378, 40.840252068025102 ], [ -73.895777664476796, 40.840013053002075 ], [ -73.895969120413724, 40.839678746060102 ], [ -73.896315319813866, 40.839103005917018 ], [ -73.896465672438893, 40.838872903360077 ], [ -73.896586307346325, 40.83871600676629 ], [ -73.896709173869766, 40.838571573907366 ], [ -73.896936614982025, 40.838302714977303 ], [ -73.897195121855631, 40.837992814475335 ], [ -73.897237079931031, 40.83793784061006 ], [ -73.897319719337162, 40.837831375764225 ], [ -73.897410871765814, 40.837704879737124 ], [ -73.897472595980389, 40.837608876120939 ], [ -73.897545001982408, 40.837489647407047 ], [ -73.897641575232072, 40.837319385551957 ], [ -73.897691266492942, 40.837213555723146 ], [ -73.897709229542841, 40.837190141685298 ], [ -73.897733675707471, 40.837162965727636 ], [ -73.897756104683182, 40.837141428692533 ], [ -73.897783382796462, 40.837118411844799 ], [ -73.897859129623612, 40.836886686006785 ], [ -73.89786595151233, 40.836877705141518 ], [ -73.897876838269909, 40.836868311843737 ], [ -73.897888811259634, 40.836861190519137 ], [ -73.897903242621965, 40.836858355977022 ], [ -73.897921216573167, 40.836858660954682 ], [ -73.8979399571448, 40.836861641945013 ], [ -73.897960821207477, 40.836867637046517 ], [ -73.899773789169856, 40.837715336258512 ], [ -73.8965896830898, 40.843415711978565 ], [ -73.896354793121816, 40.843274429221644 ], [ -73.896194369581551, 40.843180472971532 ], [ -73.896066371770786, 40.843105060853347 ], [ -73.895778203611471, 40.842943000359533 ], [ -73.895456951826418, 40.842778014925948 ], [ -73.895363878849878, 40.842737742169824 ], [ -73.894343169354457, 40.842134208824959 ] ] ] ] } },
{ "type": "Feature", "properties": { "Borough": "BX", "Block": 2942, "Lot": 1, "CD": 203, "BCT2020": "2016300", "BCTCB2020": "20163001001", "CT2010": "163", "CB2010": "1001", "SchoolDist": "12", "Council": 15, "ZipCode": 10457, "FireComp": "L058", "PolicePrct": 42, "HealthCent": 25, "HealthArea": 2400, "Sanitboro": "2", "SanitDistr": "03", "SanitSub": "1A", "Address": "1700 CROTONA AVENUE", "ZoneDist1": "PARK", "ZoneDist2": null, "ZoneDist3": null, "ZoneDist4": null, "Overlay1": null, "Overlay2": null, "SPDist1": null, "SPDist2": null, "SPDist3": null, "LtdHeight": null, "SplitZone": "N", "BldgClass": "Q1", "LandUse": "09", "Easements": 0, "OwnerType": "C", "OwnerName": "NYC DEPARTMENT OF PARKS AND RECREATION", "LotArea": 3185000, "BldgArea": 33300, "ComArea": 33300, "ResArea": 0, "OfficeArea": 14300, "RetailArea": 0, "GarageArea": 1000, "StrgeArea": 0, "FactryArea": 0, "OtherArea": 18000, "AreaSource": "2", "NumBldgs": 3, "NumFloors": 1.0, "UnitsRes": 0, "UnitsTotal": 1, "LotFront": 2700.0, "LotDepth": 2276.0, "BldgFront": 0.0, "BldgDepth": 0.0, "Ext": "N", "ProxCode": "0", "IrrLotCode": "Y", "LotType": "1", "BsmtCode": "0", "AssessLand": 16826400.0, "AssessTot": 21944250.0, "ExemptTot": 21944250.0, "YearBuilt": 1975, "YearAlter1": 0, "YearAlter2": 0, "HistDist": null, "Landmark": null, "BuiltFAR": 0.01, "ResidFAR": 0.0, "CommFAR": 0.0, "FacilFAR": 0.0, "BoroCode": 2, "BBL": 2029420001.0, "CondoNo": 0, "Tract2010": "0163", "XCoord": 1013860, "YCoord": 244797, "ZoneMap": "3d", "ZMCode": null, "Sanborn": "215 100", "TaxMap": "21105", "EDesigNum": null, "APPBBL": 0.0, "APPDate": null, "PLUTOMapID": "1", "FIRM07_FLA": null, "PFIRM15_FL": null, "Version": "25v4", "DCPEdited": "t", "Latitude": 40.8385368, "Longitude": -73.8929906, "Notes": null, "Shape_Leng": 0.0, "Shape_Area": 3204808.2622600002 }, "geometry": { "type": "MultiPolygon", "coordinates": [ [ [ [ -73.890517316537853, 40.837000907977483 ], [ -73.890637047113628, 40.836933885192508 ], [ -73.890743457952325, 40.836886338294981 ], [ -73.89084607103355, 40.836852511231214 ], [ -73.890958841547103, 40.83681715110351 ], [ -73.891062956509955, 40.836791343245125 ], [ -73.891143627881718, 40.83677550873081 ], [ -73.891226837270622, 40.836760639975004 ], [ -73.891308209243505, 40.836748439491906 ], [ -73.891392692324999, 40.836743498897619 ], [ -73.89144195978632, 40.836741186080545 ], [ -73.89295520997959, 40.836659302258255 ], [ -73.893138566893199, 40.836648758494988 ], [ -73.893254188319673, 40.836637199797948 ], [ -73.893343576647212, 40.836623821113442 ], [ -73.893450875536004, 40.836601353052806 ], [ -73.893544093496743, 40.83658122403682 ], [ -73.893642198426591, 40.836555318276979 ], [ -73.893782869790442, 40.836509607502173 ], [ -73.893868634096719, 40.836482366427184 ], [ -73.893978902623999, 40.836436156385687 ], [ -73.894090909305376, 40.836389789388001 ], [ -73.894262917407659, 40.836304002232978 ], [ -73.894380716519677, 40.836234632580897 ], [ -73.894509544596701, 40.836147812326203 ], [ -73.894634226208566, 40.836050486479749 ], [ -73.894761097212267, 40.835947250724885 ], [ -73.895163611413878, 40.835560595450588 ], [ -73.897019566816283, 40.836423038250331 ], [ -73.897062536318813, 40.836441731408122 ], [ -73.897102826343982, 40.836460417553781 ], [ -73.897137508078032, 40.836499980334104 ], [ -73.897177323144263, 40.836529883549993 ], [ -73.897438510862855, 40.836662945968634 ], [ -73.897481159552939, 40.836683851969639 ], [ -73.89749816022892, 40.836693263784326 ], [ -73.897509604730132, 40.836702079933218 ], [ -73.897520999184664, 40.836713353524161 ], [ -73.897531223840389, 40.836724413495169 ], [ -73.897540362580443, 40.836739155509093 ], [ -73.897544651428646, 40.836754301212288 ], [ -73.897545163209642, 40.836772307961354 ], [ -73.897542975566921, 40.836792360953318 ], [ -73.897496244247975, 40.836913273088001 ], [ -73.897439435853499, 40.837055722388719 ], [ -73.897398243016426, 40.83716470869674 ], [ -73.897344247649073, 40.837262651696314 ], [ -73.89729025918858, 40.837361440134693 ], [ -73.897190384950164, 40.837524280441407 ], [ -73.89711028202332, 40.837642816803914 ], [ -73.896937158222087, 40.837863429319221 ], [ -73.896327100202797, 40.838579280985471 ], [ -73.896163511184056, 40.838799236388404 ], [ -73.896034940269644, 40.839004121780121 ], [ -73.894836456416883, 40.841018368611721 ], [ -73.894781184254484, 40.841109622063399 ], [ -73.894654439859295, 40.841286195937592 ], [ -73.894087254088618, 40.841982886874632 ], [ -73.88948179491463, 40.839259460081138 ], [ -73.888615199951701, 40.838940019041168 ], [ -73.888145634122509, 40.839723008665281 ], [ -73.886857335490674, 40.839246539743499 ], [ -73.887473446585133, 40.838197104936981 ], [ -73.888472667437853, 40.838593481029669 ], [ -73.888869958029559, 40.837957030843789 ], [ -73.890517316537853, 40.837000907977483 ] ] ] ] } },
{ "type": "Feature", "properties": { "Borough": "BX", "Block": 2942, "Lot": 101, "CD": 203, "BCT2020": "2016300", "BCTCB2020": "20163001004", "CT2010": "163", "CB2010": "1004", "SchoolDist": "12", "Council": 15, "ZipCode": 10460, "FireComp": "L058", "PolicePrct": 42, "HealthCent": 25, "HealthArea": 2400, "Sanitboro": "2", "SanitDistr": "03", "SanitSub": "1A", "Address": "CLAREMONT PARKWAY", "ZoneDist1": "PARK", "ZoneDist2": null, "ZoneDist3": null, "ZoneDist4": null, "Overlay1": null, "Overlay2": null, "SPDist1": null, "SPDist2": null, "SPDist3": null, "LtdHeight": null, "SplitZone": "N", "BldgClass": "Q1", "LandUse": "09", "Easements": 0, "OwnerType": "C", "OwnerName": "NYC DEPARTMENT OF PARKS AND RECREATION", "LotArea": 219500, "BldgArea": 500, "ComArea": 500, "ResArea": 0, "OfficeArea": 500, "RetailArea": 0, "GarageArea": 0, "StrgeArea": 0, "FactryArea": 0, "OtherArea": 0, "AreaSource": "2", "NumBldgs": 1, "NumFloors": 1.0, "UnitsRes": 0, "UnitsTotal": 1, "LotFront": 714.25, "LotDepth": 550.42, "BldgFront": 20.0, "BldgDepth": 25.0, "Ext": "N", "ProxCode": "0", "IrrLotCode": "Y", "LotType": "1", "BsmtCode": "0", "AssessLand": 1232550.0, "AssessTot": 1557450.0, "ExemptTot": 1557450.0, "YearBuilt": 1975, "YearAlter1": 0, "YearAlter2": 0, "HistDist": null, "Landmark": null, "BuiltFAR": 0.0, "ResidFAR": 0.0, "CommFAR": 0.0, "FacilFAR": 0.0, "BoroCode": 2, "BBL": 2029420101.0, "CondoNo": 0, "Tract2010": "0163", "XCoord": 1012853, "YCoord": 243667, "ZoneMap": "3d", "ZMCode": null, "Sanborn": "215 100", "TaxMap": "21105", "EDesigNum": null, "APPBBL": 0.0, "APPDate": null, "PLUTOMapID": "1", "FIRM07_FLA": null, "PFIRM15_FL": null, "Version": "25v4", "DCPEdited": "t", "Latitude": 40.8354386, "Longitude": -73.8966346, "Notes": null, "Shape_Leng": 0.0, "Shape_Area": 222334.91870800001 }, "geometry": { "type": "MultiPolygon", "coordinates": [ [ [ [ -73.897571142566761, 40.836078954559419 ], [ -73.897534716462019, 40.836190473773343 ], [ -73.897545116716344, 40.836375305342415 ], [ -73.897545248562793, 40.836383602607626 ], [ -73.897544568657835, 40.836392434987317 ], [ -73.897541726155822, 40.836402782768808 ], [ -73.897537805816668, 40.836410067916503 ], [ -73.897534711445857, 40.83641459371659 ], [ -73.897529760038978, 40.836419343074162 ], [ -73.897522406624873, 40.836423211371297 ], [ -73.8975113992026, 40.836426218239971 ], [ -73.897505254002851, 40.836427025016746 ], [ -73.897498127581272, 40.836427477878033 ], [ -73.89748957991138, 40.836427704430982 ], [ -73.897479994962524, 40.836427069122507 ], [ -73.897471072216291, 40.83642530341524 ], [ -73.89531885691386, 40.835401158915367 ], [ -73.895554965702175, 40.835159408155434 ], [ -73.895604825433935, 40.835109722593302 ], [ -73.895635055532054, 40.835085303279342 ], [ -73.895686055503347, 40.835048614664885 ], [ -73.895722940083147, 40.835025205435002 ], [ -73.89577068937821, 40.835001104543785 ], [ -73.895815190240697, 40.834982227218767 ], [ -73.896825967879266, 40.834508506440613 ], [ -73.897026073681857, 40.834775723241762 ], [ -73.897098164301099, 40.834884078720144 ], [ -73.897202486654294, 40.835045849697735 ], [ -73.897269240809294, 40.835168422610565 ], [ -73.897300073275346, 40.835221900879105 ], [ -73.897346058288136, 40.835304385905459 ], [ -73.897380865843076, 40.835375829903846 ], [ -73.897438948960797, 40.835500777762157 ], [ -73.897464209270638, 40.835562702185683 ], [ -73.897490934415771, 40.835652695472781 ], [ -73.897503257976908, 40.835692656037111 ], [ -73.897514040917727, 40.835726741349873 ], [ -73.897529201664057, 40.83577360489442 ], [ -73.897537717548943, 40.835826276249556 ], [ -73.897548063435281, 40.835885475901478 ], [ -73.897559019944907, 40.835947004831674 ], [ -73.897562629499078, 40.835988297602462 ], [ -73.897566822765526, 40.836027715171369 ], [ -73.897571142566761, 40.836078954559419 ] ] ] ] } },
{ "type": "Feature", "properties": { "Borough": "BX", "Block": 2941, "Lot": 101, "CD": 203, "BCT2020": "2016300", "BCTCB2020": "20163001003", "CT2010": "163", "CB2010": "1003", "SchoolDist": "09", "Council": 15, "ZipCode": 10456, "FireComp": "L058", "PolicePrct": 42, "HealthCent": 25, "HealthArea": 2400, "Sanitboro": "2", "SanitDistr": "03", "SanitSub": "1B", "Address": "FULTON AVENUE", "ZoneDist1": "PARK", "ZoneDist2": null, "ZoneDist3": null, "ZoneDist4": null, "Overlay1": null, "Overlay2": null, "SPDist1": null, "SPDist2": null, "SPDist3": null, "LtdHeight": null, "SplitZone": "N", "BldgClass": "Q1", "LandUse": "09", "Easements": 0, "OwnerType": "C", "OwnerName": "NYC DEPARTMENT OF PARKS AND RECREATION", "LotArea": 595000, "BldgArea": 500, "ComArea": 500, "ResArea": 0, "OfficeArea": 500, "RetailArea": 0, "GarageArea": 0, "StrgeArea": 0, "FactryArea": 0, "OtherArea": 0, "AreaSource": "2", "NumBldgs": 1, "NumFloors": 1.0, "UnitsRes": 0, "UnitsTotal": 1, "LotFront": 812.0, "LotDepth": 1089.0, "BldgFront": 12.0, "BldgDepth": 20.0, "Ext": "N", "ProxCode": "0", "IrrLotCode": "Y", "LotType": "1", "BsmtCode": "0", "AssessLand": 3347100.0, "AssessTot": 5103000.0, "ExemptTot": 5103000.0, "YearBuilt": 1941, "YearAlter1": 0, "YearAlter2": 0, "HistDist": null, "Landmark": null, "BuiltFAR": 0.0, "ResidFAR": 0.0, "CommFAR": 0.0, "FacilFAR": 0.0, "BoroCode": 2, "BBL": 2029410101.0, "CondoNo": 0, "Tract2010": "0163", "XCoord": 1012148, "YCoord": 243868, "ZoneMap": "3d", "ZMCode": null, "Sanborn": "215 100", "TaxMap": "21105", "EDesigNum": null, "APPBBL": 0.0, "APPDate": null, "PLUTOMapID": "1", "FIRM07_FLA": null, "PFIRM15_FL": null, "Version": "25v4", "DCPEdited": "t", "Latitude": 40.8359925, "Longitude": -73.8991815, "Notes": null, "Shape_Leng": 0.0, "Shape_Area": 564837.16655199998 }, "geometry": { "type": "MultiPolygon", "coordinates": [ [ [ [ -73.897407235924661, 40.834707420458813 ], [ -73.897402664707215, 40.834703275005744 ], [ -73.897398587174266, 40.834698841868921 ], [ -73.897395030364052, 40.83469415788592 ], [ -73.897392021759842, 40.834689257377995 ], [ -73.89738958609334, 40.834684175505444 ], [ -73.897387739820275, 40.834678952774134 ], [ -73.897386497203712, 40.834673627931515 ], [ -73.897385868861107, 40.834668241560721 ], [ -73.897385858257621, 40.834662834993559 ], [ -73.897386465329845, 40.834657446963497 ], [ -73.897387685169974, 40.834652118877344 ], [ -73.897389510771191, 40.83464689222378 ], [ -73.897391926656567, 40.83464180564004 ], [ -73.897394914812139, 40.834636897007137 ], [ -73.897398452819658, 40.834632204118478 ], [ -73.897402513306673, 40.834627763761731 ], [ -73.897407066485329, 40.834623605690389 ], [ -73.897412078046457, 40.834619765095788 ], [ -73.897417508739423, 40.834616267877749 ], [ -73.897423319526126, 40.834613142946566 ], [ -73.897429466421229, 40.834610413603777 ], [ -73.897435899498305, 40.834608099631637 ], [ -73.897442575005371, 40.834606217222685 ], [ -73.897449439492789, 40.834604783478234 ], [ -73.89745644206009, 40.834603807305015 ], [ -73.897463530486306, 40.834603295767153 ], [ -73.897470650130288, 40.834603255341541 ], [ -73.897477746469136, 40.834603683971956 ], [ -73.8974847686234, 40.834604578099018 ], [ -73.900993570166563, 40.835531329985017 ], [ -73.899873784958658, 40.837536301100734 ], [ -73.89839379028065, 40.836819132021063 ], [ -73.898353857132179, 40.836792290797177 ], [ -73.898330133067233, 40.836774717409163 ], [ -73.898313943979218, 40.83675779534979 ], [ -73.898291472923106, 40.836733436044533 ], [ -73.898252749434832, 40.836698744442508 ], [ -73.898101777611529, 40.836634434331934 ], [ -73.898049895602341, 40.836610806230979 ], [ -73.898019772593059, 40.836592592224598 ], [ -73.897991187039892, 40.836569952747986 ], [ -73.897973160870094, 40.836546508618 ], [ -73.897960404835061, 40.836520780909041 ], [ -73.897956681995112, 40.836494490399332 ], [ -73.897963560121923, 40.836408536045496 ], [ -73.897973558145438, 40.836194029614433 ], [ -73.897969652642502, 40.836121383987866 ], [ -73.8979601098534, 40.836058471458621 ], [ -73.897953532085126, 40.83601515896305 ], [ -73.897943763139082, 40.835961396953387 ], [ -73.897928239969048, 40.835885410135958 ], [ -73.897910169744279, 40.835810501681635 ], [ -73.897856574441647, 40.835628343210963 ], [ -73.897776650329419, 40.835416063113122 ], [ -73.897735610911425, 40.835328279666378 ], [ -73.897550417993173, 40.834998019209088 ], [ -73.89754390550145, 40.834989511886285 ], [ -73.897540170580001, 40.834979663383862 ], [ -73.897538265975314, 40.834962314540398 ], [ -73.897539407108525, 40.834948084127376 ], [ -73.897537130086747, 40.834930811500541 ], [ -73.897536451128573, 40.834915873466763 ], [ -73.897532898364631, 40.834897823432243 ], [ -73.897527832777214, 40.834885961156594 ], [ -73.897517820328801, 40.834868966254241 ], [ -73.897508635389585, 40.834852852684243 ], [ -73.897499581075479, 40.834835746864222 ], [ -73.897407235924661, 40.834707420458813 ] ] ] ] } }
]
}
