{
"type": "FeatureCollection",
"name": "pluto_Rikers_Island",
"crs": { "type": "name", "properties": { "name": "urn:ogc:def:crs:OGC:1.3:CRS84" } },
"features": [
{ "type": "Feature", "properties": { "Borough": "BX", "Block": 2605, "Lot": 40, "CD": 401, "BCT2020": "2000100", "BCTCB2020": "20001001001", "CT2010": "1", "CB2010": "1003", "SchoolDist": "07", "Council": 22, "ZipCode": 11370, "FireComp": "E263", "PolicePrct": 114, "HealthCent": 23, "HealthArea": 4800, "Sanitboro": "4", "SanitDistr": "01", "SanitSub": null, "Address": "10-01 HAZEN STREET", "ZoneDist1": "C8-2", "ZoneDist2": null, "ZoneDist3": null, "ZoneDist4": null, "Overlay1": null, "Overlay2": null, "SPDist1": null, "SPDist2": null, "SPDist3": null, "LtdHeight": null, "SplitZone": "N", "BldgClass": "Y3", "LandUse": "08", "Easements": 0, "OwnerType": "C", "OwnerName": "NYC DEPARTMENT OF CORRECTIONS", "LotArea": 17825000, "BldgArea": 5519372, "ComArea": 5519372, "ResArea": 0, "OfficeArea": 0, "RetailArea": 0, "GarageArea": 0, "StrgeArea": 0, "FactryArea": 0, "OtherArea": 5519372, "AreaSource": "2", "NumBldgs": 203, "NumFloors": 6.0, "UnitsRes": 0, "UnitsTotal": 1, "LotFront": 999.0, "LotDepth": 999.0, "BldgFront": 0.0, "BldgDepth": 0.0, "Ext": "N", "ProxCode": "0", "IrrLotCode": "Y", "LotType": "5", "BsmtCode": "0", "AssessLand": 87499350.0, "AssessTot": 532990800.0, "ExemptTot": 532990800.0, "YearBuilt": 1933, "YearAlter1": 2017, "YearAlter2": 0, "HistDist": null, "Landmark": null, "BuiltFAR": 0.31, "ResidFAR": 0.0, "CommFAR": 2.0, "FacilFAR": 4.8, "BoroCode": 2, "BBL": 2026050040.0000002, "CondoNo": 0, "Tract2010": "0001", "XCoord": 1016747, "YCoord": 227527, "ZoneMap": "6d", "ZMCode": null, "Sanborn": "299 999", "TaxMap": "21002", "EDesigNum": null, "APPBBL": 0.0, "APPDate": null, "PLUTOMapID": "1", "FIRM07_FLA": "1", "PFIRM15_FL": "1", "Version": "25v4", "DCPEdited": "t", "Latitude": 40.7911254, "Longitude": -73.8826407, "Notes": null, "Shape_Leng": 0.0, "Shape_Area": 18115434.717900001 }, "geometry": { "type": "MultiPolygon", "coordinates": [ [ [ [ -73.890474863828246, 40.790232775958501 ], [ -73.890475076320044, 40.790233280462274 ], [ -73.891132000960539, 40.790243748859723 ], [ -73.891716073291491, 40.790253052736908 ], [ -73.892041834089937, 40.790258240382094 ], [ -73.892042981694644, 40.790258730282275 ], [ -73.892071053770692, 40.79027327902763 ], [ -73.892092384529988, 40.790286110436007 ], [ -73.892110346933848, 40.790298938768139 ], [ -73.892128300285734, 40.790315182665999 ], [ -73.892146248859476, 40.790336554901415 ], [ -73.892164192258917, 40.790359633537513 ], [ -73.892179878672167, 40.79038783396711 ], [ -73.892182116581068, 40.79039381631614 ], [ -73.892193315659824, 40.790418596041761 ], [ -73.892203378172354, 40.79045020861858 ], [ -73.892220119414603, 40.790522826432607 ], [ -73.892225661740611, 40.790569811776088 ], [ -73.892230126522932, 40.790588605860385 ], [ -73.892253609437176, 40.79066123089892 ], [ -73.892282691578387, 40.790745817996452 ], [ -73.892288264208545, 40.790774864448203 ], [ -73.892296022540577, 40.790841493588424 ], [ -73.892303817920592, 40.790885917281287 ], [ -73.892309397480972, 40.790910693491831 ], [ -73.892335114396658, 40.790991861009729 ], [ -73.892358604588395, 40.791060213105197 ], [ -73.892377613280502, 40.791120022438264 ], [ -73.892389908140572, 40.791161884820085 ], [ -73.892397719261552, 40.791195204440918 ], [ -73.892409952011903, 40.791275505582497 ], [ -73.892424377200527, 40.791389974753478 ], [ -73.892436614443071, 40.791466858476021 ], [ -73.892444358639011, 40.791543738917909 ], [ -73.892452066150454, 40.791641972058301 ], [ -73.892455406467619, 40.791661623261959 ], [ -73.892466574456847, 40.791704340919615 ], [ -73.892469917380012, 40.791723133021677 ], [ -73.892478775480157, 40.791805140165977 ], [ -73.892493224636482, 40.791904234181246 ], [ -73.892513296050566, 40.792002478859573 ], [ -73.892528864108328, 40.792104990409619 ], [ -73.892545553997309, 40.792209212172644 ], [ -73.892563397553559, 40.792293790524454 ], [ -73.8925790191864, 40.79236469805042 ], [ -73.892584603388158, 40.792386056829962 ], [ -73.892592439282041, 40.792404855880903 ], [ -73.892622700797077, 40.792456132576746 ], [ -73.892641751295386, 40.792491169150424 ], [ -73.892654068780018, 40.792518514457008 ], [ -73.892660781482959, 40.792537310613881 ], [ -73.892667485757912, 40.792562087014382 ], [ -73.892675272109813, 40.792611636242924 ], [ -73.892678616678424, 40.792628721931258 ], [ -73.892699840846461, 40.792709029650666 ], [ -73.892717723394284, 40.792769691525777 ], [ -73.892738961143039, 40.79284231342708 ], [ -73.892741190927353, 40.792853419580183 ], [ -73.892742294894489, 40.792865377511703 ], [ -73.892741120726171, 40.792896980477579 ], [ -73.892738837254512, 40.792919186499844 ], [ -73.89273431298345, 40.792937117596374 ], [ -73.892724133262178, 40.792976399746792 ], [ -73.892712840866736, 40.793010554273977 ], [ -73.892695908417835, 40.793055810377076 ], [ -73.892664326189319, 40.793127528450739 ], [ -73.89265416000886, 40.793159122109948 ], [ -73.892645103281779, 40.793199258043181 ], [ -73.892641695149635, 40.793222315841057 ], [ -73.892640533329811, 40.793246231154278 ], [ -73.89264273969043, 40.793271857941846 ], [ -73.892646067917497, 40.793298338519413 ], [ -73.892668398693814, 40.793389754018946 ], [ -73.892675097715326, 40.793417091402205 ], [ -73.892680661373447, 40.793451264401497 ], [ -73.892682866379801, 40.793477744850009 ], [ -73.89268392059779, 40.793521305787671 ], [ -73.892681604028482, 40.793564012679937 ], [ -73.892674801579062, 40.793600733298071 ], [ -73.892662372473623, 40.793641719750426 ], [ -73.892656729181454, 40.79365623514186 ], [ -73.892639819621976, 40.793688677090799 ], [ -73.892634170806602, 40.793706610728911 ], [ -73.892621694693162, 40.793776637436522 ], [ -73.892608140889294, 40.793818478336647 ], [ -73.892596865110249, 40.793841528790104 ], [ -73.892591228843642, 40.793850920275332 ], [ -73.892583348386751, 40.793860308747163 ], [ -73.89257321790096, 40.793869695117174 ], [ -73.89256196553994, 40.793878225940325 ], [ -73.892549591471251, 40.793885046461185 ], [ -73.892537219877582, 40.793891015160703 ], [ -73.892515852348879, 40.793898682786221 ], [ -73.892504610325418, 40.793900805611436 ], [ -73.892460771732161, 40.793904607989383 ], [ -73.892426858391602, 40.793910984217547 ], [ -73.892422728198412, 40.793917385681645 ], [ -73.892423933973788, 40.79392421980161 ], [ -73.892429263396096, 40.793930202353977 ], [ -73.892440490934931, 40.793937046759417 ], [ -73.892451719967596, 40.793943037417627 ], [ -73.8924797991003, 40.793954165966198 ], [ -73.892491030621628, 40.793959301202712 ], [ -73.892513487214515, 40.793972135416638 ], [ -73.892521342588722, 40.793978975828729 ], [ -73.892526952837258, 40.793984958554994 ], [ -73.892532559391327, 40.793991798622898 ], [ -73.892535920374641, 40.79399948841759 ], [ -73.892543750927132, 40.79402170487851 ], [ -73.892548206377427, 40.794046478176789 ], [ -73.892549289473735, 40.794072102992942 ], [ -73.89254926602915, 40.794086624460654 ], [ -73.892545867638276, 40.794102850190228 ], [ -73.892534560237522, 40.794144691336584 ], [ -73.892520990851168, 40.794196783538851 ], [ -73.892509668073927, 40.79424887423928 ], [ -73.892490387655215, 40.794357334378063 ], [ -73.892483539763191, 40.794421387911868 ], [ -73.892477878428252, 40.794447006344619 ], [ -73.892468851439489, 40.794470060724208 ], [ -73.892440662933879, 40.794526406738115 ], [ -73.892420340970077, 40.794582760098642 ], [ -73.892411314112437, 40.794604960725941 ], [ -73.892402299677244, 40.794619473788039 ], [ -73.892379772615996, 40.794649346691578 ], [ -73.892371884030169, 40.794663004462407 ], [ -73.89235046356508, 40.794703984306949 ], [ -73.892336923111586, 40.794737282102105 ], [ -73.892323376010765, 40.794773999981949 ], [ -73.892313202335586, 40.794810718339583 ], [ -73.892304158999366, 40.794842313009063 ], [ -73.892300754815423, 40.794862807042314 ], [ -73.892298384215991, 40.794937971581213 ], [ -73.89229378365944, 40.795002882704608 ], [ -73.892283568350834, 40.795065224821847 ], [ -73.892273339479175, 40.795135254498994 ], [ -73.892261995433756, 40.795201013808871 ], [ -73.892256342243556, 40.795221507574738 ], [ -73.892237144457525, 40.795277009122053 ], [ -73.892220138842362, 40.795368385169297 ], [ -73.892206573393267, 40.795417059912744 ], [ -73.892189632791229, 40.795467438903891 ], [ -73.892183994605219, 40.795479390437038 ], [ -73.89216821731786, 40.795505854962094 ], [ -73.892162573935479, 40.795519514737741 ], [ -73.892153521949879, 40.795557090551782 ], [ -73.892144450471278, 40.795606621404175 ], [ -73.89213080877883, 40.795702272501146 ], [ -73.892127412799269, 40.795717643631747 ], [ -73.89211499542175, 40.795750943368333 ], [ -73.892111602092228, 40.795764608010103 ], [ -73.892100224893483, 40.795849158073679 ], [ -73.892091074678333, 40.795946520784661 ], [ -73.892085401981348, 40.795978973174932 ], [ -73.892076360798242, 40.796010568660527 ], [ -73.892056039171763, 40.796066922863275 ], [ -73.892036819952125, 40.796136944078611 ], [ -73.89202891743551, 40.79615829030417 ], [ -73.892021023404141, 40.796173656291117 ], [ -73.891993974929363, 40.796219756360344 ], [ -73.891968055369219, 40.796262437473096 ], [ -73.891963544524103, 40.796271829980512 ], [ -73.891960158072223, 40.796281223544419 ], [ -73.89195789363751, 40.796291469984666 ], [ -73.891955629202187, 40.796301717427383 ], [ -73.891952157057645, 40.796363213005016 ], [ -73.891949824671201, 40.796415312072 ], [ -73.891947536651998, 40.796440080977838 ], [ -73.891944133836532, 40.796458868506271 ], [ -73.891936228474989, 40.79648192389007 ], [ -73.891923813457709, 40.796514369019619 ], [ -73.891898990386963, 40.796574135376439 ], [ -73.891871901708086, 40.796644150088198 ], [ -73.891868501635969, 40.796661228531896 ], [ -73.891860554302141, 40.796710762165993 ], [ -73.891852650095416, 40.796733815704094 ], [ -73.89184813938013, 40.796742353624289 ], [ -73.891843632652254, 40.796749183298559 ], [ -73.891821111670637, 40.796774785930872 ], [ -73.891790716875576, 40.796804652235423 ], [ -73.891743443205684, 40.796847315893956 ], [ -73.891661280686307, 40.796917277823901 ], [ -73.891598256814589, 40.79696932241847 ], [ -73.891539739991146, 40.797012827310716 ], [ -73.891482348812048, 40.797056335828252 ], [ -73.891426085453674, 40.797097707707671 ], [ -73.891419330320758, 40.797104107493119 ], [ -73.891406938624229, 40.797122033781065 ], [ -73.891401306098473, 40.797128860620511 ], [ -73.891390050248503, 40.797139099483765 ], [ -73.891360792157997, 40.797161280930673 ], [ -73.891348408804532, 40.797174080720815 ], [ -73.89131686399071, 40.79721931911903 ], [ -73.891280827472059, 40.797262847778221 ], [ -73.891271797081288, 40.79728675571581 ], [ -73.891269534086788, 40.797295294814418 ], [ -73.890962346672126, 40.79750939299354 ], [ -73.890792439448603, 40.797626249493838 ], [ -73.890650658669671, 40.7977251970823 ], [ -73.890664111871246, 40.797746561654272 ], [ -73.890377295819292, 40.797873556754681 ], [ -73.890271565564134, 40.797920435196559 ], [ -73.890166963726244, 40.797965605535026 ], [ -73.890135568407302, 40.797920305477653 ], [ -73.890114266808212, 40.797887826608097 ], [ -73.890079682868176, 40.79790060682339 ], [ -73.890068160470832, 40.797902729978709 ], [ -73.890043994248813, 40.797903562400563 ], [ -73.890017032946957, 40.797894992647727 ], [ -73.889988381815911, 40.797888560952835 ], [ -73.889962537791718, 40.797885119756273 ], [ -73.889937812943458, 40.797883387870591 ], [ -73.889868131294989, 40.797880759230431 ], [ -73.889777105479112, 40.797872129948978 ], [ -73.889727662582885, 40.797866102350547 ], [ -73.889687211087292, 40.797860087026855 ], [ -73.889554620870953, 40.797837750749792 ], [ -73.889465855767284, 40.797821437660545 ], [ -73.889420908631237, 40.797815415167442 ], [ -73.889356853192112, 40.797808519707154 ], [ -73.889309655383855, 40.797804205010301 ], [ -73.889259081155728, 40.797801591779795 ], [ -73.889221992170008, 40.797801556093084 ], [ -73.889180399375959, 40.797804934309575 ], [ -73.889162413539268, 40.79780747898662 ], [ -73.889143297793836, 40.797811731658271 ], [ -73.889099441599654, 40.797824499888272 ], [ -73.889063454772923, 40.79783642478273 ], [ -73.889033089375971, 40.797848352408629 ], [ -73.889006091184882, 40.797861993277614 ], [ -73.888982466462224, 40.797875637393751 ], [ -73.888949832229855, 40.797898667796431 ], [ -73.888938577514097, 40.797907197253814 ], [ -73.888921699276707, 40.797919140538497 ], [ -73.888910445977004, 40.797926816414986 ], [ -73.888794552230593, 40.798003577642874 ], [ -73.888767549645692, 40.798019780362601 ], [ -73.888692172829963, 40.798063268431115 ], [ -73.888624664569619, 40.798105055733132 ], [ -73.888569525445419, 40.798144293059757 ], [ -73.88854814300386, 40.79816050033039 ], [ -73.888507614167793, 40.798200606353767 ], [ -73.888488480984194, 40.798215962044708 ], [ -73.888469353405625, 40.798227902164932 ], [ -73.888495191870064, 40.798234761105071 ], [ -73.888442271901226, 40.798291083072399 ], [ -73.888690445209932, 40.79842456875884 ], [ -73.888735481013939, 40.79837848770363 ], [ -73.888786011626834, 40.798406724911089 ], [ -73.888637378472907, 40.798567159615921 ], [ -73.888584599703719, 40.798539777345439 ], [ -73.888624009880175, 40.79849625196281 ], [ -73.888469044211746, 40.798412397568072 ], [ -73.888461160540274, 40.798420932085811 ], [ -73.888438701688003, 40.798409803578444 ], [ -73.888419552339556, 40.798435411486047 ], [ -73.888496848470652, 40.798588378967565 ], [ -73.888600237588761, 40.798597873045267 ], [ -73.888599085875768, 40.798614102578334 ], [ -73.888874369647922, 40.79866647081576 ], [ -73.888937298902491, 40.798673362778345 ], [ -73.888984498082976, 40.798679388468393 ], [ -73.888979888550935, 40.79874686132576 ], [ -73.888940557290638, 40.798741697724509 ], [ -73.888937150655877, 40.798762193484457 ], [ -73.888937093724778, 40.798762532419595 ], [ -73.888872974336891, 40.798753465578315 ], [ -73.888876521969394, 40.798723699794394 ], [ -73.888873195188538, 40.79869636270648 ], [ -73.888590044552757, 40.798643132353611 ], [ -73.88858207606188, 40.798703769792994 ], [ -73.888507905890407, 40.798697718656548 ], [ -73.888507189525072, 40.798701741491286 ], [ -73.888442566281242, 40.798692603396873 ], [ -73.888442724931181, 40.798691676182877 ], [ -73.888384596830008, 40.798684406196358 ], [ -73.888223005982397, 40.798661556296985 ], [ -73.888241737360573, 40.79857104810111 ], [ -73.888364226890829, 40.798584832095067 ], [ -73.888384500509261, 40.798560081628267 ], [ -73.888245587738751, 40.798285767554873 ], [ -73.888199490035063, 40.798295117691495 ], [ -73.88817700123856, 40.798301074253111 ], [ -73.88815788340456, 40.798307889588912 ], [ -73.888107268738082, 40.798329193113119 ], [ -73.888080280104305, 40.79833685536979 ], [ -73.888039801173747, 40.798347065488549 ], [ -73.888001570321904, 40.798356424202197 ], [ -73.887970090131944, 40.798362372893791 ], [ -73.887929618589851, 40.798367457321469 ], [ -73.887885778721156, 40.798370832046821 ], [ -73.887802596379458, 40.798375873986686 ], [ -73.887728406809785, 40.798380928150372 ], [ -73.8876935615028, 40.798381748744923 ], [ -73.887657597195258, 40.798380005404525 ], [ -73.887564327445517, 40.798368809356944 ], [ -73.887454206555944, 40.798353328358871 ], [ -73.887344090296224, 40.798334427252968 ], [ -73.887285661723254, 40.798324123168761 ], [ -73.887231733118924, 40.798312110865005 ], [ -73.887186795015339, 40.79829925443768 ], [ -73.88713287682539, 40.79828040994672 ], [ -73.887076713937276, 40.798259003073881 ], [ -73.887034034882916, 40.798241023224314 ], [ -73.886990235663276, 40.798220482105833 ], [ -73.886937456642301, 40.798193096402251 ], [ -73.88682628331398, 40.798134050246581 ], [ -73.886780250662653, 40.798105818359765 ], [ -73.886779056641828, 40.798105053288261 ], [ -73.886730851472876, 40.798074167567528 ], [ -73.886720739765451, 40.798071594786336 ], [ -73.886701645467966, 40.798063888422732 ], [ -73.886682554085297, 40.7980544738109 ], [ -73.886651113087296, 40.79803736030177 ], [ -73.886603953379762, 40.798009980897504 ], [ -73.886536586574493, 40.797968060995686 ], [ -73.886486067443329, 40.797933846162543 ], [ -73.886461371316599, 40.797916740172163 ], [ -73.886447901943086, 40.797905623739496 ], [ -73.886392904951776, 40.797860299460716 ], [ -73.88631883538423, 40.797795310934966 ], [ -73.886286283567685, 40.797769654991164 ], [ -73.886186383731982, 40.797692683129831 ], [ -73.886090975534756, 40.797618277535477 ], [ -73.885988825496511, 40.797543011520858 ], [ -73.88592470576846, 40.797495949236335 ], [ -73.885866469957875, 40.797453205741917 ], [ -73.885708190757242, 40.797338593955359 ], [ -73.885572362479294, 40.797240231405446 ], [ -73.885419687073579, 40.797135018852309 ], [ -73.885360191354962, 40.79709225426825 ], [ -73.885313047567053, 40.797056332188298 ], [ -73.885269279109082, 40.797018707966274 ], [ -73.885223268513954, 40.79697851682127 ], [ -73.885109930541915, 40.796873343987571 ], [ -73.885004451383296, 40.796775010961689 ], [ -73.884870925195955, 40.796645901334244 ], [ -73.884792372932836, 40.796575783506185 ], [ -73.884703721930094, 40.796494551357348 ], [ -73.8846577063849, 40.796456923728513 ], [ -73.884575772168731, 40.796391925349226 ], [ -73.884503940575598, 40.796334625458258 ], [ -73.88446241046654, 40.79630298157803 ], [ -73.884369237656045, 40.796237973524875 ], [ -73.884286164639576, 40.796181515031506 ], [ -73.884244633243256, 40.796150725654257 ], [ -73.884228922750424, 40.796136190127008 ], [ -73.884216584281347, 40.796122510815117 ], [ -73.884157140793917, 40.796050702598095 ], [ -73.884080876731133, 40.795957523854902 ], [ -73.884032649845778, 40.795899393768998 ], [ -73.884010213976467, 40.795874601028622 ], [ -73.883979920317671, 40.795844675620224 ], [ -73.883950742522899, 40.795819022408047 ], [ -73.883917067812789, 40.795794218402456 ], [ -73.883880020187888, 40.795771117390423 ], [ -73.883841843901337, 40.795749725233797 ], [ -73.883757623292823, 40.795707788523814 ], [ -73.883716072754297, 40.795688956668997 ], [ -73.883685745374322, 40.795677819198424 ], [ -73.883658785396392, 40.795670105299386 ], [ -73.883647548293595, 40.79566838744995 ], [ -73.883632376630516, 40.79566773010994 ], [ -73.883624644117475, 40.795670925373457 ], [ -73.883630651645916, 40.795690577677007 ], [ -73.883640733007084, 40.795710232341698 ], [ -73.883660904766984, 40.795743563186839 ], [ -73.883692275527679, 40.795799114406108 ], [ -73.883721402471181, 40.795853810688811 ], [ -73.88372923748058, 40.795872610248885 ], [ -73.883731468850556, 40.795882007406291 ], [ -73.883732578423576, 40.795890550685826 ], [ -73.883731424085454, 40.795907631161135 ], [ -73.883729147947165, 40.795923858597483 ], [ -73.883725757761809, 40.795934102902812 ], [ -73.883721814489476, 40.795940079167799 ], [ -73.883714494850125, 40.795947759349211 ], [ -73.883706617760637, 40.795953731639841 ], [ -73.883697616457994, 40.795958845532745 ], [ -73.883687495778943, 40.795963105466697 ], [ -73.88367737405909, 40.795966511735109 ], [ -73.883665008142458, 40.795967924716443 ], [ -73.883651526628896, 40.795965631029055 ], [ -73.883629059795467, 40.795957921665902 ], [ -73.883617832426523, 40.795951931824092 ], [ -73.883599870133821, 40.795939102264924 ], [ -73.883577425054611, 40.795920287837603 ], [ -73.883548253185467, 40.795892072618948 ], [ -73.883521332291295, 40.795861295080506 ], [ -73.883491052424944, 40.795823681982029 ], [ -73.883437233315178, 40.795749316250884 ], [ -73.883410319434788, 40.79571597945845 ], [ -73.883386758970943, 40.795692039120404 ], [ -73.88332616053853, 40.795639020109732 ], [ -73.883265561913035, 40.795586857406612 ], [ -73.883259847577889, 40.795582246478681 ], [ -73.883051543461008, 40.795287699718642 ], [ -73.882309763290223, 40.795189103274595 ], [ -73.881534691194517, 40.795032987790812 ], [ -73.881213969822539, 40.794968385790817 ], [ -73.880044022116948, 40.794810697720408 ], [ -73.878876244707115, 40.794578172852532 ], [ -73.878249371343287, 40.794390497089275 ], [ -73.87802089166199, 40.794282015743939 ], [ -73.877848086069577, 40.79419996693472 ], [ -73.877522157673738, 40.794045213272163 ], [ -73.877055713021093, 40.793823738128701 ], [ -73.875789014102267, 40.793091525148739 ], [ -73.875738021813504, 40.793054486312556 ], [ -73.875725473497525, 40.793043010291868 ], [ -73.875696295055974, 40.793020770636041 ], [ -73.875652323515368, 40.792992238421334 ], [ -73.875570844229074, 40.792933054882688 ], [ -73.87555263687797, 40.792915556417597 ], [ -73.875530207871989, 40.792889906597345 ], [ -73.875512268349908, 40.792866825297409 ], [ -73.875470797803501, 40.792806137905622 ], [ -73.87544950130399, 40.79277621821231 ], [ -73.875431558639875, 40.792754846064277 ], [ -73.875385571718198, 40.792706107898717 ], [ -73.875307046186663, 40.792628297842064 ], [ -73.875224026606816, 40.792550480098448 ], [ -73.875127535640985, 40.792464960019821 ], [ -73.87507367357648, 40.792420487947396 ], [ -73.874983895498318, 40.79235120301918 ], [ -73.874917677411247, 40.792303299116085 ], [ -73.874852573007388, 40.792260522053013 ], [ -73.874811035573046, 40.792236560401754 ], [ -73.874711099936704, 40.792189474292272 ], [ -73.874667314541512, 40.792166364726604 ], [ -73.874632515770898, 40.792144118595125 ], [ -73.874544963634236, 40.792086795412288 ], [ -73.874493322648675, 40.792056844222749 ], [ -73.874410238248728, 40.792014900048578 ], [ -73.874293474289857, 40.791952419971139 ], [ -73.874200286829989, 40.79190363161581 ], [ -73.874175584097685, 40.791891648632344 ], [ -73.874153124876401, 40.791883082837977 ], [ -73.874131782126426, 40.791876225588332 ], [ -73.874111559659625, 40.791872786058086 ], [ -73.874071111606924, 40.791867617072199 ], [ -73.874017174854259, 40.791863287897336 ], [ -73.873927276175579, 40.791858066492431 ], [ -73.873884579293858, 40.791852893139442 ], [ -73.873868852135246, 40.791849460331235 ], [ -73.873863885712964, 40.791848469712797 ], [ -73.873065071066932, 40.791385556444411 ], [ -73.872954727031498, 40.791321610671609 ], [ -73.872827914343787, 40.791248121098107 ], [ -73.872606730187329, 40.791119941236552 ], [ -73.872369253416679, 40.790982318190629 ], [ -73.872282552509532, 40.790932072089987 ], [ -73.871665017088617, 40.790574186026205 ], [ -73.871608002863795, 40.790507662019508 ], [ -73.871533993396881, 40.790423872301986 ], [ -73.871437537525424, 40.790322977652679 ], [ -73.871361269331601, 40.790245163711774 ], [ -73.871343327010678, 40.790224645503436 ], [ -73.871325392521641, 40.790200708961471 ], [ -73.871268235203246, 40.790119499900605 ], [ -73.871231248445298, 40.790068210878744 ], [ -73.871211081657492, 40.790035731493646 ], [ -73.871204371960559, 40.790018640570075 ], [ -73.871197667230248, 40.789998985814172 ], [ -73.87118316312835, 40.789944306349689 ], [ -73.871155310702321, 40.789818716277672 ], [ -73.871134101549799, 40.789745233952296 ], [ -73.871102792978817, 40.789663201826642 ], [ -73.871072641965796, 40.789564087486823 ], [ -73.871051406949476, 40.789503418452334 ], [ -73.871027948677565, 40.789430790846829 ], [ -73.871017907308868, 40.789392342596273 ], [ -73.871015694505331, 40.789374402949782 ], [ -73.871014602779809, 40.789358172893579 ], [ -73.871014414558786, 40.789341188400869 ], [ -73.871013646785144, 40.789271903573884 ], [ -73.87101375934364, 40.789213821281344 ], [ -73.871011549854089, 40.789194175228872 ], [ -73.8710037390873, 40.789165125224876 ], [ -73.870983630190452, 40.7891036028511 ], [ -73.870972482280791, 40.78905661285652 ], [ -73.870970257464833, 40.78904550719848 ], [ -73.870970270712775, 40.789038673294662 ], [ -73.870964712499699, 40.789007062976609 ], [ -73.870963627410831, 40.788987419102924 ], [ -73.870963662186426, 40.788969481137173 ], [ -73.870965942088105, 40.7889515456054 ], [ -73.870973893554378, 40.788907993599508 ], [ -73.87098073508696, 40.78885760726633 ], [ -73.870983043888998, 40.788826006769888 ], [ -73.870983100183111, 40.788796964659056 ], [ -73.870976453585826, 40.788747417793076 ], [ -73.870966516670748, 40.788655157306913 ], [ -73.870958753114834, 40.788603046436386 ], [ -73.870940938332822, 40.788517612792177 ], [ -73.87092201634708, 40.788422781231432 ], [ -73.870899750893273, 40.788315133497626 ], [ -73.870898641988262, 40.788306591840175 ], [ -73.870885272707326, 40.788246785246862 ], [ -73.870878568240855, 40.788227134148656 ], [ -73.870860677544997, 40.788180989402093 ], [ -73.870836091053746, 40.788110069647381 ], [ -73.870831632035973, 40.788092126637146 ], [ -73.870820505955194, 40.78803403172212 ], [ -73.870805976070884, 40.78799301548954 ], [ -73.870800409729057, 40.787965678076006 ], [ -73.870798220246414, 40.78793577977612 ], [ -73.870799367819146, 40.787923823311473 ], [ -73.87080276622109, 40.787910161040799 ], [ -73.870808410925974, 40.787896499533154 ], [ -73.870818561801869, 40.787877721928211 ], [ -73.870841104425153, 40.787843582135032 ], [ -73.8708703922171, 40.787806884388495 ], [ -73.870899689021087, 40.787766772739189 ], [ -73.870916593528463, 40.78774287527078 ], [ -73.870962792328157, 40.787678866132445 ], [ -73.870979689400059, 40.787657531482019 ], [ -73.871005594345476, 40.787627667344488 ], [ -73.871037123600303, 40.787595244074438 ], [ -73.871069767582526, 40.787567093964711 ], [ -73.871099027774292, 40.787545771301929 ], [ -73.871138406045148, 40.787521900719895 ], [ -73.871216024822616, 40.787480988566259 ], [ -73.871241906024451, 40.787463934010205 ], [ -73.871271163137052, 40.787443468562707 ], [ -73.871285797357061, 40.787430673507792 ], [ -73.871299308764307, 40.787417019850565 ], [ -73.87131057266599, 40.787403367277193 ], [ -73.871319587966568, 40.787389711351594 ], [ -73.871329734882437, 40.787373493855426 ], [ -73.871336510388005, 40.787356418841718 ], [ -73.871342159888329, 40.787340195396354 ], [ -73.871345562661418, 40.787324824862345 ], [ -73.871355788031039, 40.787266753853565 ], [ -73.871367160839441, 40.787196727207984 ], [ -73.871380779134427, 40.787128409480353 ], [ -73.87138983762101, 40.787091692592746 ], [ -73.871398883226917, 40.787063517863039 ], [ -73.871410171363536, 40.787037904791951 ], [ -73.871430474714472, 40.786998637626027 ], [ -73.871486864279277, 40.786894494301826 ], [ -73.871526326111336, 40.78682705914899 ], [ -73.871543235095928, 40.786800600513381 ], [ -73.871569146487133, 40.786766464330434 ], [ -73.871592799948502, 40.786738303118867 ], [ -73.871618702617965, 40.786709290745783 ], [ -73.871641216436927, 40.786689669590444 ], [ -73.871673845879272, 40.786667499547598 ], [ -73.871692972597899, 40.786656418536374 ], [ -73.871736836845599, 40.786636820235429 ], [ -73.871754834813643, 40.786627445369916 ], [ -73.871788587550753, 40.78660698387695 ], [ -73.871866223060877, 40.78655667454067 ], [ -73.871903352137849, 40.78653450944082 ], [ -73.871976467792592, 40.786497008260476 ], [ -73.872004593024883, 40.786480811615469 ], [ -73.872067610363587, 40.786435609720911 ], [ -73.872120501944124, 40.786396377721566 ], [ -73.872130627718221, 40.7863904123083 ], [ -73.872143000845881, 40.786384446715054 ], [ -73.87218685494129, 40.786369972983614 ], [ -73.872290298134359, 40.786340192859527 ], [ -73.872318411644102, 40.786329975461051 ], [ -73.872347652085637, 40.786317196386563 ], [ -73.872374649117674, 40.786303559394781 ], [ -73.872402772426568, 40.786288216231334 ], [ -73.872499530294533, 40.78622853090269 ], [ -73.872599657031131, 40.786169707403758 ], [ -73.872645783945742, 40.786142427269915 ], [ -73.872676162859293, 40.786122813690682 ], [ -73.87268741482292, 40.786115139467469 ], [ -73.872697547464981, 40.786104901086432 ], [ -73.872724583005365, 40.786071618712597 ], [ -73.872738097524149, 40.786055405649186 ], [ -73.872765143351799, 40.786016144775338 ], [ -73.872779785023994, 40.785999078367631 ], [ -73.872792171079254, 40.785986279714436 ], [ -73.872807927808054, 40.78597348386544 ], [ -73.872825932285608, 40.78595983858758 ], [ -73.872847311062316, 40.785946196199021 ], [ -73.872888937259901, 40.785920617405665 ], [ -73.872905809597128, 40.785912948446772 ], [ -73.872920428803866, 40.785906984328122 ], [ -73.873018257831745, 40.785874635436492 ], [ -73.873117207042625, 40.785843140440051 ], [ -73.873159929311626, 40.785832938018196 ], [ -73.873229625338112, 40.785821057035662 ], [ -73.873291451958679, 40.785810022773347 ], [ -73.87332854522181, 40.785804937003149 ], [ -73.873425205720409, 40.785795648408431 ], [ -73.873536480033593, 40.785783813787873 ], [ -73.873582558157906, 40.785781300642739 ], [ -73.873655605672766, 40.785778819844175 ], [ -73.87378484214652, 40.78577554419234 ], [ -73.873902835624591, 40.785776527169794 ], [ -73.873957898638352, 40.785776587472974 ], [ -73.874001728892949, 40.785774927204166 ], [ -73.874034321137103, 40.785772400036798 ], [ -73.874119742564247, 40.785763953145654 ], [ -73.874170317143864, 40.785760592775119 ], [ -73.874224261984679, 40.785758087135861 ], [ -73.874274828492332, 40.785758996039597 ], [ -73.874332133285222, 40.785763331539187 ], [ -73.874355725971398, 40.785765917368749 ], [ -73.874378190809566, 40.785771068478191 ], [ -73.874399530820668, 40.785777070182128 ], [ -73.874420867717788, 40.785784781968992 ], [ -73.874447815270557, 40.785797621026504 ], [ -73.874507317215972, 40.785826729851017 ], [ -73.87453538842874, 40.785838715527795 ], [ -73.874575814749434, 40.785854134841891 ], [ -73.874603892307107, 40.785862706683858 ], [ -73.874639833816929, 40.785872143509692 ], [ -73.874669042264031, 40.785877298225657 ], [ -73.874701621268841, 40.78588246028464 ], [ -73.874731957553081, 40.785885054295882 ], [ -73.874809487178155, 40.785889410644906 ], [ -73.87491961100099, 40.785892092272427 ], [ -73.874955565414638, 40.785894692412924 ], [ -73.874997135836935, 40.785899009570038 ], [ -73.875106117727853, 40.785911084697176 ], [ -73.875188135500693, 40.785919715827227 ], [ -73.875229709155775, 40.785922323732457 ], [ -73.875247690322169, 40.785921489555662 ], [ -73.87526342685517, 40.785919797437366 ], [ -73.875297151061162, 40.78591385555945 ], [ -73.875343245593015, 40.785901946808956 ], [ -73.875428699098535, 40.78587641639291 ], [ -73.875472544152572, 40.785866213407715 ], [ -73.875525380179695, 40.785856019208296 ], [ -73.875574839237444, 40.785849241432523 ], [ -73.875623165158814, 40.785845875316113 ], [ -73.875671487113109, 40.785845927516775 ], [ -73.875716429703871, 40.785849394390205 ], [ -73.875756872252481, 40.785856269294101 ], [ -73.875792817113336, 40.785863995672322 ], [ -73.875807419727025, 40.785867428849201 ], [ -73.875841108699305, 40.78588027660988 ], [ -73.875857956788977, 40.785885420453603 ], [ -73.875892777839738, 40.785892291923645 ], [ -73.875928733012799, 40.785895745426338 ], [ -73.875951204765769, 40.785896625151231 ], [ -73.875970311457365, 40.785895790233141 ], [ -73.875988294199459, 40.785894101357457 ], [ -73.876002906864898, 40.785891556018861 ], [ -73.876031016547387, 40.785883045041821 ], [ -73.876056878669104, 40.785874530717869 ], [ -73.876113108635622, 40.785852384825489 ], [ -73.876146845450862, 40.785839606949416 ], [ -73.876160896016202, 40.785836633316528 ], [ -73.876169327821913, 40.78583536189042 ], [ -73.876186181561152, 40.785836232764304 ], [ -73.876216519090946, 40.785838827306172 ], [ -73.8762861789276, 40.785844882450263 ], [ -73.876297417355119, 40.785844894527941 ], [ -73.87630977768633, 40.785844907810016 ], [ -73.876337877790704, 40.785841520579204 ], [ -73.8763772214499, 40.785834729835585 ], [ -73.876404201860467, 40.785828782147576 ], [ -73.876453670330392, 40.785816873899073 ], [ -73.87649920344667, 40.785805392674568 ], [ -73.876508757256914, 40.7858041224261 ], [ -73.876522241531561, 40.785804992397615 ], [ -73.876537967663253, 40.785807570260566 ], [ -73.876563804454975, 40.785812723641527 ], [ -73.876594132485934, 40.785820443746672 ], [ -73.876605366161627, 40.785823016867951 ], [ -73.876651428847509, 40.785828191907406 ], [ -73.876680644014925, 40.785829078632055 ], [ -73.876705369158273, 40.785827396867454 ], [ -73.87673347508148, 40.785821446709981 ], [ -73.87677057915252, 40.785810382347357 ], [ -73.876850413890566, 40.785784843020672 ], [ -73.876943732581836, 40.785758465392881 ], [ -73.877034803284005, 40.785732938869359 ], [ -73.877091017404823, 40.785718477394319 ], [ -73.877131489969528, 40.785709124679641 ], [ -73.877159591439963, 40.785704883584955 ], [ -73.877242766994769, 40.785694722811158 ], [ -73.877313585259373, 40.785682841393665 ], [ -73.877378787198637, 40.785670098528684 ], [ -73.877414763498535, 40.785660741007234 ], [ -73.877460865447716, 40.785644561168745 ], [ -73.877499102582831, 40.785629227611132 ], [ -73.877517097897709, 40.785620704585931 ], [ -73.877574480126157, 40.785582329445027 ], [ -73.877626232108057, 40.785549926707944 ], [ -73.877656600221144, 40.785534583812016 ], [ -73.877690337676071, 40.785521807239618 ], [ -73.877724065318844, 40.785512448153618 ], [ -73.877763413346756, 40.785503094104818 ], [ -73.877838732559326, 40.7854878006425 ], [ -73.877873586796767, 40.785478441788229 ], [ -73.877910687710823, 40.785468230719914 ], [ -73.877998393014835, 40.785440137029703 ], [ -73.878082718917781, 40.785415456193711 ], [ -73.878161416665137, 40.785395039590611 ], [ -73.878231128990237, 40.785372906013734 ], [ -73.878265982761633, 40.78536440162533 ], [ -73.878306452174613, 40.785355902241989 ], [ -73.878342422036951, 40.785349962683256 ], [ -73.878378388427237, 40.785346582348346 ], [ -73.878495272833433, 40.785338163611598 ], [ -73.878582931322711, 40.785334841447131 ], [ -73.878625630971158, 40.785335740143864 ], [ -73.878678438065691, 40.785340921485023 ], [ -73.878732363610339, 40.785348665898013 ], [ -73.878779542566463, 40.785358110509904 ], [ -73.878823347891696, 40.785369259886245 ], [ -73.87886378113825, 40.785381261118715 ], [ -73.878951382197386, 40.78540953995352 ], [ -73.879052469457861, 40.785436979228962 ], [ -73.879134460798241, 40.785460125436735 ], [ -73.879191738087485, 40.785478978163532 ], [ -73.879208580815259, 40.785485828840685 ], [ -73.87924899837094, 40.785507224004249 ], [ -73.879286051406964, 40.78552263804368 ], [ -73.879323108430299, 40.785537197574044 ], [ -73.879359045793478, 40.785549193918818 ], [ -73.879373651282862, 40.785551771141769 ], [ -73.879387130030779, 40.785554346260831 ], [ -73.879406233481149, 40.785555221782708 ], [ -73.879428709810753, 40.785553537076566 ], [ -73.879438828170862, 40.785551839424635 ], [ -73.879463558882733, 40.78554759423772 ], [ -73.879475923571491, 40.785545899853531 ], [ -73.879484913304481, 40.785545909265899 ], [ -73.879495026148419, 40.785545919853313 ], [ -73.87952086582645, 40.785550217068007 ], [ -73.879552314882773, 40.785557936648054 ], [ -73.879568034556357, 40.78556478609871 ], [ -73.879607314043909, 40.785593870293646 ], [ -73.879618256925937, 40.785601354070216 ], [ -73.8796265880802, 40.78560328361241 ], [ -73.879644383092426, 40.78560244847128 ], [ -73.879690467033939, 40.785596517309031 ], [ -73.879707323845949, 40.78559568034126 ], [ -73.879724180211952, 40.785595697955635 ], [ -73.879739910379683, 40.785597422724756 ], [ -73.879754512036655, 40.785600856238162 ], [ -73.879838753128013, 40.785622297884217 ], [ -73.879911762484511, 40.785642019418944 ], [ -73.87993029582762, 40.785646309839116 ], [ -73.879951081014028, 40.785648893433425 ], [ -73.880019617770003, 40.785654943393219 ], [ -73.880044334736127, 40.785658387411615 ], [ -73.880162294597866, 40.785677299363343 ], [ -73.88027013166338, 40.785700473424377 ], [ -73.880315070564706, 40.785707354081872 ], [ -73.880357764329574, 40.785711670471969 ], [ -73.880447653786476, 40.785717741447641 ], [ -73.880527434096848, 40.78572038703377 ], [ -73.88056338941746, 40.785723839091951 ], [ -73.88061057207014, 40.78573157654732 ], [ -73.880620680347732, 40.785734148946176 ], [ -73.880631912625446, 40.785737578937535 ], [ -73.880677956765126, 40.785753854597019 ], [ -73.880688066259054, 40.785756427074965 ], [ -73.880697054169374, 40.785758144642159 ], [ -73.880718398233327, 40.785761584183639 ], [ -73.880741993903499, 40.785763315962512 ], [ -73.880791435857105, 40.785765075428131 ], [ -73.880836387837675, 40.785763413721817 ], [ -73.880852123087607, 40.785761722680647 ], [ -73.880865615058099, 40.785758319224122 ], [ -73.880953306378913, 40.785736204449059 ], [ -73.881019638628857, 40.785718334101034 ], [ -73.881030880199134, 40.785716636550283 ], [ -73.881048861237218, 40.785715801467035 ], [ -73.881066840434713, 40.785716673711597 ], [ -73.881087061390559, 40.785720112024364 ], [ -73.881142103011669, 40.785732126626804 ], [ -73.88119264488509, 40.785747553059849 ], [ -73.881266770274365, 40.7857715469761 ], [ -73.881359985197093, 40.785802392604097 ], [ -73.881390306173856, 40.785814380685466 ], [ -73.881432975423877, 40.785833216405393 ], [ -73.88148574390469, 40.785859749093028 ], [ -73.881520551115955, 40.785876012008835 ], [ -73.881526723527671, 40.785880716279991 ], [ -73.881532892896772, 40.785887131560465 ], [ -73.881544090602986, 40.78590934858385 ], [ -73.881555533191602, 40.785920507700389 ], [ -73.881574425752603, 40.785912798140409 ], [ -73.881590179145363, 40.785900855588409 ], [ -73.881601708235195, 40.785895315863584 ], [ -73.881613794745462, 40.785891484042068 ], [ -73.881625033795359, 40.785889788271 ], [ -73.881638522713061, 40.785888093890932 ], [ -73.881657625499045, 40.785888113532387 ], [ -73.881677852195125, 40.785888987990923 ], [ -73.88169919787218, 40.785891571847166 ], [ -73.881721668673705, 40.785895010604307 ], [ -73.881803667872035, 40.785913887430105 ], [ -73.881928357388361, 40.785940491985066 ], [ -73.881973285332251, 40.785952498576698 ], [ -73.882056398000685, 40.785978206689883 ], [ -73.882088970066746, 40.785987635897499 ], [ -73.882212524920007, 40.786020220160914 ], [ -73.882318112079133, 40.786046804744437 ], [ -73.882415840580819, 40.786068260970509 ], [ -73.882573110352723, 40.78610002561782 ], [ -73.882641635765921, 40.786112906922789 ], [ -73.882694432154778, 40.786124063992233 ], [ -73.882750594511947, 40.786137787218543 ], [ -73.882828097198967, 40.786159218892244 ], [ -73.882905603628956, 40.786177237614439 ], [ -73.882935930770884, 40.786186662458313 ], [ -73.882947157932662, 40.786191798628124 ], [ -73.882957263074346, 40.786196933738388 ], [ -73.883004406907347, 40.786227732013693 ], [ -73.883039018700202, 40.786248977637882 ], [ -73.883049878394871, 40.786250840147247 ], [ -73.883062804289068, 40.786249997774583 ], [ -73.883088658155344, 40.786245752031142 ], [ -73.883098209941252, 40.786244908987662 ], [ -73.883132478967681, 40.786247505701255 ], [ -73.883157193205889, 40.786252657383528 ], [ -73.883189764068788, 40.786262937266578 ], [ -73.883204361156601, 40.786269786000929 ], [ -73.883217834020442, 40.786276634512909 ], [ -73.883248145059952, 40.786294601431074 ], [ -73.883269468460512, 40.786309996474692 ], [ -73.883303691100849, 40.786339074192739 ], [ -73.883314772332341, 40.786348374178893 ], [ -73.883326153903212, 40.786347209626001 ], [ -73.883337968482593, 40.786338254352749 ], [ -73.883371731095224, 40.786310100136362 ], [ -73.883382979149545, 40.786303279451069 ], [ -73.883396478580835, 40.786295605540353 ], [ -73.883412221372708, 40.786289642986468 ], [ -73.883431337342785, 40.7862828284266 ], [ -73.88346619010818, 40.786273468799664 ], [ -73.883514526114212, 40.786264977310488 ], [ -73.883558363923413, 40.786259042328979 ], [ -73.883590955647321, 40.786257367044968 ], [ -73.883629162250728, 40.786258259343185 ], [ -73.883676350011839, 40.78626343003485 ], [ -73.883812298921981, 40.786278943437395 ], [ -73.883942627712898, 40.786293595507956 ], [ -73.884060598451654, 40.786308235904009 ], [ -73.884133619397758, 40.786321119092754 ], [ -73.884195407413628, 40.786331432616315 ], [ -73.884253820137346, 40.786345157457092 ], [ -73.884396461841973, 40.786388008069011 ], [ -73.884549223574027, 40.786428306740405 ], [ -73.884640203836994, 40.786453168132176 ], [ -73.884652559305508, 40.786457449760007 ], [ -73.884664909663456, 40.786462586887708 ], [ -73.884691855397278, 40.786477136312655 ], [ -73.884719916770493, 40.786495954336395 ], [ -73.884728894529829, 40.786503650915279 ], [ -73.884736747951692, 40.786511346366261 ], [ -73.884768144300637, 40.786551521390621 ], [ -73.884779359455081, 40.786564346795963 ], [ -73.884788614214273, 40.786573538479878 ], [ -73.884798439893515, 40.786577390726755 ], [ -73.884816417051098, 40.786578903551693 ], [ -73.884832152017552, 40.786578064711684 ], [ -73.884846763022793, 40.786576370160205 ], [ -73.884888353715326, 40.78656957968019 ], [ -73.884928816840457, 40.786565349973721 ], [ -73.884961409890366, 40.786563674302137 ], [ -73.884974893220388, 40.786564542363344 ], [ -73.884989499524693, 40.786566265208535 ], [ -73.885025442892925, 40.786575695113207 ], [ -73.885080475343983, 40.786594541828094 ], [ -73.885100693716439, 40.786599686764148 ], [ -73.885152363506663, 40.786612550667527 ], [ -73.885174830679617, 40.786617697834373 ], [ -73.885284349187259, 40.786645993709186 ], [ -73.885299511342794, 40.786650280824972 ], [ -73.885338822196232, 40.786662277743318 ], [ -73.885374772756634, 40.786668292886844 ], [ -73.885410727738602, 40.786671743431334 ], [ -73.885473658000379, 40.786672659728573 ], [ -73.885551196590654, 40.786672736852971 ], [ -73.885633231222741, 40.786672818392596 ], [ -73.885704028608515, 40.786672888715849 ], [ -73.885750101865142, 40.786674644546999 ], [ -73.885770322401044, 40.786677226531808 ], [ -73.885789419550775, 40.786680661983205 ], [ -73.885818623241789, 40.786689232207863 ], [ -73.885847823864282, 40.786700366177939 ], [ -73.885894984037861, 40.786722619356098 ], [ -73.885948882776916, 40.786745733776947 ], [ -73.885965727841636, 40.78675322555717 ], [ -73.885977899642853, 40.786754163310981 ], [ -73.885990461507376, 40.786746629553427 ], [ -73.886024202613285, 40.786730435889055 ], [ -73.886061304185162, 40.786720222199897 ], [ -73.886087161073178, 40.786714268457551 ], [ -73.886107395635207, 40.786710018315986 ], [ -73.886118637133137, 40.786708321187902 ], [ -73.886129877166795, 40.78670747864345 ], [ -73.88615628223198, 40.786707930675895 ], [ -73.886172574874564, 40.786710082792105 ], [ -73.886195042662294, 40.786713520588151 ], [ -73.886244469156566, 40.786725529040041 ], [ -73.886275926597051, 40.78672982945433 ], [ -73.886306263713706, 40.786732423096502 ], [ -73.886361327281975, 40.78673333113823 ], [ -73.886417517008198, 40.786732532935417 ], [ -73.886491684951878, 40.786732606100777 ], [ -73.886502922430736, 40.786732617182196 ], [ -73.886551240913136, 40.786734373066764 ], [ -73.886592815170872, 40.78673782970089 ], [ -73.886609670727552, 40.786737846307169 ], [ -73.886656871901621, 40.786736185383802 ], [ -73.886720931187057, 40.786733685611146 ], [ -73.886786113601872, 40.786731186071322 ], [ -73.886844551034372, 40.786729535284969 ], [ -73.886878265556518, 40.786729568424761 ], [ -73.886892874849096, 40.786729582781931 ], [ -73.886920963306451, 40.786732174052545 ], [ -73.886951294518866, 40.786739036931841 ], [ -73.88699397898543, 40.786750183853961 ], [ -73.887017563811142, 40.786757893672963 ], [ -73.887027671154925, 40.786761318337973 ], [ -73.887051257197442, 40.786769029071337 ], [ -73.887072594081829, 40.786778445842813 ], [ -73.887096167679388, 40.786792137731169 ], [ -73.887129848684822, 40.786812668931063 ], [ -73.887150897667155, 40.786824221408303 ], [ -73.887162596789722, 40.7868286453484 ], [ -73.887175895501883, 40.786828088327901 ], [ -73.887201751009826, 40.786822135253033 ], [ -73.887247846461335, 40.78681022174618 ], [ -73.887264709033659, 40.786806821679264 ], [ -73.887274824728323, 40.786805977921908 ], [ -73.887288307416071, 40.786807270785744 ], [ -73.887308525408216, 40.786812844006953 ], [ -73.887330986922407, 40.786821408166823 ], [ -73.887347835166338, 40.786825692983008 ], [ -73.887366933415166, 40.786829983678835 ], [ -73.887402882927162, 40.786835999108419 ], [ -73.887470292551441, 40.786846314532454 ], [ -73.887550063182601, 40.786854933829567 ], [ -73.88760736857715, 40.786859259966491 ], [ -73.887651189109675, 40.786863574753312 ], [ -73.887683769499844, 40.786868730380277 ], [ -73.887718596042575, 40.786874741939037 ], [ -73.887756787438775, 40.786884175024134 ], [ -73.887785993021765, 40.786891891086839 ], [ -73.887810707860922, 40.786897040850747 ], [ -73.887878104779475, 40.786914189024458 ], [ -73.887926406509251, 40.786925340236216 ], [ -73.887936516459789, 40.78692791291558 ], [ -73.88796460171335, 40.786933919591327 ], [ -73.887988193451974, 40.786939065463642 ], [ -73.888024144961108, 40.786943373370434 ], [ -73.888062349037654, 40.786945970689246 ], [ -73.888071337632468, 40.786946833932923 ], [ -73.888138751891958, 40.786953733391151 ], [ -73.888159535156859, 40.786957170170666 ], [ -73.888193234954286, 40.786965317329908 ], [ -73.888237602106472, 40.786978599587769 ], [ -73.888276910590633, 40.786993159256234 ], [ -73.888307230709074, 40.787006000182018 ], [ -73.88833193185971, 40.787017980979904 ], [ -73.888375716955949, 40.78704279362227 ], [ -73.88841837608318, 40.787069315162199 ], [ -73.888438582964639, 40.787082999914624 ], [ -73.888481230918728, 40.78711549807835 ], [ -73.8884902108463, 40.787121487034511 ], [ -73.888499191987563, 40.787127475069767 ], [ -73.888520522591477, 40.787139452645484 ], [ -73.888565440546628, 40.787159996983782 ], [ -73.888660888394, 40.787201941103191 ], [ -73.888720400236934, 40.787231039910608 ], [ -73.888792271413777, 40.787261003372606 ], [ -73.888845055153979, 40.787281554364682 ], [ -73.888906828896666, 40.787302113924959 ], [ -73.88895624128763, 40.787320953361153 ], [ -73.888989937488162, 40.787332943615148 ], [ -73.889014638771286, 40.787344925187448 ], [ -73.889043262698081, 40.787364171370434 ], [ -73.889051677580611, 40.787372293900141 ], [ -73.889067384211032, 40.787388537037614 ], [ -73.889160461035942, 40.787506498967389 ], [ -73.889291693088992, 40.787656955278599 ], [ -73.889378060812263, 40.787755263400186 ], [ -73.889392643042527, 40.787772360832584 ], [ -73.889404971618106, 40.787790310767384 ], [ -73.889415056004992, 40.787809112125494 ], [ -73.889424013410093, 40.787828765228248 ], [ -73.889482225927537, 40.787963775888642 ], [ -73.889509089669545, 40.788028717180758 ], [ -73.889522523943953, 40.788058624992011 ], [ -73.889538212420348, 40.788085973886169 ], [ -73.88956959560926, 40.788135543412047 ], [ -73.889599865605462, 40.788179133364068 ], [ -73.889611069218589, 40.788199645030353 ], [ -73.889635702339788, 40.788255186394103 ], [ -73.889672635932754, 40.788345761130159 ], [ -73.889700611852703, 40.788417536438686 ], [ -73.889740898930853, 40.788520073031684 ], [ -73.88977784219955, 40.788606376570293 ], [ -73.889795745026831, 40.788652516620935 ], [ -73.889810285137997, 40.788695239543863 ], [ -73.889840468102932, 40.788790932505123 ], [ -73.889865061053186, 40.788869535772875 ], [ -73.88987063812425, 40.788895165773354 ], [ -73.889876161497824, 40.788953253550687 ], [ -73.889885057331043, 40.789009634380776 ], [ -73.889893990809739, 40.789044664426257 ], [ -73.889900702379961, 40.78906346251145 ], [ -73.889927576867024, 40.789122422614327 ], [ -73.889949947903389, 40.789185650242075 ], [ -73.889971205490951, 40.789243753056283 ], [ -73.89000833344646, 40.789341212555328 ], [ -73.89004281835544, 40.789431733950408 ], [ -73.890096540001295, 40.789565031808444 ], [ -73.890126765873958, 40.789635953643128 ], [ -73.890155893892157, 40.789691500093419 ], [ -73.8901693429939, 40.789712867507589 ], [ -73.890186163766316, 40.789735091718875 ], [ -73.890238876455328, 40.789800911146529 ], [ -73.890301684955801, 40.789876136001105 ], [ -73.890343016006838, 40.789920084813069 ], [ -73.890474863828246, 40.790232775958501 ] ] ] ] } }
]
}
