{
"type": "FeatureCollection",
"name": "pluto_Soundview_Park",
"crs": { "type": "name", "properties": { "name": "urn:ogc:def:crs:OGC:1.3:CRS84" } },
"features": [
{ "type": "Feature", "properties": { "Borough": "BX", "Block": 3451, "Lot": 100, "CD": 209, "BCT2020": "2000200", "BCTCB2020": "20002002007", "CT2010": "2", "CB2010": "2008", "SchoolDist": "08", "Council": 18, "ZipCode": 10473, "FireComp": "L054", "PolicePrct": 43, "HealthCent": 26, "HealthArea": 3030, "Sanitboro": "2", "SanitDistr": "09", "SanitSub": "1B", "Address": "BRONX RIVER AVENUE", "ZoneDist1": "R3-2", "ZoneDist2": null, "ZoneDist3": null, "ZoneDist4": null, "Overlay1": null, "Overlay2": null, "SPDist1": null, "SPDist2": null, "SPDist3": null, "LtdHeight": null, "SplitZone": "N", "BldgClass": "V0", "LandUse": "11", "Easements": 0, "OwnerType": "C", "OwnerName": "NYC DEPARTMENT OF PARKS AND RECREATION", "LotArea": 217384, "BldgArea": 0, "ComArea": 0, "ResArea": 0, "OfficeArea": 0, "RetailArea": 0, "GarageArea": 0, "StrgeArea": 0, "FactryArea": 0, "OtherArea": 0, "AreaSource": "7", "NumBldgs": 0, "NumFloors": 0.0, "UnitsRes": 0, "UnitsTotal": 0, "LotFront": 150.0, "LotDepth": 350.0, "BldgFront": 0.0, "BldgDepth": 0.0, "Ext": null, "ProxCode": "0", "IrrLotCode": "Y", "LotType": "5", "BsmtCode": "5", "AssessLand": 598860.0, "AssessTot": 598860.0, "ExemptTot": 598860.0, "YearBuilt": 0, "YearAlter1": 0, "YearAlter2": 0, "HistDist": null, "Landmark": null, "BuiltFAR": 0.0, "ResidFAR": 0.75, "CommFAR": 0.0, "FacilFAR": 1.0, "BoroCode": 2, "BBL": 2034510100.0, "CondoNo": 0, "Tract2010": "0002", "XCoord": 1021792, "YCoord": 234020, "ZoneMap": "7a", "ZMCode": "Y", "Sanborn": "217 061", "TaxMap": "21401", "EDesigNum": null, "APPBBL": 0.0, "APPDate": null, "PLUTOMapID": "1", "FIRM07_FLA": "1", "PFIRM15_FL": "1", "Version": "25v4", "DCPEdited": "t", "Latitude": 40.8089269, "Longitude": -73.8643849, "Notes": null, "Shape_Leng": 0.0, "Shape_Area": 5678.6974948999996 }, "geometry": { "type": "MultiPolygon", "coordinates": [ [ [ [ -73.866837254629786, 40.810535997445236 ], [ -73.866882702628502, 40.810537934674144 ], [ -73.866944524130261, 40.810541419932946 ], [ -73.866984980773452, 40.810548301404737 ], [ -73.867047904951121, 40.810562895610623 ], [ -73.867109715035099, 40.810571507257357 ], [ -73.867163671126548, 40.8105741304974 ], [ -73.867229996155388, 40.810574206987326 ], [ -73.867287334282125, 40.810571712095744 ], [ -73.867354797562427, 40.810564957770175 ], [ -73.867408766063477, 40.810560747931589 ], [ -73.867463853094108, 40.810559103103223 ], [ -73.867530174597164, 40.81056088765996 ], [ -73.867565019724566, 40.810563491486199 ], [ -73.867617841986316, 40.810571238861776 ], [ -73.867628772679723, 40.810574615043222 ], [ -73.867715051238335, 40.810684195997268 ], [ -73.866878218508305, 40.810586804229928 ], [ -73.866837254629786, 40.810535997445236 ] ] ] ] } },
{ "type": "Feature", "properties": { "Borough": "BX", "Block": 3463, "Lot": 1, "CD": 209, "BCT2020": "2002400", "BCTCB2020": "20024001007", "CT2010": "24", "CB2010": "1008", "SchoolDist": "08", "Council": 18, "ZipCode": 10473, "FireComp": "L054", "PolicePrct": 43, "HealthCent": 26, "HealthArea": 3030, "Sanitboro": "2", "SanitDistr": "09", "SanitSub": "1B", "Address": "RANDALL AVENUE", "ZoneDist1": "PARK", "ZoneDist2": null, "ZoneDist3": null, "ZoneDist4": null, "Overlay1": null, "Overlay2": null, "SPDist1": null, "SPDist2": null, "SPDist3": null, "LtdHeight": null, "SplitZone": "N", "BldgClass": "Q1", "LandUse": "09", "Easements": 1, "OwnerType": "C", "OwnerName": "NYC DEPARTMENT OF PARKS AND RECREATION", "LotArea": 3062000, "BldgArea": 0, "ComArea": 0, "ResArea": 0, "OfficeArea": 0, "RetailArea": 0, "GarageArea": 0, "StrgeArea": 0, "FactryArea": 0, "OtherArea": 0, "AreaSource": "7", "NumBldgs": 1, "NumFloors": 0.0, "UnitsRes": 0, "UnitsTotal": 0, "LotFront": 1244.75, "LotDepth": 643.17, "BldgFront": 0.0, "BldgDepth": 0.0, "Ext": "N", "ProxCode": "0", "IrrLotCode": "Y", "LotType": "5", "BsmtCode": "0", "AssessLand": 15904800.0, "AssessTot": 15904800.0, "ExemptTot": 15904800.0, "YearBuilt": 0, "YearAlter1": 0, "YearAlter2": 0, "HistDist": null, "Landmark": null, "BuiltFAR": 0.0, "ResidFAR": 0.0, "CommFAR": 0.0, "FacilFAR": 0.0, "BoroCode": 2, "BBL": 2034630001.0, "CondoNo": 0, "Tract2010": "0024", "XCoord": 1021128, "YCoord": 235283, "ZoneMap": "7a", "ZMCode": "Y", "Sanborn": "217 060", "TaxMap": "21402", "EDesigNum": null, "APPBBL": 0.0, "APPDate": null, "PLUTOMapID": "1", "FIRM07_FLA": "1", "PFIRM15_FL": "1", "Version": "25v4", "DCPEdited": "t", "Latitude": 40.8123962, "Longitude": -73.8667766, "Notes": null, "Shape_Leng": 0.0, "Shape_Area": 2651122.5493200002 }, "geometry": { "type": "MultiPolygon", "coordinates": [ [ [ [ -73.870692655631061, 40.815313471725517 ], [ -73.870102172524753, 40.815717914858084 ], [ -73.869650115278546, 40.815371249360545 ], [ -73.869540458654356, 40.815297130222611 ], [ -73.869357275202219, 40.815181582072789 ], [ -73.869130054516006, 40.815051295581995 ], [ -73.869000428249322, 40.814979702502086 ], [ -73.868800024320137, 40.814884839087711 ], [ -73.868485517413092, 40.814761199228386 ], [ -73.868307608308697, 40.814695836721953 ], [ -73.868120364379948, 40.814630488348826 ], [ -73.86794933453416, 40.814573805810127 ], [ -73.867723120253402, 40.814503123561522 ], [ -73.867383111487143, 40.814405790993774 ], [ -73.866835460176105, 40.814270563200949 ], [ -73.866598427920962, 40.814195706764302 ], [ -73.866296225196081, 40.814082775800863 ], [ -73.866110210621628, 40.814002657419671 ], [ -73.86579243697831, 40.813844860432589 ], [ -73.8622273905182, 40.811786635498422 ], [ -73.862038695507366, 40.811676306295247 ], [ -73.861794690997087, 40.811525066493431 ], [ -73.861647048888202, 40.811428550155838 ], [ -73.861528223944816, 40.811347971037577 ], [ -73.861265642035193, 40.811167557687966 ], [ -73.862425696883903, 40.810547081886497 ], [ -73.863032088082164, 40.810069351319051 ], [ -73.86304238071979, 40.810072194181636 ], [ -73.86310081519494, 40.810083365953979 ], [ -73.863161495521396, 40.81009454396456 ], [ -73.863223303577655, 40.810104865937795 ], [ -73.863282868651638, 40.810112625150815 ], [ -73.863346923908182, 40.810122948889301 ], [ -73.863407605524898, 40.810134125850325 ], [ -73.863464919533513, 40.810142735039584 ], [ -73.863527847703779, 40.810154766506272 ], [ -73.863586279364512, 40.810166795289945 ], [ -73.863639092747434, 40.810177960130375 ], [ -73.863667188016123, 40.810182265303588 ], [ -73.863721123201287, 40.810194286017683 ], [ -73.86378406491454, 40.810200340721067 ], [ -73.863844751356567, 40.810208100048527 ], [ -73.863900948299431, 40.810214144874401 ], [ -73.86396725189924, 40.810224473602851 ], [ -73.864029068393407, 40.810231379668686 ], [ -73.864086385941675, 40.810238281229232 ], [ -73.864136961094871, 40.810243463801463 ], [ -73.864199899409684, 40.81025122476229 ], [ -73.864256095206699, 40.810257271169981 ], [ -73.864341505882862, 40.810270185031236 ], [ -73.864403323519653, 40.810275380813742 ], [ -73.864467390636847, 40.810280583728563 ], [ -73.864526968830177, 40.810281506574732 ], [ -73.864585422858482, 40.810283282650076 ], [ -73.864632638335834, 40.810282484499929 ], [ -73.86470571244692, 40.810280863972153 ], [ -73.864757420575074, 40.810282631114461 ], [ -73.864824864734715, 40.810285273128237 ], [ -73.864865333672867, 40.810285320625063 ], [ -73.86492828771442, 40.810285394483543 ], [ -73.864991223851391, 40.810293154089592 ], [ -73.865051919235597, 40.810298351722608 ], [ -73.865113736430729, 40.810304403463185 ], [ -73.865178921972657, 40.810312167441644 ], [ -73.865241855912046, 40.810321635988217 ], [ -73.865296925914024, 40.810327679734606 ], [ -73.865359857528802, 40.810338857379058 ], [ -73.865422794351758, 40.81034747041064 ], [ -73.86548797247778, 40.810357796948658 ], [ -73.86554641227174, 40.810367261920668 ], [ -73.865616089404554, 40.810377592802695 ], [ -73.865675649133138, 40.810387058094669 ], [ -73.865745330344723, 40.810396533316279 ], [ -73.865807143148103, 40.810404293007132 ], [ -73.865862220854737, 40.810407775423158 ], [ -73.865886957018745, 40.810405240487221 ], [ -73.865942031909555, 40.810409576606098 ], [ -73.865998225071849, 40.810416474150266 ], [ -73.866038675767001, 40.810426770678383 ], [ -73.866089240390977, 40.810437932616985 ], [ -73.866154423950562, 40.810447405122439 ], [ -73.866218492498632, 40.81045089614399 ], [ -73.866283694973163, 40.81045097187431 ], [ -73.866326415215752, 40.810450166889147 ], [ -73.866399488260754, 40.810448543446313 ], [ -73.866448951103365, 40.810449454483113 ], [ -73.866481543723921, 40.81045290876628 ], [ -73.866543349196263, 40.810464939960404 ], [ -73.866599535728412, 40.810475253608423 ], [ -73.866648972807411, 40.810488976905653 ], [ -73.866706267003181, 40.810507835765122 ], [ -73.866770312297689, 40.810524137823855 ], [ -73.866820878219102, 40.810535299442726 ], [ -73.866837254629786, 40.810535997445236 ], [ -73.866878218508305, 40.810586804229928 ], [ -73.867715051238335, 40.810684195997268 ], [ -73.868740900250444, 40.811983346390022 ], [ -73.868748179889565, 40.812001511145148 ], [ -73.86876385415303, 40.812033987480916 ], [ -73.868782885270917, 40.812074154359848 ], [ -73.868797449014366, 40.812100648353926 ], [ -73.868829972470294, 40.812140830596391 ], [ -73.868858020555479, 40.812169050027215 ], [ -73.868901788018476, 40.812207534048731 ], [ -73.868928698561334, 40.812243438802078 ], [ -73.86895111976952, 40.8122750682911 ], [ -73.868981388341538, 40.812318662654455 ], [ -73.869015039521358, 40.812356284136591 ], [ -73.86905205712894, 40.812397326007911 ], [ -73.869082334802044, 40.812435797378868 ], [ -73.869105865697534, 40.812475112977978 ], [ -73.869128274099722, 40.812512719889625 ], [ -73.869152925992992, 40.812554603091193 ], [ -73.869169732554866, 40.812582806992339 ], [ -73.869203373433237, 40.812626406882679 ], [ -73.869245990498712, 40.812679411834019 ], [ -73.869287482572418, 40.812730708253056 ], [ -73.869325622451868, 40.812772604969012 ], [ -73.869360391090893, 40.812815350588892 ], [ -73.869387303913101, 40.812850401572376 ], [ -73.869419817399674, 40.812894852859998 ], [ -73.86945795352726, 40.812939313272395 ], [ -73.869491606973583, 40.812976076518112 ], [ -73.869529746189315, 40.813019683164462 ], [ -73.86955329644114, 40.813048748309015 ], [ -73.86957569310087, 40.813093190850665 ], [ -73.869601469646653, 40.813134217967786 ], [ -73.869635114787002, 40.813175253986948 ], [ -73.869662028535373, 40.813211160406567 ], [ -73.869682190805861, 40.813247910081891 ], [ -73.869705714084077, 40.813291499290223 ], [ -73.869729228924044, 40.81333935771066 ], [ -73.869744892279343, 40.813377811447445 ], [ -73.869769537096715, 40.813423108396712 ], [ -73.869799839512567, 40.813448767231939 ], [ -73.869836882709407, 40.813477849328947 ], [ -73.869877285103328, 40.813512915440626 ], [ -73.869915438245883, 40.813549686320968 ], [ -73.869951334407389, 40.813589017463627 ], [ -73.869975992684843, 40.813627482245252 ], [ -73.870005132850125, 40.813673637879042 ], [ -73.870033159822782, 40.813713815614612 ], [ -73.870059632564065, 40.813747915902205 ], [ -73.870065679165876, 40.813755704814511 ], [ -73.870099322894632, 40.813798448934577 ], [ -73.870135220054877, 40.813838633681883 ], [ -73.870161025453214, 40.813865142933857 ], [ -73.870199166534817, 40.813907038433356 ], [ -73.870230553702328, 40.81395405103811 ], [ -73.870254097469811, 40.813987388852716 ], [ -73.870285493947407, 40.814028423062169 ], [ -73.870319154148007, 40.814063480584252 ], [ -73.870356180060242, 40.814101104626864 ], [ -73.870392087975517, 40.814135309992615 ], [ -73.870423513641242, 40.814162680008678 ], [ -73.870456042416762, 40.814201151697944 ], [ -73.87048408873666, 40.814231078042802 ], [ -73.870521124920472, 40.814263576394005 ], [ -73.870553657118151, 40.814300342577958 ], [ -73.870583941514056, 40.814336248883535 ], [ -73.870618721539557, 40.814372162993521 ], [ -73.870647686566841, 40.814398128801322 ], [ -73.870669852512535, 40.814426200121375 ], [ -73.870685809198136, 40.814429265672594 ], [ -73.870686063830419, 40.814429467159862 ], [ -73.870699540663296, 40.81443716901007 ], [ -73.870707390784631, 40.814447426361177 ], [ -73.87071071752986, 40.814471346503069 ], [ -73.870708456286977, 40.814477324194144 ], [ -73.870733170099498, 40.814487599557104 ], [ -73.87076575451394, 40.814497033766976 ], [ -73.870795032514948, 40.814471441135126 ], [ -73.870814177775088, 40.814454379179992 ], [ -73.870815568431524, 40.814454194513871 ], [ -73.870883630620298, 40.814467270360687 ], [ -73.870895078401702, 40.81447753357287 ], [ -73.870914153589879, 40.81449720021255 ], [ -73.870945593791646, 40.814516026208295 ], [ -73.870999506418272, 40.814543417666179 ], [ -73.871019711114499, 40.814558814484862 ], [ -73.871064608306128, 40.814595593449845 ], [ -73.871110648119028, 40.814623831542796 ], [ -73.871161181491942, 40.814653784643497 ], [ -73.871216212191229, 40.81468288641392 ], [ -73.871263376288113, 40.814710270282546 ], [ -73.87131278608156, 40.814740222061488 ], [ -73.871358831496323, 40.814765042653441 ], [ -73.871408243574223, 40.814793286150056 ], [ -73.871462155178833, 40.814818970065353 ], [ -73.871512703269929, 40.814842088299031 ], [ -73.871546265764763, 40.81485586714647 ], [ -73.871571117408834, 40.814866069782163 ], [ -73.87160032394705, 40.814878059214955 ], [ -73.871658743530119, 40.814898624172386 ], [ -73.87171603581217, 40.81492174983272 ], [ -73.871757608912006, 40.814934607499978 ], [ -73.871817162852849, 40.814950901736843 ], [ -73.871868850440706, 40.814964627963548 ], [ -73.871934022824348, 40.814982634793388 ], [ -73.871986837039699, 40.81499550579872 ], [ -73.872036275840827, 40.815010082191307 ], [ -73.872093581486041, 40.815026374706768 ], [ -73.872146392375868, 40.815040952957311 ], [ -73.872212686871748, 40.81505981821779 ], [ -73.872274493286611, 40.815073551892787 ], [ -73.872334044624253, 40.815090701277953 ], [ -73.872390235420212, 40.815101868518063 ], [ -73.872453168366718, 40.81511474960066 ], [ -73.872501490186792, 40.815125907234133 ], [ -73.872562166565004, 40.815143056825498 ], [ -73.872613855672128, 40.815156780879043 ], [ -73.87267229216053, 40.815168802370358 ], [ -73.872729604633662, 40.81518167892856 ], [ -73.872789160665874, 40.81519711900355 ], [ -73.872843095143267, 40.81521255275667 ], [ -73.872894778255144, 40.815228838664396 ], [ -73.872949837493948, 40.815244274528979 ], [ -73.873008267178875, 40.815260567745227 ], [ -73.873016080916827, 40.815262488985681 ], [ -73.873074567027061, 40.815276869691736 ], [ -73.873140864179433, 40.815294025173067 ], [ -73.873197049985578, 40.81530860674301 ], [ -73.873254357112941, 40.815323191276114 ], [ -73.873318408232649, 40.815340343346669 ], [ -73.873347625353261, 40.81534635387473 ], [ -73.873357737016349, 40.815350636982245 ], [ -73.873376841756894, 40.815354074476843 ], [ -73.873408299582678, 40.815366067682113 ], [ -73.873438031933844, 40.815371624398637 ], [ -73.873377703113718, 40.815447672549858 ], [ -73.873241739579271, 40.815582169280468 ], [ -73.873136869773759, 40.815668924027847 ], [ -73.872994310145671, 40.815755758758037 ], [ -73.872889448158304, 40.815810788698393 ], [ -73.87277884075371, 40.815859678953117 ], [ -73.872745441952375, 40.815872126552129 ], [ -73.872684191849103, 40.815894954103392 ], [ -73.872613635271804, 40.815916953638641 ], [ -73.872578767284395, 40.815927825512162 ], [ -73.872460298044331, 40.815957350471649 ], [ -73.872308991697253, 40.81598192675412 ], [ -73.872104182665822, 40.816003576168953 ], [ -73.871470180500225, 40.816058414900112 ], [ -73.871464978336206, 40.816031362574897 ], [ -73.871444705224292, 40.815925939228492 ], [ -73.871375568489285, 40.81556642582602 ], [ -73.870692655631061, 40.815313471725517 ] ] ] ] } },
{ "type": "Feature", "properties": { "Borough": "BX", "Block": 3463, "Lot": 32, "CD": 209, "BCT2020": "2002400", "BCTCB2020": "20024000001", "CT2010": "24", "CB2010": "0001", "SchoolDist": null, "Council": 18, "ZipCode": 0, "FireComp": null, "PolicePrct": 0, "HealthCent": 0, "HealthArea": 0, "Sanitboro": null, "SanitDistr": null, "SanitSub": null, "Address": "TAYLOR AVENUE", "ZoneDist1": "R3-2", "ZoneDist2": null, "ZoneDist3": null, "ZoneDist4": null, "Overlay1": null, "Overlay2": null, "SPDist1": null, "SPDist2": null, "SPDist3": null, "LtdHeight": null, "SplitZone": "N", "BldgClass": "Q1", "LandUse": "09", "Easements": 0, "OwnerType": "C", "OwnerName": "NYC DEPARTMENT OF PARKS AND RECREATION", "LotArea": 375800, "BldgArea": 0, "ComArea": 0, "ResArea": 0, "OfficeArea": 0, "RetailArea": 0, "GarageArea": 0, "StrgeArea": 0, "FactryArea": 0, "OtherArea": 0, "AreaSource": "7", "NumBldgs": 0, "NumFloors": 0.0, "UnitsRes": 0, "UnitsTotal": 0, "LotFront": 278.67, "LotDepth": 259.0, "BldgFront": 0.0, "BldgDepth": 0.0, "Ext": "N", "ProxCode": "0", "IrrLotCode": "Y", "LotType": "3", "BsmtCode": "0", "AssessLand": 1836000.0, "AssessTot": 1836000.0, "ExemptTot": 1836000.0, "YearBuilt": 0, "YearAlter1": 0, "YearAlter2": 0, "HistDist": null, "Landmark": null, "BuiltFAR": 0.0, "ResidFAR": 0.75, "CommFAR": 0.0, "FacilFAR": 1.0, "BoroCode": 2, "BBL": 2034630032.0, "CondoNo": 0, "Tract2010": "0024", "XCoord": 1022340, "YCoord": 234358, "ZoneMap": "7a", "ZMCode": null, "Sanborn": "217 060", "TaxMap": "21402", "EDesigNum": null, "APPBBL": 0.0, "APPDate": null, "PLUTOMapID": "1", "FIRM07_FLA": "1", "PFIRM15_FL": "1", "Version": "25v4", "DCPEdited": "t", "Latitude": 40.8098522, "Longitude": -73.8624035, "Notes": null, "Shape_Leng": 0.0, "Shape_Area": 165838.49765500001 }, "geometry": { "type": "MultiPolygon", "coordinates": [ [ [ [ -73.861403652518547, 40.809809010311483 ], [ -73.861436477090322, 40.809822572459829 ], [ -73.861484792120805, 40.809833732875688 ], [ -73.861539856690186, 40.809843194900473 ], [ -73.861563460400205, 40.80984493152156 ], [ -73.861624150456279, 40.809851838361368 ], [ -73.861682583850737, 40.809862158027769 ], [ -73.86174326261326, 40.809875043269926 ], [ -73.861801696156832, 40.809885362876081 ], [ -73.861825292795658, 40.809890515087815 ], [ -73.861856755494969, 40.809897386732601 ], [ -73.861914063109538, 40.809909413174928 ], [ -73.861981490832136, 40.80991974347431 ], [ -73.862035433249574, 40.809927496592131 ], [ -73.862088252592983, 40.809936100245217 ], [ -73.862147823918818, 40.809939588980271 ], [ -73.862183792038124, 40.809942193937822 ], [ -73.862244482137058, 40.809949100450865 ], [ -73.862304046403722, 40.809957712909579 ], [ -73.862356860513927, 40.809967170931429 ], [ -73.862415293570805, 40.809978343051249 ], [ -73.862466985505492, 40.809987802443423 ], [ -73.86253330343574, 40.809992151778253 ], [ -73.862583874637068, 40.809999046032985 ], [ -73.862646800746148, 40.810011934317032 ], [ -73.862704115651766, 40.810020543049596 ], [ -73.862753567007985, 40.8100257248893 ], [ -73.862797415161438, 40.810023217073962 ], [ -73.862851377128365, 40.81002157126774 ], [ -73.862885091667835, 40.810026736149517 ], [ -73.862930032331448, 40.81003874828081 ], [ -73.862989574563301, 40.810057608989325 ], [ -73.863032088082164, 40.810069351319051 ], [ -73.862425696883903, 40.810547081886497 ], [ -73.861265642035193, 40.811167557687966 ], [ -73.860930038932963, 40.810937002155477 ], [ -73.860868003048083, 40.810880673877946 ], [ -73.860822996337234, 40.810810601976904 ], [ -73.860804552797916, 40.810750988155043 ], [ -73.860802689631143, 40.810680739742523 ], [ -73.860810606714452, 40.810642202422471 ], [ -73.860830533807444, 40.810593167292609 ], [ -73.861243362034287, 40.809909027632671 ], [ -73.861126317653202, 40.809869585126599 ], [ -73.861403652518547, 40.809809010311483 ] ] ] ] } },
{ "type": "Feature", "properties": { "Borough": "BX", "Block": 3492, "Lot": 1, "CD": 209, "BCT2020": "2000200", "BCTCB2020": "20002002007", "CT2010": "2", "CB2010": "2008", "SchoolDist": "08", "Council": 18, "ZipCode": 10473, "FireComp": "L054", "PolicePrct": 43, "HealthCent": 26, "HealthArea": 3030, "Sanitboro": "2", "SanitDistr": "09", "SanitSub": "1B", "Address": "199 BRONX RIVER AVENUE", "ZoneDist1": "R5", "ZoneDist2": null, "ZoneDist3": null, "ZoneDist4": null, "Overlay1": null, "Overlay2": null, "SPDist1": null, "SPDist2": null, "SPDist3": null, "LtdHeight": null, "SplitZone": "N", "BldgClass": "V0", "LandUse": "11", "Easements": 0, "OwnerType": null, "OwnerName": "ROSEDALE BUILDERS CORP.", "LotArea": 24800, "BldgArea": 0, "ComArea": 0, "ResArea": 0, "OfficeArea": 0, "RetailArea": 0, "GarageArea": 0, "StrgeArea": 0, "FactryArea": 0, "OtherArea": 0, "AreaSource": "7", "NumBldgs": 0, "NumFloors": 0.0, "UnitsRes": 0, "UnitsTotal": 0, "LotFront": 195.08, "LotDepth": 100.0, "BldgFront": 0.0, "BldgDepth": 0.0, "Ext": null, "ProxCode": "0", "IrrLotCode": "Y", "LotType": "3", "BsmtCode": "5", "AssessLand": 144900.0, "AssessTot": 144900.0, "ExemptTot": 0.0, "YearBuilt": 0, "YearAlter1": 0, "YearAlter2": 0, "HistDist": null, "Landmark": null, "BuiltFAR": 0.0, "ResidFAR": 1.5, "CommFAR": 0.0, "FacilFAR": 2.0, "BoroCode": 2, "BBL": 2034920001.0, "CondoNo": 0, "Tract2010": "0002", "XCoord": 1021699, "YCoord": 235816, "ZoneMap": "7a", "ZMCode": null, "Sanborn": "217 060", "TaxMap": "21403", "EDesigNum": null, "APPBBL": 0.0, "APPDate": null, "PLUTOMapID": "1", "FIRM07_FLA": null, "PFIRM15_FL": null, "Version": "25v4", "DCPEdited": null, "Latitude": 40.8138568, "Longitude": -73.8647109, "Notes": null, "Shape_Leng": 0.0, "Shape_Area": 25146.385187700002 }, "geometry": { "type": "MultiPolygon", "coordinates": [ [ [ [ -73.864603864404415, 40.814140652948218 ], [ -73.864590994773181, 40.814086615031087 ], [ -73.864578104001964, 40.814032478955504 ], [ -73.864565508242663, 40.813979587660405 ], [ -73.864552364864196, 40.813924393242139 ], [ -73.864539695126751, 40.813871189388223 ], [ -73.864526823190531, 40.813817145185695 ], [ -73.864508831027962, 40.813741583756439 ], [ -73.864490822521617, 40.813665957551827 ], [ -73.864478098725627, 40.813612527576424 ], [ -73.864465027220803, 40.813557635742782 ], [ -73.864452413963107, 40.81350466610435 ], [ -73.864439194336057, 40.8134491563507 ], [ -73.864429042002314, 40.813406514778698 ], [ -73.864857248772296, 40.813645664006494 ], [ -73.864982943491071, 40.814173480842008 ], [ -73.864878275452185, 40.814187574254447 ], [ -73.864809741170873, 40.814196803197945 ], [ -73.864735601557911, 40.814206785564579 ], [ -73.864665857973222, 40.814216175972483 ], [ -73.864623216530561, 40.814221917852016 ], [ -73.864603864404415, 40.814140652948218 ] ] ] ] } },
{ "type": "Feature", "properties": { "Borough": "BX", "Block": 3492, "Lot": 61, "CD": 209, "BCT2020": "2000200", "BCTCB2020": "20002002006", "CT2010": "2", "CB2010": "2007", "SchoolDist": "08", "Council": 18, "ZipCode": 10473, "FireComp": "L054", "PolicePrct": 43, "HealthCent": 26, "HealthArea": 3030, "Sanitboro": "2", "SanitDistr": "09", "SanitSub": "1B", "Address": "465 COMMONWEALTH AVENUE", "ZoneDist1": "R5", "ZoneDist2": null, "ZoneDist3": null, "ZoneDist4": null, "Overlay1": null, "Overlay2": null, "SPDist1": null, "SPDist2": null, "SPDist3": null, "LtdHeight": null, "SplitZone": "N", "BldgClass": "C0", "LandUse": "02", "Easements": 0, "OwnerType": null, "OwnerName": "WASHINGTON, LLOYD", "LotArea": 1975, "BldgArea": 2730, "ComArea": 0, "ResArea": 2730, "OfficeArea": 0, "RetailArea": 0, "GarageArea": 0, "StrgeArea": 0, "FactryArea": 0, "OtherArea": 0, "AreaSource": "2", "NumBldgs": 1, "NumFloors": 3.0, "UnitsRes": 3, "UnitsTotal": 3, "LotFront": 19.75, "LotDepth": 100.0, "BldgFront": 19.75, "BldgDepth": 50.0, "Ext": "G", "ProxCode": "3", "IrrLotCode": "N", "LotType": "5", "BsmtCode": "5", "AssessLand": 9420.0, "AssessTot": 59340.0, "ExemptTot": 0.0, "YearBuilt": 1975, "YearAlter1": 0, "YearAlter2": 0, "HistDist": null, "Landmark": null, "BuiltFAR": 1.38, "ResidFAR": 1.5, "CommFAR": 0.0, "FacilFAR": 2.0, "BoroCode": 2, "BBL": 2034920061.0000002, "CondoNo": 0, "Tract2010": "0002", "XCoord": 1021820, "YCoord": 235686, "ZoneMap": "7a", "ZMCode": null, "Sanborn": "217 060", "TaxMap": "21403", "EDesigNum": null, "APPBBL": 0.0, "APPDate": null, "PLUTOMapID": "1", "FIRM07_FLA": null, "PFIRM15_FL": null, "Version": "25v4", "DCPEdited": null, "Latitude": 40.8134995, "Longitude": -73.8642745, "Notes": null, "Shape_Leng": 0.0, "Shape_Area": 2020.0600724000001 }, "geometry": { "type": "MultiPolygon", "coordinates": [ [ [ [ -73.864089567111407, 40.813496232992861 ], [ -73.864439194336057, 40.8134491563507 ], [ -73.864452413963107, 40.81350466610435 ], [ -73.864102785243375, 40.813551742784689 ], [ -73.864089567111407, 40.813496232992861 ] ] ] ] } },
{ "type": "Feature", "properties": { "Borough": "BX", "Block": 3492, "Lot": 62, "CD": 209, "BCT2020": "2000200", "BCTCB2020": "20002002006", "CT2010": "2", "CB2010": "2007", "SchoolDist": "08", "Council": 18, "ZipCode": 10473, "FireComp": "L054", "PolicePrct": 43, "HealthCent": 26, "HealthArea": 3030, "Sanitboro": "2", "SanitDistr": "09", "SanitSub": "1B", "Address": "463 COMMONWEALTH AVENUE", "ZoneDist1": "R5", "ZoneDist2": null, "ZoneDist3": null, "ZoneDist4": null, "Overlay1": null, "Overlay2": null, "SPDist1": null, "SPDist2": null, "SPDist3": null, "LtdHeight": null, "SplitZone": "N", "BldgClass": "C0", "LandUse": "02", "Easements": 0, "OwnerType": null, "OwnerName": "TREVOR C. MARULAZ", "LotArea": 2000, "BldgArea": 2730, "ComArea": 0, "ResArea": 2730, "OfficeArea": 0, "RetailArea": 0, "GarageArea": 0, "StrgeArea": 0, "FactryArea": 0, "OtherArea": 0, "AreaSource": "2", "NumBldgs": 1, "NumFloors": 3.0, "UnitsRes": 3, "UnitsTotal": 3, "LotFront": 19.75, "LotDepth": 100.0, "BldgFront": 19.75, "BldgDepth": 50.0, "Ext": "G", "ProxCode": "3", "IrrLotCode": "Y", "LotType": "5", "BsmtCode": "5", "AssessLand": 9360.0, "AssessTot": 60060.0, "ExemptTot": 1420.0, "YearBuilt": 1975, "YearAlter1": 0, "YearAlter2": 0, "HistDist": null, "Landmark": null, "BuiltFAR": 1.37, "ResidFAR": 1.5, "CommFAR": 0.0, "FacilFAR": 2.0, "BoroCode": 2, "BBL": 2034920061.9999998, "CondoNo": 0, "Tract2010": "0002", "XCoord": 1021824, "YCoord": 235666, "ZoneMap": "7a", "ZMCode": null, "Sanborn": "217 060", "TaxMap": "21403", "EDesigNum": null, "APPBBL": 0.0, "APPDate": null, "PLUTOMapID": "1", "FIRM07_FLA": null, "PFIRM15_FL": null, "Version": "25v4", "DCPEdited": null, "Latitude": 40.8134445, "Longitude": -73.8642601, "Notes": null, "Shape_Leng": 0.0, "Shape_Area": 1922.6255869 }, "geometry": { "type": "MultiPolygon", "coordinates": [ [ [ [ -73.864076901313297, 40.813443046238952 ], [ -73.864318059860594, 40.813410908128851 ], [ -73.864413340154726, 40.813397747014044 ], [ -73.864429042002314, 40.813406514778698 ], [ -73.864439194336057, 40.8134491563507 ], [ -73.864089567111407, 40.813496232992861 ], [ -73.864076901313297, 40.813443046238952 ] ] ] ] } },
{ "type": "Feature", "properties": { "Borough": "BX", "Block": 3491, "Lot": 1, "CD": 209, "BCT2020": "2002400", "BCTCB2020": "20024001009", "CT2010": "2", "CB2010": "2007", "SchoolDist": "08", "Council": 18, "ZipCode": 10473, "FireComp": "L054", "PolicePrct": 43, "HealthCent": 26, "HealthArea": 3030, "Sanitboro": "2", "SanitDistr": "09", "SanitSub": "1B", "Address": "1720 LACOMBE AVENUE", "ZoneDist1": "R5", "ZoneDist2": null, "ZoneDist3": null, "ZoneDist4": null, "Overlay1": null, "Overlay2": null, "SPDist1": null, "SPDist2": null, "SPDist3": null, "LtdHeight": null, "SplitZone": "N", "BldgClass": "V0", "LandUse": "11", "Easements": 0, "OwnerType": "C", "OwnerName": "NYC DEPARTMENT OF PARKS AND RECREATION", "LotArea": 19600, "BldgArea": 0, "ComArea": 0, "ResArea": 0, "OfficeArea": 0, "RetailArea": 0, "GarageArea": 0, "StrgeArea": 0, "FactryArea": 0, "OtherArea": 0, "AreaSource": "7", "NumBldgs": 0, "NumFloors": 0.0, "UnitsRes": 0, "UnitsTotal": 0, "LotFront": 200.0, "LotDepth": 195.0, "BldgFront": 0.0, "BldgDepth": 0.0, "Ext": null, "ProxCode": "0", "IrrLotCode": "Y", "LotType": "3", "BsmtCode": "5", "AssessLand": 92040.0, "AssessTot": 92040.0, "ExemptTot": 92040.0, "YearBuilt": 0, "YearAlter1": 0, "YearAlter2": 0, "HistDist": null, "Landmark": null, "BuiltFAR": 0.0, "ResidFAR": 1.5, "CommFAR": 0.0, "FacilFAR": 2.0, "BoroCode": 2, "BBL": 2034910001.0, "CondoNo": 0, "Tract2010": "0002", "XCoord": 1021471, "YCoord": 235935, "ZoneMap": "7a", "ZMCode": null, "Sanborn": "217 060", "TaxMap": "21403", "EDesigNum": null, "APPBBL": 0.0, "APPDate": null, "PLUTOMapID": "1", "FIRM07_FLA": null, "PFIRM15_FL": null, "Version": "25v4", "DCPEdited": "t", "Latitude": 40.8141844, "Longitude": -73.8655339, "Notes": null, "Shape_Leng": 0.0, "Shape_Area": 20676.411595900001 }, "geometry": { "type": "MultiPolygon", "coordinates": [ [ [ [ -73.865208714621389, 40.813841949914689 ], [ -73.865273862313302, 40.813878334287082 ], [ -73.865984543843055, 40.814275227643016 ], [ -73.866049469763809, 40.814311487917934 ], [ -73.865993326242446, 40.814318873314875 ], [ -73.865342674568268, 40.814404469601946 ], [ -73.86521937174237, 40.813886704658401 ], [ -73.865208714621389, 40.813841949914689 ] ] ] ] } },
{ "type": "Feature", "properties": { "Borough": "BX", "Block": 3492, "Lot": 42, "CD": 209, "BCT2020": "2000200", "BCTCB2020": "20002002006", "CT2010": "2", "CB2010": "2007", "SchoolDist": "08", "Council": 18, "ZipCode": 10473, "FireComp": "L054", "PolicePrct": 43, "HealthCent": 26, "HealthArea": 3030, "Sanitboro": "2", "SanitDistr": "09", "SanitSub": "1B", "Address": "1744 LACOMBE AVENUE", "ZoneDist1": "R5", "ZoneDist2": null, "ZoneDist3": null, "ZoneDist4": null, "Overlay1": null, "Overlay2": null, "SPDist1": null, "SPDist2": null, "SPDist3": null, "LtdHeight": null, "SplitZone": "N", "BldgClass": "C0", "LandUse": "02", "Easements": 0, "OwnerType": null, "OwnerName": "BOODRAM, JOEY", "LotArea": 1975, "BldgArea": 2970, "ComArea": 0, "ResArea": 2970, "OfficeArea": 0, "RetailArea": 0, "GarageArea": 0, "StrgeArea": 0, "FactryArea": 0, "OtherArea": 0, "AreaSource": "2", "NumBldgs": 1, "NumFloors": 3.0, "UnitsRes": 3, "UnitsTotal": 3, "LotFront": 19.75, "LotDepth": 100.0, "BldgFront": 19.75, "BldgDepth": 50.0, "Ext": "N", "ProxCode": "3", "IrrLotCode": "N", "LotType": "5", "BsmtCode": "5", "AssessLand": 10440.0, "AssessTot": 61740.0, "ExemptTot": 1420.0, "YearBuilt": 1975, "YearAlter1": 0, "YearAlter2": 0, "HistDist": null, "Landmark": null, "BuiltFAR": 1.5, "ResidFAR": 1.5, "CommFAR": 0.0, "FacilFAR": 2.0, "BoroCode": 2, "BBL": 2034920042.0, "CondoNo": 0, "Tract2010": "0002", "XCoord": 1021672, "YCoord": 235993, "ZoneMap": "7a", "ZMCode": null, "Sanborn": "217 060", "TaxMap": "21403", "EDesigNum": null, "APPBBL": 0.0, "APPDate": null, "PLUTOMapID": "1", "FIRM07_FLA": null, "PFIRM15_FL": null, "Version": "25v4", "DCPEdited": null, "Latitude": 40.8143427, "Longitude": -73.8648074, "Notes": null, "Shape_Leng": 0.0, "Shape_Area": 2176.3340388000001 }, "geometry": { "type": "MultiPolygon", "coordinates": [ [ [ [ -73.864735601557911, 40.814206785564579 ], [ -73.864809741170873, 40.814196803197945 ], [ -73.864876902916151, 40.814478827559938 ], [ -73.864802761675861, 40.814488810887752 ], [ -73.864735601557911, 40.814206785564579 ] ] ] ] } },
{ "type": "Feature", "properties": { "Borough": "BX", "Block": 3492, "Lot": 43, "CD": 209, "BCT2020": "2000200", "BCTCB2020": "20002002006", "CT2010": "2", "CB2010": "2007", "SchoolDist": "08", "Council": 18, "ZipCode": 10473, "FireComp": "L054", "PolicePrct": 43, "HealthCent": 26, "HealthArea": 3030, "Sanitboro": "2", "SanitDistr": "09", "SanitSub": "1B", "Address": "1746 LACOMBE AVENUE", "ZoneDist1": "R5", "ZoneDist2": null, "ZoneDist3": null, "ZoneDist4": null, "Overlay1": null, "Overlay2": null, "SPDist1": null, "SPDist2": null, "SPDist3": null, "LtdHeight": null, "SplitZone": "N", "BldgClass": "B1", "LandUse": "01", "Easements": 0, "OwnerType": null, "OwnerName": "KOWNINE, MOHAMMAD S", "LotArea": 1975, "BldgArea": 2745, "ComArea": 0, "ResArea": 2745, "OfficeArea": 0, "RetailArea": 0, "GarageArea": 0, "StrgeArea": 0, "FactryArea": 0, "OtherArea": 0, "AreaSource": "2", "NumBldgs": 1, "NumFloors": 3.0, "UnitsRes": 2, "UnitsTotal": 2, "LotFront": 19.75, "LotDepth": 100.0, "BldgFront": 19.75, "BldgDepth": 50.0, "Ext": "G", "ProxCode": "3", "IrrLotCode": "N", "LotType": "5", "BsmtCode": "5", "AssessLand": 10320.0, "AssessTot": 56820.0, "ExemptTot": 0.0, "YearBuilt": 1975, "YearAlter1": 0, "YearAlter2": 0, "HistDist": null, "Landmark": null, "BuiltFAR": 1.39, "ResidFAR": 1.5, "CommFAR": 0.0, "FacilFAR": 2.0, "BoroCode": 2, "BBL": 2034920043.0, "CondoNo": 0, "Tract2010": "0002", "XCoord": 1021692, "YCoord": 235996, "ZoneMap": "7a", "ZMCode": null, "Sanborn": "217 060", "TaxMap": "21403", "EDesigNum": null, "APPBBL": 0.0, "APPDate": null, "PLUTOMapID": "1", "FIRM07_FLA": null, "PFIRM15_FL": null, "Version": "25v4", "DCPEdited": null, "Latitude": 40.8143509, "Longitude": -73.8647352, "Notes": null, "Shape_Leng": 0.0, "Shape_Area": 2047.2565401 }, "geometry": { "type": "MultiPolygon", "coordinates": [ [ [ [ -73.864665857973222, 40.814216175972483 ], [ -73.864735601557911, 40.814206785564579 ], [ -73.864802761675861, 40.814488810887752 ], [ -73.864733019016043, 40.814498201337194 ], [ -73.864665857973222, 40.814216175972483 ] ] ] ] } },
{ "type": "Feature", "properties": { "Borough": "BX", "Block": 3492, "Lot": 44, "CD": 209, "BCT2020": "2000200", "BCTCB2020": "20002002006", "CT2010": "2", "CB2010": "2007", "SchoolDist": "08", "Council": 18, "ZipCode": 10473, "FireComp": "L054", "PolicePrct": 43, "HealthCent": 26, "HealthArea": 3030, "Sanitboro": "2", "SanitDistr": "09", "SanitSub": "1B", "Address": "1748 LACOMBE AVENUE", "ZoneDist1": "R5", "ZoneDist2": null, "ZoneDist3": null, "ZoneDist4": null, "Overlay1": null, "Overlay2": null, "SPDist1": null, "SPDist2": null, "SPDist3": null, "LtdHeight": null, "SplitZone": "N", "BldgClass": "C0", "LandUse": "02", "Easements": 0, "OwnerType": null, "OwnerName": "LOPEZ, ABDON ANTHONY", "LotArea": 1975, "BldgArea": 2745, "ComArea": 0, "ResArea": 2745, "OfficeArea": 0, "RetailArea": 0, "GarageArea": 0, "StrgeArea": 0, "FactryArea": 0, "OtherArea": 0, "AreaSource": "2", "NumBldgs": 1, "NumFloors": 3.0, "UnitsRes": 3, "UnitsTotal": 3, "LotFront": 19.75, "LotDepth": 100.0, "BldgFront": 19.75, "BldgDepth": 50.0, "Ext": "G", "ProxCode": "3", "IrrLotCode": "N", "LotType": "5", "BsmtCode": "5", "AssessLand": 10320.0, "AssessTot": 59640.0, "ExemptTot": 12480.0, "YearBuilt": 1975, "YearAlter1": 0, "YearAlter2": 0, "HistDist": null, "Landmark": null, "BuiltFAR": 1.39, "ResidFAR": 1.5, "CommFAR": 0.0, "FacilFAR": 2.0, "BoroCode": 2, "BBL": 2034920044.0, "CondoNo": 0, "Tract2010": "0002", "XCoord": 1021712, "YCoord": 236000, "ZoneMap": "7a", "ZMCode": null, "Sanborn": "217 060", "TaxMap": "21403", "EDesigNum": null, "APPBBL": 0.0, "APPDate": null, "PLUTOMapID": "1", "FIRM07_FLA": null, "PFIRM15_FL": null, "Version": "25v4", "DCPEdited": null, "Latitude": 40.8143618, "Longitude": -73.8646629, "Notes": null, "Shape_Leng": 0.0, "Shape_Area": 2260.6126223000001 }, "geometry": { "type": "MultiPolygon", "coordinates": [ [ [ [ -73.864588846760171, 40.81422654564431 ], [ -73.864623216530561, 40.814221917852016 ], [ -73.864665857973222, 40.814216175972483 ], [ -73.864733019016043, 40.814498201337194 ], [ -73.864656007595556, 40.814508571052151 ], [ -73.864588846760171, 40.81422654564431 ] ] ] ] } },
{ "type": "Feature", "properties": { "Borough": "BX", "Block": 3492, "Lot": 49, "CD": 209, "BCT2020": "2000200", "BCTCB2020": "20002002006", "CT2010": "2", "CB2010": "2007", "SchoolDist": "08", "Council": 18, "ZipCode": 10473, "FireComp": "L054", "PolicePrct": 43, "HealthCent": 26, "HealthArea": 3030, "Sanitboro": "2", "SanitDistr": "09", "SanitSub": "1B", "Address": "489 COMMONWEALTH AVENUE", "ZoneDist1": "R5", "ZoneDist2": null, "ZoneDist3": null, "ZoneDist4": null, "Overlay1": null, "Overlay2": null, "SPDist1": null, "SPDist2": null, "SPDist3": null, "LtdHeight": null, "SplitZone": "N", "BldgClass": "B1", "LandUse": "01", "Easements": 0, "OwnerType": null, "OwnerName": "ANITA J KENDALL", "LotArea": 2817, "BldgArea": 2780, "ComArea": 0, "ResArea": 2780, "OfficeArea": 0, "RetailArea": 0, "GarageArea": 0, "StrgeArea": 0, "FactryArea": 0, "OtherArea": 0, "AreaSource": "2", "NumBldgs": 1, "NumFloors": 3.0, "UnitsRes": 2, "UnitsTotal": 2, "LotFront": 28.17, "LotDepth": 100.0, "BldgFront": 20.25, "BldgDepth": 50.0, "Ext": "G", "ProxCode": "2", "IrrLotCode": "N", "LotType": "5", "BsmtCode": "5", "AssessLand": 10020.0, "AssessTot": 59340.0, "ExemptTot": 4080.0, "YearBuilt": 1975, "YearAlter1": 0, "YearAlter2": 0, "HistDist": null, "Landmark": null, "BuiltFAR": 0.99, "ResidFAR": 1.5, "CommFAR": 0.0, "FacilFAR": 2.0, "BoroCode": 2, "BBL": 2034920049.0, "CondoNo": 0, "Tract2010": "0002", "XCoord": 1021774, "YCoord": 235943, "ZoneMap": "7a", "ZMCode": null, "Sanborn": "217 060", "TaxMap": "21403", "EDesigNum": null, "APPBBL": 0.0, "APPDate": null, "PLUTOMapID": "1", "FIRM07_FLA": null, "PFIRM15_FL": null, "Version": "25v4", "DCPEdited": null, "Latitude": 40.814205, "Longitude": -73.8644392, "Notes": null, "Shape_Leng": 0.0, "Shape_Area": 2957.3252847 }, "geometry": { "type": "MultiPolygon", "coordinates": [ [ [ [ -73.864254232453419, 40.814187729162022 ], [ -73.864603864404415, 40.814140652948218 ], [ -73.864623216530561, 40.814221917852016 ], [ -73.864588846760171, 40.81422654564431 ], [ -73.864524165555366, 40.814235254821924 ], [ -73.86445308102212, 40.814244825483193 ], [ -73.864385450023747, 40.814253931841129 ], [ -73.864273582953146, 40.814268995126177 ], [ -73.864254232453419, 40.814187729162022 ] ] ] ] } },
{ "type": "Feature", "properties": { "Borough": "BX", "Block": 3492, "Lot": 50, "CD": 209, "BCT2020": "2000200", "BCTCB2020": "20002002006", "CT2010": "2", "CB2010": "2007", "SchoolDist": "08", "Council": 18, "ZipCode": 10473, "FireComp": "L054", "PolicePrct": 43, "HealthCent": 26, "HealthArea": 3030, "Sanitboro": "2", "SanitDistr": "09", "SanitSub": "1B", "Address": "487 COMMONWEALTH AVENUE", "ZoneDist1": "R5", "ZoneDist2": null, "ZoneDist3": null, "ZoneDist4": null, "Overlay1": null, "Overlay2": null, "SPDist1": null, "SPDist2": null, "SPDist3": null, "LtdHeight": null, "SplitZone": "N", "BldgClass": "B1", "LandUse": "01", "Easements": 0, "OwnerType": null, "OwnerName": "VELAZQUEZ, HELENE", "LotArea": 1975, "BldgArea": 2745, "ComArea": 0, "ResArea": 2745, "OfficeArea": 0, "RetailArea": 0, "GarageArea": 0, "StrgeArea": 0, "FactryArea": 0, "OtherArea": 0, "AreaSource": "2", "NumBldgs": 1, "NumFloors": 3.0, "UnitsRes": 2, "UnitsTotal": 2, "LotFront": 19.75, "LotDepth": 100.0, "BldgFront": 19.75, "BldgDepth": 50.0, "Ext": "G", "ProxCode": "3", "IrrLotCode": "N", "LotType": "5", "BsmtCode": "5", "AssessLand": 10440.0, "AssessTot": 56820.0, "ExemptTot": 0.0, "YearBuilt": 1975, "YearAlter1": 0, "YearAlter2": 0, "HistDist": null, "Landmark": null, "BuiltFAR": 1.39, "ResidFAR": 1.5, "CommFAR": 0.0, "FacilFAR": 2.0, "BoroCode": 2, "BBL": 2034920050.0000002, "CondoNo": 0, "Tract2010": "0002", "XCoord": 1021778, "YCoord": 235918, "ZoneMap": "7a", "ZMCode": null, "Sanborn": "217 060", "TaxMap": "21403", "EDesigNum": null, "APPBBL": 0.0, "APPDate": null, "PLUTOMapID": "1", "FIRM07_FLA": null, "PFIRM15_FL": null, "Version": "25v4", "DCPEdited": null, "Latitude": 40.8141364, "Longitude": -73.8644249, "Notes": null, "Shape_Leng": 0.0, "Shape_Area": 1966.4835848 }, "geometry": { "type": "MultiPolygon", "coordinates": [ [ [ [ -73.864241364306181, 40.814133692129168 ], [ -73.864590994773181, 40.814086615031087 ], [ -73.864603864404415, 40.814140652948218 ], [ -73.864254232453419, 40.814187729162022 ], [ -73.864241364306181, 40.814133692129168 ] ] ] ] } },
{ "type": "Feature", "properties": { "Borough": "BX", "Block": 3492, "Lot": 51, "CD": 209, "BCT2020": "2000200", "BCTCB2020": "20002002006", "CT2010": "2", "CB2010": "2007", "SchoolDist": "08", "Council": 18, "ZipCode": 10473, "FireComp": "L054", "PolicePrct": 43, "HealthCent": 26, "HealthArea": 3030, "Sanitboro": "2", "SanitDistr": "09", "SanitSub": "1B", "Address": "485 COMMONWEALTH AVENUE", "ZoneDist1": "R5", "ZoneDist2": null, "ZoneDist3": null, "ZoneDist4": null, "Overlay1": null, "Overlay2": null, "SPDist1": null, "SPDist2": null, "SPDist3": null, "LtdHeight": null, "SplitZone": "N", "BldgClass": "C0", "LandUse": "02", "Easements": 0, "OwnerType": null, "OwnerName": "CHOUDHURY, MOHAMMED SELIM RASHID", "LotArea": 1975, "BldgArea": 2650, "ComArea": 0, "ResArea": 2650, "OfficeArea": 0, "RetailArea": 0, "GarageArea": 0, "StrgeArea": 0, "FactryArea": 0, "OtherArea": 0, "AreaSource": "2", "NumBldgs": 1, "NumFloors": 3.0, "UnitsRes": 3, "UnitsTotal": 3, "LotFront": 19.75, "LotDepth": 100.0, "BldgFront": 19.75, "BldgDepth": 50.0, "Ext": "G", "ProxCode": "3", "IrrLotCode": "N", "LotType": "5", "BsmtCode": "2", "AssessLand": 10020.0, "AssessTot": 60120.0, "ExemptTot": 0.0, "YearBuilt": 1975, "YearAlter1": 0, "YearAlter2": 0, "HistDist": null, "Landmark": null, "BuiltFAR": 1.34, "ResidFAR": 1.5, "CommFAR": 0.0, "FacilFAR": 2.0, "BoroCode": 2, "BBL": 2034920050.9999998, "CondoNo": 0, "Tract2010": "0002", "XCoord": 1021782, "YCoord": 235898, "ZoneMap": "7a", "ZMCode": null, "Sanborn": "217 060", "TaxMap": "21403", "EDesigNum": null, "APPBBL": 0.0, "APPDate": null, "PLUTOMapID": "1", "FIRM07_FLA": null, "PFIRM15_FL": null, "Version": "25v4", "DCPEdited": null, "Latitude": 40.8140815, "Longitude": -73.8644106, "Notes": null, "Shape_Leng": 0.0, "Shape_Area": 1970.0679115 }, "geometry": { "type": "MultiPolygon", "coordinates": [ [ [ [ -73.864228472599308, 40.814079556013553 ], [ -73.864578104001964, 40.814032478955504 ], [ -73.864590994773181, 40.814086615031087 ], [ -73.864241364306181, 40.814133692129168 ], [ -73.864228472599308, 40.814079556013553 ] ] ] ] } },
{ "type": "Feature", "properties": { "Borough": "BX", "Block": 3492, "Lot": 52, "CD": 209, "BCT2020": "2000200", "BCTCB2020": "20002002006", "CT2010": "2", "CB2010": "2007", "SchoolDist": "08", "Council": 18, "ZipCode": 10473, "FireComp": "L054", "PolicePrct": 43, "HealthCent": 26, "HealthArea": 3030, "Sanitboro": "2", "SanitDistr": "09", "SanitSub": "1B", "Address": "483 COMMONWEALTH AVENUE", "ZoneDist1": "R5", "ZoneDist2": null, "ZoneDist3": null, "ZoneDist4": null, "Overlay1": null, "Overlay2": null, "SPDist1": null, "SPDist2": null, "SPDist3": null, "LtdHeight": null, "SplitZone": "N", "BldgClass": "B1", "LandUse": "01", "Easements": 0, "OwnerType": null, "OwnerName": "UGIAGBE, NOSA", "LotArea": 1975, "BldgArea": 2745, "ComArea": 0, "ResArea": 2745, "OfficeArea": 0, "RetailArea": 0, "GarageArea": 0, "StrgeArea": 0, "FactryArea": 0, "OtherArea": 0, "AreaSource": "2", "NumBldgs": 1, "NumFloors": 3.0, "UnitsRes": 2, "UnitsTotal": 2, "LotFront": 19.75, "LotDepth": 100.0, "BldgFront": 19.75, "BldgDepth": 50.0, "Ext": "G", "ProxCode": "3", "IrrLotCode": "N", "LotType": "5", "BsmtCode": "5", "AssessLand": 10440.0, "AssessTot": 56820.0, "ExemptTot": 0.0, "YearBuilt": 1975, "YearAlter1": 0, "YearAlter2": 0, "HistDist": null, "Landmark": null, "BuiltFAR": 1.39, "ResidFAR": 1.5, "CommFAR": 0.0, "FacilFAR": 2.0, "BoroCode": 2, "BBL": 2034920052.0, "CondoNo": 0, "Tract2010": "0002", "XCoord": 1021785, "YCoord": 235879, "ZoneMap": "7a", "ZMCode": null, "Sanborn": "217 060", "TaxMap": "21403", "EDesigNum": null, "APPBBL": 0.0, "APPDate": null, "PLUTOMapID": "1", "FIRM07_FLA": null, "PFIRM15_FL": null, "Version": "25v4", "DCPEdited": null, "Latitude": 40.8140293, "Longitude": -73.8643998, "Notes": null, "Shape_Leng": 0.0, "Shape_Area": 1924.7895899 }, "geometry": { "type": "MultiPolygon", "coordinates": [ [ [ [ -73.864565508242663, 40.813979587660405 ], [ -73.864578104001964, 40.814032478955504 ], [ -73.864228472599308, 40.814079556013553 ], [ -73.864215877109018, 40.814026663843102 ], [ -73.864565508242663, 40.813979587660405 ] ] ] ] } },
{ "type": "Feature", "properties": { "Borough": "BX", "Block": 3492, "Lot": 53, "CD": 209, "BCT2020": "2000200", "BCTCB2020": "20002002006", "CT2010": "2", "CB2010": "2007", "SchoolDist": "08", "Council": 18, "ZipCode": 10473, "FireComp": "L054", "PolicePrct": 43, "HealthCent": 26, "HealthArea": 3030, "Sanitboro": "2", "SanitDistr": "09", "SanitSub": "1B", "Address": "481 COMMONWEALTH AVENUE", "ZoneDist1": "R5", "ZoneDist2": null, "ZoneDist3": null, "ZoneDist4": null, "Overlay1": null, "Overlay2": null, "SPDist1": null, "SPDist2": null, "SPDist3": null, "LtdHeight": null, "SplitZone": "N", "BldgClass": "B1", "LandUse": "01", "Easements": 0, "OwnerType": null, "OwnerName": "WALTERS, SEAN", "LotArea": 1975, "BldgArea": 2745, "ComArea": 0, "ResArea": 2745, "OfficeArea": 0, "RetailArea": 0, "GarageArea": 0, "StrgeArea": 0, "FactryArea": 0, "OtherArea": 0, "AreaSource": "2", "NumBldgs": 1, "NumFloors": 3.0, "UnitsRes": 2, "UnitsTotal": 2, "LotFront": 19.75, "LotDepth": 100.0, "BldgFront": 19.75, "BldgDepth": 50.0, "Ext": "G", "ProxCode": "3", "IrrLotCode": "N", "LotType": "5", "BsmtCode": "5", "AssessLand": 10440.0, "AssessTot": 56820.0, "ExemptTot": 0.0, "YearBuilt": 1975, "YearAlter1": 0, "YearAlter2": 0, "HistDist": null, "Landmark": null, "BuiltFAR": 1.39, "ResidFAR": 1.5, "CommFAR": 0.0, "FacilFAR": 2.0, "BoroCode": 2, "BBL": 2034920053.0, "CondoNo": 0, "Tract2010": "0002", "XCoord": 1021789, "YCoord": 235859, "ZoneMap": "7a", "ZMCode": null, "Sanborn": "217 060", "TaxMap": "21403", "EDesigNum": null, "APPBBL": 0.0, "APPDate": null, "PLUTOMapID": "1", "FIRM07_FLA": null, "PFIRM15_FL": null, "Version": "25v4", "DCPEdited": null, "Latitude": 40.8139744, "Longitude": -73.8643855, "Notes": null, "Shape_Leng": 0.0, "Shape_Area": 2008.6011736 }, "geometry": { "type": "MultiPolygon", "coordinates": [ [ [ [ -73.864552364864196, 40.813924393242139 ], [ -73.864565508242663, 40.813979587660405 ], [ -73.864215877109018, 40.814026663843102 ], [ -73.864202734015066, 40.813971468381652 ], [ -73.864552364864196, 40.813924393242139 ] ] ] ] } },
{ "type": "Feature", "properties": { "Borough": "BX", "Block": 3492, "Lot": 54, "CD": 209, "BCT2020": "2000200", "BCTCB2020": "20002002006", "CT2010": "2", "CB2010": "2007", "SchoolDist": "08", "Council": 18, "ZipCode": 10473, "FireComp": "L054", "PolicePrct": 43, "HealthCent": 26, "HealthArea": 3030, "Sanitboro": "2", "SanitDistr": "09", "SanitSub": "1B", "Address": "479 COMMONWEALTH AVENUE", "ZoneDist1": "R5", "ZoneDist2": null, "ZoneDist3": null, "ZoneDist4": null, "Overlay1": null, "Overlay2": null, "SPDist1": null, "SPDist2": null, "SPDist3": null, "LtdHeight": null, "SplitZone": "N", "BldgClass": "C0", "LandUse": "02", "Easements": 0, "OwnerType": null, "OwnerName": "AZEEZ, ADISA K.", "LotArea": 1975, "BldgArea": 2745, "ComArea": 0, "ResArea": 2745, "OfficeArea": 0, "RetailArea": 0, "GarageArea": 0, "StrgeArea": 0, "FactryArea": 0, "OtherArea": 0, "AreaSource": "2", "NumBldgs": 1, "NumFloors": 3.0, "UnitsRes": 3, "UnitsTotal": 3, "LotFront": 19.75, "LotDepth": 100.0, "BldgFront": 19.8, "BldgDepth": 50.0, "Ext": "G", "ProxCode": "3", "IrrLotCode": "N", "LotType": "5", "BsmtCode": "5", "AssessLand": 10380.0, "AssessTot": 59640.0, "ExemptTot": 0.0, "YearBuilt": 1975, "YearAlter1": 0, "YearAlter2": 0, "HistDist": null, "Landmark": null, "BuiltFAR": 1.39, "ResidFAR": 1.5, "CommFAR": 0.0, "FacilFAR": 2.0, "BoroCode": 2, "BBL": 2034920054.0, "CondoNo": 0, "Tract2010": "0002", "XCoord": 1021792, "YCoord": 235839, "ZoneMap": "7a", "ZMCode": null, "Sanborn": "217 060", "TaxMap": "21403", "EDesigNum": null, "APPBBL": 0.0, "APPDate": null, "PLUTOMapID": "1", "FIRM07_FLA": null, "PFIRM15_FL": null, "Version": "25v4", "DCPEdited": null, "Latitude": 40.8139195, "Longitude": -73.8643748, "Notes": null, "Shape_Leng": 0.0, "Shape_Area": 1936.1139287000001 }, "geometry": { "type": "MultiPolygon", "coordinates": [ [ [ [ -73.864539695126751, 40.813871189388223 ], [ -73.864552364864196, 40.813924393242139 ], [ -73.864202734015066, 40.813971468381652 ], [ -73.864190064542768, 40.813918266329928 ], [ -73.864539695126751, 40.813871189388223 ] ] ] ] } },
{ "type": "Feature", "properties": { "Borough": "BX", "Block": 3492, "Lot": 55, "CD": 209, "BCT2020": "2000200", "BCTCB2020": "20002002006", "CT2010": "2", "CB2010": "2007", "SchoolDist": "08", "Council": 18, "ZipCode": 10473, "FireComp": "L054", "PolicePrct": 43, "HealthCent": 26, "HealthArea": 3030, "Sanitboro": "2", "SanitDistr": "09", "SanitSub": "1B", "Address": "477 COMMONWEALTH AVENUE", "ZoneDist1": "R5", "ZoneDist2": null, "ZoneDist3": null, "ZoneDist4": null, "Overlay1": null, "Overlay2": null, "SPDist1": null, "SPDist2": null, "SPDist3": null, "LtdHeight": null, "SplitZone": "N", "BldgClass": "B1", "LandUse": "01", "Easements": 0, "OwnerType": null, "OwnerName": "MARTINEZ , GABRIEL R", "LotArea": 1975, "BldgArea": 2745, "ComArea": 0, "ResArea": 2745, "OfficeArea": 0, "RetailArea": 0, "GarageArea": 0, "StrgeArea": 0, "FactryArea": 0, "OtherArea": 0, "AreaSource": "2", "NumBldgs": 1, "NumFloors": 3.0, "UnitsRes": 2, "UnitsTotal": 2, "LotFront": 19.75, "LotDepth": 100.0, "BldgFront": 19.75, "BldgDepth": 50.0, "Ext": "G", "ProxCode": "3", "IrrLotCode": "N", "LotType": "5", "BsmtCode": "5", "AssessLand": 10440.0, "AssessTot": 56820.0, "ExemptTot": 0.0, "YearBuilt": 1975, "YearAlter1": 0, "YearAlter2": 0, "HistDist": null, "Landmark": null, "BuiltFAR": 1.39, "ResidFAR": 1.5, "CommFAR": 0.0, "FacilFAR": 2.0, "BoroCode": 2, "BBL": 2034920055.0, "CondoNo": 0, "Tract2010": "0002", "XCoord": 1021796, "YCoord": 235820, "ZoneMap": "7a", "ZMCode": null, "Sanborn": "217 060", "TaxMap": "21403", "EDesigNum": null, "APPBBL": 0.0, "APPDate": null, "PLUTOMapID": "1", "FIRM07_FLA": null, "PFIRM15_FL": null, "Version": "25v4", "DCPEdited": null, "Latitude": 40.8138673, "Longitude": -73.8643604, "Notes": null, "Shape_Leng": 0.0, "Shape_Area": 1966.7733816 }, "geometry": { "type": "MultiPolygon", "coordinates": [ [ [ [ -73.864177195200384, 40.813864219413823 ], [ -73.864526823190531, 40.813817145185695 ], [ -73.864539695126751, 40.813871189388223 ], [ -73.864190064542768, 40.813918266329928 ], [ -73.864177195200384, 40.813864219413823 ] ] ] ] } },
{ "type": "Feature", "properties": { "Borough": "BX", "Block": 3492, "Lot": 56, "CD": 209, "BCT2020": "2000200", "BCTCB2020": "20002002006", "CT2010": "2", "CB2010": "2007", "SchoolDist": "08", "Council": 18, "ZipCode": 10473, "FireComp": "L054", "PolicePrct": 43, "HealthCent": 26, "HealthArea": 3030, "Sanitboro": "2", "SanitDistr": "09", "SanitSub": "1B", "Address": "475 COMMONWEALTH AVENUE", "ZoneDist1": "R5", "ZoneDist2": null, "ZoneDist3": null, "ZoneDist4": null, "Overlay1": null, "Overlay2": null, "SPDist1": null, "SPDist2": null, "SPDist3": null, "LtdHeight": null, "SplitZone": "N", "BldgClass": "B1", "LandUse": "01", "Easements": 0, "OwnerType": null, "OwnerName": "AZEEZ, ADISA K", "LotArea": 2817, "BldgArea": 2780, "ComArea": 0, "ResArea": 2780, "OfficeArea": 0, "RetailArea": 0, "GarageArea": 0, "StrgeArea": 0, "FactryArea": 0, "OtherArea": 0, "AreaSource": "2", "NumBldgs": 1, "NumFloors": 3.0, "UnitsRes": 2, "UnitsTotal": 2, "LotFront": 28.17, "LotDepth": 100.0, "BldgFront": 20.25, "BldgDepth": 50.0, "Ext": "G", "ProxCode": "2", "IrrLotCode": "N", "LotType": "5", "BsmtCode": "5", "AssessLand": 9960.0, "AssessTot": 59340.0, "ExemptTot": 1420.0, "YearBuilt": 1975, "YearAlter1": 0, "YearAlter2": 0, "HistDist": null, "Landmark": null, "BuiltFAR": 0.99, "ResidFAR": 1.5, "CommFAR": 0.0, "FacilFAR": 2.0, "BoroCode": 2, "BBL": 2034920056.0000002, "CondoNo": 0, "Tract2010": "0002", "XCoord": 1021800, "YCoord": 235796, "ZoneMap": "7a", "ZMCode": null, "Sanborn": "217 060", "TaxMap": "21403", "EDesigNum": null, "APPBBL": 0.0, "APPDate": null, "PLUTOMapID": "1", "FIRM07_FLA": null, "PFIRM15_FL": null, "Version": "25v4", "DCPEdited": null, "Latitude": 40.8138015, "Longitude": -73.8643461, "Notes": null, "Shape_Leng": 0.0, "Shape_Area": 2749.7249176 }, "geometry": { "type": "MultiPolygon", "coordinates": [ [ [ [ -73.864159202319499, 40.813788658850754 ], [ -73.864508831027962, 40.813741583756439 ], [ -73.864526823190531, 40.813817145185695 ], [ -73.864177195200384, 40.813864219413823 ], [ -73.864159202319499, 40.813788658850754 ] ] ] ] } },
{ "type": "Feature", "properties": { "Borough": "BX", "Block": 3492, "Lot": 57, "CD": 209, "BCT2020": "2000200", "BCTCB2020": "20002002006", "CT2010": "2", "CB2010": "2007", "SchoolDist": "08", "Council": 18, "ZipCode": 10473, "FireComp": "L054", "PolicePrct": 43, "HealthCent": 26, "HealthArea": 3030, "Sanitboro": "2", "SanitDistr": "09", "SanitSub": "1B", "Address": "473 COMMONWEALTH AVENUE", "ZoneDist1": "R5", "ZoneDist2": null, "ZoneDist3": null, "ZoneDist4": null, "Overlay1": null, "Overlay2": null, "SPDist1": null, "SPDist2": null, "SPDist3": null, "LtdHeight": null, "SplitZone": "N", "BldgClass": "B3", "LandUse": "01", "Easements": 0, "OwnerType": null, "OwnerName": "BECKFORD CLIVE", "LotArea": 2800, "BldgArea": 2780, "ComArea": 0, "ResArea": 2780, "OfficeArea": 0, "RetailArea": 0, "GarageArea": 0, "StrgeArea": 0, "FactryArea": 0, "OtherArea": 0, "AreaSource": "2", "NumBldgs": 1, "NumFloors": 3.0, "UnitsRes": 2, "UnitsTotal": 2, "LotFront": 28.17, "LotDepth": 100.0, "BldgFront": 20.25, "BldgDepth": 50.0, "Ext": "G", "ProxCode": "2", "IrrLotCode": "Y", "LotType": "5", "BsmtCode": "5", "AssessLand": 9960.0, "AssessTot": 60720.0, "ExemptTot": 1420.0, "YearBuilt": 1975, "YearAlter1": 0, "YearAlter2": 0, "HistDist": null, "Landmark": null, "BuiltFAR": 0.99, "ResidFAR": 1.5, "CommFAR": 0.0, "FacilFAR": 2.0, "BoroCode": 2, "BBL": 2034920057.0, "CondoNo": 0, "Tract2010": "0002", "XCoord": 1021805, "YCoord": 235769, "ZoneMap": "7a", "ZMCode": null, "Sanborn": "217 060", "TaxMap": "21403", "EDesigNum": null, "APPBBL": 0.0, "APPDate": null, "PLUTOMapID": "1", "FIRM07_FLA": null, "PFIRM15_FL": null, "Version": "25v4", "DCPEdited": null, "Latitude": 40.8137273, "Longitude": -73.8643282, "Notes": null, "Shape_Leng": 0.0, "Shape_Area": 2752.0932204000001 }, "geometry": { "type": "MultiPolygon", "coordinates": [ [ [ [ -73.864490822521617, 40.813665957551827 ], [ -73.864508831027962, 40.813741583756439 ], [ -73.864159202319499, 40.813788658850754 ], [ -73.864141194084155, 40.813713033428407 ], [ -73.864490822521617, 40.813665957551827 ] ] ] ] } },
{ "type": "Feature", "properties": { "Borough": "BX", "Block": 3492, "Lot": 58, "CD": 209, "BCT2020": "2000200", "BCTCB2020": "20002002006", "CT2010": "2", "CB2010": "2007", "SchoolDist": "08", "Council": 18, "ZipCode": 10473, "FireComp": "L054", "PolicePrct": 43, "HealthCent": 26, "HealthArea": 3030, "Sanitboro": "2", "SanitDistr": "09", "SanitSub": "1B", "Address": "471 COMMONWEALTH AVENUE", "ZoneDist1": "R5", "ZoneDist2": null, "ZoneDist3": null, "ZoneDist4": null, "Overlay1": null, "Overlay2": null, "SPDist1": null, "SPDist2": null, "SPDist3": null, "LtdHeight": null, "SplitZone": "N", "BldgClass": "B1", "LandUse": "01", "Easements": 0, "OwnerType": null, "OwnerName": "DAVID WATSON", "LotArea": 1975, "BldgArea": 2745, "ComArea": 0, "ResArea": 2745, "OfficeArea": 0, "RetailArea": 0, "GarageArea": 0, "StrgeArea": 0, "FactryArea": 0, "OtherArea": 0, "AreaSource": "2", "NumBldgs": 1, "NumFloors": 3.0, "UnitsRes": 2, "UnitsTotal": 2, "LotFront": 19.75, "LotDepth": 100.0, "BldgFront": 19.75, "BldgDepth": 50.0, "Ext": "G", "ProxCode": "3", "IrrLotCode": "N", "LotType": "5", "BsmtCode": "5", "AssessLand": 10440.0, "AssessTot": 56820.0, "ExemptTot": 1420.0, "YearBuilt": 1975, "YearAlter1": 0, "YearAlter2": 0, "HistDist": null, "Landmark": null, "BuiltFAR": 1.39, "ResidFAR": 1.5, "CommFAR": 0.0, "FacilFAR": 2.0, "BoroCode": 2, "BBL": 2034920058.0, "CondoNo": 0, "Tract2010": "0002", "XCoord": 1021810, "YCoord": 235745, "ZoneMap": "7a", "ZMCode": null, "Sanborn": "217 060", "TaxMap": "21403", "EDesigNum": null, "APPBBL": 0.0, "APPDate": null, "PLUTOMapID": "1", "FIRM07_FLA": null, "PFIRM15_FL": null, "Version": "25v4", "DCPEdited": null, "Latitude": 40.8136614, "Longitude": -73.8643103, "Notes": null, "Shape_Leng": 0.0, "Shape_Area": 1944.383253 }, "geometry": { "type": "MultiPolygon", "coordinates": [ [ [ [ -73.864128470673606, 40.813659602578724 ], [ -73.864478098725627, 40.813612527576424 ], [ -73.864490822521617, 40.813665957551827 ], [ -73.864141194084155, 40.813713033428407 ], [ -73.864128470673606, 40.813659602578724 ] ] ] ] } },
{ "type": "Feature", "properties": { "Borough": "BX", "Block": 3492, "Lot": 59, "CD": 209, "BCT2020": "2000200", "BCTCB2020": "20002002006", "CT2010": "2", "CB2010": "2007", "SchoolDist": "08", "Council": 18, "ZipCode": 10473, "FireComp": "L054", "PolicePrct": 43, "HealthCent": 26, "HealthArea": 3030, "Sanitboro": "2", "SanitDistr": "09", "SanitSub": "1B", "Address": "469 COMMONWEALTH AVENUE", "ZoneDist1": "R5", "ZoneDist2": null, "ZoneDist3": null, "ZoneDist4": null, "Overlay1": null, "Overlay2": null, "SPDist1": null, "SPDist2": null, "SPDist3": null, "LtdHeight": null, "SplitZone": "N", "BldgClass": "C0", "LandUse": "02", "Easements": 0, "OwnerType": null, "OwnerName": "BOOHIT, BHEESHAM", "LotArea": 1975, "BldgArea": 2925, "ComArea": 0, "ResArea": 2925, "OfficeArea": 0, "RetailArea": 0, "GarageArea": 0, "StrgeArea": 0, "FactryArea": 0, "OtherArea": 0, "AreaSource": "2", "NumBldgs": 1, "NumFloors": 3.0, "UnitsRes": 3, "UnitsTotal": 3, "LotFront": 19.75, "LotDepth": 100.0, "BldgFront": 19.75, "BldgDepth": 50.0, "Ext": "N", "ProxCode": "3", "IrrLotCode": "N", "LotType": "5", "BsmtCode": "2", "AssessLand": 10200.0, "AssessTot": 60780.0, "ExemptTot": 0.0, "YearBuilt": 1975, "YearAlter1": 0, "YearAlter2": 0, "HistDist": null, "Landmark": null, "BuiltFAR": 1.48, "ResidFAR": 1.5, "CommFAR": 0.0, "FacilFAR": 2.0, "BoroCode": 2, "BBL": 2034920059.0, "CondoNo": 0, "Tract2010": "0002", "XCoord": 1021813, "YCoord": 235725, "ZoneMap": "7a", "ZMCode": null, "Sanborn": "217 060", "TaxMap": "21403", "EDesigNum": null, "APPBBL": 0.0, "APPDate": null, "PLUTOMapID": "1", "FIRM07_FLA": null, "PFIRM15_FL": null, "Version": "25v4", "DCPEdited": null, "Latitude": 40.8136065, "Longitude": -73.8642995, "Notes": null, "Shape_Leng": 0.0, "Shape_Area": 1997.550871 }, "geometry": { "type": "MultiPolygon", "coordinates": [ [ [ [ -73.86411539933583, 40.813604711625871 ], [ -73.864465027220803, 40.813557635742782 ], [ -73.864478098725627, 40.813612527576424 ], [ -73.864128470673606, 40.813659602578724 ], [ -73.86411539933583, 40.813604711625871 ] ] ] ] } },
{ "type": "Feature", "properties": { "Borough": "BX", "Block": 3492, "Lot": 60, "CD": 209, "BCT2020": "2000200", "BCTCB2020": "20002002006", "CT2010": "2", "CB2010": "2007", "SchoolDist": "08", "Council": 18, "ZipCode": 10473, "FireComp": "L054", "PolicePrct": 43, "HealthCent": 26, "HealthArea": 3030, "Sanitboro": "2", "SanitDistr": "09", "SanitSub": "1B", "Address": "467 COMMONWEALTH AVENUE", "ZoneDist1": "R5", "ZoneDist2": null, "ZoneDist3": null, "ZoneDist4": null, "Overlay1": null, "Overlay2": null, "SPDist1": null, "SPDist2": null, "SPDist3": null, "LtdHeight": null, "SplitZone": "N", "BldgClass": "C0", "LandUse": "02", "Easements": 0, "OwnerType": null, "OwnerName": "CANTY WATSON", "LotArea": 1975, "BldgArea": 2730, "ComArea": 0, "ResArea": 2730, "OfficeArea": 0, "RetailArea": 0, "GarageArea": 0, "StrgeArea": 0, "FactryArea": 0, "OtherArea": 0, "AreaSource": "2", "NumBldgs": 1, "NumFloors": 3.0, "UnitsRes": 3, "UnitsTotal": 3, "LotFront": 19.75, "LotDepth": 100.0, "BldgFront": 19.75, "BldgDepth": 50.0, "Ext": "G", "ProxCode": "3", "IrrLotCode": "N", "LotType": "5", "BsmtCode": "5", "AssessLand": 9360.0, "AssessTot": 59340.0, "ExemptTot": 0.0, "YearBuilt": 1975, "YearAlter1": 0, "YearAlter2": 0, "HistDist": null, "Landmark": null, "BuiltFAR": 1.38, "ResidFAR": 1.5, "CommFAR": 0.0, "FacilFAR": 2.0, "BoroCode": 2, "BBL": 2034920060.0, "CondoNo": 0, "Tract2010": "0002", "XCoord": 1021817, "YCoord": 235706, "ZoneMap": "7a", "ZMCode": null, "Sanborn": "217 060", "TaxMap": "21403", "EDesigNum": null, "APPBBL": 0.0, "APPDate": null, "PLUTOMapID": "1", "FIRM07_FLA": null, "PFIRM15_FL": null, "Version": "25v4", "DCPEdited": null, "Latitude": 40.8135544, "Longitude": -73.8642852, "Notes": null, "Shape_Leng": 0.0, "Shape_Area": 1927.6043321 }, "geometry": { "type": "MultiPolygon", "coordinates": [ [ [ [ -73.864452413963107, 40.81350466610435 ], [ -73.864465027220803, 40.813557635742782 ], [ -73.86411539933583, 40.813604711625871 ], [ -73.864102785243375, 40.813551742784689 ], [ -73.864452413963107, 40.81350466610435 ] ] ] ] } },
{ "type": "Feature", "properties": { "Borough": "BX", "Block": 3543, "Lot": 1, "CD": 209, "BCT2020": "2002400", "BCTCB2020": "20024001007", "CT2010": "24", "CB2010": "1008", "SchoolDist": "08", "Council": 18, "ZipCode": 10473, "FireComp": "L054", "PolicePrct": 43, "HealthCent": 26, "HealthArea": 3030, "Sanitboro": "2", "SanitDistr": "09", "SanitSub": "1B", "Address": "LAFAYETTE AVENUE", "ZoneDist1": "PARK", "ZoneDist2": null, "ZoneDist3": null, "ZoneDist4": null, "Overlay1": null, "Overlay2": null, "SPDist1": null, "SPDist2": null, "SPDist3": null, "LtdHeight": null, "SplitZone": "N", "BldgClass": "Q1", "LandUse": "09", "Easements": 0, "OwnerType": "C", "OwnerName": "NYC DEPARTMENT OF PARKS AND RECREATION", "LotArea": 1800000, "BldgArea": 0, "ComArea": 0, "ResArea": 0, "OfficeArea": 0, "RetailArea": 0, "GarageArea": 0, "StrgeArea": 0, "FactryArea": 0, "OtherArea": 0, "AreaSource": "7", "NumBldgs": 1, "NumFloors": 0.0, "UnitsRes": 0, "UnitsTotal": 0, "LotFront": 2294.58, "LotDepth": 501.58, "BldgFront": 0.0, "BldgDepth": 0.0, "Ext": "N", "ProxCode": "0", "IrrLotCode": "Y", "LotType": "3", "BsmtCode": "0", "AssessLand": 15466050.0, "AssessTot": 15466050.0, "ExemptTot": 15466050.0, "YearBuilt": 0, "YearAlter1": 0, "YearAlter2": 0, "HistDist": null, "Landmark": null, "BuiltFAR": 0.0, "ResidFAR": 0.0, "CommFAR": 0.0, "FacilFAR": 0.0, "BoroCode": 2, "BBL": 2035430001.0, "CondoNo": 0, "Tract2010": "0024", "XCoord": 1018782, "YCoord": 237245, "ZoneMap": "6c", "ZMCode": null, "Sanborn": "217 039", "TaxMap": "21405", "EDesigNum": null, "APPBBL": 0.0, "APPDate": null, "PLUTOMapID": "1", "FIRM07_FLA": "1", "PFIRM15_FL": "1", "Version": "25v4", "DCPEdited": "t", "Latitude": 40.8177909, "Longitude": -73.8752415, "Notes": null, "Shape_Leng": 0.0, "Shape_Area": 2825914.0910800002 }, "geometry": { "type": "MultiPolygon", "coordinates": [ [ [ [ -73.879700030206948, 40.819001370244344 ], [ -73.87156110971948, 40.820061282356527 ], [ -73.87148041339195, 40.819743472049112 ], [ -73.871410410282877, 40.819400744191071 ], [ -73.871358694540092, 40.819065141643478 ], [ -73.871321548645298, 40.818705967642749 ], [ -73.871314207289558, 40.818383355637621 ], [ -73.871274488968538, 40.81790215305459 ], [ -73.871176597365874, 40.817304193233788 ], [ -73.871168665240702, 40.817259530378962 ], [ -73.871161776770364, 40.817185839364782 ], [ -73.871163514488046, 40.8171007431703 ], [ -73.871171367378949, 40.817036920131706 ], [ -73.871185144451189, 40.816971810510672 ], [ -73.871202815106329, 40.816914121735969 ], [ -73.871234413769116, 40.816837651592593 ], [ -73.871260359148437, 40.81678712745348 ], [ -73.871300377225467, 40.816722693752901 ], [ -73.871351117017625, 40.816655363427245 ], [ -73.871396585823504, 40.816603874134159 ], [ -73.871492535794147, 40.81651444546889 ], [ -73.871631145830435, 40.816416697752771 ], [ -73.871775313809891, 40.816342044060661 ], [ -73.871938566185449, 40.816281899472848 ], [ -73.872127523735244, 40.816238237090396 ], [ -73.872704755611025, 40.816125800901752 ], [ -73.872804462161156, 40.816107457136987 ], [ -73.872911762932588, 40.816081514262308 ], [ -73.872994494000849, 40.816056836396797 ], [ -73.873116107618912, 40.816012495752879 ], [ -73.873202052956387, 40.815974746894334 ], [ -73.873307142518499, 40.815920313916017 ], [ -73.873362823378727, 40.815887264670955 ], [ -73.873392754771444, 40.815868143079541 ], [ -73.8734447745355, 40.815832420699046 ], [ -73.873500937884813, 40.815789877154387 ], [ -73.873559816170768, 40.815740096422047 ], [ -73.873618598591975, 40.815683985126675 ], [ -73.873651616658094, 40.815649053124403 ], [ -73.873690237035575, 40.815604383942656 ], [ -73.873741956085979, 40.815536431287569 ], [ -73.873773037234756, 40.815489695286097 ], [ -73.873793001201207, 40.81545572515477 ], [ -73.873807228389992, 40.815460460061352 ], [ -73.873845427745877, 40.8154733141956 ], [ -73.873917343251449, 40.815493039214068 ], [ -73.873976905100207, 40.815505061191431 ], [ -73.874066810379148, 40.815523096638167 ], [ -73.874138733793828, 40.815539403117612 ], [ -73.874218517720578, 40.815558281965295 ], [ -73.874299428835158, 40.815577160982983 ], [ -73.874380343329335, 40.815594332710567 ], [ -73.874433155571097, 40.815608056252046 ], [ -73.874502824670401, 40.815626923872699 ], [ -73.874579239047748, 40.815645798714314 ], [ -73.874659027259284, 40.815663822595205 ], [ -73.874727571941648, 40.815681832434699 ], [ -73.874803986554184, 40.815700708131175 ], [ -73.874875906200316, 40.815717869647024 ], [ -73.874943331087934, 40.815733317073331 ], [ -73.874983792113184, 40.815739339478924 ], [ -73.875065822084863, 40.815761634822742 ], [ -73.875159086866816, 40.815787360530244 ], [ -73.875238877397251, 40.815803675853545 ], [ -73.875313051345231, 40.815819131295335 ], [ -73.875398457297365, 40.81583886990974 ], [ -73.875484989351548, 40.815858607001935 ], [ -73.875520939587318, 40.815871459989268 ], [ -73.875583851396499, 40.815896298039924 ], [ -73.875650147831422, 40.815915160318042 ], [ -73.875726561654105, 40.815934034480996 ], [ -73.875777128407634, 40.815947753224599 ], [ -73.875853539224963, 40.815968337299573 ], [ -73.8759277075157, 40.815986351565492 ], [ -73.87599625138283, 40.816005218825921 ], [ -73.876015852274776, 40.81601186174597 ], [ -73.876067036528269, 40.816029208667992 ], [ -73.876126594580654, 40.816043794193284 ], [ -73.876179415105256, 40.816054101377283 ], [ -73.876215374739971, 40.816062682170227 ], [ -73.876294040535811, 40.8160798492152 ], [ -73.876368217110269, 40.816093595738046 ], [ -73.876444636588872, 40.816109051103858 ], [ -73.876519924901714, 40.816130485352652 ], [ -73.876595193894246, 40.816160461746996 ], [ -73.876647998268155, 40.816180162734895 ], [ -73.876717659471282, 40.816203299068036 ], [ -73.876761732669351, 40.816218768865681 ], [ -73.876788442292209, 40.816228143965873 ], [ -73.876846867563856, 40.816247852716742 ], [ -73.876915403956147, 40.816270987727066 ], [ -73.876972708721652, 40.816288986974463 ], [ -73.877047993883593, 40.816310420874146 ], [ -73.87712327751899, 40.816332707546145 ], [ -73.877164858374385, 40.816343002283602 ], [ -73.877205305782994, 40.81635671144457 ], [ -73.877282825390793, 40.816385835123761 ], [ -73.877353614548994, 40.816408118696543 ], [ -73.877434524913056, 40.816427849255071 ], [ -73.877500826651783, 40.81644500131042 ], [ -73.87751069957848, 40.816447547363033 ], [ -73.877583981221875, 40.816466445153232 ], [ -73.877628926596927, 40.816481014365323 ], [ -73.87769520764347, 40.816507561242354 ], [ -73.877758120149323, 40.816534106345351 ], [ -73.877825520223681, 40.816563219835423 ], [ -73.877888422217239, 40.816594889582163 ], [ -73.877950204478665, 40.81662314162422 ], [ -73.87802546446288, 40.8166599481997 ], [ -73.878086117407634, 40.816690762716171 ], [ -73.878161373200768, 40.816729278360981 ], [ -73.878190578261837, 40.816743829776328 ], [ -73.878253480950946, 40.81677464474388 ], [ -73.878316382247306, 40.816806314255004 ], [ -73.878369176820939, 40.816831995589773 ], [ -73.87843544868322, 40.816864524014171 ], [ -73.878500591948438, 40.816900464179817 ], [ -73.878561233206014, 40.816937258575614 ], [ -73.878603915038425, 40.816960364472919 ], [ -73.878663443216084, 40.816992031157397 ], [ -73.878729704142785, 40.817031389691024 ], [ -73.878793724882613, 40.817065622942593 ], [ -73.878867853199679, 40.817106699760068 ], [ -73.878931874084742, 40.817140932014446 ], [ -73.878993633651788, 40.817182849489818 ], [ -73.879012274881021, 40.81719831394765 ], [ -73.879044149566496, 40.817224756878169 ], [ -73.879086810356441, 40.817258968363106 ], [ -73.879154184244371, 40.817305161791559 ], [ -73.879206953516146, 40.817344507730105 ], [ -73.87925634339112, 40.817387266583545 ], [ -73.879296746477294, 40.817426599511528 ], [ -73.879348376788997, 40.817474485400133 ], [ -73.879394403867835, 40.817512115108102 ], [ -73.879453922960423, 40.817550613419449 ], [ -73.879505577129606, 40.817584834161714 ], [ -73.879566204876795, 40.817631020287031 ], [ -73.879621213895746, 40.817675493101284 ], [ -73.879668375402105, 40.817707999995406 ], [ -73.879708801866641, 40.817735375944267 ], [ -73.879767189420917, 40.817776433975702 ], [ -73.87983006296011, 40.817824332304426 ], [ -73.879872719914388, 40.817861104557444 ], [ -73.879880575707048, 40.817867945720245 ], [ -73.879931084664534, 40.817914976595965 ], [ -73.879982730890873, 40.817955175584451 ], [ -73.880042235977868, 40.818000505621583 ], [ -73.88009276175525, 40.818038995150339 ], [ -73.880151148272049, 40.818080909322198 ], [ -73.880209534534728, 40.818123677124397 ], [ -73.880261182956318, 40.818162166826255 ], [ -73.880312818042512, 40.818207489541855 ], [ -73.880361080562921, 40.818253663226805 ], [ -73.880412715676428, 40.818298986733232 ], [ -73.880455368973159, 40.818337467926071 ], [ -73.880509252438728, 40.818383646546899 ], [ -73.880533522820684, 40.818404081700002 ], [ -73.879700030206948, 40.819001370244344 ] ] ] ] } },
{ "type": "Feature", "properties": { "Borough": "BX", "Block": 3543, "Lot": 120, "CD": 209, "BCT2020": "2002400", "BCTCB2020": "20024001007", "CT2010": "24", "CB2010": "1008", "SchoolDist": "08", "Council": 18, "ZipCode": 10473, "FireComp": "L054", "PolicePrct": 43, "HealthCent": 26, "HealthArea": 3030, "Sanitboro": "2", "SanitDistr": "09", "SanitSub": "1B", "Address": "701 METCALF AVENUE", "ZoneDist1": "PARK", "ZoneDist2": null, "ZoneDist3": null, "ZoneDist4": null, "Overlay1": null, "Overlay2": null, "SPDist1": null, "SPDist2": null, "SPDist3": null, "LtdHeight": null, "SplitZone": "N", "BldgClass": "Q1", "LandUse": "09", "Easements": 0, "OwnerType": "C", "OwnerName": "NYC DEPARTMENT OF PARKS AND RECREATION", "LotArea": 196274, "BldgArea": 660, "ComArea": 660, "ResArea": 0, "OfficeArea": 0, "RetailArea": 0, "GarageArea": 0, "StrgeArea": 0, "FactryArea": 0, "OtherArea": 660, "AreaSource": "2", "NumBldgs": 2, "NumFloors": 1.0, "UnitsRes": 0, "UnitsTotal": 1, "LotFront": 13.42, "LotDepth": 1327.0, "BldgFront": 57.0, "BldgDepth": 17.0, "Ext": "N", "ProxCode": "0", "IrrLotCode": "Y", "LotType": "5", "BsmtCode": "0", "AssessLand": 210150.0, "AssessTot": 283050.0, "ExemptTot": 283050.0, "YearBuilt": 2014, "YearAlter1": 0, "YearAlter2": 0, "HistDist": null, "Landmark": null, "BuiltFAR": 0.0, "ResidFAR": 0.0, "CommFAR": 0.0, "FacilFAR": 0.0, "BoroCode": 2, "BBL": 2035430119.9999998, "CondoNo": 0, "Tract2010": "0024", "XCoord": 1020095, "YCoord": 237421, "ZoneMap": "6c", "ZMCode": null, "Sanborn": "217 059", "TaxMap": "21405", "EDesigNum": null, "APPBBL": 0.0, "APPDate": null, "PLUTOMapID": "1", "FIRM07_FLA": null, "PFIRM15_FL": null, "Version": "25v4", "DCPEdited": "t", "Latitude": 40.8182687, "Longitude": -73.8704969, "Notes": null, "Shape_Leng": 0.0, "Shape_Area": 203569.99046900001 }, "geometry": { "type": "MultiPolygon", "coordinates": [ [ [ [ -73.870136428269873, 40.818114661905028 ], [ -73.869784155757998, 40.816621948780188 ], [ -73.869874141927724, 40.816658161429288 ], [ -73.869991185926196, 40.816716304680476 ], [ -73.870117613276122, 40.816789442722794 ], [ -73.8702668281434, 40.816892392074806 ], [ -73.870471572964007, 40.817073483318815 ], [ -73.870613498860692, 40.817241261761879 ], [ -73.870737264638976, 40.817440637977526 ], [ -73.870827873521733, 40.817669226966316 ], [ -73.870866356948724, 40.817860319085945 ], [ -73.870913255186977, 40.818165087019892 ], [ -73.870942982921463, 40.818458366052923 ], [ -73.870957629209173, 40.818747209442577 ], [ -73.870957702263908, 40.819040766758349 ], [ -73.87094179179536, 40.819347943303576 ], [ -73.870933126896844, 40.819476943523128 ], [ -73.870911299122014, 40.819614244229513 ], [ -73.870874989853036, 40.819755265757856 ], [ -73.870832506161364, 40.819875362732908 ], [ -73.870765997270439, 40.820020719541631 ], [ -73.870674675856264, 40.820176683398543 ], [ -73.870624618750313, 40.820183200797032 ], [ -73.870136428269873, 40.818114661905028 ] ] ] ] } },
{ "type": "Feature", "properties": { "Borough": "BX", "Block": 3551, "Lot": 1, "CD": 209, "BCT2020": "2002001", "BCTCB2020": "20020011002", "CT2010": "20", "CB2010": "3002", "SchoolDist": "08", "Council": 18, "ZipCode": 10473, "FireComp": "L054", "PolicePrct": 43, "HealthCent": 26, "HealthArea": 3030, "Sanitboro": "2", "SanitDistr": "09", "SanitSub": "1B", "Address": "1670 SEWARD AVENUE", "ZoneDist1": "R5", "ZoneDist2": null, "ZoneDist3": null, "ZoneDist4": null, "Overlay1": null, "Overlay2": null, "SPDist1": null, "SPDist2": null, "SPDist3": null, "LtdHeight": null, "SplitZone": "N", "BldgClass": "D3", "LandUse": "03", "Easements": 0, "OwnerType": "O", "OwnerName": "NYC HOUSING AUTHORITY", "LotArea": 626400, "BldgArea": 537899, "ComArea": 0, "ResArea": 537899, "OfficeArea": 0, "RetailArea": 0, "GarageArea": 0, "StrgeArea": 0, "FactryArea": 0, "OtherArea": 0, "AreaSource": "2", "NumBldgs": 10, "NumFloors": 7.0, "UnitsRes": 775, "UnitsTotal": 775, "LotFront": 1080.0, "LotDepth": 580.0, "BldgFront": 235.0, "BldgDepth": 155.0, "Ext": "N", "ProxCode": "0", "IrrLotCode": "Y", "LotType": "5", "BsmtCode": "0", "AssessLand": 2249550.0, "AssessTot": 13530150.0, "ExemptTot": 13530150.0, "YearBuilt": 1953, "YearAlter1": 0, "YearAlter2": 0, "HistDist": null, "Landmark": null, "BuiltFAR": 0.86, "ResidFAR": 1.5, "CommFAR": 0.0, "FacilFAR": 2.0, "BoroCode": 2, "BBL": 2035510001.0, "CondoNo": 0, "Tract2010": "0020", "XCoord": 1020778, "YCoord": 237171, "ZoneMap": "6c", "ZMCode": "Y", "Sanborn": "217 047", "TaxMap": "21405", "EDesigNum": null, "APPBBL": 0.0, "APPDate": null, "PLUTOMapID": "1", "FIRM07_FLA": null, "PFIRM15_FL": null, "Version": "25v4", "DCPEdited": null, "Latitude": 40.8175797, "Longitude": -73.8680307, "Notes": null, "Shape_Leng": 0.0, "Shape_Area": 633864.50371299998 }, "geometry": { "type": "MultiPolygon", "coordinates": [ [ [ [ -73.869291269341105, 40.816585953007895 ], [ -73.86936274160756, 40.816582060284446 ], [ -73.86941030481394, 40.816580883180102 ], [ -73.869498340433267, 40.816577518806447 ], [ -73.869556188144443, 40.81658005255121 ], [ -73.86963564896827, 40.816587227733862 ], [ -73.869701527035076, 40.816598234321773 ], [ -73.869784155757998, 40.816621948780188 ], [ -73.870136428269873, 40.818114661905028 ], [ -73.869776859786072, 40.81816336454655 ], [ -73.866301662825535, 40.818634004969439 ], [ -73.865929862126222, 40.81703869054212 ], [ -73.869291269341105, 40.816585953007895 ] ] ] ] } },
{ "type": "Feature", "properties": { "Borough": "BX", "Block": 3543, "Lot": 105, "CD": 209, "BCT2020": "2002400", "BCTCB2020": "20024001007", "CT2010": "24", "CB2010": "1008", "SchoolDist": "08", "Council": 18, "ZipCode": 10473, "FireComp": "L054", "PolicePrct": 43, "HealthCent": 26, "HealthArea": 3030, "Sanitboro": "2", "SanitDistr": "09", "SanitSub": "1B", "Address": "BRONX RIVER AVENUE", "ZoneDist1": "PARK", "ZoneDist2": null, "ZoneDist3": null, "ZoneDist4": null, "Overlay1": null, "Overlay2": null, "SPDist1": null, "SPDist2": null, "SPDist3": null, "LtdHeight": null, "SplitZone": "N", "BldgClass": "Q0", "LandUse": "09", "Easements": 0, "OwnerType": "C", "OwnerName": "NYC DEPARTMENT OF PARKS AND RECREATION", "LotArea": 520400, "BldgArea": 0, "ComArea": 0, "ResArea": 0, "OfficeArea": 0, "RetailArea": 0, "GarageArea": 0, "StrgeArea": 0, "FactryArea": 0, "OtherArea": 0, "AreaSource": "7", "NumBldgs": 0, "NumFloors": 0.0, "UnitsRes": 0, "UnitsTotal": 0, "LotFront": 247.0, "LotDepth": 501.0, "BldgFront": 0.0, "BldgDepth": 0.0, "Ext": null, "ProxCode": "0", "IrrLotCode": "Y", "LotType": "5", "BsmtCode": "5", "AssessLand": 1962900.0, "AssessTot": 1962900.0, "ExemptTot": 1962900.0, "YearBuilt": 0, "YearAlter1": 0, "YearAlter2": 0, "HistDist": null, "Landmark": null, "BuiltFAR": 0.0, "ResidFAR": 0.0, "CommFAR": 0.0, "FacilFAR": 0.0, "BoroCode": 2, "BBL": 2035430105.0, "CondoNo": 0, "Tract2010": "0024", "XCoord": 1019931, "YCoord": 236906, "ZoneMap": "6c", "ZMCode": null, "Sanborn": "217 059", "TaxMap": "21405", "EDesigNum": null, "APPBBL": 0.0, "APPDate": null, "PLUTOMapID": "1", "FIRM07_FLA": "1", "PFIRM15_FL": "1", "Version": "25v4", "DCPEdited": "t", "Latitude": 40.8168558, "Longitude": -73.8710922, "Notes": null, "Shape_Leng": 0.0, "Shape_Area": 474761.53849599999 }, "geometry": { "type": "MultiPolygon", "coordinates": [ [ [ [ -73.869874141927724, 40.816658161429288 ], [ -73.869784155757998, 40.816621948780188 ], [ -73.869570132823867, 40.815762170948311 ], [ -73.869537778658952, 40.81567136302268 ], [ -73.869493821208479, 40.815562219511342 ], [ -73.869435252241203, 40.81543478199459 ], [ -73.869385108750024, 40.815354234011686 ], [ -73.869304090557364, 40.815249504000235 ], [ -73.8691825112045, 40.815127531989532 ], [ -73.869057484106165, 40.8150298162561 ], [ -73.868955952414609, 40.81496838664814 ], [ -73.868800024320137, 40.814884839087711 ], [ -73.869000428249322, 40.814979702502086 ], [ -73.869130054516006, 40.815051295581995 ], [ -73.869357275202219, 40.815181582072789 ], [ -73.869540458654356, 40.815297130222611 ], [ -73.869650115278546, 40.815371249360545 ], [ -73.870102172524753, 40.815717914858084 ], [ -73.870692655631061, 40.815313471725517 ], [ -73.871375568489285, 40.81556642582602 ], [ -73.871444705224292, 40.815925939228492 ], [ -73.871464978336206, 40.816031362574897 ], [ -73.871470180500225, 40.816058414900112 ], [ -73.872104182665822, 40.816003576168953 ], [ -73.872308991697253, 40.81598192675412 ], [ -73.872460298044331, 40.815957350471649 ], [ -73.872578767284395, 40.815927825512162 ], [ -73.872613635271804, 40.815916953638641 ], [ -73.872684191849103, 40.815894954103392 ], [ -73.872745441952375, 40.815872126552129 ], [ -73.87277884075371, 40.815859678953117 ], [ -73.872889448158304, 40.815810788698393 ], [ -73.872994310145671, 40.815755758758037 ], [ -73.873136869773759, 40.815668924027847 ], [ -73.873241739579271, 40.815582169280468 ], [ -73.873377703113718, 40.815447672549858 ], [ -73.873438031933844, 40.815371624398637 ], [ -73.873458871232856, 40.815375519061014 ], [ -73.87354653372762, 40.815390989626302 ], [ -73.873616210872072, 40.815404732979957 ], [ -73.873688126760683, 40.815423601719623 ], [ -73.873745433166704, 40.815439894250773 ], [ -73.873793001201207, 40.81545572515477 ], [ -73.873773037234756, 40.815489695286097 ], [ -73.873741956085979, 40.815536431287569 ], [ -73.873690237035575, 40.815604383942656 ], [ -73.873651616658094, 40.815649053124403 ], [ -73.873618598591975, 40.815683985126675 ], [ -73.873559816170768, 40.815740096422047 ], [ -73.873500937884813, 40.815789877154387 ], [ -73.8734447745355, 40.815832420699046 ], [ -73.873392754771444, 40.815868143079541 ], [ -73.873362823378727, 40.815887264670955 ], [ -73.873307142518499, 40.815920313916017 ], [ -73.873202052956387, 40.815974746894334 ], [ -73.873116107618912, 40.816012495752879 ], [ -73.872994494000849, 40.816056836396797 ], [ -73.872911762932588, 40.816081514262308 ], [ -73.872804462161156, 40.816107457136987 ], [ -73.872704755611025, 40.816125800901752 ], [ -73.872127523735244, 40.816238237090396 ], [ -73.871938566185449, 40.816281899472848 ], [ -73.871775313809891, 40.816342044060661 ], [ -73.871631145830435, 40.816416697752771 ], [ -73.871492535794147, 40.81651444546889 ], [ -73.871396585823504, 40.816603874134159 ], [ -73.871351117017625, 40.816655363427245 ], [ -73.871300377225467, 40.816722693752901 ], [ -73.871260359148437, 40.81678712745348 ], [ -73.871234413769116, 40.816837651592593 ], [ -73.871202815106329, 40.816914121735969 ], [ -73.871185144451189, 40.816971810510672 ], [ -73.871171367378949, 40.817036920131706 ], [ -73.871163514488046, 40.8171007431703 ], [ -73.871161776770364, 40.817185839364782 ], [ -73.871168665240702, 40.817259530378962 ], [ -73.871176597365874, 40.817304193233788 ], [ -73.871274488968538, 40.81790215305459 ], [ -73.871314207289558, 40.818383355637621 ], [ -73.871321548645298, 40.818705967642749 ], [ -73.871358694540092, 40.819065141643478 ], [ -73.871410410282877, 40.819400744191071 ], [ -73.87148041339195, 40.819743472049112 ], [ -73.87156110971948, 40.820061282356527 ], [ -73.870674675856264, 40.820176683398543 ], [ -73.870765997270439, 40.820020719541631 ], [ -73.870832506161364, 40.819875362732908 ], [ -73.870874989853036, 40.819755265757856 ], [ -73.870911299122014, 40.819614244229513 ], [ -73.870933126896844, 40.819476943523128 ], [ -73.87094179179536, 40.819347943303576 ], [ -73.870957702263908, 40.819040766758349 ], [ -73.870957629209173, 40.818747209442577 ], [ -73.870942982921463, 40.818458366052923 ], [ -73.870913255186977, 40.818165087019892 ], [ -73.870866356948724, 40.817860319085945 ], [ -73.870827873521733, 40.817669226966316 ], [ -73.870737264638976, 40.817440637977526 ], [ -73.870613498860692, 40.817241261761879 ], [ -73.870471572964007, 40.817073483318815 ], [ -73.8702668281434, 40.816892392074806 ], [ -73.870117613276122, 40.816789442722794 ], [ -73.869991185926196, 40.816716304680476 ], [ -73.869874141927724, 40.816658161429288 ] ] ] ] } },
{ "type": "Feature", "properties": { "Borough": "BX", "Block": 3627, "Lot": 150, "CD": 209, "BCT2020": "2002400", "BCTCB2020": "20024001007", "CT2010": "24", "CB2010": "1008", "SchoolDist": "08", "Council": 18, "ZipCode": 10473, "FireComp": "L054", "PolicePrct": 43, "HealthCent": 26, "HealthArea": 3030, "Sanitboro": "2", "SanitDistr": "09", "SanitSub": "1B", "Address": null, "ZoneDist1": "R6", "ZoneDist2": null, "ZoneDist3": null, "ZoneDist4": null, "Overlay1": null, "Overlay2": null, "SPDist1": null, "SPDist2": null, "SPDist3": null, "LtdHeight": null, "SplitZone": "N", "BldgClass": null, "LandUse": null, "Easements": 0, "OwnerType": null, "OwnerName": null, "LotArea": 0, "BldgArea": 0, "ComArea": 0, "ResArea": 0, "OfficeArea": 0, "RetailArea": 0, "GarageArea": 0, "StrgeArea": 0, "FactryArea": 0, "OtherArea": 0, "AreaSource": null, "NumBldgs": 0, "NumFloors": 0.0, "UnitsRes": 0, "UnitsTotal": 0, "LotFront": 0.0, "LotDepth": 0.0, "BldgFront": 0.0, "BldgDepth": 0.0, "Ext": null, "ProxCode": null, "IrrLotCode": null, "LotType": null, "BsmtCode": null, "AssessLand": 0.0, "AssessTot": 0.0, "ExemptTot": 0.0, "YearBuilt": 0, "YearAlter1": 0, "YearAlter2": 0, "HistDist": null, "Landmark": null, "BuiltFAR": 0.0, "ResidFAR": 2.43, "CommFAR": 0.0, "FacilFAR": 4.8, "BoroCode": 2, "BBL": 2036270150.0, "CondoNo": 0, "Tract2010": "0024", "XCoord": 1019749, "YCoord": 238541, "ZoneMap": "6c", "ZMCode": null, "Sanborn": null, "TaxMap": null, "EDesigNum": null, "APPBBL": 0.0, "APPDate": null, "PLUTOMapID": "3", "FIRM07_FLA": null, "PFIRM15_FL": null, "Version": "25v4", "DCPEdited": null, "Latitude": 40.8213431, "Longitude": -73.8717421, "Notes": null, "Shape_Leng": 0.0, "Shape_Area": 322255.627308 }, "geometry": { "type": "MultiPolygon", "coordinates": [ [ [ [ -73.870714304784158, 40.820484579523757 ], [ -73.872318088915506, 40.820269329719999 ], [ -73.872770889163959, 40.822199040957642 ], [ -73.871165412084025, 40.822416205161232 ], [ -73.870714304784158, 40.820484579523757 ] ] ] ] } }
]
}
