{
"type": "FeatureCollection",
"name": "pluto_Hart_Island",
"crs": { "type": "name", "properties": { "name": "urn:ogc:def:crs:OGC:1.3:CRS84" } },
"features": [
{ "type": "Feature", "properties": { "Borough": "BX", "Block": 5649, "Lot": 1, "CD": 210, "BCT2020": "2051602", "BCTCB2020": "20516021000", "CT2010": "516", "CB2010": "5007", "SchoolDist": "11", "Council": 13, "ZipCode": 10464, "FireComp": "E070", "PolicePrct": 45, "HealthCent": 24, "HealthArea": 720, "Sanitboro": null, "SanitDistr": null, "SanitSub": null, "Address": "2131 HART STREET", "ZoneDist1": "R6", "ZoneDist2": null, "ZoneDist3": null, "ZoneDist4": null, "Overlay1": null, "Overlay2": null, "SPDist1": null, "SPDist2": null, "SPDist3": null, "LtdHeight": null, "SplitZone": "N", "BldgClass": "Z8", "LandUse": "09", "Easements": 0, "OwnerType": "C", "OwnerName": "NYC DEPARTMENT OF CITYWIDE ADMINISTRATIVE SERVICES", "LotArea": 4855000, "BldgArea": 170408, "ComArea": 144908, "ResArea": 25500, "OfficeArea": 49786, "RetailArea": 0, "GarageArea": 15660, "StrgeArea": 0, "FactryArea": 0, "OtherArea": 79462, "AreaSource": "2", "NumBldgs": 18, "NumFloors": 4.0, "UnitsRes": 0, "UnitsTotal": 1, "LotFront": 2000.0, "LotDepth": 750.0, "BldgFront": 116.0, "BldgDepth": 130.0, "Ext": "E", "ProxCode": "1", "IrrLotCode": "Y", "LotType": "7", "BsmtCode": "0", "AssessLand": 5992650.0, "AssessTot": 6730650.0, "ExemptTot": 6730650.0, "YearBuilt": 1912, "YearAlter1": 0, "YearAlter2": 0, "HistDist": null, "Landmark": null, "BuiltFAR": 0.04, "ResidFAR": 2.43, "CommFAR": 0.0, "FacilFAR": 4.8, "BoroCode": 2, "BBL": 2056490001.0, "CondoNo": 0, "Tract2010": "0516", "XCoord": 1047777, "YCoord": 250598, "ZoneMap": "4d", "ZMCode": "Y", "Sanborn": "218 073", "TaxMap": "21810", "EDesigNum": null, "APPBBL": 0.0, "APPDate": null, "PLUTOMapID": "1", "FIRM07_FLA": "1", "PFIRM15_FL": "1", "Version": "25v4", "DCPEdited": "t", "Latitude": 40.8542799, "Longitude": -73.7703612, "Notes": null, "Shape_Leng": 0.0, "Shape_Area": 3933624.7147499998 }, "geometry": { "type": "MultiPolygon", "coordinates": [ [ [ [ -73.769168316922617, 40.858688603600434 ], [ -73.769114885356984, 40.858647372756785 ], [ -73.769069453211799, 40.858590918919312 ], [ -73.769044675600355, 40.85853221376744 ], [ -73.769022621351553, 40.858466961138369 ], [ -73.769016712294984, 40.858360501889464 ], [ -73.769028724605832, 40.858285685845694 ], [ -73.769048054028744, 40.858209035677923 ], [ -73.769052802918793, 40.858050941756645 ], [ -73.769032741569475, 40.857895152039688 ], [ -73.768986537713488, 40.857774224779718 ], [ -73.768935525609876, 40.857694364782667 ], [ -73.768805847788258, 40.857576433590211 ], [ -73.768753742807064, 40.857539434863199 ], [ -73.768462433738037, 40.85737414424905 ], [ -73.767731758348916, 40.857018835397795 ], [ -73.767726197666519, 40.857014166226037 ], [ -73.767716099620031, 40.857006459202672 ], [ -73.767704885002331, 40.856996187201929 ], [ -73.767694794030703, 40.856986771956052 ], [ -73.767683573449418, 40.856978208174702 ], [ -73.767672355299538, 40.856969643477093 ], [ -73.767660013284015, 40.856960223775381 ], [ -73.767639811261674, 40.856946516182468 ], [ -73.767621854328596, 40.85693452142749 ], [ -73.767605021600673, 40.856922530777375 ], [ -73.767587070654528, 40.856908826875348 ], [ -73.76757696666894, 40.856902828062488 ], [ -73.767566872748404, 40.856894265621023 ], [ -73.767555650428449, 40.856886555478972 ], [ -73.767542187225004, 40.856876279848365 ], [ -73.767529854319335, 40.856864296336624 ], [ -73.767514153122875, 40.85685059971987 ], [ -73.767500692921615, 40.856839469428472 ], [ -73.76748835284296, 40.856829194216424 ], [ -73.767476018068379, 40.856818065355618 ], [ -73.767462553679621, 40.856807789628064 ], [ -73.767447975164771, 40.856794947084644 ], [ -73.767433395440548, 40.856782105455672 ], [ -73.76741880963344, 40.856770972883773 ], [ -73.767406473776603, 40.856759844934579 ], [ -73.767393010634763, 40.856749565603437 ], [ -73.767381800302431, 40.856738441678935 ], [ -73.76736834004187, 40.85672730961528 ], [ -73.767357119544911, 40.856718746721889 ], [ -73.767335800537253, 40.856703328668338 ], [ -73.767314483203293, 40.856687056874897 ], [ -73.767295409845445, 40.856672497924514 ], [ -73.767285308911042, 40.856665644598813 ], [ -73.76727295925491, 40.85665878581127 ], [ -73.767251639074502, 40.856643367657078 ], [ -73.767240421593314, 40.856633951100143 ], [ -73.767217982992904, 40.856616821610245 ], [ -73.767203398583433, 40.856605688094731 ], [ -73.767187690429722, 40.856593700489967 ], [ -73.767170862647077, 40.856579997953972 ], [ -73.767154034398786, 40.856567154425555 ], [ -73.767137206059303, 40.856554307296626 ], [ -73.76712149914465, 40.85654231876515 ], [ -73.767105789255012, 40.85653118120586 ], [ -73.767092321987846, 40.85652176009053 ], [ -73.767077734519589, 40.856511480208212 ], [ -73.76706427026356, 40.856501201840985 ], [ -73.767051929629986, 40.856491782913544 ], [ -73.767039583807332, 40.856483216793485 ], [ -73.76702611766747, 40.856473793748677 ], [ -73.767012654634385, 40.856463517134209 ], [ -73.766999191606985, 40.856453239598061 ], [ -73.766985724263606, 40.856443817549874 ], [ -73.766952062512573, 40.856418979565319 ], [ -73.76693523125094, 40.856406987897529 ], [ -73.766915033750351, 40.85639242652811 ], [ -73.766904931687648, 40.856385573165049 ], [ -73.766894839143944, 40.856377010665213 ], [ -73.766883616983051, 40.856369302216137 ], [ -73.766874647647285, 40.856360741985753 ], [ -73.766863436268068, 40.856349614409851 ], [ -73.76685334252015, 40.856341052825229 ], [ -73.766843250670007, 40.856331636665324 ], [ -73.766821933682863, 40.856315365700176 ], [ -73.766801741013893, 40.856299096169039 ], [ -73.766786044316447, 40.856284543043387 ], [ -73.766772595120287, 40.856269997138938 ], [ -73.766759136948352, 40.856258012186608 ], [ -73.766742308761664, 40.85624516500075 ], [ -73.766733339462547, 40.856236604759196 ], [ -73.766722126330407, 40.856226334420427 ], [ -73.766710908320903, 40.856217769628039 ], [ -73.766699685005833, 40.85621005847937 ], [ -73.766688464682275, 40.856201495520224 ], [ -73.766676120061788, 40.856192929364397 ], [ -73.76666377245084, 40.856185216774271 ], [ -73.766650303421983, 40.856176649259865 ], [ -73.766637957026774, 40.8561689367532 ], [ -73.766613252723843, 40.856156072683184 ], [ -73.766593052366929, 40.856142366747775 ], [ -73.7665728399203, 40.856132075495609 ], [ -73.766557125424256, 40.856122648845187 ], [ -73.766543651117814, 40.85611493312426 ], [ -73.766530175024144, 40.856108072895147 ], [ -73.766513328918094, 40.856100352099688 ], [ -73.766496471504226, 40.856095194172141 ], [ -73.766484097457663, 40.856096023686163 ], [ -73.766476179418234, 40.856107963530384 ], [ -73.766464917029495, 40.856111358942648 ], [ -73.766450299854682, 40.85610962109552 ], [ -73.766439068797695, 40.856104472719061 ], [ -73.766421115197119, 40.856091624124474 ], [ -73.766406534613651, 40.856078782363092 ], [ -73.766395321566804, 40.856068510150834 ], [ -73.766385228035389, 40.85605994760504 ], [ -73.766372891266727, 40.85604882046033 ], [ -73.766360559826722, 40.85603683682416 ], [ -73.766343734879896, 40.856023136847838 ], [ -73.766324663023568, 40.856008578575192 ], [ -73.766310073473051, 40.855998298674017 ], [ -73.766297722935064, 40.855991440699142 ], [ -73.766275279995043, 40.85597602108971 ], [ -73.766259569169179, 40.855964883411708 ], [ -73.76623937673638, 40.855948615537564 ], [ -73.766228157624141, 40.855940050694073 ], [ -73.766218067135156, 40.855930634482611 ], [ -73.766198996026048, 40.855915220692012 ], [ -73.766184417830928, 40.855902380746997 ], [ -73.766176568839782, 40.855894677228207 ], [ -73.766166482471746, 40.855884406442158 ], [ -73.766156396792553, 40.855873282919774 ], [ -73.766142939911688, 40.855861297897043 ], [ -73.76612835463591, 40.85585016432421 ], [ -73.766113769361752, 40.855839031669596 ], [ -73.766101424887566, 40.855830464531721 ], [ -73.766090205808382, 40.855821900510954 ], [ -73.766078985635289, 40.855813335651852 ], [ -73.766066646600464, 40.855803913942879 ], [ -73.766055432435437, 40.855793642699815 ], [ -73.766043092076103, 40.85578422366337 ], [ -73.766030750624992, 40.855774802865682 ], [ -73.766021784483101, 40.855765388918577 ], [ -73.766001595187618, 40.855748263753611 ], [ -73.765993748436728, 40.855740560310423 ], [ -73.765974679851183, 40.855725148327295 ], [ -73.765956737251983, 40.855708884969964 ], [ -73.765938791777856, 40.855693471663059 ], [ -73.765920846299366, 40.855678061952467 ], [ -73.765905145824775, 40.855664365114286 ], [ -73.765889446471064, 40.855650664595913 ], [ -73.765880470130526, 40.855643813427974 ], [ -73.765870376726951, 40.855635251672808 ], [ -73.765860279107912, 40.855627543648929 ], [ -73.765849058883688, 40.855618979687044 ], [ -73.765827748386045, 40.855601000313158 ], [ -73.765817654992219, 40.855592439557164 ], [ -73.765806439002588, 40.8555830201012 ], [ -73.765795223124925, 40.855573601565752 ], [ -73.765776153424753, 40.855558188626851 ], [ -73.765759319589066, 40.855547049517959 ], [ -73.765748100710255, 40.85553848646888 ], [ -73.765736877619773, 40.855530775227002 ], [ -73.765720048705518, 40.855517930563366 ], [ -73.765708826721678, 40.855510220241023 ], [ -73.765688628550308, 40.855495658652309 ], [ -73.76567853097356, 40.855487950611035 ], [ -73.765667310904874, 40.85547938663148 ], [ -73.765657222880165, 40.855469970374962 ], [ -73.765646005826284, 40.855460552657348 ], [ -73.76562919079619, 40.855443435206801 ], [ -73.765613558755604, 40.855430799181505 ], [ -73.765632044933326, 40.855413649174771 ], [ -73.765728198748931, 40.855362417289676 ], [ -73.76582765034459, 40.855333188504694 ], [ -73.765959900860636, 40.855294319765513 ], [ -73.76619143772929, 40.855273361406034 ], [ -73.766460897383141, 40.855237579816901 ], [ -73.766575218545483, 40.855206570461775 ], [ -73.766667862868815, 40.855148700371053 ], [ -73.766761886806108, 40.85506564617539 ], [ -73.766853890138904, 40.854997008298945 ], [ -73.766929775947048, 40.85496016134406 ], [ -73.767053982680281, 40.854940303428833 ], [ -73.767257242851173, 40.854919816189422 ], [ -73.767476065910131, 40.854900481098525 ], [ -73.767705285801711, 40.854835777058554 ], [ -73.767907520290791, 40.854745412702258 ], [ -73.768029562107102, 40.854671814982815 ], [ -73.768124255532186, 40.854591987500321 ], [ -73.768210231397575, 40.854423871369711 ], [ -73.768303014895707, 40.854101721096505 ], [ -73.768346143754741, 40.85397771950538 ], [ -73.768438891571478, 40.853850374921919 ], [ -73.768620556266626, 40.853711999532763 ], [ -73.768936788298717, 40.853547491019825 ], [ -73.769170352604903, 40.853417089090691 ], [ -73.769294168146217, 40.853314831716489 ], [ -73.769376307861251, 40.85322562013036 ], [ -73.769469215514704, 40.853085812245425 ], [ -73.769525266674464, 40.852951716213653 ], [ -73.769548256290065, 40.852855162428881 ], [ -73.769557971383293, 40.852734396587842 ], [ -73.769543891999604, 40.852597514771546 ], [ -73.769497698918656, 40.852449990548642 ], [ -73.769409102122324, 40.852324315570378 ], [ -73.769406328528476, 40.852307827419246 ], [ -73.769401885439208, 40.852291589834742 ], [ -73.769397444101159, 40.852274498511065 ], [ -73.769393003976774, 40.852257407274664 ], [ -73.769386319994481, 40.852238601388976 ], [ -73.76938410881553, 40.852227494814777 ], [ -73.769377432082109, 40.852206981626857 ], [ -73.769370747002696, 40.852188176741713 ], [ -73.769368532872164, 40.852177922899862 ], [ -73.769365194507515, 40.852167666723567 ], [ -73.769359642553255, 40.85214630304872 ], [ -73.7693540882115, 40.852126644925896 ], [ -73.769351877046589, 40.852115537430777 ], [ -73.769349665883851, 40.852104429015519 ], [ -73.769344121076941, 40.852081357117711 ], [ -73.76933743426892, 40.852063406721818 ], [ -73.769329623237596, 40.852045452318158 ], [ -73.769324056488657, 40.852028359658938 ], [ -73.769318476140484, 40.852015537185906 ], [ -73.769312902938736, 40.852001004650454 ], [ -73.769306207254402, 40.851985617047191 ], [ -73.769298399090545, 40.851966809909491 ], [ -73.769289470310525, 40.851946293129764 ], [ -73.769281671156648, 40.851924923194993 ], [ -73.769274978454092, 40.851908681016823 ], [ -73.769268290464012, 40.851890732454095 ], [ -73.769258260536049, 40.851864234266166 ], [ -73.769252680214635, 40.851851411705844 ], [ -73.769245977429009, 40.851837729642973 ], [ -73.769239268703856, 40.851825760404495 ], [ -73.769233678962465, 40.851816352537945 ], [ -73.769225851944597, 40.851802671821069 ], [ -73.769216908395165, 40.851786423376645 ], [ -73.7692079553008, 40.85177359322519 ], [ -73.76920012829008, 40.851759913426548 ], [ -73.769192295362657, 40.851747939172753 ], [ -73.769183332284513, 40.851737670809385 ], [ -73.769173236623189, 40.851729109414997 ], [ -73.769158658893133, 40.851716267076533 ], [ -73.769149707566712, 40.851702584101417 ], [ -73.769144127279503, 40.851689761619234 ], [ -73.769137422774079, 40.85167693504382 ], [ -73.769135220558255, 40.851663264665113 ], [ -73.769134139057073, 40.851651305769757 ], [ -73.769130798331631, 40.851641049580884 ], [ -73.769125228166175, 40.851625663383878 ], [ -73.769120776296148, 40.851611987661457 ], [ -73.769118574085866, 40.851598317282253 ], [ -73.769116370659617, 40.851584647903088 ], [ -73.769114175489875, 40.851569267545081 ], [ -73.769110852675936, 40.851553886684719 ], [ -73.769106394885398, 40.85154191826603 ], [ -73.769103063616441, 40.851529956620212 ], [ -73.76909748336233, 40.851517131373875 ], [ -73.769088516145487, 40.851507718575803 ], [ -73.769080689201658, 40.851494036090685 ], [ -73.769076234375802, 40.851481216695561 ], [ -73.769068421610868, 40.851464118603978 ], [ -73.769057222555503, 40.851449574784056 ], [ -73.769048265469351, 40.851437598267559 ], [ -73.769045372656265, 40.851432188511318 ], [ -73.769020846135604, 40.851349484902521 ], [ -73.768899411069157, 40.851100081530511 ], [ -73.768854937891717, 40.850839235789692 ], [ -73.768850942832671, 40.850757280809049 ], [ -73.76886986094695, 40.850676232707606 ], [ -73.768962118491203, 40.850536491383266 ], [ -73.769007804661214, 40.850419537443742 ], [ -73.769039244232971, 40.850323841675689 ], [ -73.769055731444766, 40.850091733127627 ], [ -73.769065501229633, 40.850036954871378 ], [ -73.76919812084418, 40.84950718403956 ], [ -73.769387694930472, 40.849026519280187 ], [ -73.769559293184486, 40.848628381221523 ], [ -73.769663834417784, 40.848324259357547 ], [ -73.769679865899818, 40.848177408806109 ], [ -73.769660949395472, 40.848088477529117 ], [ -73.769661677860569, 40.848085481141396 ], [ -73.76966511073789, 40.848068404714681 ], [ -73.769669667240862, 40.848052185026113 ], [ -73.769674231407549, 40.848033401702089 ], [ -73.769679913809426, 40.848016332446178 ], [ -73.769684475011019, 40.847998403693836 ], [ -73.769689042125137, 40.847978767553229 ], [ -73.769693600474127, 40.847961693372802 ], [ -73.769697033333699, 40.847944617864854 ], [ -73.769701591561898, 40.847927545441507 ], [ -73.769705015015802, 40.8479138845466 ], [ -73.769709561410096, 40.847900227651436 ], [ -73.769712994265561, 40.847883151222767 ], [ -73.769716440152507, 40.847862661022788 ], [ -73.769718769544767, 40.847839603935043 ], [ -73.769719938078026, 40.847826792193992 ], [ -73.769719985397586, 40.847813127313863 ], [ -73.7697211509726, 40.847801170144983 ], [ -73.769722314785426, 40.847790071147216 ], [ -73.769722356201939, 40.847778110812413 ], [ -73.769723521761733, 40.847766157239946 ], [ -73.769724688548095, 40.847754199235752 ], [ -73.769724724036479, 40.847743950723078 ], [ -73.769725912728148, 40.847726016987245 ], [ -73.769725968923964, 40.847709788390141 ], [ -73.769724901490164, 40.847692704726541 ], [ -73.769721591671541, 40.847673904747737 ], [ -73.769718281307746, 40.847655962024938 ], [ -73.769713837241525, 40.847639724435673 ], [ -73.769710519754355, 40.847623489934541 ], [ -73.769704957451623, 40.847605541875815 ], [ -73.769699393296889, 40.847588447469803 ], [ -73.769694943431233, 40.847573918941897 ], [ -73.769690497521054, 40.847558535007188 ], [ -73.76968492165183, 40.847544857050792 ], [ -73.769679347533355, 40.84753032443566 ], [ -73.769672655169558, 40.847514084109683 ], [ -73.769664837453448, 40.847497838021738 ], [ -73.769661493361241, 40.847489290071529 ], [ -73.769652541403659, 40.847475606286984 ], [ -73.769644715911852, 40.847461925590515 ], [ -73.769639135888241, 40.847449102201537 ], [ -73.769631309304202, 40.847435420581832 ], [ -73.769626848732457, 40.84742430766709 ], [ -73.769622398253873, 40.847410631956492 ], [ -73.76961906478931, 40.847398669392334 ], [ -73.769612381344643, 40.847379862667907 ], [ -73.76960567717704, 40.84736703795032 ], [ -73.769598971805635, 40.847354212227373 ], [ -73.769588905709696, 40.847337962475947 ], [ -73.76957660796046, 40.847316586227265 ], [ -73.76956989842985, 40.847304614236087 ], [ -73.769563192533582, 40.847292643088068 ], [ -73.769556485429305, 40.847280671100897 ], [ -73.769549778212479, 40.847268700953244 ], [ -73.769543068156423, 40.84725758261748 ], [ -73.7695374792834, 40.847247322857555 ], [ -73.769529655710315, 40.847232785820601 ], [ -73.769524071013336, 40.847221672410193 ], [ -73.769517366888266, 40.847208844928268 ], [ -73.769509546279693, 40.847193455157644 ], [ -73.769500608543325, 40.847176355751166 ], [ -73.769489421951846, 40.847158397269787 ], [ -73.769481595441803, 40.84714471304526 ], [ -73.769476004841891, 40.847135306936863 ], [ -73.76946817647179, 40.847122479043598 ], [ -73.769459233483289, 40.847106233282631 ], [ -73.769450288757355, 40.847090839417938 ], [ -73.769437975084955, 40.84707373241887 ], [ -73.769427905003624, 40.847058338059057 ], [ -73.769416710783148, 40.847042940613242 ], [ -73.769405520626336, 40.847026690352536 ], [ -73.76939207569589, 40.847011289321678 ], [ -73.769378637910791, 40.846994179061923 ], [ -73.769362946340578, 40.846977919874377 ], [ -73.769349498469339, 40.846963372406933 ], [ -73.769338299566343, 40.846949684101695 ], [ -73.769324858841756, 40.846933429327883 ], [ -73.769312536233471, 40.846918884191659 ], [ -73.769297961279079, 40.846905188205632 ], [ -73.769285632867806, 40.846892351207543 ], [ -73.76927443387963, 40.846878662895712 ], [ -73.769262104267384, 40.846865825056327 ], [ -73.769250902433839, 40.846852991230932 ], [ -73.769237448684436, 40.846840152059841 ], [ -73.769224001972717, 40.846825603743348 ], [ -73.769211679515593, 40.846811059432618 ], [ -73.769201597665813, 40.846799082506799 ], [ -73.769191514068737, 40.846787959151008 ], [ -73.769180306880145, 40.846775977209667 ], [ -73.769169099037541, 40.846764851684355 ], [ -73.769157891858612, 40.84675286973949 ], [ -73.769146685882831, 40.846740891395044 ], [ -73.769134360492757, 40.84672720081192 ], [ -73.769120912725413, 40.846712652397159 ], [ -73.769106347853622, 40.846696394510374 ], [ -73.769090657743632, 40.846680134366274 ], [ -73.769074967529846, 40.846663875057367 ], [ -73.769058159770751, 40.846645050691059 ], [ -73.769045841563994, 40.846629650955911 ], [ -73.769038430859766, 40.846621869605357 ], [ -73.769602470071021, 40.846012139243378 ], [ -73.769717800943269, 40.846097198306687 ], [ -73.769806336155057, 40.846142829455218 ], [ -73.769911309519671, 40.846195954998059 ], [ -73.770003240447068, 40.84625346677548 ], [ -73.770092673172442, 40.846325348989282 ], [ -73.770188774354722, 40.846449267985008 ], [ -73.770241854688351, 40.846575771972326 ], [ -73.770288278889311, 40.846691054175572 ], [ -73.770378174694471, 40.846819655841912 ], [ -73.770499131863104, 40.846962924338314 ], [ -73.770921179635621, 40.847367967002775 ], [ -73.771154754960023, 40.847626649210554 ], [ -73.771315382938738, 40.847878194750479 ], [ -73.771336887115879, 40.847961757712191 ], [ -73.771317709886674, 40.847992260620082 ], [ -73.771203508307735, 40.848165421813455 ], [ -73.771182017740614, 40.848200401226421 ], [ -73.771155174346148, 40.848483065981043 ], [ -73.771149771157909, 40.84864111259796 ], [ -73.771147670242627, 40.848702565870759 ], [ -73.771047401771611, 40.849075624233564 ], [ -73.770930044245972, 40.849511856111903 ], [ -73.770876441226747, 40.849725284204268 ], [ -73.770886528602858, 40.849735553671849 ], [ -73.77089663179504, 40.849741553039756 ], [ -73.770897708908237, 40.849755220232673 ], [ -73.770870653664019, 40.849772248818994 ], [ -73.770989168037161, 40.849977444055703 ], [ -73.770982004244061, 40.850014046344285 ], [ -73.770981856011986, 40.850021610174785 ], [ -73.770983135486276, 40.850030269179669 ], [ -73.770985679067493, 40.850038901915866 ], [ -73.771069307435425, 40.850180254048539 ], [ -73.771747650886169, 40.851195238323434 ], [ -73.771867318584057, 40.85139367196291 ], [ -73.771938898802276, 40.851513393106899 ], [ -73.771962397789736, 40.851549312626197 ], [ -73.772006111632848, 40.851594667964335 ], [ -73.772028774431192, 40.851615874862496 ], [ -73.772197173152108, 40.851867844609636 ], [ -73.772202718422818, 40.851873086604719 ], [ -73.772211592248652, 40.851878385540289 ], [ -73.772226842809374, 40.851884724577047 ], [ -73.77224083769751, 40.851889261874042 ], [ -73.772256492309566, 40.851892954227694 ], [ -73.77226898964895, 40.851894317965986 ], [ -73.77245904369947, 40.851902564844316 ], [ -73.772452222062029, 40.852058066474271 ], [ -73.77245992727029, 40.852107192928329 ], [ -73.77246433894193, 40.852132826087583 ], [ -73.77244667474271, 40.852364262755003 ], [ -73.772417415919392, 40.852367621464595 ], [ -73.772391521629771, 40.852374405120962 ], [ -73.772381921295818, 40.852385916983692 ], [ -73.772381305590486, 40.852400862219952 ], [ -73.772383502644743, 40.852416242515964 ], [ -73.77238458132058, 40.852429909608659 ], [ -73.772378937241257, 40.852435876910462 ], [ -73.772364290269024, 40.852442680928995 ], [ -73.7723462838714, 40.852445209103266 ], [ -73.772335029579423, 40.852446895111477 ], [ -73.772318150459029, 40.852448570010267 ], [ -73.772299014591269, 40.852451946842095 ], [ -73.772285510495209, 40.85245362932281 ], [ -73.772255124465218, 40.852457838585551 ], [ -73.77223037192249, 40.85245949791458 ], [ -73.772207873817507, 40.852459453458614 ], [ -73.772183121263808, 40.852461115455249 ], [ -73.772158368719786, 40.852462774770153 ], [ -73.772135864760045, 40.852464438523242 ], [ -73.772115611707292, 40.852466104965366 ], [ -73.772097608225963, 40.852467777609164 ], [ -73.772079607775694, 40.852468598353909 ], [ -73.772062734386893, 40.852468564990652 ], [ -73.772046986560397, 40.852468533850718 ], [ -73.772028990767524, 40.852467641929202 ], [ -73.772009870619158, 40.852466750373843 ], [ -73.771992993202062, 40.852467570733495 ], [ -73.771970497519646, 40.852467526236012 ], [ -73.771950248992226, 40.852467486179741 ], [ -73.771930007645864, 40.852465737898122 ], [ -73.77191088284988, 40.852466554553189 ], [ -73.771891754531211, 40.852467370444231 ], [ -73.771872628011039, 40.85246904258571 ], [ -73.77185012111768, 40.852471559099591 ], [ -73.771826484114584, 40.852475783363261 ], [ -73.771803972448623, 40.852480009849792 ], [ -73.77179496368484, 40.852482553909155 ], [ -73.771782564615648, 40.852490215961275 ], [ -73.771773518833641, 40.852503865775397 ], [ -73.771765602168557, 40.852515806911882 ], [ -73.77175881143198, 40.852528605690793 ], [ -73.771750888273147, 40.852543111383142 ], [ -73.771745224112721, 40.852554203320864 ], [ -73.771739553573539, 40.852567858894069 ], [ -73.771731632126034, 40.852581510010978 ], [ -73.771734413157247, 40.852590482687027 ], [ -73.771755212262377, 40.852593512592549 ], [ -73.771769834159457, 40.852594395200356 ], [ -73.771793140537952, 40.852600163122901 ], [ -73.771769787248274, 40.852608062830285 ], [ -73.771752903416015, 40.852611446791848 ], [ -73.771737140198809, 40.85261483029344 ], [ -73.771723624432582, 40.852619929991 ], [ -73.771712338939551, 40.852631011715104 ], [ -73.771705557603653, 40.852640392198502 ], [ -73.771702163137405, 40.852646364759927 ], [ -73.771694237527058, 40.852660870443266 ], [ -73.771691946782042, 40.852672821796496 ], [ -73.771695276218253, 40.852686496113243 ], [ -73.771707610828287, 40.852697622773086 ], [ -73.77172333707766, 40.852703634120516 ], [ -73.771740753225785, 40.852709646971896 ], [ -73.771737894492048, 40.852723308112353 ], [ -73.771729990625872, 40.852731832802043 ], [ -73.771719845743007, 40.852737791075015 ], [ -73.771708585512897, 40.852741187086444 ], [ -73.771691706302008, 40.852742861893475 ], [ -73.771679321730147, 40.852746252077395 ], [ -73.771671424923341, 40.852753070297481 ], [ -73.771669128292984, 40.852766733470915 ], [ -73.771670214411188, 40.852777838691232 ], [ -73.771673539711273, 40.852792364901028 ], [ -73.771676857934182, 40.852808599247524 ], [ -73.771680179195528, 40.852823981782784 ], [ -73.77168351622592, 40.852835092464943 ], [ -73.771685707275878, 40.852852179155853 ], [ -73.771689034305567, 40.852865850791098 ], [ -73.771693483851891, 40.852880380983116 ], [ -73.771699063006835, 40.85289405883475 ], [ -73.771706886514593, 40.852908593950488 ], [ -73.771712458596582, 40.852923980021991 ], [ -73.771716901080595, 40.852940217514757 ], [ -73.771720226399012, 40.852954743721497 ], [ -73.771726925778992, 40.852969277447215 ], [ -73.771734751616535, 40.852983812566791 ], [ -73.771743708290259, 40.852995789788231 ], [ -73.771752669006602, 40.853006910599454 ], [ -73.771765001956695, 40.853018894505517 ], [ -73.771778459278778, 40.853030877958496 ], [ -73.771789676789879, 40.853040294998898 ], [ -73.771798652172905, 40.853047146627922 ], [ -73.771814942954521, 40.853053158159852 ], [ -73.771835767229888, 40.853048927493823 ], [ -73.77185264823089, 40.85304639984961 ], [ -73.771871780265172, 40.853043874900038 ], [ -73.771890910980844, 40.853041349024586 ], [ -73.771907791472742, 40.853039675112313 ], [ -73.771928044818594, 40.853038007870794 ], [ -73.771942671462682, 40.853037182230018 ], [ -73.771959547811235, 40.853036361959191 ], [ -73.771978678634881, 40.853033835149347 ], [ -73.771997810545855, 40.853031312020086 ], [ -73.772013571431117, 40.853027926721936 ], [ -73.772022592585913, 40.853021112458755 ], [ -73.77203613597743, 40.853008325261698 ], [ -73.772044053265901, 40.852995530451651 ], [ -73.772039596062498, 40.852983562151572 ], [ -73.772043006869438, 40.852972465744251 ], [ -73.772056523997122, 40.852967367768635 ], [ -73.772072266089552, 40.852969106210189 ], [ -73.772086885646857, 40.852969989693072 ], [ -73.772100384595518, 40.852970870122327 ], [ -73.772116127296343, 40.852971756659578 ], [ -73.772135242837834, 40.852974357260067 ], [ -73.772149848982991, 40.852979509079717 ], [ -73.772164446453615, 40.852987225449887 ], [ -73.772181286456458, 40.852996655404787 ], [ -73.772192504020552, 40.853006072407368 ], [ -73.772202590271121, 40.853017196411642 ], [ -73.772211552893182, 40.853027462612225 ], [ -73.772218271543508, 40.85303601890508 ], [ -73.772223862523845, 40.853046279362381 ], [ -73.772232808699016, 40.853061671238748 ], [ -73.772240645254129, 40.853072790710705 ], [ -73.772246241494102, 40.853080488365443 ], [ -73.77225407926683, 40.853091607922622 ], [ -73.772264159690522, 40.853104440061827 ], [ -73.772271993334087, 40.853116413183002 ], [ -73.772276451802796, 40.853128380639951 ], [ -73.772279773113098, 40.853143761316751 ], [ -73.772280853486265, 40.853156575674944 ], [ -73.772283062247084, 40.853168538603597 ], [ -73.772285279789457, 40.853177936980053 ], [ -73.772287480983991, 40.85319246362679 ], [ -73.772290825706889, 40.853201009652416 ], [ -73.77229415883069, 40.853212974801764 ], [ -73.772298605610985, 40.853228358622339 ], [ -73.772301938631841, 40.85324032293488 ], [ -73.772304146787505, 40.853253139518962 ], [ -73.77230410291827, 40.853265950734624 ], [ -73.772304064895039, 40.853277054731194 ], [ -73.772301763146586, 40.853291569722707 ], [ -73.772297216304239, 40.853306080363225 ], [ -73.772290416211462, 40.853320588308989 ], [ -73.7722847386555, 40.853335952128951 ], [ -73.772279065236688, 40.853350461463279 ], [ -73.772274517781184, 40.853364119279391 ], [ -73.772271095300226, 40.853378630299694 ], [ -73.772265410672659, 40.853395702340322 ], [ -73.772259728464206, 40.853412775304157 ], [ -73.772251804106745, 40.853427278349855 ], [ -73.772239378470118, 40.853442627998774 ], [ -73.772226954652496, 40.853457123908989 ], [ -73.772215673851846, 40.853466497370633 ], [ -73.772206647413995, 40.853474166215243 ], [ -73.772202118703134, 40.853482699360775 ], [ -73.77220096336066, 40.853492092830813 ], [ -73.772203166878953, 40.853504909407107 ], [ -73.772206492325822, 40.853519437356113 ], [ -73.772214324794149, 40.853531410563015 ], [ -73.77222215676656, 40.853544237340479 ], [ -73.772227739509049, 40.853556207856151 ], [ -73.772232207992687, 40.853565611601972 ], [ -73.772243418598677, 40.853576735897747 ], [ -73.772255759421995, 40.853586156116172 ], [ -73.772273726523707, 40.853595160535043 ], [ -73.772277065152608, 40.853605845208534 ], [ -73.772271396354256, 40.853618644391396 ], [ -73.7722612409992, 40.853628021001981 ], [ -73.772253328313113, 40.853639108520376 ], [ -73.772249916183881, 40.853650205766314 ], [ -73.772248744017915, 40.853663868492823 ], [ -73.772249828417401, 40.853675830121013 ], [ -73.772253161563924, 40.853687793430424 ], [ -73.772258751395597, 40.853698053046188 ], [ -73.772271097980763, 40.853705765874764 ], [ -73.772284585881522, 40.853709208989358 ], [ -73.772303715157761, 40.853707540297584 ], [ -73.772311565221656, 40.853714386986475 ], [ -73.772317146280102, 40.853727212071298 ], [ -73.772320479335605, 40.853739174542127 ], [ -73.772323810667061, 40.853751994264385 ], [ -73.772329390024794, 40.853765672082211 ], [ -73.772334981586084, 40.853775077957955 ], [ -73.772347304915499, 40.853789621915759 ], [ -73.772359638124243, 40.853801603915237 ], [ -73.772368609535832, 40.853809308311696 ], [ -73.772378684239698, 40.853823849582149 ], [ -73.772378649154248, 40.853834098921212 ], [ -73.772372980349417, 40.853846900033744 ], [ -73.772772163650572, 40.853850861352285 ], [ -73.772773314787926, 40.853961069321464 ], [ -73.772689816988176, 40.853960271739957 ], [ -73.772690003861882, 40.853905606586792 ], [ -73.772348044635706, 40.85390194306067 ], [ -73.772339007313462, 40.853913454271286 ], [ -73.772327710610782, 40.853927099680199 ], [ -73.77231867656495, 40.853937330325614 ], [ -73.772310775550267, 40.853945001400653 ], [ -73.772301736737219, 40.853956943868695 ], [ -73.772290445880259, 40.853968878373415 ], [ -73.77228254193227, 40.853977403934074 ], [ -73.772271248135624, 40.853990194765935 ], [ -73.772259959691013, 40.854002129272381 ], [ -73.772252049878006, 40.854012364895027 ], [ -73.772239632912417, 40.854025151663265 ], [ -73.772229467506378, 40.854037089305614 ], [ -73.772219305024365, 40.854048172291925 ], [ -73.772209139608279, 40.854060110768735 ], [ -73.772195600184162, 40.854072040820753 ], [ -73.77218318318711, 40.854084830344291 ], [ -73.772171895213461, 40.854095910264462 ], [ -73.772157222721603, 40.854110402641638 ], [ -73.772144797552713, 40.85412489761881 ], [ -73.772131253342138, 40.854138538565699 ], [ -73.77212221509177, 40.854149624769427 ], [ -73.772113182195838, 40.854159855400724 ], [ -73.772106393683046, 40.854170946888182 ], [ -73.772099609203281, 40.854181182883366 ], [ -73.772091694710241, 40.854193124043249 ], [ -73.772083776072293, 40.854205920609132 ], [ -73.772074740231488, 40.854217005892409 ], [ -73.772065686114914, 40.854232361266838 ], [ -73.77207015340332, 40.854241766771814 ], [ -73.772081374086056, 40.854250330130633 ], [ -73.77208809405812, 40.854258885511591 ], [ -73.772091442935803, 40.854266580569025 ], [ -73.772089158055891, 40.854276825459273 ], [ -73.772081262829943, 40.854282788211762 ], [ -73.772070009937565, 40.854283619703537 ], [ -73.772049781103362, 40.854278027251596 ], [ -73.772038512102753, 40.854283557420665 ], [ -73.772030613432079, 40.85429123023718 ], [ -73.772018194060124, 40.85430401605629 ], [ -73.772004655646043, 40.854315948765297 ], [ -73.771992237479068, 40.854328733747643 ], [ -73.771979807580962, 40.85434493877159 ], [ -73.771973026098564, 40.854354322029366 ], [ -73.771957216197862, 40.854372227763989 ], [ -73.771944793356781, 40.854386723643792 ], [ -73.771933505290718, 40.854397804460106 ], [ -73.771924466975591, 40.854408889643992 ], [ -73.771916554137562, 40.854419977974032 ], [ -73.771903009830964, 40.854433616216966 ], [ -73.771892842576108, 40.854446410158822 ], [ -73.771882674111907, 40.854459202258539 ], [ -73.771873638089687, 40.854470288446727 ], [ -73.771862326557439, 40.854488201144726 ], [ -73.771851012078599, 40.854506970338072 ], [ -73.771843087495569, 40.854521475109209 ], [ -73.771832917292542, 40.854535120941726 ], [ -73.771820477312161, 40.854553887820494 ], [ -73.7718125684722, 40.854564122492789 ], [ -73.771804645083719, 40.854578627347287 ], [ -73.771797856484767, 40.854589716974303 ], [ -73.771789923088846, 40.854606782778923 ], [ -73.771781996754385, 40.854622143040643 ], [ -73.771771808831431, 40.854640911694581 ], [ -73.771762742344379, 40.854660539824025 ], [ -73.771754811855232, 40.854676753731198 ], [ -73.77175026541596, 40.854690410690807 ], [ -73.771744575892072, 40.854709190926627 ], [ -73.771741150788642, 40.854723705519454 ], [ -73.771736585039918, 40.854743339042912 ], [ -73.771734294216699, 40.854755293990443 ], [ -73.77173087791617, 40.854767243027716 ], [ -73.77172859112801, 40.854778343404703 ], [ -73.771724046505639, 40.854791146708379 ], [ -73.771719489427923, 40.854808219110986 ], [ -73.771714937104534, 40.854823585211342 ], [ -73.771711513712702, 40.854837245228062 ], [ -73.771706976049671, 40.854848340226944 ], [ -73.771703566809592, 40.85485858296709 ], [ -73.771691076872145, 40.85489187110641 ], [ -73.771684265971686, 40.854909793704408 ], [ -73.771675203464056, 40.854928565498007 ], [ -73.771667258260024, 40.854949049496874 ], [ -73.77166384901183, 40.854959291314287 ], [ -73.771660435610173, 40.854970389459389 ], [ -73.771658144776637, 40.854982341643428 ], [ -73.771653566024327, 40.855005396040404 ], [ -73.771648996072926, 40.855025886805947 ], [ -73.771644424916445, 40.855046374808659 ], [ -73.771642110601519, 40.855065162645623 ], [ -73.771639802156272, 40.855082240501197 ], [ -73.77163750079032, 40.855097610053001 ], [ -73.771636322491318, 40.855112982833298 ], [ -73.771631784796909, 40.855124077828684 ], [ -73.771630628750572, 40.855132617632179 ], [ -73.771628329104075, 40.855147132608771 ], [ -73.771624911037563, 40.855159937220762 ], [ -73.771621469386531, 40.855179576479259 ], [ -73.771618058396029, 40.855190672869774 ], [ -73.771615768052669, 40.855201772316654 ], [ -73.771611227416656, 40.855213720962162 ], [ -73.771602149071668, 40.855236764685237 ], [ -73.771594206735784, 40.855256395945609 ], [ -73.771589660233374, 40.855270050137271 ], [ -73.771587383419742, 40.855278587718161 ], [ -73.771586219777689, 40.855289689480493 ], [ -73.771583917797969, 40.855304205372576 ], [ -73.771581608705844, 40.855322138639615 ], [ -73.771580415727314, 40.855341779675491 ], [ -73.771576984690057, 40.855358001647751 ], [ -73.771575801716182, 40.855375082567605 ], [ -73.771571215837241, 40.855399842504418 ], [ -73.771567781966311, 40.855416919885187 ], [ -73.77156548339741, 40.855431434945743 ], [ -73.771563186657374, 40.855445096270493 ], [ -73.771560884043083, 40.855460467657515 ], [ -73.77156083122135, 40.855475842582614 ], [ -73.771561903907028, 40.855491217981594 ], [ -73.77156636706745, 40.85550147623259 ], [ -73.771577570289509, 40.855515165311594 ], [ -73.771586532531074, 40.855526286132012 ], [ -73.771595488311974, 40.855538262438529 ], [ -73.771605570194126, 40.855551093794645 ], [ -73.771615657348576, 40.855561365026027 ], [ -73.771626874051762, 40.85557078207578 ], [ -73.771638083171055, 40.85558276108511 ], [ -73.771654917383941, 40.855594752992026 ], [ -73.77166726424953, 40.855602465884076 ], [ -73.771680739674153, 40.85560932459029 ], [ -73.771690826234305, 40.855620448550539 ], [ -73.771699778500746, 40.85563413131915 ], [ -73.771707608193154, 40.855646959042105 ], [ -73.771715436278157, 40.855660641423313 ], [ -73.771719886019, 40.855675171607231 ], [ -73.771723217344018, 40.855687987744666 ], [ -73.771726534507167, 40.855704223919297 ], [ -73.771725359746171, 40.8557195957858 ], [ -73.771718552317054, 40.85573581099279 ], [ -73.771713990512367, 40.855754594377061 ], [ -73.771713952392318, 40.855765697448504 ], [ -73.771717246209903, 40.855788765594369 ], [ -73.771721687170384, 40.855805855894658 ], [ -73.771726156237932, 40.855814406835563 ], [ -73.771738499719959, 40.85582382610648 ], [ -73.771749725278809, 40.855830681353211 ], [ -73.771756461236009, 40.855834966573241 ], [ -73.771776653874582, 40.855851235320358 ], [ -73.7717912388906, 40.855862366420531 ], [ -73.771804703747947, 40.855872644237401 ], [ -73.771817050802014, 40.855880354435527 ], [ -73.771827137416608, 40.855891481143573 ], [ -73.771830489286856, 40.855898319795152 ], [ -73.771831562038528, 40.855913696110598 ], [ -73.771831494632096, 40.855933339373372 ], [ -73.771832563239187, 40.855949571094982 ], [ -73.771833631851379, 40.855965800975113 ], [ -73.771838081635323, 40.855980332073777 ], [ -73.771841414200722, 40.855993150971024 ], [ -73.77184249333196, 40.856005963483064 ], [ -73.771845812967968, 40.856022197901773 ], [ -73.771849138456332, 40.856036727694779 ], [ -73.771851338446183, 40.856051251579949 ], [ -73.771849044677197, 40.856064058420323 ], [ -73.771847883994511, 40.856074306449017 ], [ -73.771845587290301, 40.856087967777867 ], [ -73.77184103905573, 40.856102478389722 ], [ -73.771839888376917, 40.856110163626283 ], [ -73.771837574591942, 40.856128096050234 ], [ -73.771837533557019, 40.856140054528353 ], [ -73.771838613896804, 40.85615286796385 ], [ -73.771840822173061, 40.856165683714138 ], [ -73.771844121801067, 40.856187045472701 ], [ -73.771842948889599, 40.856201562765911 ], [ -73.771841769410216, 40.85621693453912 ], [ -73.771841704932555, 40.856235725069993 ], [ -73.771841643384349, 40.856253661867378 ], [ -73.771838215296171, 40.85626902927379 ], [ -73.771834803068145, 40.856280127422586 ], [ -73.771829141024043, 40.856291220198187 ], [ -73.771818948819657, 40.856310844340946 ], [ -73.771812133660916, 40.856329622346927 ], [ -73.771809825215442, 40.856346700203403 ], [ -73.771804151322911, 40.856361210342698 ], [ -73.771798486340188, 40.856373155847514 ], [ -73.771793945656711, 40.856385104581506 ], [ -73.771792784959914, 40.856395352609056 ], [ -73.771791615470036, 40.856408162509474 ], [ -73.771785949264114, 40.856420109014984 ], [ -73.771781420301764, 40.856428641220788 ], [ -73.771775758242143, 40.856439732235806 ], [ -73.771768955999875, 40.856455092875983 ], [ -73.771763283917963, 40.856468749359905 ], [ -73.771757618798944, 40.856480697623766 ], [ -73.771751954412792, 40.856491789552997 ], [ -73.771742921031375, 40.856502020152092 ], [ -73.771732761018995, 40.856512250359749 ], [ -73.771718073237537, 40.856531012854546 ], [ -73.771713542432678, 40.856540397789189 ], [ -73.77170675239698, 40.856551490164797 ], [ -73.771697678051638, 40.856573678401269 ], [ -73.771691997154377, 40.856589894997775 ], [ -73.771689696254199, 40.856604410890832 ], [ -73.771690760183745, 40.856622350836098 ], [ -73.771692957226946, 40.856637728457436 ], [ -73.771695165995922, 40.856649691390025 ], [ -73.771697375985227, 40.856661652568604 ], [ -73.771697331987369, 40.856674466537861 ], [ -73.771698394712899, 40.856692404639006 ], [ -73.771699458650502, 40.856710342827526 ], [ -73.771698253942077, 40.856733402981234 ], [ -73.771695968916532, 40.856743647944313 ], [ -73.771691395927846, 40.85676499227236 ], [ -73.771687960193574, 40.856782921549311 ], [ -73.771684551353047, 40.856792312386105 ], [ -73.771681108031956, 40.856812803537814 ], [ -73.771677669869163, 40.856830732725747 ], [ -73.771676507417624, 40.856841837164801 ], [ -73.771677564280395, 40.856861481732331 ], [ -73.771678647021488, 40.856874296091249 ], [ -73.771675226450853, 40.856887101616088 ], [ -73.771676299182872, 40.856902477846511 ], [ -73.771678509169433, 40.856914440781296 ], [ -73.771682932591659, 40.856936657587759 ], [ -73.771686256887875, 40.856951184620556 ], [ -73.77169295362134, 40.856966572072558 ], [ -73.771698537770831, 40.856978541689045 ], [ -73.77170636762304, 40.85699136940908 ], [ -73.771714197589745, 40.857004196293822 ], [ -73.771726520760069, 40.857019595721603 ], [ -73.77173995997002, 40.857036703834787 ], [ -73.771753398672345, 40.857054667359648 ], [ -73.771766836278715, 40.857072631884563 ], [ -73.771779157054937, 40.857088029461615 ], [ -73.771791486118516, 40.857101720742961 ], [ -73.771797083747074, 40.857109418416293 ], [ -73.771802663892942, 40.857122242597477 ], [ -73.771810486201559, 40.857137632270174 ], [ -73.77181832024003, 40.857149604493713 ], [ -73.771825029952552, 40.857161578171656 ], [ -73.771830614154553, 40.857173544184846 ], [ -73.771832674565587, 40.857178052799298 ], [ -73.771838428187465, 40.857190642909998 ], [ -73.771842892708378, 40.857200902988502 ], [ -73.771849602442842, 40.857212873068399 ], [ -73.771855189570303, 40.85722398902729 ], [ -73.77186077560134, 40.857235104062333 ], [ -73.771866358597848, 40.857247071910059 ], [ -73.771871934015522, 40.857261602471304 ], [ -73.771879753421757, 40.857277847547408 ], [ -73.771884206238326, 40.85729152323249 ], [ -73.771892015654899, 40.857310328337618 ], [ -73.771897602799086, 40.857321444376737 ], [ -73.771903185920053, 40.85733341214025 ], [ -73.771911009484, 40.85734880264426 ], [ -73.771916589564469, 40.857361625982882 ], [ -73.771925521602171, 40.8573812878832 ], [ -73.771931101685027, 40.857394112139808 ], [ -73.771935566245091, 40.857404369455459 ], [ -73.771941150475044, 40.857416339059291 ], [ -73.771945606247769, 40.857429159250771 ], [ -73.771952307224709, 40.857443694795748 ], [ -73.771959000040397, 40.857459935795838 ], [ -73.771965695172341, 40.857476176883843 ], [ -73.771971262345815, 40.857492416576576 ], [ -73.771974600869797, 40.857503528080002 ], [ -73.771976803867716, 40.857517197471971 ], [ -73.771981253791367, 40.857531726721056 ], [ -73.771989074470753, 40.85754797095376 ], [ -73.771992415229249, 40.857557372386324 ], [ -73.771992365432993, 40.857571893655212 ], [ -73.771998815740588, 40.857577245448631 ], [ -73.77200817436453, 40.857554842584321 ], [ -73.772005974298395, 40.857540315945776 ], [ -73.772003771802176, 40.857525791978809 ], [ -73.772004938337375, 40.857513837569677 ], [ -73.772007217484045, 40.857505300908556 ], [ -73.772007255562428, 40.857494196000268 ], [ -73.772006173449839, 40.857482237143884 ], [ -73.772003956316141, 40.857471982435804 ], [ -73.771999499915324, 40.857460015902042 ], [ -73.77198944352574, 40.857440350863918 ], [ -73.77198162578641, 40.857423252978826 ], [ -73.771976052050107, 40.857407867850036 ], [ -73.771970481955222, 40.857392481724304 ], [ -73.771968261392004, 40.857383936163174 ], [ -73.771966049616978, 40.857372827808177 ], [ -73.771963842488262, 40.857360012065357 ], [ -73.771960509324614, 40.857348046914041 ], [ -73.771957210108951, 40.857325830587484 ], [ -73.771956141441848, 40.857309601548685 ], [ -73.771957312628729, 40.857295938915534 ], [ -73.771958479173421, 40.85728398350124 ], [ -73.771958523118187, 40.857271170454624 ], [ -73.771957450310381, 40.857255795064091 ], [ -73.771955232690402, 40.857246393173959 ], [ -73.771954146448721, 40.857235288802627 ], [ -73.771953060103129, 40.857224182673363 ], [ -73.771952007921456, 40.857202826204137 ], [ -73.771950924507735, 40.857190865503902 ], [ -73.771949842914793, 40.857178052905688 ], [ -73.771949886864036, 40.857165239022507 ], [ -73.771951053399732, 40.857153285449485 ], [ -73.771951103201829, 40.85713876501584 ], [ -73.771952274506518, 40.857125099621022 ], [ -73.771953452656078, 40.857109727846506 ], [ -73.771954623950592, 40.857096065129348 ], [ -73.77195357861865, 40.857073001443695 ], [ -73.771952523511388, 40.857052498624775 ], [ -73.771955950401448, 40.857037131298419 ], [ -73.77196162541685, 40.857022622075647 ], [ -73.771970091925098, 40.857014097569845 ], [ -73.771985237659266, 40.857026087005018 ], [ -73.771991934469469, 40.857041474439477 ], [ -73.771995242480244, 40.857061125211999 ], [ -73.771997427886745, 40.8570799211113 ], [ -73.771999639660436, 40.857091028546179 ], [ -73.772001847404198, 40.857102989713432 ], [ -73.772004053315598, 40.857115807211358 ], [ -73.772007385970184, 40.857128626016248 ], [ -73.772009597740862, 40.857139735290971 ], [ -73.772011808307923, 40.857150841886828 ], [ -73.772015142679564, 40.857162807958225 ], [ -73.772017351529968, 40.857174769127205 ], [ -73.77201767302931, 40.857178053045388 ], [ -73.772018438988695, 40.857185875258153 ], [ -73.772021766295879, 40.857199548629829 ], [ -73.772022850828833, 40.857211508411517 ], [ -73.772025062612286, 40.85722261500937 ], [ -73.772028359427935, 40.857244829573233 ], [ -73.772030550203709, 40.857262770821464 ], [ -73.772032762594534, 40.857273026438797 ], [ -73.772033844096399, 40.857285839035804 ], [ -73.772034926909924, 40.857298654310512 ], [ -73.77203713283734, 40.857311470887325 ], [ -73.772038213234339, 40.857324284400775 ], [ -73.772040419158373, 40.857337101896213 ], [ -73.772041490883481, 40.857352477283584 ], [ -73.77204256359596, 40.857367854429228 ], [ -73.772042516746936, 40.857381519287635 ], [ -73.772043598351587, 40.857394334643416 ], [ -73.772044678861789, 40.857407148074394 ], [ -73.772045722294791, 40.85743106549436 ], [ -73.77204566079736, 40.857449003208188 ], [ -73.772047849159492, 40.85746694537071 ], [ -73.772050061065954, 40.857478051966496 ], [ -73.77205114549507, 40.857490012668478 ], [ -73.772052220151679, 40.857504534403247 ], [ -73.772053291762745, 40.857519912467573 ], [ -73.77205323905639, 40.857535286467282 ], [ -73.772053192209157, 40.857548951407736 ], [ -73.772053145352729, 40.85756261902592 ], [ -73.772053101432007, 40.857575430315563 ], [ -73.772053060438111, 40.857587387870616 ], [ -73.772051862907404, 40.857608738968992 ], [ -73.772050674048813, 40.857627528109646 ], [ -73.772049492979647, 40.857643755374625 ], [ -73.772048320593498, 40.857657418090582 ], [ -73.772046018016169, 40.857672788561224 ], [ -73.77204373008523, 40.857683887180272 ], [ -73.772043689086431, 40.857695845655179 ], [ -73.772042523653354, 40.857707800986553 ], [ -73.772042485581025, 40.857718905810678 ], [ -73.772043554382932, 40.85773513576779 ], [ -73.772044632963144, 40.857748802850708 ], [ -73.772046833044612, 40.85776332948798 ], [ -73.772047904778077, 40.857778704874143 ], [ -73.772048971751119, 40.85779579024161 ], [ -73.772050032765762, 40.85781458207267 ], [ -73.772048845839578, 40.857832516723612 ], [ -73.772048798988365, 40.857846182500985 ], [ -73.772048722854805, 40.857868389470909 ], [ -73.772050928800638, 40.85788120696624 ], [ -73.772055377553031, 40.85789573620913 ], [ -73.772058711975887, 40.857907700521366 ], [ -73.772062044682428, 40.857920519322839 ], [ -73.77206650222999, 40.857932484935354 ], [ -73.77206982251991, 40.857947865602902 ], [ -73.772074245632936, 40.85797093780355 ], [ -73.772077559569681, 40.857988880431499 ], [ -73.772079740885886, 40.858008531732153 ], [ -73.772080824239822, 40.858020488831443 ], [ -73.772081911711794, 40.858031597721642 ], [ -73.772082997485242, 40.858043555747031 ], [ -73.772085200514184, 40.858057227810747 ], [ -73.772086279724164, 40.858070040317159 ], [ -73.772088456515235, 40.858091399003811 ], [ -73.772089521683952, 40.85810933710281 ], [ -73.772089468985229, 40.858124711184693 ], [ -73.772089422135863, 40.858138378801506 ], [ -73.772088257427797, 40.858149479557319 ], [ -73.772088210584187, 40.858163145416384 ], [ -73.772088157879097, 40.858178521255816 ], [ -73.772089223055161, 40.858196457596826 ], [ -73.772090308221266, 40.858207565560676 ], [ -73.772091395710504, 40.858218670768856 ], [ -73.77209472016294, 40.85823319695033 ], [ -73.772096919060985, 40.858247722662952 ], [ -73.772097994841346, 40.858262244397537 ], [ -73.772099068906854, 40.858277620622736 ], [ -73.772099022059336, 40.858291288239187 ], [ -73.772097825037676, 40.858311783838488 ], [ -73.772096623370459, 40.858333988582849 ], [ -73.772097681580533, 40.858353636741604 ], [ -73.772096497472162, 40.858370718575493 ], [ -73.772096438925928, 40.858387799037899 ], [ -73.772095266027591, 40.858402317248107 ], [ -73.772096336451241, 40.858417695307203 ], [ -73.772096274975723, 40.858435630340182 ], [ -73.77209848044717, 40.858449301488754 ], [ -73.772100680568172, 40.858463826283078 ], [ -73.772102868976845, 40.858481768441358 ], [ -73.77210617588598, 40.858501417529418 ], [ -73.772108361370044, 40.858520214258156 ], [ -73.772111675335609, 40.858538158641075 ], [ -73.772112744054397, 40.858554389432605 ], [ -73.772111561167307, 40.858571468591997 ], [ -73.772110365348823, 40.85859196687057 ], [ -73.772109179528258, 40.858609901520566 ], [ -73.772104565561463, 40.858643202575848 ], [ -73.772102257110774, 40.858660280429937 ], [ -73.772099957438911, 40.858674797248355 ], [ -73.772096531003271, 40.858689309999036 ], [ -73.772093101129556, 40.858705532900842 ], [ -73.77208967418521, 40.858720900226722 ], [ -73.772085119851923, 40.858737120820138 ], [ -73.772081693409532, 40.858751633654009 ], [ -73.772077143838786, 40.858766142425786 ], [ -73.772073722738867, 40.85877980336992 ], [ -73.77207030042716, 40.858793463391464 ], [ -73.772068003676154, 40.85880712480062 ], [ -73.772065703999488, 40.858821638857748 ], [ -73.772062287536954, 40.858833591576492 ], [ -73.77206000834866, 40.858842129158063 ], [ -73.772057706949411, 40.858857498791828 ], [ -73.772055397267707, 40.858874576558144 ], [ -73.772051974947061, 40.858888236662658 ], [ -73.772048542128985, 40.858905312208009 ], [ -73.772047367999221, 40.858919830413996 ], [ -73.772045080024185, 40.858930928946819 ], [ -73.772045039027731, 40.85894288658281 ], [ -73.772174678845573, 40.85919340551321 ], [ -73.772226088846708, 40.859292584961693 ], [ -73.772233933809673, 40.859301142547039 ], [ -73.772241768171867, 40.859313117415113 ], [ -73.772252946352737, 40.859333637460217 ], [ -73.772261891665337, 40.859349883890552 ], [ -73.772274206619599, 40.859367846046531 ], [ -73.772279794616963, 40.859378105647913 ], [ -73.772288728241648, 40.859397768435677 ], [ -73.772295428289368, 40.859412301275604 ], [ -73.772302131255714, 40.859425982220976 ], [ -73.772308845933992, 40.859436243961042 ], [ -73.772315558895187, 40.859447362115056 ], [ -73.772325627493686, 40.859463610758496 ], [ -73.772334574553014, 40.859479003447476 ], [ -73.772343521614758, 40.859494396134409 ], [ -73.772350234593631, 40.859505512529928 ], [ -73.772360300176686, 40.859522614736697 ], [ -73.772371489623836, 40.859540572902866 ], [ -73.772379312348633, 40.859555962530514 ], [ -73.772383773085053, 40.859567077069755 ], [ -73.772387091820903, 40.859583311460426 ], [ -73.772392652927124, 40.859602113088194 ], [ -73.772394863130884, 40.859614076923684 ], [ -73.772395940718283, 40.859627742240249 ], [ -73.772394778341237, 40.859638845677239 ], [ -73.772394737410394, 40.859650802391812 ], [ -73.772393562131512, 40.859665320513258 ], [ -73.772391262486479, 40.859679837418646 ], [ -73.772387831426613, 40.859696058398811 ], [ -73.772381030702931, 40.85971056549711 ], [ -73.772376489893361, 40.859722515083284 ], [ -73.772370825825433, 40.859734461531303 ], [ -73.772365162364778, 40.859745554324022 ], [ -73.772358370406991, 40.859757497708038 ], [ -73.772351572097435, 40.859772003889162 ], [ -73.772345910335389, 40.859782244784419 ], [ -73.772340251007321, 40.859792482170093 ], [ -73.772327826023442, 40.859806978074658 ], [ -73.772317672547203, 40.859815500109022 ], [ -73.772303009322357, 40.859826573366497 ], [ -73.772286110769954, 40.859833374762168 ], [ -73.772270343535965, 40.859838468317463 ], [ -73.772251199688966, 40.859843553442403 ], [ -73.772235442545309, 40.859846085959198 ], [ -73.772215184205606, 40.859848607822627 ], [ -73.772194920622724, 40.859851984333503 ], [ -73.772180287838339, 40.859854519064498 ], [ -73.772163405012634, 40.859857046752921 ], [ -73.772143142638129, 40.859860422253263 ], [ -73.772127382450023, 40.859863808489244 ], [ -73.772110494374672, 40.859867191573478 ], [ -73.772093608718095, 40.859870575580089 ], [ -73.772073340366475, 40.859875660208893 ], [ -73.772054195980132, 40.85988160255414 ], [ -73.77203054625268, 40.859888387803373 ], [ -73.772005770544595, 40.85989602640106 ], [ -73.771987747471002, 40.859902824609058 ], [ -73.771970860596767, 40.859906205833752 ], [ -73.771949473831725, 40.859909579996192 ], [ -73.771925844083398, 40.859911241484788 ], [ -73.771902210303764, 40.859913756615505 ], [ -73.771880825142361, 40.859916276275868 ], [ -73.771860566872121, 40.85991879983488 ], [ -73.771836932973855, 40.859921315873365 ], [ -73.771813299187002, 40.859923831069622 ], [ -73.771791918158272, 40.859925497818033 ], [ -73.77177728706674, 40.859927177087386 ], [ -73.771759275807483, 40.859930557060416 ], [ -73.771741264431455, 40.859933937866742 ], [ -73.771724380458195, 40.859936468166467 ], [ -73.771705243618754, 40.859939844897184 ], [ -73.771683853779649, 40.859944074501954 ], [ -73.771659092685383, 40.859947440170188 ], [ -73.771645587047857, 40.859949123409677 ], [ -73.771629832794247, 40.859950800436927 ], [ -73.771615200481222, 40.859952479683315 ], [ -73.771588182239924, 40.859957550855 ], [ -73.771561176946037, 40.859959205664858 ], [ -73.771535296126601, 40.859960862611722 ], [ -73.771517296581806, 40.859960826940259 ], [ -73.771493659724925, 40.859964195638703 ], [ -73.771458758462629, 40.85997181488522 ], [ -73.771444120268512, 40.859975202332059 ], [ -73.771430601265365, 40.859981154806022 ], [ -73.771421583767847, 40.859986259869707 ], [ -73.771400157556414, 40.86000073874726 ], [ -73.771378736696093, 40.860014363053807 ], [ -73.771360714153388, 40.86002030658863 ], [ -73.771343840060297, 40.860020273122153 ], [ -73.771328090445479, 40.860020241883667 ], [ -73.771310081961175, 40.860022768972229 ], [ -73.771288699277747, 40.860025287606426 ], [ -73.771262816002107, 40.860026944488617 ], [ -73.771241433200885, 40.860029464870209 ], [ -73.771222305116126, 40.86003028232733 ], [ -73.77120430250163, 40.860031101177256 ], [ -73.771179554831704, 40.860030197484434 ], [ -73.77115817963525, 40.86003015505694 ], [ -73.771131180291945, 40.860030101460467 ], [ -73.771106439608872, 40.860027488611948 ], [ -73.771088444715687, 40.860025744650379 ], [ -73.771072700871045, 40.860024005154692 ], [ -73.771051336922071, 40.860021400839727 ], [ -73.771034469347128, 40.860018802774512 ], [ -73.771017605914921, 40.860015354572923 ], [ -73.770992872967454, 40.860010178905355 ], [ -73.770980126124627, 40.860007174068649 ], [ -73.770740476578808, 40.859899896327846 ], [ -73.770559542100713, 40.859703117841832 ], [ -73.770359086774775, 40.859447415952083 ], [ -73.770120932023289, 40.859239733931062 ], [ -73.76996996090557, 40.859132047084927 ], [ -73.769733411230092, 40.858996509632121 ], [ -73.769233735289916, 40.858736470656034 ], [ -73.769168316922617, 40.858688603600434 ] ] ], [ [ [ -73.77291460834293, 40.854001196657322 ], [ -73.772919185580051, 40.854000666241134 ], [ -73.772921587593444, 40.854000185665896 ], [ -73.772922901878843, 40.853999747873239 ], [ -73.772923511066466, 40.85399952034917 ], [ -73.772924002915971, 40.853999260218608 ], [ -73.772924828617803, 40.853998835853531 ], [ -73.772925538429789, 40.853998309613608 ], [ -73.772925996296522, 40.853997934049573 ], [ -73.772926364116046, 40.853997534967355 ], [ -73.772926609460328, 40.853997251846735 ], [ -73.772926866939287, 40.85399686777221 ], [ -73.772945815140687, 40.853955513425767 ], [ -73.772942329593334, 40.854133305114566 ], [ -73.772799466155149, 40.854133023631455 ], [ -73.77280163824139, 40.854001556076724 ], [ -73.77291460834293, 40.854001196657322 ] ] ], [ [ [ -73.772964037889338, 40.853915742484205 ], [ -73.77297000799723, 40.85391576444934 ], [ -73.772968908016395, 40.853926656870833 ], [ -73.772959377387522, 40.853925913947279 ], [ -73.772964037889338, 40.853915742484205 ] ] ] ] } },
{ "type": "Feature", "properties": { "Borough": "BX", "Block": 5649, "Lot": 100, "CD": 210, "BCT2020": "2051602", "BCTCB2020": "20516020001", "CT2010": "516", "CB2010": "0001", "SchoolDist": null, "Council": 13, "ZipCode": 0, "FireComp": null, "PolicePrct": 0, "HealthCent": 0, "HealthArea": 0, "Sanitboro": null, "SanitDistr": null, "SanitSub": null, "Address": "RAT ISLAND", "ZoneDist1": "M2-1", "ZoneDist2": null, "ZoneDist3": null, "ZoneDist4": null, "Overlay1": null, "Overlay2": null, "SPDist1": null, "SPDist2": null, "SPDist3": null, "LtdHeight": null, "SplitZone": "N", "BldgClass": "U9", "LandUse": "07", "Easements": 0, "OwnerType": "C", "OwnerName": "DEPT OF PARKS & RECREATION", "LotArea": 177085, "BldgArea": 0, "ComArea": 0, "ResArea": 0, "OfficeArea": 0, "RetailArea": 0, "GarageArea": 0, "StrgeArea": 0, "FactryArea": 0, "OtherArea": 0, "AreaSource": "7", "NumBldgs": 0, "NumFloors": 0.0, "UnitsRes": 0, "UnitsTotal": 0, "LotFront": 0.0, "LotDepth": 0.0, "BldgFront": 0.0, "BldgDepth": 0.0, "Ext": "N", "ProxCode": "0", "IrrLotCode": "N", "LotType": "5", "BsmtCode": "0", "AssessLand": 0.0, "AssessTot": 0.0, "ExemptTot": 0.0, "YearBuilt": 0, "YearAlter1": 0, "YearAlter2": 0, "HistDist": null, "Landmark": null, "BuiltFAR": 0.0, "ResidFAR": 0.0, "CommFAR": 2.0, "FacilFAR": 0.0, "BoroCode": 2, "BBL": 2056490100.0, "CondoNo": 0, "Tract2010": "0516", "XCoord": 1048303, "YCoord": 247633, "ZoneMap": "4d", "ZMCode": null, "Sanborn": "218 073", "TaxMap": "21810", "EDesigNum": null, "APPBBL": 0.0, "APPDate": null, "PLUTOMapID": "1", "FIRM07_FLA": "1", "PFIRM15_FL": "1", "Version": "25v4", "DCPEdited": "t", "Latitude": 40.8461381, "Longitude": -73.7684882, "Notes": null, "Shape_Leng": 0.0, "Shape_Area": 73839.073722800022 }, "geometry": { "type": "MultiPolygon", "coordinates": [ [ [ [ -73.768324036929769, 40.845563246515013 ], [ -73.768512799272031, 40.845567812151657 ], [ -73.76869681068294, 40.845611449514855 ], [ -73.768838254625678, 40.845651852206458 ], [ -73.769602470071021, 40.846012139243378 ], [ -73.769038430859766, 40.846621869605357 ], [ -73.769036876230047, 40.846620237228358 ], [ -73.769029039108901, 40.846609970261106 ], [ -73.769017833183611, 40.846597990982509 ], [ -73.76900774723066, 40.846586865849048 ], [ -73.768997659520991, 40.846576596209573 ], [ -73.768981965843381, 40.846562045117317 ], [ -73.768971879895503, 40.846550921820814 ], [ -73.768962917546645, 40.84654065443506 ], [ -73.768950592231803, 40.846526963748083 ], [ -73.768934892094904, 40.846513263618114 ], [ -73.768923683116725, 40.846502140743766 ], [ -73.768915840198204, 40.846493582913631 ], [ -73.76890351611479, 40.846479892309013 ], [ -73.768890059430959, 40.846467906748735 ], [ -73.768872111040864, 40.846454203858642 ], [ -73.768854164408509, 40.846439648314764 ], [ -73.768842964490474, 40.846425958116363 ], [ -73.768827271154393, 40.84641098017476 ], [ -73.768811529767731, 40.846408811696932 ], [ -73.768798047702248, 40.846404516362618 ], [ -73.768791324109372, 40.846397669006905 ], [ -73.768778434093804, 40.846384403998165 ], [ -73.768780173482952, 40.846369459261879 ], [ -73.76877909092012, 40.84635750034851 ], [ -73.768776883016145, 40.846345537255083 ], [ -73.76877130203556, 40.846332715660736 ], [ -73.768764602326939, 40.846319034481894 ], [ -73.768752277097192, 40.846305342854471 ], [ -73.76874106522213, 40.846295071856673 ], [ -73.768728731093717, 40.846283942187554 ], [ -73.76871640465987, 40.8462702523939 ], [ -73.768704080662118, 40.846256560846072 ], [ -73.768695122465033, 40.846245439703821 ], [ -73.768682800235467, 40.84623089357882 ], [ -73.768670475040338, 40.84621720202491 ], [ -73.768659269242605, 40.846205223630754 ], [ -73.768648054430528, 40.846195805357368 ], [ -73.768639085029889, 40.846187245248167 ], [ -73.768630119811434, 40.846177831486997 ], [ -73.768617786927095, 40.846166703564599 ], [ -73.768599846266554, 40.846150438835402 ], [ -73.768589756924257, 40.846141023651924 ], [ -73.768579667587744, 40.846131607629957 ], [ -73.768569578808069, 40.846121336109704 ], [ -73.768559489363895, 40.846111921007086 ], [ -73.768542674180324, 40.84609565936492 ], [ -73.768530352013599, 40.846081113223278 ], [ -73.768519148028261, 40.846068279402751 ], [ -73.768507946362135, 40.846055445503318 ], [ -73.768495624213642, 40.846040898437785 ], [ -73.768481052591824, 40.846026348692867 ], [ -73.768469847961669, 40.846014370282155 ], [ -73.768460884554258, 40.846004101932699 ], [ -73.768448557681197, 40.845991264930746 ], [ -73.768437347780676, 40.84598013924446 ], [ -73.768425012000463, 40.845969863197126 ], [ -73.768412677863594, 40.845958736253571 ], [ -73.768400349804807, 40.845945897403823 ], [ -73.76837960201857, 40.845928773255828 ], [ -73.768366705834254, 40.84591764509539 ], [ -73.768352127111882, 40.845904801799946 ], [ -73.768343163174393, 40.845895390696242 ], [ -73.768333072701665, 40.845885973729814 ], [ -73.768322983326954, 40.845876558522392 ], [ -73.768314016980355, 40.845867145653799 ], [ -73.768300564827783, 40.845854305453749 ], [ -73.768288230846977, 40.845843177493087 ], [ -73.768278143367667, 40.845832905949266 ], [ -73.768268056983118, 40.845822637168311 ], [ -73.768255728971056, 40.845809800141637 ], [ -73.768245639735284, 40.845800383169859 ], [ -73.768235554021444, 40.845789260645191 ], [ -73.768223799327288, 40.845773862788732 ], [ -73.768214282859248, 40.845761030490806 ], [ -73.768205325473076, 40.845749055736313 ], [ -73.768196365121014, 40.845737932793362 ], [ -73.768185166662022, 40.845724244289613 ], [ -73.7681739657842, 40.845710555862318 ], [ -73.768162767230251, 40.845696865598441 ], [ -73.768153806883006, 40.845685745328517 ], [ -73.768147089496722, 40.845677189709768 ], [ -73.768137002051844, 40.845666921751175 ], [ -73.768124673985128, 40.845654083789853 ], [ -73.768110102529207, 40.845639533997158 ], [ -73.768097765647951, 40.845629258831863 ], [ -73.76808543593458, 40.845617276279043 ], [ -73.768073109097131, 40.845604439235942 ], [ -73.768059655827685, 40.84559159992483 ], [ -73.768051704800001, 40.845584315863121 ], [ -73.768181420168759, 40.845577786448175 ], [ -73.768324036929769, 40.845563246515013 ] ] ] ] } }
]
}
