{
"type": "FeatureCollection",
"name": "pluto_Woodlawn_Cemetery",
"crs": { "type": "name", "properties": { "name": "urn:ogc:def:crs:OGC:1.3:CRS84" } },
"features": [
{ "type": "Feature", "properties": { "Borough": "BX", "Block": 3361, "Lot": 1, "CD": 212, "BCT2020": "2043502", "BCTCB2020": "20435021000", "CT2010": "435", "CB2010": "1025", "SchoolDist": "10", "Council": 11, "ZipCode": 10467, "FireComp": "L039", "PolicePrct": 47, "HealthCent": 21, "HealthArea": 100, "Sanitboro": "2", "SanitDistr": "07", "SanitSub": "3B", "Address": "4199 WEBSTER AVENUE", "ZoneDist1": "R6", "ZoneDist2": null, "ZoneDist3": null, "ZoneDist4": null, "Overlay1": null, "Overlay2": null, "SPDist1": null, "SPDist2": null, "SPDist3": null, "LtdHeight": null, "SplitZone": "N", "BldgClass": "Z8", "LandUse": "09", "Easements": 0, "OwnerType": "X", "OwnerName": "WOODLAWN CEMETERY", "LotArea": 14959200, "BldgArea": 61055, "ComArea": 61055, "ResArea": 0, "OfficeArea": 0, "RetailArea": 0, "GarageArea": 0, "StrgeArea": 0, "FactryArea": 0, "OtherArea": 61055, "AreaSource": "2", "NumBldgs": 23, "NumFloors": 2.0, "UnitsRes": 0, "UnitsTotal": 1, "LotFront": 1419.0, "LotDepth": 962.0, "BldgFront": 49.0, "BldgDepth": 30.0, "Ext": "N", "ProxCode": "0", "IrrLotCode": "Y", "LotType": "5", "BsmtCode": "0", "AssessLand": 22618350.0, "AssessTot": 36145800.0, "ExemptTot": 36145800.0, "YearBuilt": 1931, "YearAlter1": 2019, "YearAlter2": 2019, "HistDist": null, "Landmark": null, "BuiltFAR": 0.0, "ResidFAR": 2.43, "CommFAR": 0.0, "FacilFAR": 4.8, "BoroCode": 2, "BBL": 2033610001.0, "CondoNo": 0, "Tract2010": "0435", "XCoord": 1019502, "YCoord": 263400, "ZoneMap": "1d", "ZMCode": "Y", "Sanborn": "214 088", "TaxMap": "21204", "EDesigNum": null, "APPBBL": 0.0, "APPDate": null, "PLUTOMapID": "1", "FIRM07_FLA": null, "PFIRM15_FL": null, "Version": "25v4", "DCPEdited": null, "Latitude": 40.8895756, "Longitude": -73.8725028, "Notes": null, "Shape_Leng": 0.0, "Shape_Area": 16789388.4476 }, "geometry": { "type": "MultiPolygon", "coordinates": [ [ [ [ -73.870993379116271, 40.880426131572413 ], [ -73.871241964957093, 40.880401737002948 ], [ -73.871287113523977, 40.880397306602383 ], [ -73.871414285822951, 40.88038482642002 ], [ -73.871640774837758, 40.880362599108551 ], [ -73.871754358673812, 40.880351452325378 ], [ -73.872880151014002, 40.880242160125349 ], [ -73.872888531346518, 40.880273523499426 ], [ -73.874470810449282, 40.880160619286009 ], [ -73.874476338633613, 40.880164664927285 ], [ -73.874484679335083, 40.880168378579086 ], [ -73.874495382779912, 40.880171737414116 ], [ -73.874503893488026, 40.880173386472393 ], [ -73.874510087104909, 40.880174387332623 ], [ -73.874518236836934, 40.880174867120708 ], [ -73.874527215360359, 40.88017439878756 ], [ -73.874534779670185, 40.88017273393708 ], [ -73.874541399848127, 40.880170231471936 ], [ -73.87454928367616, 40.880166414768915 ], [ -73.874556063639758, 40.880162238469232 ], [ -73.874561741709698, 40.880157943012605 ], [ -73.874568103848219, 40.880151998553352 ], [ -73.874475718501316, 40.881742571625452 ], [ -73.877712443035279, 40.882356513926531 ], [ -73.87751788672179, 40.882947147797012 ], [ -73.877477335331008, 40.883090765962073 ], [ -73.877440033592592, 40.883234333522218 ], [ -73.877411474532849, 40.883353641294661 ], [ -73.877363602799832, 40.883578532438463 ], [ -73.87730725333796, 40.883908779859759 ], [ -73.877289520035674, 40.884039236314024 ], [ -73.877261731035532, 40.884299556963519 ], [ -73.87724955482598, 40.884461020469068 ], [ -73.877239628034346, 40.884666878719962 ], [ -73.877236031825561, 40.884854416899749 ], [ -73.877237477522428, 40.885035287846677 ], [ -73.877250912162481, 40.88534114590054 ], [ -73.877280335185247, 40.885665796091182 ], [ -73.877534013757227, 40.887279782236774 ], [ -73.87768902469324, 40.887895421451077 ], [ -73.878184986613064, 40.889002471695548 ], [ -73.878946269531937, 40.890578715672852 ], [ -73.879141827435859, 40.890893103740616 ], [ -73.879892893448613, 40.892100520389526 ], [ -73.879940218457492, 40.892173006694172 ], [ -73.879988423163951, 40.892257109270176 ], [ -73.880030488358059, 40.89234254898475 ], [ -73.880065744583987, 40.892427332324992 ], [ -73.880102181146341, 40.892536749743208 ], [ -73.880126728673361, 40.892635754126594 ], [ -73.880140234302289, 40.8927112154376 ], [ -73.880148097815606, 40.892773894830185 ], [ -73.880163129580922, 40.892882196796457 ], [ -73.88017803167044, 40.893059143540221 ], [ -73.880181403425269, 40.893196445243092 ], [ -73.880175082275244, 40.893375384319278 ], [ -73.880146731102741, 40.89361989830396 ], [ -73.879897534135111, 40.895149203202322 ], [ -73.877437129372581, 40.895325791004119 ], [ -73.877087272040725, 40.895350218683923 ], [ -73.874566794713829, 40.895630579393256 ], [ -73.870998108573346, 40.896407654239887 ], [ -73.870887575766147, 40.89642538809467 ], [ -73.870763093507648, 40.896440483015162 ], [ -73.870595099573265, 40.896452875236839 ], [ -73.870475998163812, 40.896456201153008 ], [ -73.870313718081377, 40.896453492792439 ], [ -73.87020802136422, 40.896447224356528 ], [ -73.870135454478458, 40.896440841981928 ], [ -73.865142223260364, 40.895570583448446 ], [ -73.863870401985722, 40.895246535908505 ], [ -73.86380170741505, 40.895221895782157 ], [ -73.863758803076408, 40.895184049847032 ], [ -73.863738957010256, 40.895139992588 ], [ -73.863733309695562, 40.895087838761235 ], [ -73.863831637157432, 40.894292870845156 ], [ -73.86492536084846, 40.892671076322749 ], [ -73.865016280794094, 40.892514343089125 ], [ -73.86597400910459, 40.89085240708777 ], [ -73.86606386020857, 40.890730766509336 ], [ -73.867185441954874, 40.889038326925409 ], [ -73.867326642408642, 40.888779897325406 ], [ -73.867420764353071, 40.888587009454135 ], [ -73.86773373561887, 40.887797252888824 ], [ -73.867804924510324, 40.887596133134188 ], [ -73.868386926506972, 40.885499506944399 ], [ -73.868462682964491, 40.885316850067099 ], [ -73.869118438714381, 40.883720107217727 ], [ -73.869257417783601, 40.883473998402089 ], [ -73.869416961319047, 40.883282101407396 ], [ -73.869839730228065, 40.882763710787039 ], [ -73.870092230670195, 40.882413022858529 ], [ -73.870267284752629, 40.882056299583084 ], [ -73.870993379116271, 40.880426131572413 ] ] ] ] } },
{ "type": "Feature", "properties": { "Borough": "BX", "Block": 3356, "Lot": 190, "CD": 207, "BCT2020": "2043102", "BCTCB2020": "20431023001", "CT2010": "431", "CB2010": "5001", "SchoolDist": "10", "Council": 11, "ZipCode": 10467, "FireComp": "L039", "PolicePrct": 52, "HealthCent": 21, "HealthArea": 410, "Sanitboro": "2", "SanitDistr": "07", "SanitSub": "3B", "Address": "DECATUR AVENUE", "ZoneDist1": "R7-1", "ZoneDist2": "R6", "ZoneDist3": null, "ZoneDist4": null, "Overlay1": null, "Overlay2": null, "SPDist1": null, "SPDist2": null, "SPDist3": null, "LtdHeight": null, "SplitZone": "Y", "BldgClass": "V0", "LandUse": "11", "Easements": 0, "OwnerType": null, "OwnerName": "METROPOLITAN HOME CENTER, INC.", "LotArea": 2976, "BldgArea": 0, "ComArea": 0, "ResArea": 0, "OfficeArea": 0, "RetailArea": 0, "GarageArea": 0, "StrgeArea": 0, "FactryArea": 0, "OtherArea": 0, "AreaSource": "7", "NumBldgs": 0, "NumFloors": 0.0, "UnitsRes": 0, "UnitsTotal": 0, "LotFront": 29.75, "LotDepth": 96.17, "BldgFront": 0.0, "BldgDepth": 0.0, "Ext": null, "ProxCode": "0", "IrrLotCode": "Y", "LotType": "5", "BsmtCode": "5", "AssessLand": 13200.0, "AssessTot": 13200.0, "ExemptTot": 0.0, "YearBuilt": 0, "YearAlter1": 0, "YearAlter2": 0, "HistDist": null, "Landmark": null, "BuiltFAR": 0.0, "ResidFAR": 3.44, "CommFAR": 0.0, "FacilFAR": 4.8, "BoroCode": 2, "BBL": 2033560189.9999998, "CondoNo": 0, "Tract2010": "0431", "XCoord": 1019755, "YCoord": 260030, "ZoneMap": "1d", "ZMCode": null, "Sanborn": "214 088", "TaxMap": "21203", "EDesigNum": null, "APPBBL": 0.0, "APPDate": null, "PLUTOMapID": "1", "FIRM07_FLA": null, "PFIRM15_FL": null, "Version": "25v4", "DCPEdited": null, "Latitude": 40.880325, "Longitude": -73.8716056, "Notes": null, "Shape_Leng": 0.0, "Shape_Area": 2827.6814958 }, "geometry": { "type": "MultiPolygon", "coordinates": [ [ [ [ -73.871754358673812, 40.880351452325378 ], [ -73.871640774837758, 40.880362599108551 ], [ -73.871414285822951, 40.88038482642002 ], [ -73.871451863900603, 40.88029753804129 ], [ -73.871790972042305, 40.880266400460243 ], [ -73.871754358673812, 40.880351452325378 ] ] ] ] } },
{ "type": "Feature", "properties": { "Borough": "BX", "Block": 3356, "Lot": 196, "CD": 207, "BCT2020": "2043102", "BCTCB2020": "20431023001", "CT2010": "431", "CB2010": "5001", "SchoolDist": "10", "Council": 11, "ZipCode": 10467, "FireComp": "L039", "PolicePrct": 52, "HealthCent": 21, "HealthArea": 410, "Sanitboro": "2", "SanitDistr": "07", "SanitSub": "3B", "Address": "3551 WEBSTER AVENUE", "ZoneDist1": "C4-4", "ZoneDist2": "R6", "ZoneDist3": null, "ZoneDist4": null, "Overlay1": null, "Overlay2": null, "SPDist1": null, "SPDist2": null, "SPDist3": null, "LtdHeight": null, "SplitZone": "Y", "BldgClass": "V1", "LandUse": "11", "Easements": 0, "OwnerType": null, "OwnerName": "3547 WEBSTER TOWER LLC", "LotArea": 3663, "BldgArea": 0, "ComArea": 0, "ResArea": 0, "OfficeArea": 0, "RetailArea": 0, "GarageArea": 0, "StrgeArea": 0, "FactryArea": 0, "OtherArea": 0, "AreaSource": "7", "NumBldgs": 0, "NumFloors": 0.0, "UnitsRes": 0, "UnitsTotal": 0, "LotFront": 32.0, "LotDepth": 110.67, "BldgFront": 0.0, "BldgDepth": 0.0, "Ext": null, "ProxCode": "0", "IrrLotCode": "Y", "LotType": "5", "BsmtCode": "5", "AssessLand": 32850.0, "AssessTot": 32850.0, "ExemptTot": 0.0, "YearBuilt": 0, "YearAlter1": 0, "YearAlter2": 0, "HistDist": null, "Landmark": null, "BuiltFAR": 0.0, "ResidFAR": 3.44, "CommFAR": 3.4, "FacilFAR": 6.5, "BoroCode": 2, "BBL": 2033560196.0, "CondoNo": 0, "Tract2010": "0431", "XCoord": 1019861, "YCoord": 260025, "ZoneMap": "1d", "ZMCode": null, "Sanborn": "214 088", "TaxMap": "21203", "EDesigNum": null, "APPBBL": 0.0, "APPDate": null, "PLUTOMapID": "1", "FIRM07_FLA": null, "PFIRM15_FL": null, "Version": "25v4", "DCPEdited": null, "Latitude": 40.8803109, "Longitude": -73.8712223, "Notes": null, "Shape_Leng": 0.0, "Shape_Area": 7423.0616686000003 }, "geometry": { "type": "MultiPolygon", "coordinates": [ [ [ [ -73.871032145126037, 40.880336496949681 ], [ -73.871100030663129, 40.880179524923086 ], [ -73.871465565757248, 40.880265708369372 ], [ -73.871451863900603, 40.88029753804129 ], [ -73.871414285822951, 40.88038482642002 ], [ -73.871287113523977, 40.880397306602383 ], [ -73.871241964957093, 40.880401737002948 ], [ -73.870993379116271, 40.880426131572413 ], [ -73.870995635146116, 40.880420915730106 ], [ -73.871032145126037, 40.880336496949681 ] ] ] ] } },
{ "type": "Feature", "properties": { "Borough": "BX", "Block": 3361, "Lot": 24, "CD": 212, "BCT2020": "2043502", "BCTCB2020": "20435021000", "CT2010": "435", "CB2010": "1025", "SchoolDist": "10", "Council": 11, "ZipCode": 10467, "FireComp": "L039", "PolicePrct": 47, "HealthCent": 21, "HealthArea": 100, "Sanitboro": "2", "SanitDistr": "12", "SanitSub": "3C", "Address": null, "ZoneDist1": "R6", "ZoneDist2": null, "ZoneDist3": null, "ZoneDist4": null, "Overlay1": null, "Overlay2": null, "SPDist1": null, "SPDist2": null, "SPDist3": null, "LtdHeight": null, "SplitZone": "N", "BldgClass": null, "LandUse": null, "Easements": 0, "OwnerType": null, "OwnerName": null, "LotArea": 0, "BldgArea": 0, "ComArea": 0, "ResArea": 0, "OfficeArea": 0, "RetailArea": 0, "GarageArea": 0, "StrgeArea": 0, "FactryArea": 0, "OtherArea": 0, "AreaSource": null, "NumBldgs": 0, "NumFloors": 0.0, "UnitsRes": 0, "UnitsTotal": 0, "LotFront": 0.0, "LotDepth": 0.0, "BldgFront": 0.0, "BldgDepth": 0.0, "Ext": null, "ProxCode": null, "IrrLotCode": null, "LotType": null, "BsmtCode": null, "AssessLand": 0.0, "AssessTot": 0.0, "ExemptTot": 0.0, "YearBuilt": 0, "YearAlter1": 0, "YearAlter2": 0, "HistDist": null, "Landmark": null, "BuiltFAR": 0.0, "ResidFAR": 2.43, "CommFAR": 0.0, "FacilFAR": 4.8, "BoroCode": 2, "BBL": 2033610023.9999998, "CondoNo": 0, "Tract2010": "0435", "XCoord": 1018949, "YCoord": 259970, "ZoneMap": "1d", "ZMCode": null, "Sanborn": null, "TaxMap": null, "EDesigNum": null, "APPBBL": 0.0, "APPDate": null, "PLUTOMapID": "3", "FIRM07_FLA": null, "PFIRM15_FL": null, "Version": "25v4", "DCPEdited": null, "Latitude": 40.8801641, "Longitude": -73.8745206, "Notes": null, "Shape_Leng": 0.0, "Shape_Area": 123.0570392 }, "geometry": { "type": "MultiPolygon", "coordinates": [ [ [ [ -73.874495382779912, 40.880171737414116 ], [ -73.874484679335083, 40.880168378579086 ], [ -73.874476338633613, 40.880164664927285 ], [ -73.874470810449282, 40.880160619286009 ], [ -73.874568103848219, 40.880151998553352 ], [ -73.874561741709698, 40.880157943012605 ], [ -73.874556063639758, 40.880162238469232 ], [ -73.87454928367616, 40.880166414768915 ], [ -73.874541399848127, 40.880170231471936 ], [ -73.874534779670185, 40.88017273393708 ], [ -73.874527215360359, 40.88017439878756 ], [ -73.874518236836934, 40.880174867120708 ], [ -73.874510087104909, 40.880174387332623 ], [ -73.874503893488026, 40.880173386472393 ], [ -73.874495382779912, 40.880171737414116 ] ] ] ] } }
]
}
