{
"type": "FeatureCollection",
"name": "pluto_Brooklyn_Navy_Yard",
"crs": { "type": "name", "properties": { "name": "urn:ogc:def:crs:OGC:1.3:CRS84" } },
"features": [
{ "type": "Feature", "properties": { "Borough": "BK", "Block": 2023, "Lot": 1, "CD": 302, "BCT2020": "3054300", "BCTCB2020": "30543001001", "CT2010": "543", "CB2010": "1007", "SchoolDist": "13", "Council": 33, "ZipCode": 11251, "FireComp": "E207", "PolicePrct": 88, "HealthCent": 36, "HealthArea": 9300, "Sanitboro": "3", "SanitDistr": "02", "SanitSub": null, "Address": "652 KENT AVENUE", "ZoneDist1": "M3-1", "ZoneDist2": "M2-1", "ZoneDist3": null, "ZoneDist4": null, "Overlay1": null, "Overlay2": null, "SPDist1": "BNY", "SPDist2": null, "SPDist3": null, "LtdHeight": null, "SplitZone": "Y", "BldgClass": "T2", "LandUse": "07", "Easements": 0, "OwnerType": "C", "OwnerName": "NYC DEPARTMENT OF SMALL BUSINESS SERVICES", "LotArea": 6429961, "BldgArea": 7058736, "ComArea": 7058736, "ResArea": 0, "OfficeArea": 0, "RetailArea": 0, "GarageArea": 0, "StrgeArea": 0, "FactryArea": 0, "OtherArea": 7058736, "AreaSource": "2", "NumBldgs": 94, "NumFloors": 15.0, "UnitsRes": 0, "UnitsTotal": 1, "LotFront": 4152.0, "LotDepth": 1992.0, "BldgFront": 180.0, "BldgDepth": 360.0, "Ext": "N", "ProxCode": "0", "IrrLotCode": "Y", "LotType": "5", "BsmtCode": "0", "AssessLand": 32522850.0, "AssessTot": 230179050.0, "ExemptTot": 230179050.0, "YearBuilt": 1958, "YearAlter1": 2023, "YearAlter2": 0, "HistDist": null, "Landmark": "INDIVIDUAL LANDMARK", "BuiltFAR": 1.1, "ResidFAR": 0.0, "CommFAR": 2.0, "FacilFAR": 0.0, "BoroCode": 3, "BBL": 3020230000.9999995, "CondoNo": 0, "Tract2010": "0543", "XCoord": 991801, "YCoord": 195129, "ZoneMap": "12d", "ZMCode": null, "Sanborn": "303 003", "TaxMap": "30705", "EDesigNum": null, "APPBBL": 0.0, "APPDate": null, "PLUTOMapID": "1", "FIRM07_FLA": "1", "PFIRM15_FL": "1", "Version": "25v4", "DCPEdited": "t", "Latitude": 40.7022575, "Longitude": -73.9727668, "Notes": null, "Shape_Leng": 0.0, "Shape_Area": 7024664.3562799999 }, "geometry": { "type": "MultiPolygon", "coordinates": [ [ [ [ -73.970722044534966, 40.703166226625477 ], [ -73.969635738767948, 40.703984020124672 ], [ -73.96959111128929, 40.704120755310001 ], [ -73.96944498501496, 40.704166296545601 ], [ -73.968968286165122, 40.704187318957104 ], [ -73.968473659297572, 40.703876432682769 ], [ -73.967617555251735, 40.703339784251583 ], [ -73.967506390953346, 40.703442251558272 ], [ -73.967495060152785, 40.703659202845408 ], [ -73.967478081606018, 40.70395302636139 ], [ -73.968291558448087, 40.704457204149961 ], [ -73.969299159256153, 40.705091258580687 ], [ -73.969252483614653, 40.705524512191431 ], [ -73.968061158657505, 40.705823302139542 ], [ -73.967325936095719, 40.704126019738162 ], [ -73.967163109624764, 40.704047416337254 ], [ -73.962778765027394, 40.700527200237943 ], [ -73.962728932287618, 40.700487187041801 ], [ -73.962995554056192, 40.700327724597805 ], [ -73.963292077209402, 40.700150376136449 ], [ -73.965656751149936, 40.701786077978937 ], [ -73.965773417153187, 40.701714366586465 ], [ -73.965800278066311, 40.701461681460046 ], [ -73.966207934076479, 40.701473183958285 ], [ -73.966311392948413, 40.700879049606932 ], [ -73.966318633020293, 40.700879252521219 ], [ -73.96634608741202, 40.69997373250213 ], [ -73.966244791924055, 40.699970143858579 ], [ -73.966248515627512, 40.699290370213163 ], [ -73.967759771880282, 40.699310713259877 ], [ -73.967762767843496, 40.699205935172188 ], [ -73.969601415837914, 40.699230658279163 ], [ -73.969675074147986, 40.697886059591333 ], [ -73.977951298224198, 40.698218672698886 ], [ -73.977878677939231, 40.698725250811506 ], [ -73.978099730517044, 40.699139262560465 ], [ -73.97818062619271, 40.699181409387862 ], [ -73.978745810717939, 40.699146488736197 ], [ -73.979202047251562, 40.699565943245723 ], [ -73.979823000697806, 40.699587477787013 ], [ -73.979836281102166, 40.699458895374612 ], [ -73.980358234896997, 40.699472786689512 ], [ -73.980268795424095, 40.700809253842571 ], [ -73.980747996671838, 40.701428983160461 ], [ -73.98062305674317, 40.701862626110795 ], [ -73.980142718437335, 40.70183152007889 ], [ -73.979848001446626, 40.702195980525957 ], [ -73.97979938566364, 40.702256102644327 ], [ -73.977857613585783, 40.701945424180828 ], [ -73.977575792197612, 40.703094828118338 ], [ -73.97752653308676, 40.703295726688005 ], [ -73.977298478905794, 40.704225785971282 ], [ -73.977211173577004, 40.704212478799541 ], [ -73.977261738217095, 40.704039096568565 ], [ -73.977360625076997, 40.703694038007917 ], [ -73.977456137496247, 40.70336606323508 ], [ -73.977420234393577, 40.70333188988409 ], [ -73.977487592000273, 40.703284069890422 ], [ -73.977499396198439, 40.703225138359358 ], [ -73.977493226951623, 40.703220864185838 ], [ -73.977486492438814, 40.703215312154882 ], [ -73.977474150063628, 40.703207196080953 ], [ -73.977443852033133, 40.703187543699919 ], [ -73.977420290305972, 40.703167894399861 ], [ -73.977412433935385, 40.70316276713887 ], [ -73.977398970838351, 40.703152086306488 ], [ -73.97737877245396, 40.703141405813383 ], [ -73.977363059809889, 40.703137987096021 ], [ -73.977351834186251, 40.703144818843732 ], [ -73.977345098461498, 40.703149940456662 ], [ -73.977333870600404, 40.703159761055566 ], [ -73.977322645629982, 40.703167875064274 ], [ -73.977295702078891, 40.703186660690058 ], [ -73.977129654881537, 40.703008109546182 ], [ -73.976301891749685, 40.7046581597303 ], [ -73.97627270646548, 40.704665841318246 ], [ -73.976039276689946, 40.70459575277814 ], [ -73.976030304379876, 40.70457439799187 ], [ -73.976923219509857, 40.702787696103016 ], [ -73.976896292869412, 40.702757795516519 ], [ -73.976708929754508, 40.702563865076037 ], [ -73.976682002508085, 40.702536528213429 ], [ -73.976652831448689, 40.702510042717115 ], [ -73.976623659010215, 40.702484411888065 ], [ -73.976592241546328, 40.702459636019377 ], [ -73.97655970209378, 40.702435712664339 ], [ -73.976180440845525, 40.702181949785661 ], [ -73.976163611984916, 40.70216742733713 ], [ -73.976129927116517, 40.702210127891377 ], [ -73.976055807807967, 40.702328840148311 ], [ -73.975984326859759, 40.702435711859906 ], [ -73.975561705802349, 40.703067575376977 ], [ -73.975318191261437, 40.702972711923486 ], [ -73.975681667008587, 40.702435711461405 ], [ -73.976003192717528, 40.701960687991047 ], [ -73.975996463196864, 40.70194872865229 ], [ -73.975875267700744, 40.701903434542885 ], [ -73.975833745992318, 40.701888049478981 ], [ -73.975820272688608, 40.701903422924083 ], [ -73.975598083940454, 40.701815396686335 ], [ -73.975608191905295, 40.701797462540412 ], [ -73.975503827189144, 40.701759002838749 ], [ -73.975415110677318, 40.701903336515635 ], [ -73.975410617701655, 40.701910166761024 ], [ -73.975392663308909, 40.701903331686601 ], [ -73.974575328164931, 40.70160807810862 ], [ -73.974567116585177, 40.701598646157755 ], [ -73.974563098853721, 40.701587753590012 ], [ -73.974563569788685, 40.701578572961118 ], [ -73.974810446766227, 40.701178883028923 ], [ -73.974834573182775, 40.701187430579139 ], [ -73.974842992001982, 40.701184016824861 ], [ -73.975804228302934, 40.699740707899572 ], [ -73.975805914391017, 40.699730883668892 ], [ -73.975807600586279, 40.699721061279696 ], [ -73.97580760308071, 40.699714229062835 ], [ -73.975807605575113, 40.699707396928467 ], [ -73.9758070483296, 40.699697573144334 ], [ -73.975806492181107, 40.699687750196738 ], [ -73.975805370702801, 40.69968091598426 ], [ -73.975803128343571, 40.699674937966257 ], [ -73.975802007964703, 40.699668103753972 ], [ -73.975799768228185, 40.699661270226073 ], [ -73.975797525872849, 40.699655289447691 ], [ -73.975794160953328, 40.699648456516442 ], [ -73.975791918596187, 40.699642478499534 ], [ -73.975788553368318, 40.699636497483148 ], [ -73.975785188139028, 40.699630517388059 ], [ -73.975780702454841, 40.69962453613411 ], [ -73.975777336017558, 40.69961855695729 ], [ -73.975772850333911, 40.69961257838083 ], [ -73.975766120941145, 40.699604034716074 ], [ -73.975758266056474, 40.699596345402526 ], [ -73.975749852913381, 40.699588228216136 ], [ -73.975741437042373, 40.69958096829663 ], [ -73.975735826971047, 40.699575840557515 ], [ -73.975729094922812, 40.699571569765588 ], [ -73.975723486060147, 40.699566442863762 ], [ -73.975716752805027, 40.699562171234525 ], [ -73.9757055322019, 40.699556190386829 ], [ -73.97569543458394, 40.69955020793661 ], [ -73.975684212571238, 40.699545079839304 ], [ -73.975672991456833, 40.699540807252738 ], [ -73.975665137329997, 40.699537388133344 ], [ -73.975657281789438, 40.699534823604729 ], [ -73.975649427459146, 40.69953226175366 ], [ -73.97564157191978, 40.699529697223944 ], [ -73.975632594404019, 40.699527986126085 ], [ -73.975624738553179, 40.699526276188124 ], [ -73.975616883799219, 40.699524568089991 ], [ -73.975603978202628, 40.699522429316872 ], [ -73.975587143157057, 40.699520289701887 ], [ -73.975570310106718, 40.699519005599178 ], [ -73.975557402673658, 40.699518575083573 ], [ -73.975544497342923, 40.699519000079981 ], [ -73.975527662406364, 40.699519851068892 ], [ -73.975514755441452, 40.699521127892965 ], [ -73.975506898329286, 40.699522836313129 ], [ -73.97549792107958, 40.699523687140797 ], [ -73.975490063968394, 40.699525395561125 ], [ -73.975482206856441, 40.699527100299257 ], [ -73.975473227653922, 40.699529661229192 ], [ -73.975465370542082, 40.699531367806337 ], [ -73.975457513111607, 40.699533928975804 ], [ -73.975449658100487, 40.699536489225174 ], [ -73.975438432468323, 40.699541183931885 ], [ -73.975423838792011, 40.699547588771992 ], [ -73.97541261530732, 40.699552710313057 ], [ -73.975405880112575, 40.699556979983498 ], [ -73.975399144915571, 40.699561248733445 ], [ -73.975389602665146, 40.699566799226879 ], [ -73.975377254714573, 40.699576192479213 ], [ -73.974790521157644, 40.700453703021829 ], [ -73.97439973403371, 40.701034441763852 ], [ -73.974423297303019, 40.701045550372335 ], [ -73.974367146958755, 40.701134368668427 ], [ -73.97433823018649, 40.701179633548691 ], [ -73.974331214193526, 40.701187105280482 ], [ -73.974323353468151, 40.70119443543733 ], [ -73.97431661781772, 40.701199273265686 ], [ -73.974131821755435, 40.701285785997129 ], [ -73.974119615860815, 40.701287919254881 ], [ -73.974107831163181, 40.701287061996076 ], [ -73.97409646984805, 40.701283535727732 ], [ -73.97408847411188, 40.701279012485472 ], [ -73.973893542303401, 40.701094116722615 ], [ -73.97375214033103, 40.701075293462132 ], [ -73.973554681993065, 40.700895020705474 ], [ -73.973565907285533, 40.700889045759006 ], [ -73.97355132458307, 40.700872813341554 ], [ -73.973567039298544, 40.700863420144316 ], [ -73.972930916183643, 40.700300385784608 ], [ -73.972923624798497, 40.700292697250426 ], [ -73.972917454395585, 40.700286715486456 ], [ -73.972911284740704, 40.700281591075459 ], [ -73.972905112889734, 40.700276464822096 ], [ -73.972897260550511, 40.700271764924246 ], [ -73.972890528789023, 40.700267065373858 ], [ -73.972882672583935, 40.700263220148074 ], [ -73.972874818798005, 40.700259374003537 ], [ -73.972561768344477, 40.700082489501852 ], [ -73.972496655667385, 40.700126036138542 ], [ -73.972411338510824, 40.700183242972308 ], [ -73.972608464850751, 40.700464092934467 ], [ -73.972616598091577, 40.700473489871804 ], [ -73.972625014394055, 40.700481819869772 ], [ -73.972631744530375, 40.700487801783176 ], [ -73.973278525961064, 40.701058101082687 ], [ -73.973293121721667, 40.701047853990246 ], [ -73.973306585748873, 40.701059815896876 ], [ -73.973324544676331, 40.701051279689558 ], [ -73.973519758076449, 40.70122898670202 ], [ -73.973529816646433, 40.701333194267164 ], [ -73.973734712356929, 40.701505675789974 ], [ -73.973738746872513, 40.701515464322938 ], [ -73.973738913524045, 40.70152489448629 ], [ -73.973735558624867, 40.701534965016236 ], [ -73.97373020876725, 40.7015419761251 ], [ -73.973721506830671, 40.701548877369582 ], [ -73.973713229471912, 40.701553181724513 ], [ -73.973213890037044, 40.701663146090532 ], [ -73.973202805181558, 40.701663677499518 ], [ -73.973193172812529, 40.701662535201159 ], [ -73.973181623065216, 40.70165982825246 ], [ -73.973172785625067, 40.701656407813395 ], [ -73.973061715778798, 40.701554312498473 ], [ -73.973039270835912, 40.701554307210969 ], [ -73.972877712334196, 40.701415041083756 ], [ -73.972848524227359, 40.701432117796983 ], [ -73.971482047577155, 40.700235119553817 ], [ -73.971124169160106, 40.699916431058021 ], [ -73.97096033554304, 40.699867703458459 ], [ -73.970872770166366, 40.69992576233912 ], [ -73.970778470467224, 40.699987237801253 ], [ -73.970818816598083, 40.700117079148256 ], [ -73.971268687307003, 40.7005135202633 ], [ -73.972389464344403, 40.701504611593386 ], [ -73.972533067517489, 40.701635330854195 ], [ -73.97250612373513, 40.701655824545767 ], [ -73.972554362152209, 40.701704522175959 ], [ -73.972774258969764, 40.70190273836036 ], [ -73.97330153899172, 40.702379798939113 ], [ -73.973306921394581, 40.702389160044319 ], [ -73.97330829098378, 40.702396562559237 ], [ -73.97330741363416, 40.702403680939902 ], [ -73.973305291879385, 40.70241001638643 ], [ -73.973300738559786, 40.702416207286539 ], [ -73.972885038627638, 40.70271211890919 ], [ -73.972874095651306, 40.702715271652643 ], [ -73.972862028575918, 40.702715909964752 ], [ -73.972851927549243, 40.702714485674726 ], [ -73.97284425990415, 40.702712014701113 ], [ -73.972505799340468, 40.702438227348992 ], [ -73.972094902082389, 40.702719997482227 ], [ -73.972120702190367, 40.702753316365452 ], [ -73.972239630717212, 40.702852424789121 ], [ -73.972531340755751, 40.703093366384813 ], [ -73.972829783444212, 40.703345412079152 ], [ -73.972832014619939, 40.703381286215084 ], [ -73.972716367057714, 40.703488029436073 ], [ -73.972664737796038, 40.703492285553679 ], [ -73.972362900068219, 40.703306010043939 ], [ -73.9720036043703, 40.703638187579443 ], [ -73.972040632976302, 40.703662966903742 ], [ -73.972297585722046, 40.703824463877723 ], [ -73.972307123668003, 40.703831300158129 ], [ -73.972312170687047, 40.703838988102135 ], [ -73.972314413368409, 40.703846676287569 ], [ -73.972314410515978, 40.703853508500835 ], [ -73.97231103811292, 40.703862049920076 ], [ -73.972305424159174, 40.703868882533186 ], [ -73.9722694950716, 40.703899619968553 ], [ -73.972201567508463, 40.703958968695289 ], [ -73.972190342182628, 40.7039632370847 ], [ -73.972179679087674, 40.703964515920163 ], [ -73.972166211872079, 40.703962377546858 ], [ -73.97145930548578, 40.703525305601971 ], [ -73.971163018253733, 40.703488501378772 ], [ -73.97113047290469, 40.703484222893323 ], [ -73.971020435210804, 40.70359010947822 ], [ -73.97098787450372, 40.703620851885759 ], [ -73.971097767800714, 40.703843811801775 ], [ -73.971630746232393, 40.704185605831221 ], [ -73.972210862605834, 40.704545345212736 ], [ -73.972797717285857, 40.704910209879074 ], [ -73.972806697748069, 40.704903378044293 ], [ -73.973468738261161, 40.705317797728128 ], [ -73.973460878204236, 40.705328045480407 ], [ -73.973639291748626, 40.705440833306547 ], [ -73.974164445720419, 40.705770655875931 ], [ -73.974316607521018, 40.705865358780997 ], [ -73.974655938937474, 40.706076552822438 ], [ -73.974608778755211, 40.706126083894695 ], [ -73.974581832277281, 40.706153409268346 ], [ -73.974563861182304, 40.706178174700746 ], [ -73.974566099713059, 40.706194405069972 ], [ -73.974558241149495, 40.70620380014558 ], [ -73.974532417040578, 40.706223439958343 ], [ -73.974515571972319, 40.706249059304497 ], [ -73.974498727212875, 40.706267848275388 ], [ -73.974484135879266, 40.706276386332355 ], [ -73.974467297685493, 40.706278090921714 ], [ -73.974453826909965, 40.706280649846455 ], [ -73.974388704684927, 40.706339572716224 ], [ -73.974316606588374, 40.706290778924149 ], [ -73.974074148338303, 40.706126690727032 ], [ -73.973916297625479, 40.706015741694415 ], [ -73.973503369987313, 40.705726945192161 ], [ -73.973367566617853, 40.705706411750221 ], [ -73.973094301504858, 40.705871616576253 ], [ -73.973056010975327, 40.705893956446687 ], [ -73.97301168072417, 40.705919014345341 ], [ -73.972550266939948, 40.706175148288906 ], [ -73.97314720927946, 40.706618594654159 ], [ -73.973676832063788, 40.707009063454279 ], [ -73.974112470411328, 40.707332251363063 ], [ -73.974247367473524, 40.707430057995403 ], [ -73.973790140059279, 40.707677430445422 ], [ -73.973223215148238, 40.707261165409356 ], [ -73.973170534538269, 40.707222484638415 ], [ -73.972602759551449, 40.706807231368607 ], [ -73.971841997332177, 40.706248432582186 ], [ -73.971208040099611, 40.705785324551002 ], [ -73.97111372574517, 40.705859613592231 ], [ -73.971011169045909, 40.706817089813022 ], [ -73.971049278614586, 40.706935826230648 ], [ -73.971341672749105, 40.707261162739727 ], [ -73.971438571202455, 40.707368978219776 ], [ -73.971847749693822, 40.707819311667514 ], [ -73.972205601795096, 40.708213156385021 ], [ -73.970566176271362, 40.706928095712044 ], [ -73.970580084087104, 40.706839807003497 ], [ -73.970942208694083, 40.70454096809155 ], [ -73.970722044534966, 40.703166226625477 ] ] ], [ [ [ -73.969443277337234, 40.704302836893874 ], [ -73.96939431736854, 40.704455091026404 ], [ -73.969160446826919, 40.704308097092792 ], [ -73.969443277337234, 40.704302836893874 ] ] ], [ [ [ -73.978567802816343, 40.705862931896895 ], [ -73.978563092141144, 40.70587918966379 ], [ -73.978335258234367, 40.705839855651341 ], [ -73.97833933892673, 40.705825613404429 ], [ -73.978567802816343, 40.705862931896895 ] ] ], [ [ [ -73.979156777184542, 40.705959138016311 ], [ -73.979098190501091, 40.705960720288715 ], [ -73.979090145573508, 40.705962556166511 ], [ -73.979069269424272, 40.705962989552603 ], [ -73.979075572763705, 40.705945873616947 ], [ -73.979156777184542, 40.705959138016311 ] ] ] ] } },
{ "type": "Feature", "properties": { "Borough": "BK", "Block": 2023, "Lot": 110, "CD": 302, "BCT2020": "3054300", "BCTCB2020": "30543001014", "CT2010": "543", "CB2010": "1039", "SchoolDist": "13", "Council": 33, "ZipCode": 11201, "FireComp": "E207", "PolicePrct": 88, "HealthCent": 36, "HealthArea": 9300, "Sanitboro": "3", "SanitDistr": "02", "SanitSub": "1B", "Address": "1 WALLABOUT STREET", "ZoneDist1": "M3-1", "ZoneDist2": "R6B", "ZoneDist3": null, "ZoneDist4": null, "Overlay1": null, "Overlay2": null, "SPDist1": null, "SPDist2": null, "SPDist3": null, "LtdHeight": null, "SplitZone": "Y", "BldgClass": "V1", "LandUse": "11", "Easements": 0, "OwnerType": "C", "OwnerName": "NYC DEPARTMENT OF ENVIRONMENTAL PROTECTION", "LotArea": 1519, "BldgArea": 0, "ComArea": 0, "ResArea": 0, "OfficeArea": 0, "RetailArea": 0, "GarageArea": 0, "StrgeArea": 0, "FactryArea": 0, "OtherArea": 0, "AreaSource": "7", "NumBldgs": 0, "NumFloors": 0.0, "UnitsRes": 0, "UnitsTotal": 0, "LotFront": 11.0, "LotDepth": 137.0, "BldgFront": 0.0, "BldgDepth": 0.0, "Ext": null, "ProxCode": "0", "IrrLotCode": "Y", "LotType": "5", "BsmtCode": "5", "AssessLand": 91350.0, "AssessTot": 91350.0, "ExemptTot": 91350.0, "YearBuilt": 0, "YearAlter1": 0, "YearAlter2": 0, "HistDist": null, "Landmark": null, "BuiltFAR": 0.0, "ResidFAR": 0.0, "CommFAR": 2.0, "FacilFAR": 0.0, "BoroCode": 3, "BBL": 3020230110.0, "CondoNo": 0, "Tract2010": "0543", "XCoord": 989853, "YCoord": 195197, "ZoneMap": "12d", "ZMCode": null, "Sanborn": "302 009", "TaxMap": "30705", "EDesigNum": null, "APPBBL": 0.0, "APPDate": null, "PLUTOMapID": "1", "FIRM07_FLA": null, "PFIRM15_FL": null, "Version": "25v4", "DCPEdited": "t", "Latitude": 40.7024456, "Longitude": -73.9797923, "Notes": null, "Shape_Leng": 0.0, "Shape_Area": 1719.5641941 }, "geometry": { "type": "MultiPolygon", "coordinates": [ [ [ [ -73.97979938566364, 40.702256102644327 ], [ -73.979848001446626, 40.702195980525957 ], [ -73.979774429229892, 40.702687151738914 ], [ -73.979741838147135, 40.702665479657803 ], [ -73.97979938566364, 40.702256102644327 ] ] ] ] } },
{ "type": "Feature", "properties": { "Borough": "BK", "Block": 6, "Lot": 1, "CD": 302, "BCT2020": "3002100", "BCTCB2020": "30021003000", "CT2010": "21", "CB2010": "3000", "SchoolDist": "13", "Council": 33, "ZipCode": 11201, "FireComp": "E207", "PolicePrct": 84, "HealthCent": 36, "HealthArea": 1000, "Sanitboro": "3", "SanitDistr": "02", "SanitSub": "1B", "Address": "1 HUDSON AVENUE", "ZoneDist1": "M3-1", "ZoneDist2": null, "ZoneDist3": null, "ZoneDist4": null, "Overlay1": null, "Overlay2": null, "SPDist1": null, "SPDist2": null, "SPDist3": null, "LtdHeight": null, "SplitZone": "N", "BldgClass": "U2", "LandUse": "07", "Easements": 1, "OwnerType": "X", "OwnerName": "CONSOLIDATED EDISON CO.OF N.Y.,INC.", "LotArea": 323307, "BldgArea": 0, "ComArea": 0, "ResArea": 0, "OfficeArea": 0, "RetailArea": 0, "GarageArea": 0, "StrgeArea": 0, "FactryArea": 0, "OtherArea": 0, "AreaSource": "7", "NumBldgs": 10, "NumFloors": 0.0, "UnitsRes": 0, "UnitsTotal": 0, "LotFront": 302.92, "LotDepth": 657.0, "BldgFront": 0.0, "BldgDepth": 0.0, "Ext": "N", "ProxCode": "0", "IrrLotCode": "Y", "LotType": "3", "BsmtCode": "0", "AssessLand": 0.0, "AssessTot": 0.0, "ExemptTot": 0.0, "YearBuilt": 0, "YearAlter1": 0, "YearAlter2": 0, "HistDist": null, "Landmark": null, "BuiltFAR": 0.0, "ResidFAR": 0.0, "CommFAR": 2.0, "FacilFAR": 0.0, "BoroCode": 3, "BBL": 3000060001.0, "CondoNo": 0, "Tract2010": "0021", "XCoord": 989745, "YCoord": 196040, "ZoneMap": "12d", "ZMCode": null, "Sanborn": "302 009", "TaxMap": "30101", "EDesigNum": null, "APPBBL": 0.0, "APPDate": null, "PLUTOMapID": "1", "FIRM07_FLA": "1", "PFIRM15_FL": "1", "Version": "25v4", "DCPEdited": null, "Latitude": 40.7047595, "Longitude": -73.9801811, "Notes": null, "Shape_Leng": 0.0, "Shape_Area": 316491.97899199999 }, "geometry": { "type": "MultiPolygon", "coordinates": [ [ [ [ -73.980982790390158, 40.7036273136194 ], [ -73.98093620240428, 40.704279637054761 ], [ -73.980932386222619, 40.704333068167593 ], [ -73.980889480506065, 40.704933802849013 ], [ -73.980859947448437, 40.705347306579206 ], [ -73.980855800991037, 40.705405367143925 ], [ -73.980792681072884, 40.70548982889477 ], [ -73.980752783385071, 40.705758417243722 ], [ -73.980759417921789, 40.705759520589162 ], [ -73.980757137003664, 40.705798076366854 ], [ -73.980773432270993, 40.705815315754677 ], [ -73.980769634591951, 40.705845189583655 ], [ -73.980584446035607, 40.705842680883279 ], [ -73.980403135383909, 40.705839206356828 ], [ -73.979262215665244, 40.705816068931931 ], [ -73.979224957339639, 40.705888772860199 ], [ -73.979216724284527, 40.705904398461769 ], [ -73.979215198116506, 40.705904934196553 ], [ -73.97921001736502, 40.705917127514105 ], [ -73.979194042498079, 40.705947446238397 ], [ -73.97916001976769, 40.705950899813807 ], [ -73.979584999345448, 40.704816916905393 ], [ -73.979289383305641, 40.704810537525532 ], [ -73.979421173968873, 40.704473807579681 ], [ -73.979454475825818, 40.704388717184159 ], [ -73.97951177236763, 40.704242319943631 ], [ -73.97952544900302, 40.704207378098381 ], [ -73.979570741159563, 40.704136503474942 ], [ -73.979917928877313, 40.703593218894682 ], [ -73.980982790390158, 40.7036273136194 ] ] ] ] } },
{ "type": "Feature", "properties": { "Borough": "BK", "Block": 2023, "Lot": 10, "CD": 302, "BCT2020": "3054300", "BCTCB2020": "30543001008", "CT2010": "543", "CB2010": "1021", "SchoolDist": "14", "Council": 33, "ZipCode": 11249, "FireComp": "E207", "PolicePrct": 88, "HealthCent": 36, "HealthArea": 9300, "Sanitboro": "3", "SanitDistr": "01", "SanitSub": "4A", "Address": "492 KENT AVENUE", "ZoneDist1": "M1-5", "ZoneDist2": null, "ZoneDist3": null, "ZoneDist4": null, "Overlay1": null, "Overlay2": null, "SPDist1": null, "SPDist2": null, "SPDist3": null, "LtdHeight": null, "SplitZone": "N", "BldgClass": "Z9", "LandUse": null, "Easements": 0, "OwnerType": null, "OwnerName": "500 KENT LLC", "LotArea": 113700, "BldgArea": 0, "ComArea": 0, "ResArea": 0, "OfficeArea": 0, "RetailArea": 0, "GarageArea": 0, "StrgeArea": 0, "FactryArea": 0, "OtherArea": 0, "AreaSource": "7", "NumBldgs": 1, "NumFloors": 0.0, "UnitsRes": 0, "UnitsTotal": 0, "LotFront": 342.17, "LotDepth": 999.08, "BldgFront": 0.0, "BldgDepth": 0.0, "Ext": null, "ProxCode": "0", "IrrLotCode": "Y", "LotType": "5", "BsmtCode": "5", "AssessLand": 1542150.0, "AssessTot": 1542150.0, "ExemptTot": 0.0, "YearBuilt": 0, "YearAlter1": 0, "YearAlter2": 0, "HistDist": null, "Landmark": null, "BuiltFAR": 0.0, "ResidFAR": 0.0, "CommFAR": 5.0, "FacilFAR": 6.5, "BoroCode": 3, "BBL": 3020230010.0000005, "CondoNo": 0, "Tract2010": "0543", "XCoord": 992903, "YCoord": 196578, "ZoneMap": "12d", "ZMCode": null, "Sanborn": "303 002", "TaxMap": "30705", "EDesigNum": "E-738", "APPBBL": 0.0, "APPDate": null, "PLUTOMapID": "1", "FIRM07_FLA": "1", "PFIRM15_FL": "1", "Version": "25v4", "DCPEdited": null, "Latitude": 40.7062337, "Longitude": -73.9687905, "Notes": null, "Shape_Leng": 0.0, "Shape_Area": 120657.454986 }, "geometry": { "type": "MultiPolygon", "coordinates": [ [ [ [ -73.969252483614653, 40.705524512191431 ], [ -73.969249561759057, 40.705551632783447 ], [ -73.969244920619431, 40.705876208602874 ], [ -73.969235800630145, 40.706180285812373 ], [ -73.969234667347067, 40.706202492918941 ], [ -73.969262471547751, 40.706755136084325 ], [ -73.969163695056267, 40.706762796247297 ], [ -73.969178206576188, 40.706935337817541 ], [ -73.969271929298642, 40.706935363005904 ], [ -73.969276341802527, 40.706998279087436 ], [ -73.968443440671905, 40.706802626029592 ], [ -73.968450087231005, 40.706721120936997 ], [ -73.968061158657505, 40.705823302139542 ], [ -73.969252483614653, 40.705524512191431 ] ] ] ] } },
{ "type": "Feature", "properties": { "Borough": "BK", "Block": 2023, "Lot": 50, "CD": 302, "BCT2020": "3054300", "BCTCB2020": "30543001013", "CT2010": "543", "CB2010": "1039", "SchoolDist": "13", "Council": 33, "ZipCode": 11201, "FireComp": "E207", "PolicePrct": 88, "HealthCent": 36, "HealthArea": 9300, "Sanitboro": "3", "SanitDistr": "02", "SanitSub": "4C", "Address": "63 FLUSHING AVENUE", "ZoneDist1": "M1-4", "ZoneDist2": null, "ZoneDist3": null, "ZoneDist4": null, "Overlay1": null, "Overlay2": null, "SPDist1": null, "SPDist2": null, "SPDist3": null, "LtdHeight": null, "SplitZone": "N", "BldgClass": "K4", "LandUse": "04", "Easements": 0, "OwnerType": "C", "OwnerName": "NYC DEPARTMENT OF SMALL BUSINESS SERVICES", "LotArea": 286189, "BldgArea": 289262, "ComArea": 289262, "ResArea": 0, "OfficeArea": 7200, "RetailArea": 155090, "GarageArea": 0, "StrgeArea": 0, "FactryArea": 126972, "OtherArea": 0, "AreaSource": "2", "NumBldgs": 5, "NumFloors": 4.0, "UnitsRes": 0, "UnitsTotal": 10, "LotFront": 683.25, "LotDepth": 419.42, "BldgFront": 42.0, "BldgDepth": 43.0, "Ext": "N", "ProxCode": "0", "IrrLotCode": "Y", "LotType": "5", "BsmtCode": "2", "AssessLand": 2854350.0, "AssessTot": 31368600.0, "ExemptTot": 31368600.0, "YearBuilt": 1955, "YearAlter1": 2018, "YearAlter2": 2020, "HistDist": null, "Landmark": null, "BuiltFAR": 1.01, "ResidFAR": 0.0, "CommFAR": 2.0, "FacilFAR": 6.5, "BoroCode": 3, "BBL": 3020230050.0, "CondoNo": 0, "Tract2010": "0543", "XCoord": 990005, "YCoord": 193879, "ZoneMap": "12d", "ZMCode": null, "Sanborn": "302 046", "TaxMap": "30705", "EDesigNum": null, "APPBBL": 0.0, "APPDate": null, "PLUTOMapID": "1", "FIRM07_FLA": "1", "PFIRM15_FL": "1", "Version": "25v4", "DCPEdited": "t", "Latitude": 40.6988279, "Longitude": -73.9792452, "Notes": null, "Shape_Leng": 0.0, "Shape_Area": 273750.740658 }, "geometry": { "type": "MultiPolygon", "coordinates": [ [ [ [ -73.977951298224198, 40.698218672698886 ], [ -73.980437159986877, 40.698318424949939 ], [ -73.980358234896997, 40.699472786689512 ], [ -73.979836281102166, 40.699458895374612 ], [ -73.979823000697806, 40.699587477787013 ], [ -73.979202047251562, 40.699565943245723 ], [ -73.978745810717939, 40.699146488736197 ], [ -73.97818062619271, 40.699181409387862 ], [ -73.978099730517044, 40.699139262560465 ], [ -73.977878677939231, 40.698725250811506 ], [ -73.977951298224198, 40.698218672698886 ] ] ] ] } },
{ "type": "Feature", "properties": { "Borough": "BK", "Block": 2023, "Lot": 100, "CD": 302, "BCT2020": "3002100", "BCTCB2020": "30021003012", "CT2010": "21", "CB2010": "3013", "SchoolDist": "13", "Council": 33, "ZipCode": 11201, "FireComp": "E207", "PolicePrct": 84, "HealthCent": 36, "HealthArea": 1000, "Sanitboro": "3", "SanitDistr": "02", "SanitSub": "1B", "Address": "24 EVANS STREET", "ZoneDist1": "R6B", "ZoneDist2": "M3-1", "ZoneDist3": null, "ZoneDist4": null, "Overlay1": null, "Overlay2": null, "SPDist1": null, "SPDist2": null, "SPDist3": null, "LtdHeight": null, "SplitZone": "Y", "BldgClass": "A3", "LandUse": "01", "Easements": 0, "OwnerType": null, "OwnerName": "CHARLES GILBERT", "LotArea": 107157, "BldgArea": 9900, "ComArea": 0, "ResArea": 9900, "OfficeArea": 0, "RetailArea": 0, "GarageArea": 0, "StrgeArea": 0, "FactryArea": 0, "OtherArea": 0, "AreaSource": "2", "NumBldgs": 2, "NumFloors": 2.5, "UnitsRes": 1, "UnitsTotal": 1, "LotFront": 236.0, "LotDepth": 481.0, "BldgFront": 50.0, "BldgDepth": 100.0, "Ext": "N", "ProxCode": "1", "IrrLotCode": "Y", "LotType": "5", "BsmtCode": "2", "AssessLand": 169500.0, "AssessTot": 572580.0, "ExemptTot": 0.0, "YearBuilt": 1901, "YearAlter1": 2008, "YearAlter2": 0, "HistDist": null, "Landmark": "INDIVIDUAL LANDMARK", "BuiltFAR": 0.09, "ResidFAR": 2.0, "CommFAR": 0.0, "FacilFAR": 2.0, "BoroCode": 3, "BBL": 3020230100.0, "CondoNo": 0, "Tract2010": "0021", "XCoord": 989699, "YCoord": 195153, "ZoneMap": "12d", "ZMCode": null, "Sanborn": "302 009", "TaxMap": "30705", "EDesigNum": null, "APPBBL": 0.0, "APPDate": null, "PLUTOMapID": "1", "FIRM07_FLA": "1", "PFIRM15_FL": "1", "Version": "25v4", "DCPEdited": null, "Latitude": 40.702325, "Longitude": -73.9803478, "Notes": null, "Shape_Leng": 0.0, "Shape_Area": 103406.17004700001 }, "geometry": { "type": "MultiPolygon", "coordinates": [ [ [ [ -73.979886570999781, 40.703429237715987 ], [ -73.980041450235007, 40.703082860332657 ], [ -73.980116641935339, 40.702914699618375 ], [ -73.98005145703803, 40.702871356563101 ], [ -73.979774429229892, 40.702687151738914 ], [ -73.979848001446626, 40.702195980525957 ], [ -73.980142718437335, 40.70183152007889 ], [ -73.98062305674317, 40.701862626110795 ], [ -73.980747996671838, 40.701428983160461 ], [ -73.981116184382799, 40.701921851627716 ], [ -73.98110505716835, 40.701921430981507 ], [ -73.980885714485666, 40.70214369712869 ], [ -73.980801231464937, 40.702229307092907 ], [ -73.980672202019306, 40.702360052894726 ], [ -73.980606103443904, 40.702427031460132 ], [ -73.980541528032759, 40.702492467798038 ], [ -73.980473635938054, 40.702561263253273 ], [ -73.980404986283162, 40.70263082670882 ], [ -73.980402993003366, 40.702632845344247 ], [ -73.980399079012926, 40.702696179322011 ], [ -73.980382130299702, 40.702970352903257 ], [ -73.980245579211243, 40.702961461177779 ], [ -73.98023687801664, 40.703094114704449 ], [ -73.979999636174, 40.70346536174992 ], [ -73.979886570999781, 40.703429237715987 ] ] ] ] } },
{ "type": "Feature", "properties": { "Borough": "BK", "Block": 2023, "Lot": 125, "CD": 302, "BCT2020": "3054300", "BCTCB2020": "30543001015", "CT2010": "543", "CB2010": "1038", "SchoolDist": "13", "Council": 33, "ZipCode": 11201, "FireComp": "E207", "PolicePrct": 88, "HealthCent": 36, "HealthArea": 9300, "Sanitboro": "3", "SanitDistr": "02", "SanitSub": "1B", "Address": "61 LITTLE STREET", "ZoneDist1": "M3-1", "ZoneDist2": null, "ZoneDist3": null, "ZoneDist4": null, "Overlay1": null, "Overlay2": null, "SPDist1": null, "SPDist2": null, "SPDist3": null, "LtdHeight": null, "SplitZone": "N", "BldgClass": "U9", "LandUse": "07", "Easements": 0, "OwnerType": "C", "OwnerName": "NYC DEPARTMENT OF ENVIRONMENTAL PROTECTION", "LotArea": 851780, "BldgArea": 0, "ComArea": 0, "ResArea": 0, "OfficeArea": 0, "RetailArea": 0, "GarageArea": 0, "StrgeArea": 0, "FactryArea": 0, "OtherArea": 0, "AreaSource": "7", "NumBldgs": 11, "NumFloors": 0.0, "UnitsRes": 0, "UnitsTotal": 0, "LotFront": 540.0, "LotDepth": 1364.0, "BldgFront": 0.0, "BldgDepth": 0.0, "Ext": "N", "ProxCode": "0", "IrrLotCode": "Y", "LotType": "5", "BsmtCode": "0", "AssessLand": 0.0, "AssessTot": 0.0, "ExemptTot": 0.0, "YearBuilt": 0, "YearAlter1": 0, "YearAlter2": 0, "HistDist": null, "Landmark": null, "BuiltFAR": 0.0, "ResidFAR": 0.0, "CommFAR": 2.0, "FacilFAR": 0.0, "BoroCode": 3, "BBL": 3020230125.0, "CondoNo": 0, "Tract2010": "0543", "XCoord": 990205, "YCoord": 195750, "ZoneMap": "12d", "ZMCode": null, "Sanborn": "302 009", "TaxMap": "30705", "EDesigNum": null, "APPBBL": 0.0, "APPDate": null, "PLUTOMapID": "1", "FIRM07_FLA": "1", "PFIRM15_FL": "1", "Version": "25v4", "DCPEdited": "t", "Latitude": 40.7039633, "Longitude": -73.9785223, "Notes": null, "Shape_Leng": 0.0, "Shape_Area": 641448.27313900006 }, "geometry": { "type": "MultiPolygon", "coordinates": [ [ [ [ -73.97752653308676, 40.703295726688005 ], [ -73.977575792197612, 40.703094828118338 ], [ -73.977857613585783, 40.701945424180828 ], [ -73.97979938566364, 40.702256102644327 ], [ -73.979741838147135, 40.702665479657803 ], [ -73.979774429229892, 40.702687151738914 ], [ -73.98005145703803, 40.702871356563101 ], [ -73.980116641935339, 40.702914699618375 ], [ -73.980041450235007, 40.703082860332657 ], [ -73.979886570999781, 40.703429237715987 ], [ -73.979999636174, 40.70346536174992 ], [ -73.979917928877313, 40.703593218894682 ], [ -73.979570741159563, 40.704136503474942 ], [ -73.97952544900302, 40.704207378098381 ], [ -73.97951177236763, 40.704242319943631 ], [ -73.979454475825818, 40.704388717184159 ], [ -73.979421173968873, 40.704473807579681 ], [ -73.979289383305641, 40.704810537525532 ], [ -73.979584999345448, 40.704816916905393 ], [ -73.97916001976769, 40.705950899813807 ], [ -73.979156777184542, 40.705959138016311 ], [ -73.979075572763705, 40.705945873616947 ], [ -73.979077132203841, 40.705941639012138 ], [ -73.979240005021623, 40.705543632571576 ], [ -73.978687817698869, 40.705448720770846 ], [ -73.978567802816343, 40.705862931896895 ], [ -73.97833933892673, 40.705825613404429 ], [ -73.978470098830584, 40.705369244114507 ], [ -73.978583588561662, 40.704975501375785 ], [ -73.978514033546261, 40.704874697817303 ], [ -73.978438835307514, 40.704869560619052 ], [ -73.978158351846588, 40.704527845796036 ], [ -73.978175206231953, 40.704468056981767 ], [ -73.9780259882927, 40.704292927823204 ], [ -73.978023747282293, 40.704281824144964 ], [ -73.977666851041604, 40.704227088533415 ], [ -73.977357093380817, 40.704177487875441 ], [ -73.977340237671172, 40.704232150863383 ], [ -73.977298478905794, 40.704225785971282 ], [ -73.97752653308676, 40.703295726688005 ] ] ] ] } },
{ "type": "Feature", "properties": { "Borough": "BK", "Block": 2023, "Lot": 150, "CD": 302, "BCT2020": "3054300", "BCTCB2020": "30543001004", "CT2010": "543", "CB2010": "1017", "SchoolDist": "14", "Council": 33, "ZipCode": 11251, "FireComp": "E207", "PolicePrct": 88, "HealthCent": 36, "HealthArea": 9300, "Sanitboro": "3", "SanitDistr": "02", "SanitSub": null, "Address": "22 FLUSHING AVENUE", "ZoneDist1": "M3-1", "ZoneDist2": "M2-1", "ZoneDist3": null, "ZoneDist4": null, "Overlay1": null, "Overlay2": null, "SPDist1": "BNY", "SPDist2": null, "SPDist3": null, "LtdHeight": null, "SplitZone": "Y", "BldgClass": "J6", "LandUse": "05", "Easements": 0, "OwnerType": "C", "OwnerName": "BROOKLYN NAVY YARD DEV", "LotArea": 1543330, "BldgArea": 630203, "ComArea": 510593, "ResArea": 0, "OfficeArea": 0, "RetailArea": 0, "GarageArea": 0, "StrgeArea": 0, "FactryArea": 0, "OtherArea": 510593, "AreaSource": "2", "NumBldgs": 24, "NumFloors": 7.0, "UnitsRes": 0, "UnitsTotal": 3, "LotFront": 1852.0, "LotDepth": 1346.0, "BldgFront": 100.0, "BldgDepth": 350.0, "Ext": "N", "ProxCode": "1", "IrrLotCode": "Y", "LotType": "3", "BsmtCode": "2", "AssessLand": 14049900.0, "AssessTot": 32640300.0, "ExemptTot": 32640300.0, "YearBuilt": 1941, "YearAlter1": 2023, "YearAlter2": 0, "HistDist": null, "Landmark": "INDIVIDUAL LANDMARK", "BuiltFAR": 0.41, "ResidFAR": 0.0, "CommFAR": 2.0, "FacilFAR": 0.0, "BoroCode": 3, "BBL": 3020230149.9999995, "CondoNo": 0, "Tract2010": "0543", "XCoord": 993770, "YCoord": 194013, "ZoneMap": "12d", "ZMCode": null, "Sanborn": "303 023", "TaxMap": "30705", "EDesigNum": null, "APPBBL": 0.0, "APPDate": null, "PLUTOMapID": "1", "FIRM07_FLA": "1", "PFIRM15_FL": "1", "Version": "25v4", "DCPEdited": null, "Latitude": 40.6991925, "Longitude": -73.965667, "Notes": null, "Shape_Leng": 0.0, "Shape_Area": 1608779.6196699999 }, "geometry": { "type": "MultiPolygon", "coordinates": [ [ [ [ -73.962728932287618, 40.700487187041801 ], [ -73.96262828382487, 40.700361038649326 ], [ -73.962470229408424, 40.69973016938102 ], [ -73.962972867847995, 40.698099873678785 ], [ -73.965461986619729, 40.697714447253958 ], [ -73.969675074147986, 40.697886059591333 ], [ -73.969601415837914, 40.699230658279163 ], [ -73.967762767843496, 40.699205935172188 ], [ -73.967759771880282, 40.699310713259877 ], [ -73.966248515627512, 40.699290370213163 ], [ -73.966244791924055, 40.699970143858579 ], [ -73.96634608741202, 40.69997373250213 ], [ -73.966318633020293, 40.700879252521219 ], [ -73.966311392948413, 40.700879049606932 ], [ -73.966207934076479, 40.701473183958285 ], [ -73.965800278066311, 40.701461681460046 ], [ -73.965773417153187, 40.701714366586465 ], [ -73.965656751149936, 40.701786077978937 ], [ -73.963292077209402, 40.700150376136449 ], [ -73.962995554056192, 40.700327724597805 ], [ -73.962728932287618, 40.700487187041801 ] ] ] ] } }
]
}
