{
"type": "FeatureCollection",
"name": "pluto_St._Michael's_Cemetery",
"crs": { "type": "name", "properties": { "name": "urn:ogc:def:crs:OGC:1.3:CRS84" } },
"features": [
{ "type": "Feature", "properties": { "Borough": "QN", "Block": 1016, "Lot": 21, "CD": 401, "BCT2020": "4029900", "BCTCB2020": "40299001000", "CT2010": "299", "CB2010": "1000", "SchoolDist": "30", "Council": 22, "ZipCode": 11377, "FireComp": "L117", "PolicePrct": 114, "HealthCent": 42, "HealthArea": 620, "Sanitboro": "4", "SanitDistr": "01", "SanitSub": "5E", "Address": "49 STREET", "ZoneDist1": "M1-1", "ZoneDist2": null, "ZoneDist3": null, "ZoneDist4": null, "Overlay1": null, "Overlay2": null, "SPDist1": null, "SPDist2": null, "SPDist3": null, "LtdHeight": null, "SplitZone": "N", "BldgClass": "V1", "LandUse": "11", "Easements": 0, "OwnerType": null, "OwnerName": "49TH ST LOT LLC", "LotArea": 126, "BldgArea": 0, "ComArea": 0, "ResArea": 0, "OfficeArea": 0, "RetailArea": 0, "GarageArea": 0, "StrgeArea": 0, "FactryArea": 0, "OtherArea": 0, "AreaSource": "7", "NumBldgs": 0, "NumFloors": 0.0, "UnitsRes": 0, "UnitsTotal": 0, "LotFront": 24.33, "LotDepth": 12.82, "BldgFront": 0.0, "BldgDepth": 0.0, "Ext": null, "ProxCode": "0", "IrrLotCode": "Y", "LotType": "3", "BsmtCode": "5", "AssessLand": 1980.0, "AssessTot": 1980.0, "ExemptTot": 0.0, "YearBuilt": 0, "YearAlter1": 0, "YearAlter2": 0, "HistDist": null, "Landmark": null, "BuiltFAR": 0.0, "ResidFAR": 0.0, "CommFAR": 1.0, "FacilFAR": 2.4, "BoroCode": 4, "BBL": 4010160021.0, "CondoNo": 0, "Tract2010": "0299", "XCoord": 1011053, "YCoord": 218279, "ZoneMap": "9c", "ZMCode": null, "Sanborn": "402 076", "TaxMap": "40702", "EDesigNum": null, "APPBBL": 0.0, "APPDate": null, "PLUTOMapID": "1", "FIRM07_FLA": null, "PFIRM15_FL": null, "Version": "25v4", "DCPEdited": null, "Latitude": 40.7657612, "Longitude": -73.9032408, "Notes": null, "Shape_Leng": 0.0, "Shape_Area": 122.7516849 }, "geometry": { "type": "MultiPolygon", "coordinates": [ [ [ [ -73.903214645896625, 40.765773705038939 ], [ -73.903238232133873, 40.765728614939619 ], [ -73.903261704821801, 40.765786877577987 ], [ -73.903214645896625, 40.765773705038939 ] ] ] ] } },
{ "type": "Feature", "properties": { "Borough": "QN", "Block": 1016, "Lot": 22, "CD": 401, "BCT2020": "4029900", "BCTCB2020": "40299001000", "CT2010": "299", "CB2010": "1000", "SchoolDist": "30", "Council": 22, "ZipCode": 11377, "FireComp": "L117", "PolicePrct": 114, "HealthCent": 42, "HealthArea": 620, "Sanitboro": "4", "SanitDistr": "01", "SanitSub": "5E", "Address": "49 STREET", "ZoneDist1": "M1-1", "ZoneDist2": null, "ZoneDist3": null, "ZoneDist4": null, "Overlay1": null, "Overlay2": null, "SPDist1": null, "SPDist2": null, "SPDist3": null, "LtdHeight": null, "SplitZone": "N", "BldgClass": "G7", "LandUse": "10", "Easements": 0, "OwnerType": null, "OwnerName": "TLC GROUP LLC", "LotArea": 3289, "BldgArea": 0, "ComArea": 0, "ResArea": 0, "OfficeArea": 0, "RetailArea": 0, "GarageArea": 0, "StrgeArea": 0, "FactryArea": 0, "OtherArea": 0, "AreaSource": "7", "NumBldgs": 0, "NumFloors": 0.0, "UnitsRes": 0, "UnitsTotal": 0, "LotFront": 49.0, "LotDepth": 94.98, "BldgFront": 0.0, "BldgDepth": 0.0, "Ext": null, "ProxCode": "0", "IrrLotCode": "N", "LotType": "0", "BsmtCode": "5", "AssessLand": 84150.0, "AssessTot": 84150.0, "ExemptTot": 0.0, "YearBuilt": 2000, "YearAlter1": 0, "YearAlter2": 0, "HistDist": null, "Landmark": null, "BuiltFAR": 0.0, "ResidFAR": 0.0, "CommFAR": 1.0, "FacilFAR": 2.4, "BoroCode": 4, "BBL": 4010160022.0, "CondoNo": 0, "Tract2010": "0299", "XCoord": 1011060, "YCoord": 218338, "ZoneMap": "9c", "ZMCode": null, "Sanborn": "402 076", "TaxMap": "40702", "EDesigNum": null, "APPBBL": 4010160023.0, "APPDate": "12/13/2016", "PLUTOMapID": "1", "FIRM07_FLA": null, "PFIRM15_FL": null, "Version": "25v4", "DCPEdited": null, "Latitude": 40.7659231, "Longitude": -73.9032153, "Notes": null, "Shape_Leng": 0.0, "Shape_Area": 3443.1224677 }, "geometry": { "type": "MultiPolygon", "coordinates": [ [ [ [ -73.903091061640794, 40.766016879021038 ], [ -73.903214645896625, 40.765773705038939 ], [ -73.903261704821801, 40.765786877577987 ], [ -73.903320171982017, 40.765932007287226 ], [ -73.903220261746384, 40.766042993513381 ], [ -73.903091061640794, 40.766016879021038 ] ] ] ] } },
{ "type": "Feature", "properties": { "Borough": "QN", "Block": 1016, "Lot": 225, "CD": 401, "BCT2020": "4029900", "BCTCB2020": "40299001000", "CT2010": "299", "CB2010": "1000", "SchoolDist": "30", "Council": 22, "ZipCode": 11377, "FireComp": "L117", "PolicePrct": 114, "HealthCent": 42, "HealthArea": 620, "Sanitboro": "4", "SanitDistr": "01", "SanitSub": "5E", "Address": "BROOKLYN-QUEENS EXPY EAST", "ZoneDist1": "R4", "ZoneDist2": null, "ZoneDist3": null, "ZoneDist4": null, "Overlay1": null, "Overlay2": null, "SPDist1": null, "SPDist2": null, "SPDist3": null, "LtdHeight": null, "SplitZone": "N", "BldgClass": "V9", "LandUse": "11", "Easements": 0, "OwnerType": "X", "OwnerName": "SAINT MICHAEL'S PROTESTANT EPISCOPAL CHU RCH", "LotArea": 160930, "BldgArea": 0, "ComArea": 0, "ResArea": 0, "OfficeArea": 0, "RetailArea": 0, "GarageArea": 0, "StrgeArea": 0, "FactryArea": 0, "OtherArea": 0, "AreaSource": "7", "NumBldgs": 0, "NumFloors": 0.0, "UnitsRes": 0, "UnitsTotal": 0, "LotFront": 2548.0, "LotDepth": 57.0, "BldgFront": 0.0, "BldgDepth": 0.0, "Ext": null, "ProxCode": "0", "IrrLotCode": "Y", "LotType": "3", "BsmtCode": "5", "AssessLand": 11378250.0, "AssessTot": 11378250.0, "ExemptTot": 11378250.0, "YearBuilt": 0, "YearAlter1": 0, "YearAlter2": 0, "HistDist": null, "Landmark": null, "BuiltFAR": 0.0, "ResidFAR": 1.0, "CommFAR": 0.0, "FacilFAR": 2.0, "BoroCode": 4, "BBL": 4010160225.0, "CondoNo": 0, "Tract2010": "0299", "XCoord": 1012875, "YCoord": 217330, "ZoneMap": "9c", "ZMCode": "Y", "Sanborn": "410 051", "TaxMap": "40702", "EDesigNum": null, "APPBBL": 4010160225.0, "APPDate": "11/10/2021", "PLUTOMapID": "1", "FIRM07_FLA": null, "PFIRM15_FL": null, "Version": "25v4", "DCPEdited": null, "Latitude": 40.7631507, "Longitude": -73.8966674, "Notes": null, "Shape_Leng": 0.0, "Shape_Area": 145427.78026500001 }, "geometry": { "type": "MultiPolygon", "coordinates": [ [ [ [ -73.894809956284959, 40.765921141287208 ], [ -73.894810560245787, 40.765918921250297 ], [ -73.895157521359266, 40.764644798249606 ], [ -73.89520391228325, 40.764536767126529 ], [ -73.895249568749989, 40.764448363650807 ], [ -73.895300707522111, 40.764362953984332 ], [ -73.895359147525198, 40.76427772285686 ], [ -73.895399115533678, 40.764225206591121 ], [ -73.895446696349893, 40.764167598480725 ], [ -73.895512238068108, 40.764095450053098 ], [ -73.895575435671162, 40.764032419751707 ], [ -73.895661070198074, 40.763955419449083 ], [ -73.89574212191593, 40.763889991899958 ], [ -73.895838087402936, 40.763821108159298 ], [ -73.895942195043887, 40.763748475614356 ], [ -73.895996752209001, 40.763710413741627 ], [ -73.896072377256388, 40.763657415206694 ], [ -73.896133800003625, 40.763613296369712 ], [ -73.896185686464932, 40.763575134699884 ], [ -73.89624462196241, 40.763530160727811 ], [ -73.896296617572489, 40.763488738368345 ], [ -73.896349633417032, 40.7634447027771 ], [ -73.896398519001821, 40.763402375211903 ], [ -73.896440914958802, 40.76336424637438 ], [ -73.896481032226816, 40.763326854693403 ], [ -73.896517137614879, 40.76329205017624 ], [ -73.896569107195745, 40.763241230879807 ], [ -73.896614847739869, 40.763196147641843 ], [ -73.896650201365475, 40.763161068670378 ], [ -73.89669723913633, 40.763114080117589 ], [ -73.896731881111577, 40.763075812696229 ], [ -73.896761759547644, 40.763035291537292 ], [ -73.897146919662731, 40.762465465424668 ], [ -73.897195698503396, 40.762389500858049 ], [ -73.897202347516227, 40.762379426506619 ], [ -73.897376881104591, 40.762135910619598 ], [ -73.897550711990874, 40.761923361388369 ], [ -73.897605274202817, 40.761861987268887 ], [ -73.897684592614183, 40.761759393787543 ], [ -73.897956162229164, 40.761346069157042 ], [ -73.898189508841639, 40.760990916095579 ], [ -73.898590886011647, 40.760380009242432 ], [ -73.898835767122776, 40.760010518193532 ], [ -73.899023947015536, 40.75999099835375 ], [ -73.89895710098213, 40.760092742035631 ], [ -73.896416302903788, 40.763959739877343 ], [ -73.895958832285061, 40.76377526900891 ], [ -73.895869967103764, 40.763835861196675 ], [ -73.895571173777029, 40.764365858996342 ], [ -73.895533305112394, 40.764433026696892 ], [ -73.895169908999236, 40.765371229888885 ], [ -73.894948112228931, 40.765943843264353 ], [ -73.894809956284959, 40.765921141287208 ] ] ] ] } },
{ "type": "Feature", "properties": { "Borough": "QN", "Block": 1016, "Lot": 227, "CD": 401, "BCT2020": "4029900", "BCTCB2020": "40299001000", "CT2010": "299", "CB2010": "1000", "SchoolDist": "30", "Council": 22, "ZipCode": 11377, "FireComp": "L117", "PolicePrct": 114, "HealthCent": 42, "HealthArea": 620, "Sanitboro": "4", "SanitDistr": "01", "SanitSub": "5E", "Address": "BROOKLYN-QUEENS EXPY EAST", "ZoneDist1": "R4", "ZoneDist2": null, "ZoneDist3": null, "ZoneDist4": null, "Overlay1": null, "Overlay2": null, "SPDist1": null, "SPDist2": null, "SPDist3": null, "LtdHeight": null, "SplitZone": "N", "BldgClass": "V9", "LandUse": "11", "Easements": 0, "OwnerType": "C", "OwnerName": "NYC DEPARTMENT OF PARKS AND RECREATION", "LotArea": 1643, "BldgArea": 0, "ComArea": 0, "ResArea": 0, "OfficeArea": 0, "RetailArea": 0, "GarageArea": 0, "StrgeArea": 0, "FactryArea": 0, "OtherArea": 0, "AreaSource": "7", "NumBldgs": 0, "NumFloors": 0.0, "UnitsRes": 0, "UnitsTotal": 0, "LotFront": 84.0, "LotDepth": 80.0, "BldgFront": 0.0, "BldgDepth": 0.0, "Ext": null, "ProxCode": "0", "IrrLotCode": "Y", "LotType": "0", "BsmtCode": "5", "AssessLand": 113850.0, "AssessTot": 113850.0, "ExemptTot": 113850.0, "YearBuilt": 0, "YearAlter1": 0, "YearAlter2": 0, "HistDist": null, "Landmark": null, "BuiltFAR": 0.0, "ResidFAR": 1.0, "CommFAR": 0.0, "FacilFAR": 2.0, "BoroCode": 4, "BBL": 4010160227.0, "CondoNo": 0, "Tract2010": "0299", "XCoord": 1013377, "YCoord": 218380, "ZoneMap": "9c", "ZMCode": null, "Sanborn": "4", "TaxMap": "4", "EDesigNum": null, "APPBBL": 4010160225.0, "APPDate": "11/10/2021", "PLUTOMapID": "1", "FIRM07_FLA": null, "PFIRM15_FL": null, "Version": "25v4", "DCPEdited": "t", "Latitude": 40.766031, "Longitude": -73.8948507, "Notes": null, "Shape_Leng": 0.0, "Shape_Area": 2762.2552117 }, "geometry": { "type": "MultiPolygon", "coordinates": [ [ [ [ -73.894809956284959, 40.765921141287208 ], [ -73.894948112228931, 40.765943843264353 ], [ -73.894866523596747, 40.766154478148955 ], [ -73.894812937900127, 40.766145672640853 ], [ -73.89480241129769, 40.766141069576491 ], [ -73.89479206485754, 40.76613477272624 ], [ -73.894783799161772, 40.766127917757508 ], [ -73.894775723428253, 40.76611853065387 ], [ -73.894771730663891, 40.766111964120448 ], [ -73.894768166263574, 40.766103307896415 ], [ -73.89476693256178, 40.766098506185067 ], [ -73.894766074225501, 40.766092286527673 ], [ -73.894765976900928, 40.766087168867394 ], [ -73.894766943111321, 40.766079090360897 ], [ -73.894809956284959, 40.765921141287208 ] ] ] ] } },
{ "type": "Feature", "properties": { "Borough": "QN", "Block": 1016, "Lot": 565, "CD": 401, "BCT2020": "4029900", "BCTCB2020": "40299001000", "CT2010": "299", "CB2010": "1000", "SchoolDist": "30", "Council": 22, "ZipCode": 11377, "FireComp": "L117", "PolicePrct": 114, "HealthCent": 42, "HealthArea": 620, "Sanitboro": "4", "SanitDistr": "01", "SanitSub": "5E", "Address": "24-25 BKLYN QUEENS EXPWY", "ZoneDist1": "M1-1", "ZoneDist2": null, "ZoneDist3": null, "ZoneDist4": null, "Overlay1": null, "Overlay2": null, "SPDist1": null, "SPDist2": null, "SPDist3": null, "LtdHeight": null, "SplitZone": "N", "BldgClass": "E1", "LandUse": "06", "Easements": 0, "OwnerType": null, "OwnerName": "24-25 BQE LLC", "LotArea": 100735, "BldgArea": 54634, "ComArea": 1000, "ResArea": 0, "OfficeArea": 1000, "RetailArea": 0, "GarageArea": 0, "StrgeArea": 0, "FactryArea": 0, "OtherArea": 0, "AreaSource": "2", "NumBldgs": 1, "NumFloors": 1.0, "UnitsRes": 0, "UnitsTotal": 1, "LotFront": 50.25, "LotDepth": 513.0, "BldgFront": 146.17, "BldgDepth": 274.0, "Ext": "N", "ProxCode": "0", "IrrLotCode": "Y", "LotType": "5", "BsmtCode": "0", "AssessLand": 679950.0, "AssessTot": 3743550.0, "ExemptTot": 0.0, "YearBuilt": 1965, "YearAlter1": 1978, "YearAlter2": 2006, "HistDist": null, "Landmark": null, "BuiltFAR": 0.54, "ResidFAR": 0.0, "CommFAR": 1.0, "FacilFAR": 2.4, "BoroCode": 4, "BBL": 4010160565.0, "CondoNo": 0, "Tract2010": "0299", "XCoord": 1011562, "YCoord": 217892, "ZoneMap": "9c", "ZMCode": null, "Sanborn": "410 051", "TaxMap": "40407", "EDesigNum": null, "APPBBL": 0.0, "APPDate": null, "PLUTOMapID": "1", "FIRM07_FLA": null, "PFIRM15_FL": null, "Version": "25v4", "DCPEdited": null, "Latitude": 40.7646974, "Longitude": -73.9014049, "Notes": null, "Shape_Leng": 0.0, "Shape_Area": 105285.20645100001 }, "geometry": { "type": "MultiPolygon", "coordinates": [ [ [ [ -73.901094072262893, 40.76413211394739 ], [ -73.902763288153636, 40.764650350885859 ], [ -73.902829314164535, 40.764814254728698 ], [ -73.901879027110695, 40.764519226662436 ], [ -73.90149712900552, 40.765282754782305 ], [ -73.900565678015198, 40.765014365388922 ], [ -73.900822975620699, 40.764584761438385 ], [ -73.901094072262893, 40.76413211394739 ] ] ] ] } },
{ "type": "Feature", "properties": { "Borough": "QN", "Block": 1016, "Lot": 23, "CD": 401, "BCT2020": "4029900", "BCTCB2020": "40299001000", "CT2010": "299", "CB2010": "1000", "SchoolDist": "30", "Council": 22, "ZipCode": 11103, "FireComp": "L117", "PolicePrct": 114, "HealthCent": 42, "HealthArea": 620, "Sanitboro": "4", "SanitDistr": "01", "SanitSub": "5E", "Address": "24-37 49 STREET", "ZoneDist1": "M1-1", "ZoneDist2": null, "ZoneDist3": null, "ZoneDist4": null, "Overlay1": null, "Overlay2": null, "SPDist1": null, "SPDist2": null, "SPDist3": null, "LtdHeight": null, "SplitZone": "N", "BldgClass": "G8", "LandUse": "05", "Easements": 0, "OwnerType": null, "OwnerName": "BOWERY BAY ASSOC LLC", "LotArea": 2101, "BldgArea": 608, "ComArea": 608, "ResArea": 0, "OfficeArea": 108, "RetailArea": 0, "GarageArea": 500, "StrgeArea": 0, "FactryArea": 0, "OtherArea": 0, "AreaSource": "2", "NumBldgs": 1, "NumFloors": 1.0, "UnitsRes": 0, "UnitsTotal": 1, "LotFront": 129.93, "LotDepth": 16.56, "BldgFront": 20.0, "BldgDepth": 35.0, "Ext": "N", "ProxCode": "1", "IrrLotCode": "Y", "LotType": "3", "BsmtCode": "0", "AssessLand": 31500.0, "AssessTot": 70650.0, "ExemptTot": 0.0, "YearBuilt": 1992, "YearAlter1": 0, "YearAlter2": 0, "HistDist": null, "Landmark": null, "BuiltFAR": 0.29, "ResidFAR": 0.0, "CommFAR": 1.0, "FacilFAR": 2.4, "BoroCode": 4, "BBL": 4010160023.0, "CondoNo": 0, "Tract2010": "0299", "XCoord": 1011094, "YCoord": 218410, "ZoneMap": "9c", "ZMCode": null, "Sanborn": "402 076", "TaxMap": "40702", "EDesigNum": null, "APPBBL": 4010160023.0, "APPDate": "12/13/2016", "PLUTOMapID": "1", "FIRM07_FLA": null, "PFIRM15_FL": null, "Version": "25v4", "DCPEdited": null, "Latitude": 40.7661206, "Longitude": -73.9030923, "Notes": null, "Shape_Leng": 0.0, "Shape_Area": 2248.6889053 }, "geometry": { "type": "MultiPolygon", "coordinates": [ [ [ [ -73.903091061640794, 40.766016879021038 ], [ -73.903220261746384, 40.766042993513381 ], [ -73.903036616588395, 40.76624699617917 ], [ -73.902982029281389, 40.766231415571625 ], [ -73.903091061640794, 40.766016879021038 ] ] ] ] } },
{ "type": "Feature", "properties": { "Borough": "QN", "Block": 1016, "Lot": 30, "CD": 401, "BCT2020": "4029900", "BCTCB2020": "40299001000", "CT2010": "299", "CB2010": "1000", "SchoolDist": "30", "Council": 22, "ZipCode": 11103, "FireComp": "L117", "PolicePrct": 114, "HealthCent": 42, "HealthArea": 620, "Sanitboro": "4", "SanitDistr": "01", "SanitSub": "5E", "Address": "49 STREET", "ZoneDist1": "M1-1", "ZoneDist2": null, "ZoneDist3": null, "ZoneDist4": null, "Overlay1": null, "Overlay2": null, "SPDist1": null, "SPDist2": null, "SPDist3": null, "LtdHeight": null, "SplitZone": "N", "BldgClass": "V1", "LandUse": "11", "Easements": 0, "OwnerType": null, "OwnerName": "49TH ST LOT LLC", "LotArea": 633, "BldgArea": 0, "ComArea": 0, "ResArea": 0, "OfficeArea": 0, "RetailArea": 0, "GarageArea": 0, "StrgeArea": 0, "FactryArea": 0, "OtherArea": 0, "AreaSource": "7", "NumBldgs": 0, "NumFloors": 0.0, "UnitsRes": 0, "UnitsTotal": 0, "LotFront": 76.37, "LotDepth": 16.58, "BldgFront": 0.0, "BldgDepth": 0.0, "Ext": null, "ProxCode": "0", "IrrLotCode": "Y", "LotType": "3", "BsmtCode": "5", "AssessLand": 22365.0, "AssessTot": 22365.0, "ExemptTot": 0.0, "YearBuilt": 0, "YearAlter1": 0, "YearAlter2": 0, "HistDist": null, "Landmark": null, "BuiltFAR": 0.0, "ResidFAR": 0.0, "CommFAR": 1.0, "FacilFAR": 2.4, "BoroCode": 4, "BBL": 4010160030.0, "CondoNo": 0, "Tract2010": "0299", "XCoord": 1011130, "YCoord": 218477, "ZoneMap": "9c", "ZMCode": null, "Sanborn": "402 076", "TaxMap": "40702", "EDesigNum": null, "APPBBL": 0.0, "APPDate": null, "PLUTOMapID": "1", "FIRM07_FLA": null, "PFIRM15_FL": null, "Version": "25v4", "DCPEdited": null, "Latitude": 40.7663044, "Longitude": -73.902962, "Notes": null, "Shape_Leng": 0.0, "Shape_Area": 658.7421553 }, "geometry": { "type": "MultiPolygon", "coordinates": [ [ [ [ -73.902982029281389, 40.766231415571625 ], [ -73.903036616588395, 40.76624699617917 ], [ -73.902865338848173, 40.766437257448224 ], [ -73.902982029281389, 40.766231415571625 ] ] ] ] } },
{ "type": "Feature", "properties": { "Borough": "QN", "Block": 1016, "Lot": 45, "CD": 401, "BCT2020": "4029900", "BCTCB2020": "40299001000", "CT2010": "299", "CB2010": "1000", "SchoolDist": "30", "Council": 22, "ZipCode": 11377, "FireComp": "L117", "PolicePrct": 114, "HealthCent": 42, "HealthArea": 620, "Sanitboro": "4", "SanitDistr": "01", "SanitSub": "5E", "Address": "24-55 BROOKLYN QUEENS EP", "ZoneDist1": "M1-1", "ZoneDist2": null, "ZoneDist3": null, "ZoneDist4": null, "Overlay1": null, "Overlay2": null, "SPDist1": null, "SPDist2": null, "SPDist3": null, "LtdHeight": null, "SplitZone": "N", "BldgClass": "G9", "LandUse": "07", "Easements": 0, "OwnerType": "C", "OwnerName": "NYC TAXI AND LIMOUSINE COMMISSION", "LotArea": 150093, "BldgArea": 118837, "ComArea": 118837, "ResArea": 0, "OfficeArea": 44459, "RetailArea": 0, "GarageArea": 51086, "StrgeArea": 0, "FactryArea": 23292, "OtherArea": 0, "AreaSource": "2", "NumBldgs": 1, "NumFloors": 2.0, "UnitsRes": 0, "UnitsTotal": 3, "LotFront": 657.68, "LotDepth": 513.67, "BldgFront": 180.0, "BldgDepth": 140.0, "Ext": "N", "ProxCode": "1", "IrrLotCode": "Y", "LotType": "5", "BsmtCode": "0", "AssessLand": 2658600.0, "AssessTot": 4470750.0, "ExemptTot": 4470750.0, "YearBuilt": 1961, "YearAlter1": 2024, "YearAlter2": 2023, "HistDist": null, "Landmark": null, "BuiltFAR": 0.79, "ResidFAR": 0.0, "CommFAR": 1.0, "FacilFAR": 2.4, "BoroCode": 4, "BBL": 4010160045.0, "CondoNo": 0, "Tract2010": "0299", "XCoord": 1011413, "YCoord": 217582, "ZoneMap": "9c", "ZMCode": null, "Sanborn": "410 051", "TaxMap": "40407", "EDesigNum": null, "APPBBL": 0.0, "APPDate": null, "PLUTOMapID": "1", "FIRM07_FLA": null, "PFIRM15_FL": null, "Version": "25v4", "DCPEdited": "t", "Latitude": 40.763847, "Longitude": -73.901944, "Notes": null, "Shape_Leng": 0.0, "Shape_Area": 141470.31547199999 }, "geometry": { "type": "MultiPolygon", "coordinates": [ [ [ [ -73.901094072262893, 40.76413211394739 ], [ -73.901211088499622, 40.763936731671208 ], [ -73.901501442220948, 40.763451921106828 ], [ -73.901666425244699, 40.763176440621841 ], [ -73.901774720204813, 40.7629956132632 ], [ -73.902070632471677, 40.762930873234502 ], [ -73.902763288153636, 40.764650350885859 ], [ -73.901094072262893, 40.76413211394739 ] ] ] ] } },
{ "type": "Feature", "properties": { "Borough": "QN", "Block": 1016, "Lot": 111, "CD": 401, "BCT2020": "4029900", "BCTCB2020": "40299001000", "CT2010": "299", "CB2010": "1000", "SchoolDist": "30", "Council": 22, "ZipCode": 11377, "FireComp": "L117", "PolicePrct": 114, "HealthCent": 42, "HealthArea": 620, "Sanitboro": "4", "SanitDistr": "01", "SanitSub": "5E", "Address": "27-01 BOODY STREET", "ZoneDist1": "M1-1", "ZoneDist2": null, "ZoneDist3": null, "ZoneDist4": null, "Overlay1": null, "Overlay2": null, "SPDist1": null, "SPDist2": null, "SPDist3": null, "LtdHeight": null, "SplitZone": "N", "BldgClass": "E1", "LandUse": "06", "Easements": 0, "OwnerType": null, "OwnerName": "AIRACONDA CORP", "LotArea": 22300, "BldgArea": 21650, "ComArea": 21650, "ResArea": 0, "OfficeArea": 2000, "RetailArea": 0, "GarageArea": 0, "StrgeArea": 19650, "FactryArea": 0, "OtherArea": 0, "AreaSource": "2", "NumBldgs": 1, "NumFloors": 2.0, "UnitsRes": 0, "UnitsTotal": 1, "LotFront": 202.0, "LotDepth": 165.0, "BldgFront": 98.0, "BldgDepth": 163.0, "Ext": "E", "ProxCode": "0", "IrrLotCode": "Y", "LotType": "5", "BsmtCode": "0", "AssessLand": 194850.0, "AssessTot": 1053900.0, "ExemptTot": 0.0, "YearBuilt": 1955, "YearAlter1": 0, "YearAlter2": 0, "HistDist": null, "Landmark": null, "BuiltFAR": 0.97, "ResidFAR": 0.0, "CommFAR": 1.0, "FacilFAR": 2.4, "BoroCode": 4, "BBL": 4010160111.0000005, "CondoNo": 0, "Tract2010": "0299", "XCoord": 1011642, "YCoord": 216480, "ZoneMap": "9c", "ZMCode": null, "Sanborn": "410 051", "TaxMap": "40702", "EDesigNum": null, "APPBBL": 0.0, "APPDate": null, "PLUTOMapID": "1", "FIRM07_FLA": null, "PFIRM15_FL": null, "Version": "25v4", "DCPEdited": null, "Latitude": 40.7608216, "Longitude": -73.9011218, "Notes": null, "Shape_Leng": 0.0, "Shape_Area": 26779.596183099999 }, "geometry": { "type": "MultiPolygon", "coordinates": [ [ [ [ -73.900786305656936, 40.760998180754726 ], [ -73.900717690770151, 40.76080291064028 ], [ -73.90077450842476, 40.760826796024546 ], [ -73.900734666121025, 40.760659340372719 ], [ -73.901369394762668, 40.760581065777224 ], [ -73.901500481367563, 40.761131996515829 ], [ -73.90108598980477, 40.760957743994311 ], [ -73.900786305656936, 40.760998180754726 ] ] ] ] } },
{ "type": "Feature", "properties": { "Borough": "QN", "Block": 1016, "Lot": 115, "CD": 401, "BCT2020": "4029900", "BCTCB2020": "40299001000", "CT2010": "299", "CB2010": "1000", "SchoolDist": "30", "Council": 22, "ZipCode": 11377, "FireComp": "L117", "PolicePrct": 114, "HealthCent": 42, "HealthArea": 620, "Sanitboro": "4", "SanitDistr": "01", "SanitSub": "5E", "Address": "27-07 BROOKLYN QUEENS EXPRESSWAY", "ZoneDist1": "M1-1", "ZoneDist2": null, "ZoneDist3": null, "ZoneDist4": null, "Overlay1": null, "Overlay2": null, "SPDist1": null, "SPDist2": null, "SPDist3": null, "LtdHeight": null, "SplitZone": "N", "BldgClass": "E1", "LandUse": "06", "Easements": 0, "OwnerType": null, "OwnerName": "AREC 20, LLC", "LotArea": 17800, "BldgArea": 6000, "ComArea": 900, "ResArea": 0, "OfficeArea": 900, "RetailArea": 0, "GarageArea": 0, "StrgeArea": 0, "FactryArea": 0, "OtherArea": 0, "AreaSource": "2", "NumBldgs": 1, "NumFloors": 1.0, "UnitsRes": 0, "UnitsTotal": 2, "LotFront": 75.0, "LotDepth": 201.0, "BldgFront": 50.0, "BldgDepth": 120.0, "Ext": "N", "ProxCode": "1", "IrrLotCode": "Y", "LotType": "5", "BsmtCode": "0", "AssessLand": 272250.0, "AssessTot": 740250.0, "ExemptTot": 0.0, "YearBuilt": 1956, "YearAlter1": 0, "YearAlter2": 0, "HistDist": null, "Landmark": null, "BuiltFAR": 0.34, "ResidFAR": 0.0, "CommFAR": 1.0, "FacilFAR": 2.4, "BoroCode": 4, "BBL": 4010160115.0, "CondoNo": 0, "Tract2010": "0299", "XCoord": 1011693, "YCoord": 216382, "ZoneMap": "9c", "ZMCode": null, "Sanborn": "410 051", "TaxMap": "40407", "EDesigNum": null, "APPBBL": 0.0, "APPDate": null, "PLUTOMapID": "1", "FIRM07_FLA": null, "PFIRM15_FL": null, "Version": "25v4", "DCPEdited": null, "Latitude": 40.7605524, "Longitude": -73.9009381, "Notes": null, "Shape_Leng": 0.0, "Shape_Area": 16754.328350799999 }, "geometry": { "type": "MultiPolygon", "coordinates": [ [ [ [ -73.900717690770151, 40.76080291064028 ], [ -73.90062603292948, 40.760764376281749 ], [ -73.900559847261917, 40.760486191246756 ], [ -73.900735309455087, 40.760464553231664 ], [ -73.900739530991217, 40.760464032743172 ], [ -73.900761408872398, 40.760461334753018 ], [ -73.901324387698423, 40.760391909052871 ], [ -73.901369394762668, 40.760581065777224 ], [ -73.900734666121025, 40.760659340372719 ], [ -73.90077450842476, 40.760826796024546 ], [ -73.900717690770151, 40.76080291064028 ] ] ] ] } },
{ "type": "Feature", "properties": { "Borough": "QN", "Block": 1016, "Lot": 125, "CD": 401, "BCT2020": "4029900", "BCTCB2020": "40299001000", "CT2010": "299", "CB2010": "1000", "SchoolDist": "30", "Council": 22, "ZipCode": 11377, "FireComp": "L117", "PolicePrct": 114, "HealthCent": 42, "HealthArea": 620, "Sanitboro": "4", "SanitDistr": "01", "SanitSub": "5D", "Address": "62-05 30TH AVENUE", "ZoneDist1": "M1-1", "ZoneDist2": null, "ZoneDist3": null, "ZoneDist4": null, "Overlay1": null, "Overlay2": null, "SPDist1": null, "SPDist2": null, "SPDist3": null, "LtdHeight": null, "SplitZone": "N", "BldgClass": "E7", "LandUse": "06", "Easements": 0, "OwnerType": null, "OwnerName": "62-05 30TH AVE IX OWNER, L.L.C.", "LotArea": 36422, "BldgArea": 102056, "ComArea": 102056, "ResArea": 0, "OfficeArea": 0, "RetailArea": 0, "GarageArea": 0, "StrgeArea": 102056, "FactryArea": 0, "OtherArea": 0, "AreaSource": "2", "NumBldgs": 1, "NumFloors": 2.0, "UnitsRes": 0, "UnitsTotal": 1, "LotFront": 151.57, "LotDepth": 232.65, "BldgFront": 151.0, "BldgDepth": 212.0, "Ext": null, "ProxCode": "1", "IrrLotCode": "Y", "LotType": "3", "BsmtCode": "0", "AssessLand": 1267650.0, "AssessTot": 7898850.0, "ExemptTot": 0.0, "YearBuilt": 2021, "YearAlter1": 0, "YearAlter2": 0, "HistDist": null, "Landmark": null, "BuiltFAR": 2.8, "ResidFAR": 0.0, "CommFAR": 1.0, "FacilFAR": 2.4, "BoroCode": 4, "BBL": 4010160125.0, "CondoNo": 0, "Tract2010": "0299", "XCoord": 1011685, "YCoord": 216223, "ZoneMap": "9c", "ZMCode": "Y", "Sanborn": "410 051", "TaxMap": "40702", "EDesigNum": null, "APPBBL": 4010160125.0, "APPDate": "08/31/2022", "PLUTOMapID": "1", "FIRM07_FLA": null, "PFIRM15_FL": null, "Version": "25v4", "DCPEdited": null, "Latitude": 40.760116, "Longitude": -73.9009677, "Notes": null, "Shape_Leng": 0.0, "Shape_Area": 36885.870976400001 }, "geometry": { "type": "MultiPolygon", "coordinates": [ [ [ [ -73.900625665738957, 40.759824851890748 ], [ -73.901156604654133, 40.759769772310328 ], [ -73.901212277419873, 40.759920718969923 ], [ -73.901324387698423, 40.760391909052871 ], [ -73.900761408872398, 40.760461334753018 ], [ -73.900739530991217, 40.760464032743172 ], [ -73.900625665738957, 40.759824851890748 ] ] ] ] } },
{ "type": "Feature", "properties": { "Borough": "QN", "Block": 1016, "Lot": 130, "CD": 401, "BCT2020": "4029900", "BCTCB2020": "40299001000", "CT2010": "299", "CB2010": "1000", "SchoolDist": "30", "Council": 22, "ZipCode": 11377, "FireComp": "L117", "PolicePrct": 114, "HealthCent": 42, "HealthArea": 620, "Sanitboro": "4", "SanitDistr": "01", "SanitSub": "5D", "Address": "62-25 30TH AVENUE", "ZoneDist1": "M1-1", "ZoneDist2": null, "ZoneDist3": null, "ZoneDist4": null, "Overlay1": null, "Overlay2": null, "SPDist1": null, "SPDist2": null, "SPDist3": null, "LtdHeight": null, "SplitZone": "N", "BldgClass": "E1", "LandUse": "06", "Easements": 0, "OwnerType": null, "OwnerName": "MAYER MALBIN REALTY I, L.L.C.", "LotArea": 66197, "BldgArea": 40775, "ComArea": 3750, "ResArea": 0, "OfficeArea": 3750, "RetailArea": 0, "GarageArea": 0, "StrgeArea": 0, "FactryArea": 0, "OtherArea": 0, "AreaSource": "2", "NumBldgs": 1, "NumFloors": 1.0, "UnitsRes": 0, "UnitsTotal": 3, "LotFront": 254.71, "LotDepth": 178.44, "BldgFront": 232.0, "BldgDepth": 176.0, "Ext": "E", "ProxCode": "1", "IrrLotCode": "Y", "LotType": "5", "BsmtCode": "0", "AssessLand": 475650.0, "AssessTot": 2091150.0, "ExemptTot": 0.0, "YearBuilt": 1955, "YearAlter1": 0, "YearAlter2": 0, "HistDist": null, "Landmark": null, "BuiltFAR": 0.62, "ResidFAR": 0.0, "CommFAR": 1.0, "FacilFAR": 2.4, "BoroCode": 4, "BBL": 4010160130.0, "CondoNo": 0, "Tract2010": "0299", "XCoord": 1011884, "YCoord": 216263, "ZoneMap": "9c", "ZMCode": "Y", "Sanborn": "410 051", "TaxMap": "40702", "EDesigNum": null, "APPBBL": 4010160125.0, "APPDate": "08/31/2022", "PLUTOMapID": "1", "FIRM07_FLA": null, "PFIRM15_FL": null, "Version": "25v4", "DCPEdited": null, "Latitude": 40.7602252, "Longitude": -73.9002492, "Notes": null, "Shape_Leng": 0.0, "Shape_Area": 66460.253609099993 }, "geometry": { "type": "MultiPolygon", "coordinates": [ [ [ [ -73.900625665738957, 40.759824851890748 ], [ -73.900739530991217, 40.760464032743172 ], [ -73.900735309455087, 40.760464553231664 ], [ -73.900559847261917, 40.760486191246756 ], [ -73.90062603292948, 40.760764376281749 ], [ -73.900226892863841, 40.76059657348808 ], [ -73.899781369582684, 40.760409267134044 ], [ -73.899683305889425, 40.759922605391232 ], [ -73.900584134919171, 40.759829160063617 ], [ -73.900610353055953, 40.759826439834832 ], [ -73.900614506973582, 40.759826009310387 ], [ -73.900625665738957, 40.759824851890748 ] ] ] ] } },
{ "type": "Feature", "properties": { "Borough": "QN", "Block": 1016, "Lot": 137, "CD": 401, "BCT2020": "4029900", "BCTCB2020": "40299001000", "CT2010": "299", "CB2010": "1000", "SchoolDist": "30", "Council": 22, "ZipCode": 11377, "FireComp": "L117", "PolicePrct": 114, "HealthCent": 42, "HealthArea": 620, "Sanitboro": "4", "SanitDistr": "01", "SanitSub": "5D", "Address": "62-43 30 AVENUE", "ZoneDist1": "M1-1", "ZoneDist2": "R4", "ZoneDist3": null, "ZoneDist4": null, "Overlay1": null, "Overlay2": null, "SPDist1": null, "SPDist2": null, "SPDist3": null, "LtdHeight": null, "SplitZone": "Y", "BldgClass": "E1", "LandUse": "06", "Easements": 0, "OwnerType": null, "OwnerName": "62-43 30TH AVENUE LLC", "LotArea": 9300, "BldgArea": 10000, "ComArea": 10000, "ResArea": 0, "OfficeArea": 5000, "RetailArea": 0, "GarageArea": 0, "StrgeArea": 5000, "FactryArea": 0, "OtherArea": 0, "AreaSource": "2", "NumBldgs": 1, "NumFloors": 2.0, "UnitsRes": 0, "UnitsTotal": 1, "LotFront": 60.0, "LotDepth": 178.44, "BldgFront": 50.0, "BldgDepth": 100.0, "Ext": "N", "ProxCode": "0", "IrrLotCode": "Y", "LotType": "5", "BsmtCode": "0", "AssessLand": 230400.0, "AssessTot": 534600.0, "ExemptTot": 0.0, "YearBuilt": 1955, "YearAlter1": 2007, "YearAlter2": 0, "HistDist": null, "Landmark": null, "BuiltFAR": 1.08, "ResidFAR": 0.0, "CommFAR": 1.0, "FacilFAR": 2.4, "BoroCode": 4, "BBL": 4010160137.0, "CondoNo": 0, "Tract2010": "0299", "XCoord": 1012055, "YCoord": 216235, "ZoneMap": "9c", "ZMCode": "Y", "Sanborn": "410 051", "TaxMap": "40702", "EDesigNum": null, "APPBBL": 0.0, "APPDate": null, "PLUTOMapID": "1", "FIRM07_FLA": null, "PFIRM15_FL": null, "Version": "25v4", "DCPEdited": null, "Latitude": 40.7601478, "Longitude": -73.899632, "Notes": null, "Shape_Leng": 0.0, "Shape_Area": 8894.5983085999997 }, "geometry": { "type": "MultiPolygon", "coordinates": [ [ [ [ -73.899554293715553, 40.76031379909405 ], [ -73.899484520756047, 40.759943225457071 ], [ -73.899683305889425, 40.759922605391232 ], [ -73.899781369582684, 40.760409267134044 ], [ -73.899554293715553, 40.76031379909405 ] ] ] ] } },
{ "type": "Feature", "properties": { "Borough": "QN", "Block": 1016, "Lot": 140, "CD": 401, "BCT2020": "4029900", "BCTCB2020": "40299001000", "CT2010": "299", "CB2010": "1000", "SchoolDist": "30", "Council": 22, "ZipCode": 11377, "FireComp": "L117", "PolicePrct": 114, "HealthCent": 42, "HealthArea": 620, "Sanitboro": "4", "SanitDistr": "01", "SanitSub": "5D", "Address": "62-49 30 AVENUE", "ZoneDist1": "M1-1", "ZoneDist2": "R4", "ZoneDist3": null, "ZoneDist4": null, "Overlay1": null, "Overlay2": null, "SPDist1": null, "SPDist2": null, "SPDist3": null, "LtdHeight": null, "SplitZone": "Y", "BldgClass": "E1", "LandUse": "06", "Easements": 0, "OwnerType": null, "OwnerName": "62-49 30TH AVE. REALTY LLC", "LotArea": 6820, "BldgArea": 8414, "ComArea": 8414, "ResArea": 0, "OfficeArea": 2376, "RetailArea": 0, "GarageArea": 0, "StrgeArea": 6038, "FactryArea": 0, "OtherArea": 0, "AreaSource": "2", "NumBldgs": 1, "NumFloors": 2.0, "UnitsRes": 0, "UnitsTotal": 1, "LotFront": 62.0, "LotDepth": 133.28, "BldgFront": 60.0, "BldgDepth": 50.0, "Ext": "E", "ProxCode": "2", "IrrLotCode": "Y", "LotType": "5", "BsmtCode": "0", "AssessLand": 115200.0, "AssessTot": 446400.0, "ExemptTot": 0.0, "YearBuilt": 1956, "YearAlter1": 1991, "YearAlter2": 1991, "HistDist": null, "Landmark": null, "BuiltFAR": 1.23, "ResidFAR": 0.0, "CommFAR": 1.0, "FacilFAR": 2.4, "BoroCode": 4, "BBL": 4010160140.0, "CondoNo": 0, "Tract2010": "0299", "XCoord": 1012115, "YCoord": 216221, "ZoneMap": "9c", "ZMCode": "Y", "Sanborn": "410 051", "TaxMap": "40702", "EDesigNum": null, "APPBBL": 0.0, "APPDate": null, "PLUTOMapID": "1", "FIRM07_FLA": null, "PFIRM15_FL": null, "Version": "25v4", "DCPEdited": null, "Latitude": 40.7601092, "Longitude": -73.8994155, "Notes": null, "Shape_Leng": 0.0, "Shape_Area": 6874.629945 }, "geometry": { "type": "MultiPolygon", "coordinates": [ [ [ [ -73.899314957067347, 40.760213177033599 ], [ -73.899268353320778, 40.759965648147158 ], [ -73.899484520756047, 40.759943225457071 ], [ -73.899554293715553, 40.76031379909405 ], [ -73.899314957067347, 40.760213177033599 ] ] ] ] } },
{ "type": "Feature", "properties": { "Borough": "QN", "Block": 1016, "Lot": 145, "CD": 401, "BCT2020": "4029900", "BCTCB2020": "40299001000", "CT2010": "299", "CB2010": "1000", "SchoolDist": "30", "Council": 22, "ZipCode": 11377, "FireComp": "L117", "PolicePrct": 114, "HealthCent": 42, "HealthArea": 620, "Sanitboro": "4", "SanitDistr": "01", "SanitSub": "5D", "Address": "62-57 30 AVENUE", "ZoneDist1": "M1-1", "ZoneDist2": "R4", "ZoneDist3": null, "ZoneDist4": null, "Overlay1": null, "Overlay2": null, "SPDist1": null, "SPDist2": null, "SPDist3": null, "LtdHeight": null, "SplitZone": "Y", "BldgClass": "E1", "LandUse": "06", "Easements": 0, "OwnerType": null, "OwnerName": "DRIGGS EQUIP CORP", "LotArea": 5284, "BldgArea": 4976, "ComArea": 4976, "ResArea": 0, "OfficeArea": 0, "RetailArea": 0, "GarageArea": 0, "StrgeArea": 4976, "FactryArea": 0, "OtherArea": 0, "AreaSource": "2", "NumBldgs": 1, "NumFloors": 2.0, "UnitsRes": 0, "UnitsTotal": 1, "LotFront": 64.17, "LotDepth": 93.79, "BldgFront": 60.0, "BldgDepth": 75.0, "Ext": "N", "ProxCode": "0", "IrrLotCode": "Y", "LotType": "5", "BsmtCode": "0", "AssessLand": 99000.0, "AssessTot": 409950.0, "ExemptTot": 0.0, "YearBuilt": 1999, "YearAlter1": 0, "YearAlter2": 0, "HistDist": null, "Landmark": null, "BuiltFAR": 0.94, "ResidFAR": 0.0, "CommFAR": 1.0, "FacilFAR": 2.4, "BoroCode": 4, "BBL": 4010160144.9999995, "CondoNo": 0, "Tract2010": "0299", "XCoord": 1012185, "YCoord": 216212, "ZoneMap": "9c", "ZMCode": "Y", "Sanborn": "410 051", "TaxMap": "40702", "EDesigNum": null, "APPBBL": 4010160450.0, "APPDate": "12/13/1990", "PLUTOMapID": "1", "FIRM07_FLA": null, "PFIRM15_FL": null, "Version": "25v4", "DCPEdited": null, "Latitude": 40.7600843, "Longitude": -73.8991629, "Notes": null, "Shape_Leng": 0.0, "Shape_Area": 5907.7971197999996 }, "geometry": { "type": "MultiPolygon", "coordinates": [ [ [ [ -73.89895710098213, 40.760092742035631 ], [ -73.899023947015536, 40.75999099835375 ], [ -73.899268353320778, 40.759965648147158 ], [ -73.899314957067347, 40.760213177033599 ], [ -73.899321095754857, 40.760245775400698 ], [ -73.89895710098213, 40.760092742035631 ] ] ] ] } },
{ "type": "Feature", "properties": { "Borough": "QN", "Block": 1016, "Lot": 450, "CD": 401, "BCT2020": "4029900", "BCTCB2020": "40299001000", "CT2010": "299", "CB2010": "1000", "SchoolDist": "30", "Council": 22, "ZipCode": 11103, "FireComp": "L117", "PolicePrct": 114, "HealthCent": 42, "HealthArea": 620, "Sanitboro": "4", "SanitDistr": "01", "SanitSub": "5E", "Address": "49-02 ASTORIA BOULEVARD SOUTH", "ZoneDist1": "R4", "ZoneDist2": null, "ZoneDist3": null, "ZoneDist4": null, "Overlay1": null, "Overlay2": null, "SPDist1": null, "SPDist2": null, "SPDist3": null, "LtdHeight": null, "SplitZone": "N", "BldgClass": "Z8", "LandUse": "09", "Easements": 0, "OwnerType": "X", "OwnerName": "ST. MICHAELS PROTESTANTS EPISCOPAL", "LotArea": 2657165, "BldgArea": 17912, "ComArea": 17912, "ResArea": 0, "OfficeArea": 6560, "RetailArea": 0, "GarageArea": 0, "StrgeArea": 0, "FactryArea": 0, "OtherArea": 11352, "AreaSource": "2", "NumBldgs": 10, "NumFloors": 2.0, "UnitsRes": 0, "UnitsTotal": 1, "LotFront": 1460.69, "LotDepth": 2366.97, "BldgFront": 40.0, "BldgDepth": 82.0, "Ext": "N", "ProxCode": "1", "IrrLotCode": "Y", "LotType": "5", "BsmtCode": "0", "AssessLand": 20327400.0, "AssessTot": 23974650.0, "ExemptTot": 23974650.0, "YearBuilt": 1931, "YearAlter1": 0, "YearAlter2": 0, "HistDist": null, "Landmark": null, "BuiltFAR": 0.01, "ResidFAR": 1.0, "CommFAR": 0.0, "FacilFAR": 2.0, "BoroCode": 4, "BBL": 4010160450.0, "CondoNo": 0, "Tract2010": "0299", "XCoord": 1012178, "YCoord": 217719, "ZoneMap": "9c", "ZMCode": null, "Sanborn": "410 049", "TaxMap": "40702", "EDesigNum": null, "APPBBL": 4010160450.0, "APPDate": "09/23/2019", "PLUTOMapID": "1", "FIRM07_FLA": null, "PFIRM15_FL": null, "Version": "25v4", "DCPEdited": null, "Latitude": 40.7642206, "Longitude": -73.8991819, "Notes": null, "Shape_Leng": 0.0, "Shape_Area": 2573194.6842100001 }, "geometry": { "type": "MultiPolygon", "coordinates": [ [ [ [ -73.900226892863841, 40.76059657348808 ], [ -73.900069835568019, 40.761164900044207 ], [ -73.899956323650031, 40.76157564950924 ], [ -73.900425649401953, 40.761640943549679 ], [ -73.900498117034843, 40.762394819470842 ], [ -73.900752465977703, 40.763052675453444 ], [ -73.900777877984837, 40.763052835159634 ], [ -73.901666425244699, 40.763176440621841 ], [ -73.901501442220948, 40.763451921106828 ], [ -73.901211088499622, 40.763936731671208 ], [ -73.901094072262893, 40.76413211394739 ], [ -73.900822975620699, 40.764584761438385 ], [ -73.900565678015198, 40.765014365388922 ], [ -73.90149712900552, 40.765282754782305 ], [ -73.901799077858882, 40.765369756790093 ], [ -73.902433310105053, 40.765552496770681 ], [ -73.901897361992212, 40.76671308054275 ], [ -73.902418660590314, 40.766863278907827 ], [ -73.902168161296302, 40.767128793747183 ], [ -73.902125877415273, 40.767169430970547 ], [ -73.902084468715046, 40.767198838645079 ], [ -73.902042982285238, 40.767221444757574 ], [ -73.902009852360493, 40.767235689623966 ], [ -73.901964146336454, 40.7672507530879 ], [ -73.90191504809313, 40.767261793690935 ], [ -73.901889413021337, 40.767265635005337 ], [ -73.901859078338887, 40.767268567354307 ], [ -73.901838541532825, 40.767269581781065 ], [ -73.901807036126812, 40.767269638640684 ], [ -73.901784733627764, 40.767268901884869 ], [ -73.901756837972343, 40.76726595682721 ], [ -73.901729488149314, 40.767262379171441 ], [ -73.901704754796498, 40.767257060437942 ], [ -73.901698901700669, 40.767276937670928 ], [ -73.900675776974509, 40.767108882737183 ], [ -73.89890884751803, 40.766818626324877 ], [ -73.896977663755578, 40.766501354508542 ], [ -73.896596438633125, 40.766438719994703 ], [ -73.897397772269684, 40.765100477466582 ], [ -73.895571173777029, 40.764365858996342 ], [ -73.895869967103764, 40.763835861196675 ], [ -73.895958832285061, 40.76377526900891 ], [ -73.896416302903788, 40.763959739877343 ], [ -73.89895710098213, 40.760092742035631 ], [ -73.899321095754857, 40.760245775400698 ], [ -73.899314957067347, 40.760213177033599 ], [ -73.899554293715553, 40.76031379909405 ], [ -73.899781369582684, 40.760409267134044 ], [ -73.900226892863841, 40.76059657348808 ] ] ] ] } },
{ "type": "Feature", "properties": { "Borough": "QN", "Block": 1016, "Lot": 550, "CD": 401, "BCT2020": "4029900", "BCTCB2020": "40299001000", "CT2010": "299", "CB2010": "1000", "SchoolDist": "30", "Council": 22, "ZipCode": 11103, "FireComp": "L117", "PolicePrct": 114, "HealthCent": 42, "HealthArea": 620, "Sanitboro": "4", "SanitDistr": "01", "SanitSub": "5E", "Address": "23-25 49 STREET", "ZoneDist1": "R4", "ZoneDist2": null, "ZoneDist3": null, "ZoneDist4": null, "Overlay1": null, "Overlay2": null, "SPDist1": null, "SPDist2": null, "SPDist3": null, "LtdHeight": null, "SplitZone": "N", "BldgClass": "Z8", "LandUse": "09", "Easements": 0, "OwnerType": "X", "OwnerName": "ST MICHAELS P E CHURCH", "LotArea": 170800, "BldgArea": 22259, "ComArea": 22259, "ResArea": 0, "OfficeArea": 0, "RetailArea": 0, "GarageArea": 0, "StrgeArea": 0, "FactryArea": 0, "OtherArea": 22259, "AreaSource": "2", "NumBldgs": 1, "NumFloors": 1.0, "UnitsRes": 0, "UnitsTotal": 2, "LotFront": 340.0, "LotDepth": 200.0, "BldgFront": 83.0, "BldgDepth": 41.0, "Ext": "N", "ProxCode": "0", "IrrLotCode": "Y", "LotType": "5", "BsmtCode": "0", "AssessLand": 742500.0, "AssessTot": 1849950.0, "ExemptTot": 1849950.0, "YearBuilt": 1957, "YearAlter1": 2025, "YearAlter2": 0, "HistDist": null, "Landmark": null, "BuiltFAR": 0.13, "ResidFAR": 1.0, "CommFAR": 0.0, "FacilFAR": 2.0, "BoroCode": 4, "BBL": 4010160549.9999995, "CondoNo": 0, "Tract2010": "0299", "XCoord": 1011260, "YCoord": 218440, "ZoneMap": "9c", "ZMCode": null, "Sanborn": "410 051", "TaxMap": "40702", "EDesigNum": null, "APPBBL": 0.0, "APPDate": null, "PLUTOMapID": "1", "FIRM07_FLA": null, "PFIRM15_FL": null, "Version": "25v4", "DCPEdited": null, "Latitude": 40.7662024, "Longitude": -73.9024929, "Notes": null, "Shape_Leng": 0.0, "Shape_Area": 83871.3877813 }, "geometry": { "type": "MultiPolygon", "coordinates": [ [ [ [ -73.902433310105053, 40.765552496770681 ], [ -73.903119332801452, 40.765750013515643 ], [ -73.90261961589556, 40.766650276016733 ], [ -73.902418660590314, 40.766863278907827 ], [ -73.901897361992212, 40.76671308054275 ], [ -73.902433310105053, 40.765552496770681 ] ] ] ] } },
{ "type": "Feature", "properties": { "Borough": "QN", "Block": 1016, "Lot": 551, "CD": 401, "BCT2020": "4029900", "BCTCB2020": "40299001000", "CT2010": "299", "CB2010": "1000", "SchoolDist": "30", "Council": 22, "ZipCode": 11377, "FireComp": "L117", "PolicePrct": 114, "HealthCent": 42, "HealthArea": 620, "Sanitboro": "4", "SanitDistr": "01", "SanitSub": "5E", "Address": "24-01 BROOKLYN QUEENS EP W", "ZoneDist1": "M1-1", "ZoneDist2": null, "ZoneDist3": null, "ZoneDist4": null, "Overlay1": null, "Overlay2": null, "SPDist1": null, "SPDist2": null, "SPDist3": null, "LtdHeight": null, "SplitZone": "N", "BldgClass": "E7", "LandUse": "06", "Easements": 0, "OwnerType": null, "OwnerName": "PUBLIC STORAGE INSTITUTN", "LotArea": 116065, "BldgArea": 122608, "ComArea": 122608, "ResArea": 0, "OfficeArea": 12752, "RetailArea": 0, "GarageArea": 0, "StrgeArea": 109856, "FactryArea": 0, "OtherArea": 0, "AreaSource": "2", "NumBldgs": 1, "NumFloors": 1.5, "UnitsRes": 0, "UnitsTotal": 1, "LotFront": 319.06, "LotDepth": 485.78, "BldgFront": 302.0, "BldgDepth": 282.0, "Ext": "E", "ProxCode": "0", "IrrLotCode": "Y", "LotType": "5", "BsmtCode": "0", "AssessLand": 1462500.0, "AssessTot": 9489600.0, "ExemptTot": 0.0, "YearBuilt": 1953, "YearAlter1": 1994, "YearAlter2": 2003, "HistDist": null, "Landmark": null, "BuiltFAR": 1.06, "ResidFAR": 0.0, "CommFAR": 1.0, "FacilFAR": 2.4, "BoroCode": 4, "BBL": 4010160551.0, "CondoNo": 0, "Tract2010": "0299", "XCoord": 1011300, "YCoord": 218051, "ZoneMap": "9c", "ZMCode": null, "Sanborn": "410 051", "TaxMap": "40702", "EDesigNum": null, "APPBBL": 0.0, "APPDate": null, "PLUTOMapID": "1", "FIRM07_FLA": null, "PFIRM15_FL": null, "Version": "25v4", "DCPEdited": null, "Latitude": 40.7651346, "Longitude": -73.90235, "Notes": null, "Shape_Leng": 0.0, "Shape_Area": 115776.260146 }, "geometry": { "type": "MultiPolygon", "coordinates": [ [ [ [ -73.90149712900552, 40.765282754782305 ], [ -73.901879027110695, 40.764519226662436 ], [ -73.902829314164535, 40.764814254728698 ], [ -73.903169716983399, 40.765659241732422 ], [ -73.903119332801452, 40.765750013515643 ], [ -73.902433310105053, 40.765552496770681 ], [ -73.901799077858882, 40.765369756790093 ], [ -73.90149712900552, 40.765282754782305 ] ] ] ] } },
{ "type": "Feature", "properties": { "Borough": "QN", "Block": 1016, "Lot": 75, "CD": 401, "BCT2020": "4029900", "BCTCB2020": "40299001000", "CT2010": "299", "CB2010": "1000", "SchoolDist": "30", "Council": 22, "ZipCode": 11377, "FireComp": "L117", "PolicePrct": 114, "HealthCent": 42, "HealthArea": 620, "Sanitboro": "4", "SanitDistr": "01", "SanitSub": "5E", "Address": "26-15 BROOKLYN QUEENS EXPRESSWAY", "ZoneDist1": "M1-1", "ZoneDist2": "R4", "ZoneDist3": null, "ZoneDist4": null, "Overlay1": null, "Overlay2": null, "SPDist1": null, "SPDist2": null, "SPDist3": null, "LtdHeight": null, "SplitZone": "Y", "BldgClass": "E1", "LandUse": "06", "Easements": 0, "OwnerType": null, "OwnerName": "TERRENO WOODSIDE LLC", "LotArea": 160049, "BldgArea": 92344, "ComArea": 0, "ResArea": 0, "OfficeArea": 0, "RetailArea": 0, "GarageArea": 0, "StrgeArea": 0, "FactryArea": 0, "OtherArea": 0, "AreaSource": "2", "NumBldgs": 1, "NumFloors": 1.0, "UnitsRes": 0, "UnitsTotal": 1, "LotFront": 436.1, "LotDepth": 348.15, "BldgFront": 242.0, "BldgDepth": 311.0, "Ext": "N", "ProxCode": "1", "IrrLotCode": "Y", "LotType": "5", "BsmtCode": "0", "AssessLand": 2160450.0, "AssessTot": 7987500.0, "ExemptTot": 0.0, "YearBuilt": 1960, "YearAlter1": 1987, "YearAlter2": 0, "HistDist": null, "Landmark": null, "BuiltFAR": 0.58, "ResidFAR": 0.0, "CommFAR": 1.0, "FacilFAR": 2.4, "BoroCode": 4, "BBL": 4010160075.0, "CondoNo": 0, "Tract2010": "0299", "XCoord": 1011622, "YCoord": 217061, "ZoneMap": "9c", "ZMCode": null, "Sanborn": "410 051", "TaxMap": "40702", "EDesigNum": null, "APPBBL": 4010160075.0, "APPDate": "09/23/2019", "PLUTOMapID": "1", "FIRM07_FLA": null, "PFIRM15_FL": null, "Version": "25v4", "DCPEdited": null, "Latitude": 40.7624163, "Longitude": -73.9011917, "Notes": null, "Shape_Leng": 0.0, "Shape_Area": 179454.959103 }, "geometry": { "type": "MultiPolygon", "coordinates": [ [ [ [ -73.900425649401953, 40.761640943549679 ], [ -73.901662523125623, 40.761813009986255 ], [ -73.901821598836165, 40.762312641613988 ], [ -73.901951509450399, 40.762635149933693 ], [ -73.902070632471677, 40.762930873234502 ], [ -73.901774720204813, 40.7629956132632 ], [ -73.901666425244699, 40.763176440621841 ], [ -73.900777877984837, 40.763052835159634 ], [ -73.900752465977703, 40.763052675453444 ], [ -73.900498117034843, 40.762394819470842 ], [ -73.900425649401953, 40.761640943549679 ] ] ] ] } },
{ "type": "Feature", "properties": { "Borough": "QN", "Block": 1016, "Lot": 98, "CD": 401, "BCT2020": "4029900", "BCTCB2020": "40299001000", "CT2010": "299", "CB2010": "1000", "SchoolDist": "30", "Council": 22, "ZipCode": 11377, "FireComp": "L117", "PolicePrct": 114, "HealthCent": 42, "HealthArea": 620, "Sanitboro": "4", "SanitDistr": "01", "SanitSub": "5E", "Address": "26-45 BROOKLYN QUEENS EXPRESSWAY WES", "ZoneDist1": "M1-1", "ZoneDist2": null, "ZoneDist3": null, "ZoneDist4": null, "Overlay1": null, "Overlay2": null, "SPDist1": null, "SPDist2": null, "SPDist3": null, "LtdHeight": null, "SplitZone": "N", "BldgClass": "E9", "LandUse": "06", "Easements": 0, "OwnerType": null, "OwnerName": "AREC 20, LLC", "LotArea": 127955, "BldgArea": 96087, "ComArea": 96087, "ResArea": 0, "OfficeArea": 26115, "RetailArea": 0, "GarageArea": 0, "StrgeArea": 67977, "FactryArea": 0, "OtherArea": 1995, "AreaSource": "2", "NumBldgs": 1, "NumFloors": 2.0, "UnitsRes": 0, "UnitsTotal": 1, "LotFront": 230.16, "LotDepth": 477.24, "BldgFront": 180.0, "BldgDepth": 342.0, "Ext": "E", "ProxCode": "1", "IrrLotCode": "Y", "LotType": "5", "BsmtCode": "0", "AssessLand": 2016000.0, "AssessTot": 6329700.0, "ExemptTot": 529200.0, "YearBuilt": 1964, "YearAlter1": 1994, "YearAlter2": 2007, "HistDist": null, "Landmark": null, "BuiltFAR": 0.75, "ResidFAR": 0.0, "CommFAR": 1.0, "FacilFAR": 2.4, "BoroCode": 4, "BBL": 4010160098.0, "CondoNo": 0, "Tract2010": "0299", "XCoord": 1011738, "YCoord": 216651, "ZoneMap": "9c", "ZMCode": null, "Sanborn": "410 051", "TaxMap": "40407", "EDesigNum": null, "APPBBL": 0.0, "APPDate": null, "PLUTOMapID": "1", "FIRM07_FLA": null, "PFIRM15_FL": null, "Version": "25v4", "DCPEdited": null, "Latitude": 40.7612906, "Longitude": -73.9007746, "Notes": null, "Shape_Leng": 0.0, "Shape_Area": 123840.68895500001 }, "geometry": { "type": "MultiPolygon", "coordinates": [ [ [ [ -73.900425649401953, 40.761640943549679 ], [ -73.899956323650031, 40.76157564950924 ], [ -73.900069835568019, 40.761164900044207 ], [ -73.900226892863841, 40.76059657348808 ], [ -73.90062603292948, 40.760764376281749 ], [ -73.900717690770151, 40.76080291064028 ], [ -73.900786305656936, 40.760998180754726 ], [ -73.90108598980477, 40.760957743994311 ], [ -73.901500481367563, 40.761131996515829 ], [ -73.901651242675982, 40.761765604031233 ], [ -73.901662523125623, 40.761813009986255 ], [ -73.900425649401953, 40.761640943549679 ] ] ] ] } },
{ "type": "Feature", "properties": { "Borough": "QN", "Block": 1016, "Lot": 310, "CD": 401, "BCT2020": "4029900", "BCTCB2020": "40299001000", "CT2010": "299", "CB2010": "1000", "SchoolDist": "30", "Council": 22, "ZipCode": 11103, "FireComp": "L117", "PolicePrct": 114, "HealthCent": 42, "HealthArea": 620, "Sanitboro": "4", "SanitDistr": "01", "SanitSub": "5E", "Address": "72-02 ASTORIA BOULEVARD S", "ZoneDist1": "R4", "ZoneDist2": null, "ZoneDist3": null, "ZoneDist4": null, "Overlay1": null, "Overlay2": null, "SPDist1": null, "SPDist2": null, "SPDist3": null, "LtdHeight": null, "SplitZone": "N", "BldgClass": "Z8", "LandUse": "09", "Easements": 0, "OwnerType": "X", "OwnerName": "ST MICHAELS CREMETORY", "LotArea": 337590, "BldgArea": 163505, "ComArea": 90800, "ResArea": 72705, "OfficeArea": 0, "RetailArea": 0, "GarageArea": 0, "StrgeArea": 0, "FactryArea": 0, "OtherArea": 90800, "AreaSource": "2", "NumBldgs": 6, "NumFloors": 1.0, "UnitsRes": 0, "UnitsTotal": 1, "LotFront": 530.0, "LotDepth": 536.0, "BldgFront": 42.0, "BldgDepth": 104.0, "Ext": "N", "ProxCode": "0", "IrrLotCode": "Y", "LotType": "5", "BsmtCode": "0", "AssessLand": 2521800.0, "AssessTot": 5568750.0, "ExemptTot": 5568750.0, "YearBuilt": 1959, "YearAlter1": 1994, "YearAlter2": 2006, "HistDist": null, "Landmark": null, "BuiltFAR": 0.48, "ResidFAR": 1.0, "CommFAR": 0.0, "FacilFAR": 2.0, "BoroCode": 4, "BBL": 4010160310.0, "CondoNo": 0, "Tract2010": "0299", "XCoord": 1013036, "YCoord": 218180, "ZoneMap": "9c", "ZMCode": null, "Sanborn": "410 050", "TaxMap": "40702", "EDesigNum": null, "APPBBL": 0.0, "APPDate": null, "PLUTOMapID": "1", "FIRM07_FLA": null, "PFIRM15_FL": null, "Version": "25v4", "DCPEdited": null, "Latitude": 40.7654832, "Longitude": -73.8960826, "Notes": null, "Shape_Leng": 0.0, "Shape_Area": 320328.2675 }, "geometry": { "type": "MultiPolygon", "coordinates": [ [ [ [ -73.894866523596747, 40.766154478148955 ], [ -73.894948112228931, 40.765943843264353 ], [ -73.895169908999236, 40.765371229888885 ], [ -73.895533305112394, 40.764433026696892 ], [ -73.895571173777029, 40.764365858996342 ], [ -73.897397772269684, 40.765100477466582 ], [ -73.896596438633125, 40.766438719994703 ], [ -73.896207122182261, 40.766374753248819 ], [ -73.896019865384659, 40.766343985922369 ], [ -73.894866523596747, 40.766154478148955 ] ] ] ] } }
]
}
