{
"type": "FeatureCollection",
"name": "pluto_Forest_Park",
"crs": { "type": "name", "properties": { "name": "urn:ogc:def:crs:OGC:1.3:CRS84" } },
"features": [
{ "type": "Feature", "properties": { "Borough": "QN", "Block": 3866, "Lot": 12, "CD": 405, "BCT2020": "4063900", "BCTCB2020": "40639002004", "CT2010": "639", "CB2010": "2006", "SchoolDist": "24", "Council": 32, "ZipCode": 11385, "FireComp": "E319", "PolicePrct": 104, "HealthCent": 46, "HealthArea": 1810, "Sanitboro": "4", "SanitDistr": "05", "SanitSub": "4E", "Address": "82-54 88 PLACE", "ZoneDist1": "R3-2", "ZoneDist2": null, "ZoneDist3": null, "ZoneDist4": null, "Overlay1": null, "Overlay2": null, "SPDist1": null, "SPDist2": null, "SPDist3": null, "LtdHeight": null, "SplitZone": "N", "BldgClass": "C0", "LandUse": "02", "Easements": 0, "OwnerType": null, "OwnerName": "MAREK, MICHAL", "LotArea": 2619, "BldgArea": 2420, "ComArea": 0, "ResArea": 2420, "OfficeArea": 0, "RetailArea": 0, "GarageArea": 0, "StrgeArea": 0, "FactryArea": 0, "OtherArea": 0, "AreaSource": "2", "NumBldgs": 1, "NumFloors": 2.75, "UnitsRes": 3, "UnitsTotal": 3, "LotFront": 25.0, "LotDepth": 104.75, "BldgFront": 22.0, "BldgDepth": 40.0, "Ext": "N", "ProxCode": "1", "IrrLotCode": "N", "LotType": "3", "BsmtCode": "2", "AssessLand": 17400.0, "AssessTot": 75960.0, "ExemptTot": 0.0, "YearBuilt": 1940, "YearAlter1": 0, "YearAlter2": 0, "HistDist": null, "Landmark": null, "BuiltFAR": 0.92, "ResidFAR": 0.75, "CommFAR": 0.0, "FacilFAR": 1.0, "BoroCode": 4, "BBL": 4038660012.0, "CondoNo": 0, "Tract2010": "0639", "XCoord": 1023539, "YCoord": 195228, "ZoneMap": "14b", "ZMCode": null, "Sanborn": "403 100", "TaxMap": "42003", "EDesigNum": null, "APPBBL": 0.0, "APPDate": null, "PLUTOMapID": "1", "FIRM07_FLA": null, "PFIRM15_FL": null, "Version": "25v4", "DCPEdited": null, "Latitude": 40.7024453, "Longitude": -73.8583008, "Notes": null, "Shape_Leng": 0.0, "Shape_Area": 2194.101239 }, "geometry": { "type": "MultiPolygon", "coordinates": [ [ [ [ -73.858136824394421, 40.70246660941919 ], [ -73.858150550001, 40.702396136074363 ], [ -73.858541704864123, 40.702438871918389 ], [ -73.858355217479428, 40.702489405075845 ], [ -73.858136824394421, 40.70246660941919 ] ] ] ] } },
{ "type": "Feature", "properties": { "Borough": "QN", "Block": 3866, "Lot": 14, "CD": 405, "BCT2020": "4063900", "BCTCB2020": "40639002004", "CT2010": "639", "CB2010": "2006", "SchoolDist": "24", "Council": 32, "ZipCode": 11385, "FireComp": "E319", "PolicePrct": 104, "HealthCent": 46, "HealthArea": 1810, "Sanitboro": "4", "SanitDistr": "05", "SanitSub": "4E", "Address": "82-60 88 PLACE", "ZoneDist1": "R3-2", "ZoneDist2": null, "ZoneDist3": null, "ZoneDist4": null, "Overlay1": null, "Overlay2": null, "SPDist1": null, "SPDist2": null, "SPDist3": null, "LtdHeight": null, "SplitZone": "N", "BldgClass": "C0", "LandUse": "02", "Easements": 0, "OwnerType": null, "OwnerName": "THEODORE STRETMOYER", "LotArea": 3827, "BldgArea": 2412, "ComArea": 0, "ResArea": 2412, "OfficeArea": 0, "RetailArea": 0, "GarageArea": 0, "StrgeArea": 0, "FactryArea": 0, "OtherArea": 0, "AreaSource": "2", "NumBldgs": 1, "NumFloors": 2.0, "UnitsRes": 3, "UnitsTotal": 3, "LotFront": 25.0, "LotDepth": 153.08, "BldgFront": 25.0, "BldgDepth": 38.0, "Ext": "G", "ProxCode": "1", "IrrLotCode": "N", "LotType": "5", "BsmtCode": "2", "AssessLand": 20160.0, "AssessTot": 79020.0, "ExemptTot": 1420.0, "YearBuilt": 1920, "YearAlter1": 0, "YearAlter2": 0, "HistDist": null, "Landmark": null, "BuiltFAR": 0.63, "ResidFAR": 0.75, "CommFAR": 0.0, "FacilFAR": 1.0, "BoroCode": 4, "BBL": 4038660014.0, "CondoNo": 0, "Tract2010": "0639", "XCoord": 1023511, "YCoord": 195206, "ZoneMap": "14b", "ZMCode": null, "Sanborn": "403 100", "TaxMap": "42003", "EDesigNum": null, "APPBBL": 0.0, "APPDate": null, "PLUTOMapID": "1", "FIRM07_FLA": null, "PFIRM15_FL": null, "Version": "25v4", "DCPEdited": null, "Latitude": 40.702385, "Longitude": -73.858402, "Notes": null, "Shape_Leng": 0.0, "Shape_Area": 3447.0154097 }, "geometry": { "type": "MultiPolygon", "coordinates": [ [ [ [ -73.858150550001, 40.702396136074363 ], [ -73.858164152327234, 40.702326292957906 ], [ -73.858729767441005, 40.702388089998898 ], [ -73.858541704864123, 40.702438871918389 ], [ -73.858150550001, 40.702396136074363 ] ] ] ] } },
{ "type": "Feature", "properties": { "Borough": "QN", "Block": 3866, "Lot": 19, "CD": 405, "BCT2020": "4063900", "BCTCB2020": "40639002004", "CT2010": "639", "CB2010": "2006", "SchoolDist": "24", "Council": 32, "ZipCode": 11385, "FireComp": "E319", "PolicePrct": 104, "HealthCent": 46, "HealthArea": 1810, "Sanitboro": "4", "SanitDistr": "05", "SanitSub": "4E", "Address": "82-70 88 PLACE", "ZoneDist1": "R3-2", "ZoneDist2": null, "ZoneDist3": null, "ZoneDist4": null, "Overlay1": null, "Overlay2": null, "SPDist1": null, "SPDist2": null, "SPDist3": null, "LtdHeight": null, "SplitZone": "N", "BldgClass": "B1", "LandUse": "01", "Easements": 0, "OwnerType": null, "OwnerName": "JEAN P DELAFUENTE", "LotArea": 3799, "BldgArea": 2160, "ComArea": 0, "ResArea": 2160, "OfficeArea": 0, "RetailArea": 0, "GarageArea": 0, "StrgeArea": 0, "FactryArea": 0, "OtherArea": 0, "AreaSource": "2", "NumBldgs": 2, "NumFloors": 2.0, "UnitsRes": 2, "UnitsTotal": 2, "LotFront": 23.25, "LotDepth": 163.42, "BldgFront": 20.0, "BldgDepth": 52.0, "Ext": "G", "ProxCode": "2", "IrrLotCode": "N", "LotType": "5", "BsmtCode": "2", "AssessLand": 15720.0, "AssessTot": 65520.0, "ExemptTot": 1420.0, "YearBuilt": 1910, "YearAlter1": 0, "YearAlter2": 0, "HistDist": null, "Landmark": null, "BuiltFAR": 0.57, "ResidFAR": 0.75, "CommFAR": 0.0, "FacilFAR": 1.0, "BoroCode": 4, "BBL": 4038660019.0, "CondoNo": 0, "Tract2010": "0639", "XCoord": 1023484, "YCoord": 195136, "ZoneMap": "14b", "ZMCode": null, "Sanborn": "403 100", "TaxMap": "42003", "EDesigNum": null, "APPBBL": 0.0, "APPDate": null, "PLUTOMapID": "1", "FIRM07_FLA": null, "PFIRM15_FL": null, "Version": "25v4", "DCPEdited": null, "Latitude": 40.702193, "Longitude": -73.8584997, "Notes": null, "Shape_Leng": 0.0, "Shape_Area": 4352.4989011999996 }, "geometry": { "type": "MultiPolygon", "coordinates": [ [ [ [ -73.858189550483843, 40.702195882456216 ], [ -73.85820309171072, 40.702126352568122 ], [ -73.858806928433083, 40.702192323431582 ], [ -73.858799244777202, 40.702262493643978 ], [ -73.858189550483843, 40.702195882456216 ] ] ] ] } },
{ "type": "Feature", "properties": { "Borough": "QN", "Block": 3866, "Lot": 20, "CD": 405, "BCT2020": "4063900", "BCTCB2020": "40639002004", "CT2010": "639", "CB2010": "2006", "SchoolDist": "24", "Council": 32, "ZipCode": 11385, "FireComp": "E319", "PolicePrct": 104, "HealthCent": 46, "HealthArea": 1810, "Sanitboro": "4", "SanitDistr": "05", "SanitSub": "4E", "Address": "82-72 88 PLACE", "ZoneDist1": "R3-2", "ZoneDist2": null, "ZoneDist3": null, "ZoneDist4": null, "Overlay1": null, "Overlay2": null, "SPDist1": null, "SPDist2": null, "SPDist3": null, "LtdHeight": null, "SplitZone": "N", "BldgClass": "B1", "LandUse": "01", "Easements": 0, "OwnerType": null, "OwnerName": "KENNETH MADISON, TRUSTEE", "LotArea": 4242, "BldgArea": 2160, "ComArea": 0, "ResArea": 2160, "OfficeArea": 0, "RetailArea": 0, "GarageArea": 0, "StrgeArea": 0, "FactryArea": 0, "OtherArea": 0, "AreaSource": "2", "NumBldgs": 2, "NumFloors": 2.0, "UnitsRes": 2, "UnitsTotal": 2, "LotFront": 26.5, "LotDepth": 160.08, "BldgFront": 20.0, "BldgDepth": 52.0, "Ext": "G", "ProxCode": "2", "IrrLotCode": "N", "LotType": "5", "BsmtCode": "2", "AssessLand": 18780.0, "AssessTot": 70440.0, "ExemptTot": 0.0, "YearBuilt": 1910, "YearAlter1": 0, "YearAlter2": 0, "HistDist": null, "Landmark": null, "BuiltFAR": 0.51, "ResidFAR": 0.75, "CommFAR": 0.0, "FacilFAR": 1.0, "BoroCode": 4, "BBL": 4038660020.0, "CondoNo": 0, "Tract2010": "0639", "XCoord": 1023481, "YCoord": 195111, "ZoneMap": "14b", "ZMCode": null, "Sanborn": "403 100", "TaxMap": "42003", "EDesigNum": null, "APPBBL": 0.0, "APPDate": null, "PLUTOMapID": "1", "FIRM07_FLA": null, "PFIRM15_FL": null, "Version": "25v4", "DCPEdited": null, "Latitude": 40.7021244, "Longitude": -73.8585107, "Notes": null, "Shape_Leng": 0.0, "Shape_Area": 4362.9646372999996 }, "geometry": { "type": "MultiPolygon", "coordinates": [ [ [ [ -73.85820309171072, 40.702126352568122 ], [ -73.858216799173888, 40.702055971048736 ], [ -73.858814703923073, 40.702121295223584 ], [ -73.858806928433083, 40.702192323431582 ], [ -73.85820309171072, 40.702126352568122 ] ] ] ] } },
{ "type": "Feature", "properties": { "Borough": "QN", "Block": 3866, "Lot": 24, "CD": 405, "BCT2020": "4063900", "BCTCB2020": "40639002004", "CT2010": "639", "CB2010": "2006", "SchoolDist": "24", "Council": 32, "ZipCode": 11385, "FireComp": "E319", "PolicePrct": 104, "HealthCent": 46, "HealthArea": 1810, "Sanitboro": "4", "SanitDistr": "05", "SanitSub": "4E", "Address": "82-78 88 PLACE", "ZoneDist1": "R3-2", "ZoneDist2": null, "ZoneDist3": null, "ZoneDist4": null, "Overlay1": null, "Overlay2": null, "SPDist1": null, "SPDist2": null, "SPDist3": null, "LtdHeight": null, "SplitZone": "N", "BldgClass": "A2", "LandUse": "01", "Easements": 0, "OwnerType": null, "OwnerName": "SEXTON, WILLIAM A", "LotArea": 3902, "BldgArea": 1240, "ComArea": 0, "ResArea": 1240, "OfficeArea": 0, "RetailArea": 0, "GarageArea": 0, "StrgeArea": 0, "FactryArea": 0, "OtherArea": 0, "AreaSource": "2", "NumBldgs": 1, "NumFloors": 1.0, "UnitsRes": 1, "UnitsTotal": 1, "LotFront": 25.0, "LotDepth": 156.08, "BldgFront": 20.0, "BldgDepth": 61.0, "Ext": "G", "ProxCode": "1", "IrrLotCode": "N", "LotType": "5", "BsmtCode": "2", "AssessLand": 16140.0, "AssessTot": 47760.0, "ExemptTot": 0.0, "YearBuilt": 1920, "YearAlter1": 0, "YearAlter2": 0, "HistDist": null, "Landmark": null, "BuiltFAR": 0.32, "ResidFAR": 0.75, "CommFAR": 0.0, "FacilFAR": 1.0, "BoroCode": 4, "BBL": 4038660024.0, "CondoNo": 0, "Tract2010": "0639", "XCoord": 1023475, "YCoord": 195060, "ZoneMap": "14b", "ZMCode": null, "Sanborn": "403 100", "TaxMap": "42003", "EDesigNum": null, "APPBBL": 0.0, "APPDate": null, "PLUTOMapID": "1", "FIRM07_FLA": null, "PFIRM15_FL": null, "Version": "25v4", "DCPEdited": null, "Latitude": 40.7019844, "Longitude": -73.8585326, "Notes": null, "Shape_Leng": 0.0, "Shape_Area": 4076.1855773000002 }, "geometry": { "type": "MultiPolygon", "coordinates": [ [ [ [ -73.858230269877652, 40.701986803989598 ], [ -73.858243327668688, 40.701919752697911 ], [ -73.858829756288699, 40.701983822627206 ], [ -73.858822346538417, 40.70205149055532 ], [ -73.858230269877652, 40.701986803989598 ] ] ] ] } },
{ "type": "Feature", "properties": { "Borough": "QN", "Block": 3866, "Lot": 28, "CD": 405, "BCT2020": "4063900", "BCTCB2020": "40639002004", "CT2010": "639", "CB2010": "2006", "SchoolDist": "24", "Council": 32, "ZipCode": 11385, "FireComp": "E319", "PolicePrct": 104, "HealthCent": 46, "HealthArea": 1810, "Sanitboro": "4", "SanitDistr": "05", "SanitSub": "4E", "Address": "82-82 88 PLACE", "ZoneDist1": "R3-2", "ZoneDist2": null, "ZoneDist3": null, "ZoneDist4": null, "Overlay1": null, "Overlay2": null, "SPDist1": null, "SPDist2": null, "SPDist3": null, "LtdHeight": null, "SplitZone": "N", "BldgClass": "B2", "LandUse": "01", "Easements": 0, "OwnerType": null, "OwnerName": "SJMJ HOLDINGS LLC", "LotArea": 3852, "BldgArea": 1584, "ComArea": 0, "ResArea": 1584, "OfficeArea": 0, "RetailArea": 0, "GarageArea": 0, "StrgeArea": 0, "FactryArea": 0, "OtherArea": 0, "AreaSource": "2", "NumBldgs": 2, "NumFloors": 2.0, "UnitsRes": 2, "UnitsTotal": 2, "LotFront": 25.0, "LotDepth": 154.08, "BldgFront": 21.0, "BldgDepth": 37.0, "Ext": "EG", "ProxCode": "1", "IrrLotCode": "N", "LotType": "5", "BsmtCode": "2", "AssessLand": 15960.0, "AssessTot": 66420.0, "ExemptTot": 0.0, "YearBuilt": 1920, "YearAlter1": 0, "YearAlter2": 0, "HistDist": null, "Landmark": null, "BuiltFAR": 0.41, "ResidFAR": 0.75, "CommFAR": 0.0, "FacilFAR": 1.0, "BoroCode": 4, "BBL": 4038660027.9999995, "CondoNo": 0, "Tract2010": "0639", "XCoord": 1023469, "YCoord": 195009, "ZoneMap": "14b", "ZMCode": null, "Sanborn": "403 100", "TaxMap": "42003", "EDesigNum": null, "APPBBL": 0.0, "APPDate": null, "PLUTOMapID": "1", "FIRM07_FLA": null, "PFIRM15_FL": null, "Version": "25v4", "DCPEdited": null, "Latitude": 40.7018445, "Longitude": -73.8585546, "Notes": null, "Shape_Leng": 0.0, "Shape_Area": 4206.0150298 }, "geometry": { "type": "MultiPolygon", "coordinates": [ [ [ [ -73.858257076941086, 40.701849159562045 ], [ -73.858270825083565, 40.701778566507599 ], [ -73.858845357645464, 40.701841334827584 ], [ -73.858837556919411, 40.701912579188615 ], [ -73.858257076941086, 40.701849159562045 ] ] ] ] } },
{ "type": "Feature", "properties": { "Borough": "QN", "Block": 3866, "Lot": 30, "CD": 405, "BCT2020": "4063900", "BCTCB2020": "40639002004", "CT2010": "639", "CB2010": "2006", "SchoolDist": "24", "Council": 32, "ZipCode": 11385, "FireComp": "E319", "PolicePrct": 104, "HealthCent": 46, "HealthArea": 1810, "Sanitboro": "4", "SanitDistr": "05", "SanitSub": "4E", "Address": "82-84 88 PLACE", "ZoneDist1": "R3-2", "ZoneDist2": null, "ZoneDist3": null, "ZoneDist4": null, "Overlay1": null, "Overlay2": null, "SPDist1": null, "SPDist2": null, "SPDist3": null, "LtdHeight": null, "SplitZone": "N", "BldgClass": "A1", "LandUse": "01", "Easements": 0, "OwnerType": null, "OwnerName": "R JETTER", "LotArea": 7604, "BldgArea": 1668, "ComArea": 0, "ResArea": 1668, "OfficeArea": 0, "RetailArea": 0, "GarageArea": 0, "StrgeArea": 0, "FactryArea": 0, "OtherArea": 0, "AreaSource": "2", "NumBldgs": 2, "NumFloors": 2.5, "UnitsRes": 1, "UnitsTotal": 1, "LotFront": 50.0, "LotDepth": 152.08, "BldgFront": 20.0, "BldgDepth": 30.0, "Ext": "EG", "ProxCode": "1", "IrrLotCode": "N", "LotType": "5", "BsmtCode": "2", "AssessLand": 22260.0, "AssessTot": 59280.0, "ExemptTot": 0.0, "YearBuilt": 1910, "YearAlter1": 0, "YearAlter2": 0, "HistDist": null, "Landmark": null, "BuiltFAR": 0.22, "ResidFAR": 0.75, "CommFAR": 0.0, "FacilFAR": 1.0, "BoroCode": 4, "BBL": 4038660030.0, "CondoNo": 0, "Tract2010": "0639", "XCoord": 1023465, "YCoord": 194973, "ZoneMap": "14b", "ZMCode": null, "Sanborn": "403 100", "TaxMap": "42003", "EDesigNum": null, "APPBBL": 0.0, "APPDate": null, "PLUTOMapID": "1", "FIRM07_FLA": null, "PFIRM15_FL": null, "Version": "25v4", "DCPEdited": null, "Latitude": 40.7017457, "Longitude": -73.8585692, "Notes": null, "Shape_Leng": 0.0, "Shape_Area": 7582.865691 }, "geometry": { "type": "MultiPolygon", "coordinates": [ [ [ [ -73.858270825083565, 40.701778566507599 ], [ -73.858295976329757, 40.701649412754726 ], [ -73.858859626820063, 40.701710994167932 ], [ -73.858845357645464, 40.701841334827584 ], [ -73.858270825083565, 40.701778566507599 ] ] ] ] } },
{ "type": "Feature", "properties": { "Borough": "QN", "Block": 3866, "Lot": 36, "CD": 405, "BCT2020": "4063900", "BCTCB2020": "40639002004", "CT2010": "639", "CB2010": "2006", "SchoolDist": "24", "Council": 32, "ZipCode": 11385, "FireComp": "E319", "PolicePrct": 104, "HealthCent": 46, "HealthArea": 1810, "Sanitboro": "4", "SanitDistr": "05", "SanitSub": "4E", "Address": "82-92 88 PLACE", "ZoneDist1": "R3-2", "ZoneDist2": null, "ZoneDist3": null, "ZoneDist4": null, "Overlay1": null, "Overlay2": null, "SPDist1": null, "SPDist2": null, "SPDist3": null, "LtdHeight": null, "SplitZone": "N", "BldgClass": "B2", "LandUse": "01", "Easements": 0, "OwnerType": null, "OwnerName": "HANNELORE RUECKHEIM", "LotArea": 3600, "BldgArea": 1896, "ComArea": 0, "ResArea": 1896, "OfficeArea": 0, "RetailArea": 0, "GarageArea": 0, "StrgeArea": 0, "FactryArea": 0, "OtherArea": 0, "AreaSource": "2", "NumBldgs": 2, "NumFloors": 2.0, "UnitsRes": 2, "UnitsTotal": 2, "LotFront": 25.0, "LotDepth": 144.0, "BldgFront": 21.0, "BldgDepth": 45.0, "Ext": "G", "ProxCode": "1", "IrrLotCode": "N", "LotType": "5", "BsmtCode": "2", "AssessLand": 18000.0, "AssessTot": 74160.0, "ExemptTot": 42600.0, "YearBuilt": 1920, "YearAlter1": 0, "YearAlter2": 0, "HistDist": null, "Landmark": null, "BuiltFAR": 0.53, "ResidFAR": 0.75, "CommFAR": 0.0, "FacilFAR": 1.0, "BoroCode": 4, "BBL": 4038660036.0000005, "CondoNo": 0, "Tract2010": "0639", "XCoord": 1023455, "YCoord": 194887, "ZoneMap": "14b", "ZMCode": null, "Sanborn": "403 100", "TaxMap": "42003", "EDesigNum": null, "APPBBL": 0.0, "APPDate": null, "PLUTOMapID": "1", "FIRM07_FLA": null, "PFIRM15_FL": null, "Version": "25v4", "DCPEdited": null, "Latitude": 40.7015097, "Longitude": -73.8586058, "Notes": null, "Shape_Leng": 0.0, "Shape_Area": 3847.067335 }, "geometry": { "type": "MultiPolygon", "coordinates": [ [ [ [ -73.858335635105689, 40.701445778316916 ], [ -73.858882129661282, 40.701505484479817 ], [ -73.858874628327996, 40.701573987068905 ], [ -73.858322416017643, 40.701513656157978 ], [ -73.858335635105689, 40.701445778316916 ] ] ] ] } },
{ "type": "Feature", "properties": { "Borough": "QN", "Block": 3866, "Lot": 70, "CD": 482, "BCT2020": "4064102", "BCTCB2020": "40641021014", "CT2010": "641.02", "CB2010": "1027", "SchoolDist": "24", "Council": 32, "ZipCode": 11385, "FireComp": "E319", "PolicePrct": 102, "HealthCent": 46, "HealthArea": 1810, "Sanitboro": "4", "SanitDistr": "82", "SanitSub": "3E", "Address": "83-98 FOREST PARKWAY", "ZoneDist1": "PARK", "ZoneDist2": "R3-2", "ZoneDist3": null, "ZoneDist4": null, "Overlay1": null, "Overlay2": null, "SPDist1": null, "SPDist2": null, "SPDist3": null, "LtdHeight": null, "SplitZone": "Y", "BldgClass": "Q1", "LandUse": "09", "Easements": 0, "OwnerType": "C", "OwnerName": "NYC DEPARTMENT OF PARKS AND RECREATION", "LotArea": 10000000, "BldgArea": 54170, "ComArea": 54170, "ResArea": 0, "OfficeArea": 0, "RetailArea": 0, "GarageArea": 0, "StrgeArea": 0, "FactryArea": 0, "OtherArea": 54170, "AreaSource": "2", "NumBldgs": 32, "NumFloors": 3.0, "UnitsRes": 0, "UnitsTotal": 0, "LotFront": 610.17, "LotDepth": 534.42, "BldgFront": 20.0, "BldgDepth": 20.0, "Ext": "N", "ProxCode": "0", "IrrLotCode": "Y", "LotType": "3", "BsmtCode": "0", "AssessLand": 85837401.0, "AssessTot": 126442800.0, "ExemptTot": 126442800.0, "YearBuilt": 1931, "YearAlter1": 0, "YearAlter2": 0, "HistDist": null, "Landmark": "INDIVIDUAL LANDMARK", "BuiltFAR": 0.01, "ResidFAR": 0.0, "CommFAR": 0.0, "FacilFAR": 0.0, "BoroCode": 4, "BBL": 4038660069.9999995, "CondoNo": 0, "Tract2010": "064102", "XCoord": 1022337, "YCoord": 194077, "ZoneMap": "14b", "ZMCode": "Y", "Sanborn": "403 100", "TaxMap": "42003", "EDesigNum": null, "APPBBL": 0.0, "APPDate": null, "PLUTOMapID": "1", "FIRM07_FLA": null, "PFIRM15_FL": null, "Version": "25v4", "DCPEdited": "t", "Latitude": 40.6992913, "Longitude": -73.8626425, "Notes": null, "Shape_Leng": 0.0, "Shape_Area": 10175418.2269 }, "geometry": { "type": "MultiPolygon", "coordinates": [ [ [ [ -73.858738597435334, 40.702816392446238 ], [ -73.858787196759422, 40.702372526805853 ], [ -73.858792808651586, 40.702321270223138 ], [ -73.858799244777202, 40.702262493643978 ], [ -73.858806928433083, 40.702192323431582 ], [ -73.858814703923073, 40.702121295223584 ], [ -73.858822346538417, 40.70205149055532 ], [ -73.858829756288699, 40.701983822627206 ], [ -73.858837556919411, 40.701912579188615 ], [ -73.858845357645464, 40.701841334827584 ], [ -73.858859626820063, 40.701710994167932 ], [ -73.858867128184173, 40.701642491580998 ], [ -73.858874628327996, 40.701573987068905 ], [ -73.858882129661282, 40.701505484479817 ], [ -73.858897780280358, 40.701362520361435 ], [ -73.858363223059229, 40.701304117685879 ], [ -73.8581581573726, 40.701281713109822 ], [ -73.857798947167723, 40.7012424662962 ], [ -73.857444069253091, 40.701203689304016 ], [ -73.857345761736184, 40.701192949401424 ], [ -73.857251543343324, 40.701658250471112 ], [ -73.857165990375876, 40.701673521374126 ], [ -73.85678484845009, 40.701741552823542 ], [ -73.856396499296594, 40.701810867987305 ], [ -73.856223096142301, 40.701841817952321 ], [ -73.855848384466256, 40.701908697148077 ], [ -73.855527865897898, 40.701965903298394 ], [ -73.85539781415207, 40.701989114417991 ], [ -73.855386268965475, 40.701453346438278 ], [ -73.855236196393307, 40.701118248056538 ], [ -73.855062843344385, 40.700918404093443 ], [ -73.854972564863274, 40.700814144180185 ], [ -73.854760233518249, 40.700630415654828 ], [ -73.854416754863706, 40.700344828595881 ], [ -73.854081892989143, 40.70012137241099 ], [ -73.853969103995368, 40.700002601041362 ], [ -73.853746899011796, 40.699736525177052 ], [ -73.853228875335589, 40.699121815420419 ], [ -73.85319055296776, 40.699074970464835 ], [ -73.853162457020417, 40.699038854657068 ], [ -73.853130952200544, 40.698996889198419 ], [ -73.853100738296718, 40.698953305457842 ], [ -73.853077759168826, 40.698918525282743 ], [ -73.853058158724053, 40.698887204693563 ], [ -73.853028460211064, 40.698831572695148 ], [ -73.853002419389, 40.69877411554036 ], [ -73.85297272108869, 40.698708767008192 ], [ -73.852934597976457, 40.69861845178859 ], [ -73.852905332861653, 40.69853485036618 ], [ -73.852884131762195, 40.698471392035017 ], [ -73.85287329185384, 40.698423516799146 ], [ -73.85286683084378, 40.698372993366938 ], [ -73.852862234771592, 40.698330885824184 ], [ -73.852860047541697, 40.698279766339475 ], [ -73.85288338259204, 40.697692354866213 ], [ -73.852970693562909, 40.697679634268255 ], [ -73.853030153005676, 40.697670970766524 ], [ -73.85656635107668, 40.697155700996014 ], [ -73.858329551485667, 40.696838736712301 ], [ -73.864666834654969, 40.695575347468278 ], [ -73.868718938316675, 40.694767319034092 ], [ -73.868932151899884, 40.695114587528977 ], [ -73.870445621068484, 40.697579515638772 ], [ -73.870595492805606, 40.697824151972767 ], [ -73.869259039080319, 40.699121825762312 ], [ -73.868959341623764, 40.699316086037562 ], [ -73.869567223824546, 40.70164360865332 ], [ -73.86904635929352, 40.701779095502623 ], [ -73.869279173318006, 40.702794195835772 ], [ -73.862858425145632, 40.703319676312432 ], [ -73.858738597435334, 40.702816392446238 ] ] ] ] } },
{ "type": "Feature", "properties": { "Borough": "QN", "Block": 3880, "Lot": 91, "CD": 406, "BCT2020": "4063900", "BCTCB2020": "40639001001", "CT2010": "639", "CB2010": "1001", "SchoolDist": "24", "Council": 32, "ZipCode": 11385, "FireComp": "L143", "PolicePrct": 112, "HealthCent": 46, "HealthArea": 1810, "Sanitboro": "4", "SanitDistr": "06", "SanitSub": "2C", "Address": "UNION TURNPIKE", "ZoneDist1": "R3-2", "ZoneDist2": null, "ZoneDist3": null, "ZoneDist4": null, "Overlay1": null, "Overlay2": null, "SPDist1": null, "SPDist2": null, "SPDist3": null, "LtdHeight": null, "SplitZone": "N", "BldgClass": "U7", "LandUse": "07", "Easements": 1, "OwnerType": "C", "OwnerName": "NYC DEPARTMENT OF CITYWIDE ADMINISTRATIVE SERVICES", "LotArea": 54500, "BldgArea": 0, "ComArea": 0, "ResArea": 0, "OfficeArea": 0, "RetailArea": 0, "GarageArea": 0, "StrgeArea": 0, "FactryArea": 0, "OtherArea": 0, "AreaSource": "7", "NumBldgs": 0, "NumFloors": 0.0, "UnitsRes": 0, "UnitsTotal": 0, "LotFront": 125.0, "LotDepth": 513.0, "BldgFront": 0.0, "BldgDepth": 0.0, "Ext": "N", "ProxCode": "0", "IrrLotCode": "Y", "LotType": "5", "BsmtCode": "0", "AssessLand": 0.0, "AssessTot": 0.0, "ExemptTot": 0.0, "YearBuilt": 0, "YearAlter1": 0, "YearAlter2": 0, "HistDist": null, "Landmark": null, "BuiltFAR": 0.0, "ResidFAR": 0.75, "CommFAR": 0.0, "FacilFAR": 1.0, "BoroCode": 4, "BBL": 4038800090.9999995, "CondoNo": 0, "Tract2010": "0639", "XCoord": 1024337, "YCoord": 196441, "ZoneMap": "14b", "ZMCode": null, "Sanborn": "403 101", "TaxMap": "42003", "EDesigNum": null, "APPBBL": 0.0, "APPDate": null, "PLUTOMapID": "1", "FIRM07_FLA": null, "PFIRM15_FL": null, "Version": "25v4", "DCPEdited": "t", "Latitude": 40.7057711, "Longitude": -73.8554156, "Notes": null, "Shape_Leng": 0.0, "Shape_Area": 54795.927536299998 }, "geometry": { "type": "MultiPolygon", "coordinates": [ [ [ [ -73.85560513791043, 40.706108129114789 ], [ -73.855561949649442, 40.706051039167534 ], [ -73.855422654090432, 40.705951566485901 ], [ -73.855317849550801, 40.705873665509422 ], [ -73.855164408538243, 40.705753334182802 ], [ -73.855006748723071, 40.705621930034496 ], [ -73.854826004198216, 40.705454701156746 ], [ -73.854729571317506, 40.705359180907962 ], [ -73.854711199863942, 40.705340983597239 ], [ -73.854566375442928, 40.70526194719136 ], [ -73.854550334488152, 40.70524513328531 ], [ -73.854539529563638, 40.705233806442521 ], [ -73.854773410908962, 40.704983461738891 ], [ -73.854862630219813, 40.705123860622429 ], [ -73.854860660564839, 40.70512687937245 ], [ -73.854968092334914, 40.705235387897069 ], [ -73.855064756337583, 40.705328082434605 ], [ -73.855246162027512, 40.705491724990416 ], [ -73.855396940381638, 40.705617392083603 ], [ -73.855557265571449, 40.705743458987797 ], [ -73.855662068866991, 40.705821359747233 ], [ -73.855832640751245, 40.705941169766909 ], [ -73.85599559169512, 40.706050449330185 ], [ -73.856138537444252, 40.706139101790463 ], [ -73.856345120276444, 40.706264609542949 ], [ -73.855847007546387, 40.706427842270067 ], [ -73.85572640459408, 40.70626842380323 ], [ -73.85560513791043, 40.706108129114789 ] ] ] ] } },
{ "type": "Feature", "properties": { "Borough": "QN", "Block": 3880, "Lot": 97, "CD": 406, "BCT2020": "4063900", "BCTCB2020": "40639001000", "CT2010": "639", "CB2010": "1000", "SchoolDist": "24", "Council": 32, "ZipCode": 11385, "FireComp": "L143", "PolicePrct": 112, "HealthCent": 46, "HealthArea": 1810, "Sanitboro": "4", "SanitDistr": "06", "SanitSub": "2C", "Address": "90-60 UNION TURNPIKE", "ZoneDist1": "R3-2", "ZoneDist2": null, "ZoneDist3": null, "ZoneDist4": null, "Overlay1": null, "Overlay2": null, "SPDist1": null, "SPDist2": null, "SPDist3": null, "LtdHeight": null, "SplitZone": "N", "BldgClass": "D4", "LandUse": "03", "Easements": 0, "OwnerType": null, "OwnerName": "FOREST VIEW CRESCENT, INC.", "LotArea": 106575, "BldgArea": 295340, "ComArea": 0, "ResArea": 295340, "OfficeArea": 0, "RetailArea": 0, "GarageArea": 0, "StrgeArea": 0, "FactryArea": 0, "OtherArea": 0, "AreaSource": "2", "NumBldgs": 1, "NumFloors": 20.0, "UnitsRes": 241, "UnitsTotal": 241, "LotFront": 328.0, "LotDepth": 560.0, "BldgFront": 41.0, "BldgDepth": 376.0, "Ext": "N", "ProxCode": "0", "IrrLotCode": "Y", "LotType": "5", "BsmtCode": "0", "AssessLand": 981450.0, "AssessTot": 8226000.0, "ExemptTot": 506406.0, "YearBuilt": 1965, "YearAlter1": 0, "YearAlter2": 0, "HistDist": null, "Landmark": null, "BuiltFAR": 2.77, "ResidFAR": 0.75, "CommFAR": 0.0, "FacilFAR": 1.0, "BoroCode": 4, "BBL": 4038800097.0, "CondoNo": 0, "Tract2010": "0639", "XCoord": 1024491, "YCoord": 196527, "ZoneMap": "14b", "ZMCode": null, "Sanborn": "403 101", "TaxMap": "42003", "EDesigNum": null, "APPBBL": 0.0, "APPDate": null, "PLUTOMapID": "1", "FIRM07_FLA": null, "PFIRM15_FL": null, "Version": "25v4", "DCPEdited": null, "Latitude": 40.7060064, "Longitude": -73.8548596, "Notes": null, "Shape_Leng": 0.0, "Shape_Area": 103618.00445399999 }, "geometry": { "type": "MultiPolygon", "coordinates": [ [ [ [ -73.854504042893467, 40.705294682952847 ], [ -73.854550334488152, 40.70524513328531 ], [ -73.854566375442928, 40.70526194719136 ], [ -73.854711199863942, 40.705340983597239 ], [ -73.854729571317506, 40.705359180907962 ], [ -73.854826004198216, 40.705454701156746 ], [ -73.855006748723071, 40.705621930034496 ], [ -73.855164408538243, 40.705753334182802 ], [ -73.855317849550801, 40.705873665509422 ], [ -73.855422654090432, 40.705951566485901 ], [ -73.855561949649442, 40.706051039167534 ], [ -73.85560513791043, 40.706108129114789 ], [ -73.855527034044528, 40.706145118585944 ], [ -73.855646552661185, 40.706293479402092 ], [ -73.854623710246997, 40.706614421653121 ], [ -73.854590198896005, 40.706624935991378 ], [ -73.854462028623928, 40.706463466063269 ], [ -73.854345107469257, 40.705948646818975 ], [ -73.854434056850437, 40.705599747218379 ], [ -73.854437655211754, 40.705580325946443 ], [ -73.854438448188688, 40.705561296418892 ], [ -73.854436044171962, 40.705539401066069 ], [ -73.854431349017091, 40.705521433522335 ], [ -73.85442416120074, 40.705503727524523 ], [ -73.854412735890435, 40.705483852280118 ], [ -73.854398995132073, 40.705466052481334 ], [ -73.854384816447521, 40.705451552454932 ], [ -73.854371865690396, 40.705437724020037 ], [ -73.854363154400602, 40.705424057649175 ], [ -73.854357671080223, 40.705410500695301 ], [ -73.854354793688842, 40.705395660175526 ], [ -73.854354848482785, 40.705381960818052 ], [ -73.854357478066788, 40.705368346627118 ], [ -73.854362424927103, 40.705355594398391 ], [ -73.854371463036529, 40.705340998618205 ], [ -73.854381385762025, 40.705329830446168 ], [ -73.854394243361398, 40.7053191234465 ], [ -73.854408917244442, 40.705310092793418 ], [ -73.854426875842108, 40.705302213536527 ], [ -73.854444764601766, 40.705297012331698 ], [ -73.854464339916262, 40.705293843869008 ], [ -73.854483597707016, 40.705293055982544 ], [ -73.854504042893467, 40.705294682952847 ] ] ] ] } },
{ "type": "Feature", "properties": { "Borough": "QN", "Block": 3907, "Lot": 900, "CD": 482, "BCT2020": "4064102", "BCTCB2020": "40641021007", "CT2010": "641.02", "CB2010": "1011", "SchoolDist": "24", "Council": 32, "ZipCode": 11385, "FireComp": "L143", "PolicePrct": 102, "HealthCent": 46, "HealthArea": 1810, "Sanitboro": "4", "SanitDistr": "82", "SanitSub": null, "Address": "WOODHAVEN BOULEVARD", "ZoneDist1": "PARK", "ZoneDist2": null, "ZoneDist3": null, "ZoneDist4": null, "Overlay1": null, "Overlay2": null, "SPDist1": null, "SPDist2": null, "SPDist3": null, "LtdHeight": null, "SplitZone": "N", "BldgClass": "Q2", "LandUse": "09", "Easements": 0, "OwnerType": "C", "OwnerName": "NYC DEPARTMENT OF PARKS AND RECREATION", "LotArea": 597040, "BldgArea": 1550, "ComArea": 1550, "ResArea": 0, "OfficeArea": 0, "RetailArea": 0, "GarageArea": 0, "StrgeArea": 0, "FactryArea": 0, "OtherArea": 1550, "AreaSource": "2", "NumBldgs": 1, "NumFloors": 1.0, "UnitsRes": 0, "UnitsTotal": 0, "LotFront": 683.08, "LotDepth": 850.08, "BldgFront": 31.0, "BldgDepth": 50.0, "Ext": "N", "ProxCode": "0", "IrrLotCode": "Y", "LotType": "3", "BsmtCode": "0", "AssessLand": 8729100.0, "AssessTot": 10825200.0, "ExemptTot": 10825200.0, "YearBuilt": 1941, "YearAlter1": 0, "YearAlter2": 0, "HistDist": null, "Landmark": null, "BuiltFAR": 0.0, "ResidFAR": 0.0, "CommFAR": 0.0, "FacilFAR": 0.0, "BoroCode": 4, "BBL": 4039070900.0, "CondoNo": 0, "Tract2010": "064102", "XCoord": 1024922, "YCoord": 194817, "ZoneMap": "14b", "ZMCode": null, "Sanborn": "404 028", "TaxMap": "42003", "EDesigNum": null, "APPBBL": 0.0, "APPDate": null, "PLUTOMapID": "1", "FIRM07_FLA": null, "PFIRM15_FL": null, "Version": "25v4", "DCPEdited": "t", "Latitude": 40.7013109, "Longitude": -73.8533154, "Notes": null, "Shape_Leng": 0.0, "Shape_Area": 595875.65225399996 }, "geometry": { "type": "MultiPolygon", "coordinates": [ [ [ [ -73.85255289441109, 40.702203334008907 ], [ -73.850929085059136, 40.700195126423445 ], [ -73.854161763721208, 40.700533330224431 ], [ -73.854319028138619, 40.700549780277356 ], [ -73.854578782383939, 40.700741932670816 ], [ -73.854724102485264, 40.700859416258979 ], [ -73.854973213354839, 40.701118490275235 ], [ -73.855156198663266, 40.7020087871824 ], [ -73.854993655708185, 40.702035265351761 ], [ -73.854979229120772, 40.702469809094822 ], [ -73.85255289441109, 40.702203334008907 ] ] ] ] } },
{ "type": "Feature", "properties": { "Borough": "QN", "Block": 3907, "Lot": 960, "CD": 409, "BCT2020": "4064101", "BCTCB2020": "40641011000", "CT2010": "641.01", "CB2010": "1000", "SchoolDist": "24", "Council": 32, "ZipCode": 11421, "FireComp": "L143", "PolicePrct": 102, "HealthCent": 46, "HealthArea": 1810, "Sanitboro": "4", "SanitDistr": "09", "SanitSub": "3E", "Address": "83-55 WOODHAVEN BOULEVARD", "ZoneDist1": "R5", "ZoneDist2": null, "ZoneDist3": null, "ZoneDist4": null, "Overlay1": null, "Overlay2": null, "SPDist1": null, "SPDist2": null, "SPDist3": null, "LtdHeight": null, "SplitZone": "N", "BldgClass": "D4", "LandUse": "03", "Easements": 0, "OwnerType": null, "OwnerName": "FOREST PARK COOP INC SEC 1", "LotArea": 128408, "BldgArea": 385000, "ComArea": 0, "ResArea": 385000, "OfficeArea": 0, "RetailArea": 0, "GarageArea": 0, "StrgeArea": 0, "FactryArea": 0, "OtherArea": 0, "AreaSource": "2", "NumBldgs": 4, "NumFloors": 6.0, "UnitsRes": 390, "UnitsTotal": 390, "LotFront": 735.0, "LotDepth": 285.0, "BldgFront": 135.8, "BldgDepth": 161.0, "Ext": "N", "ProxCode": "0", "IrrLotCode": "Y", "LotType": "5", "BsmtCode": "0", "AssessLand": 1341000.0, "AssessTot": 12504150.0, "ExemptTot": 843741.0, "YearBuilt": 1954, "YearAlter1": 0, "YearAlter2": 0, "HistDist": null, "Landmark": null, "BuiltFAR": 3.0, "ResidFAR": 1.5, "CommFAR": 0.0, "FacilFAR": 2.0, "BoroCode": 4, "BBL": 4039070960.0000005, "CondoNo": 0, "Tract2010": "064101", "XCoord": 1025197, "YCoord": 194389, "ZoneMap": "14b", "ZMCode": null, "Sanborn": "404 028", "TaxMap": "42003", "EDesigNum": null, "APPBBL": 0.0, "APPDate": null, "PLUTOMapID": "1", "FIRM07_FLA": null, "PFIRM15_FL": null, "Version": "25v4", "DCPEdited": null, "Latitude": 40.7001349, "Longitude": -73.8523262, "Notes": null, "Shape_Leng": 0.0, "Shape_Area": 133721.95045199999 }, "geometry": { "type": "MultiPolygon", "coordinates": [ [ [ [ -73.850929085059136, 40.700195126423445 ], [ -73.850438222537306, 40.699588036043139 ], [ -73.850565082082412, 40.699682711646332 ], [ -73.850596869827257, 40.699700286816885 ], [ -73.850620261645105, 40.699712580363233 ], [ -73.85063760148779, 40.699719474697744 ], [ -73.850658314396568, 40.699728070885769 ], [ -73.850673343052193, 40.699733606992524 ], [ -73.850687543230535, 40.699737613791307 ], [ -73.85071874668543, 40.699745078109864 ], [ -73.850745684904297, 40.699750363126761 ], [ -73.850782220268087, 40.699755564134882 ], [ -73.850819421268028, 40.699761043412487 ], [ -73.850854192644803, 40.699766164721638 ], [ -73.850950697055353, 40.699778654839662 ], [ -73.853739749451037, 40.700087683445958 ], [ -73.853992963859241, 40.70035663002519 ], [ -73.854161763721208, 40.700533330224431 ], [ -73.850929085059136, 40.700195126423445 ] ] ] ] } },
{ "type": "Feature", "properties": { "Borough": "QN", "Block": 3907, "Lot": 1000, "CD": 482, "BCT2020": "4064102", "BCTCB2020": "40641021018", "CT2010": "641.02", "CB2010": "1029", "SchoolDist": "24", "Council": 32, "ZipCode": 11385, "FireComp": "L143", "PolicePrct": 102, "HealthCent": 46, "HealthArea": 1810, "Sanitboro": "4", "SanitDistr": "82", "SanitSub": null, "Address": "107-02 MYRTLE AVENUE", "ZoneDist1": "PARK", "ZoneDist2": null, "ZoneDist3": null, "ZoneDist4": null, "Overlay1": null, "Overlay2": null, "SPDist1": null, "SPDist2": null, "SPDist3": null, "LtdHeight": null, "SplitZone": "N", "BldgClass": "Q2", "LandUse": "09", "Easements": 0, "OwnerType": "C", "OwnerName": "NYC DEPARTMENT OF PARKS AND RECREATION", "LotArea": 1834538, "BldgArea": 1820, "ComArea": 1820, "ResArea": 0, "OfficeArea": 0, "RetailArea": 0, "GarageArea": 0, "StrgeArea": 0, "FactryArea": 0, "OtherArea": 1820, "AreaSource": "2", "NumBldgs": 1, "NumFloors": 1.0, "UnitsRes": 0, "UnitsTotal": 0, "LotFront": 2662.0, "LotDepth": 46.0, "BldgFront": 26.0, "BldgDepth": 70.0, "Ext": "N", "ProxCode": "0", "IrrLotCode": "Y", "LotType": "5", "BsmtCode": "0", "AssessLand": 20638350.0, "AssessTot": 24422850.0, "ExemptTot": 24422850.0, "YearBuilt": 1931, "YearAlter1": 0, "YearAlter2": 0, "HistDist": null, "Landmark": null, "BuiltFAR": 0.0, "ResidFAR": 0.0, "CommFAR": 0.0, "FacilFAR": 0.0, "BoroCode": 4, "BBL": 4039071000.0, "CondoNo": 0, "Tract2010": "064102", "XCoord": 1026546, "YCoord": 194512, "ZoneMap": "14b", "ZMCode": null, "Sanborn": "404 028", "TaxMap": "42003", "EDesigNum": null, "APPBBL": 0.0, "APPDate": null, "PLUTOMapID": "1", "FIRM07_FLA": null, "PFIRM15_FL": null, "Version": "25v4", "DCPEdited": "t", "Latitude": 40.7004662, "Longitude": -73.8474604, "Notes": null, "Shape_Leng": 0.0, "Shape_Area": 1814038.4655200001 }, "geometry": { "type": "MultiPolygon", "coordinates": [ [ [ [ -73.849021241755878, 40.698414373935449 ], [ -73.849097505381565, 40.698521965516569 ], [ -73.848900070612359, 40.698594219112692 ], [ -73.849862176244628, 40.699718174712025 ], [ -73.849940388803446, 40.699684035759873 ], [ -73.851918986421069, 40.702133704898749 ], [ -73.842368125316867, 40.70108419781792 ], [ -73.842321061726096, 40.700971336002709 ], [ -73.842413261097605, 40.700938062381525 ], [ -73.842478900672589, 40.700912164471859 ], [ -73.842553661880601, 40.70087868496919 ], [ -73.842651748510661, 40.700827504368988 ], [ -73.842761282044435, 40.700772082683827 ], [ -73.842864162919867, 40.700716276334525 ], [ -73.84489938850939, 40.699529213257478 ], [ -73.845139158596297, 40.699421769350067 ], [ -73.845336801238361, 40.699339780778509 ], [ -73.849021241755878, 40.698414373935449 ] ] ] ] } },
{ "type": "Feature", "properties": { "Borough": "QN", "Block": 3907, "Lot": 1050, "CD": 482, "BCT2020": "4064102", "BCTCB2020": "40641021005", "CT2010": "641.02", "CB2010": "1006", "SchoolDist": "24", "Council": 32, "ZipCode": 11385, "FireComp": "L143", "PolicePrct": 102, "HealthCent": 46, "HealthArea": 1810, "Sanitboro": null, "SanitDistr": null, "SanitSub": null, "Address": null, "ZoneDist1": "PARK", "ZoneDist2": null, "ZoneDist3": null, "ZoneDist4": null, "Overlay1": null, "Overlay2": null, "SPDist1": null, "SPDist2": null, "SPDist3": null, "LtdHeight": null, "SplitZone": "N", "BldgClass": "Q0", "LandUse": "09", "Easements": 0, "OwnerType": null, "OwnerName": null, "LotArea": 0, "BldgArea": 0, "ComArea": 0, "ResArea": 0, "OfficeArea": 0, "RetailArea": 0, "GarageArea": 0, "StrgeArea": 0, "FactryArea": 0, "OtherArea": 0, "AreaSource": null, "NumBldgs": 0, "NumFloors": 0.0, "UnitsRes": 0, "UnitsTotal": 0, "LotFront": 0.0, "LotDepth": 0.0, "BldgFront": 0.0, "BldgDepth": 0.0, "Ext": null, "ProxCode": null, "IrrLotCode": null, "LotType": null, "BsmtCode": null, "AssessLand": 0.0, "AssessTot": 0.0, "ExemptTot": 0.0, "YearBuilt": 0, "YearAlter1": 0, "YearAlter2": 0, "HistDist": null, "Landmark": null, "BuiltFAR": 0.0, "ResidFAR": 0.0, "CommFAR": 0.0, "FacilFAR": 0.0, "BoroCode": 4, "BBL": 4039071050.0, "CondoNo": 0, "Tract2010": "064102", "XCoord": 1026545, "YCoord": 195802, "ZoneMap": "14b", "ZMCode": null, "Sanborn": null, "TaxMap": null, "EDesigNum": null, "APPBBL": 0.0, "APPDate": null, "PLUTOMapID": "3", "FIRM07_FLA": null, "PFIRM15_FL": null, "Version": "25v4", "DCPEdited": null, "Latitude": 40.7040059, "Longitude": -73.8474555, "Notes": null, "Shape_Leng": 0.0, "Shape_Area": 5615958.4890900003 }, "geometry": { "type": "MultiPolygon", "coordinates": [ [ [ [ -73.838836893646999, 40.703299995177396 ], [ -73.8393670049484, 40.703017089038141 ], [ -73.841633055412785, 40.701185268056896 ], [ -73.852166546532402, 40.702340225496826 ], [ -73.853497937383494, 40.703969153140079 ], [ -73.85369945994114, 40.70421570162501 ], [ -73.853844243403259, 40.704392833599144 ], [ -73.85398340428128, 40.704563086529468 ], [ -73.854514518742988, 40.705212851444202 ], [ -73.854480528298708, 40.705248594761741 ], [ -73.854460423060772, 40.705246807922848 ], [ -73.854437519412485, 40.705250379181145 ], [ -73.854422620756992, 40.705252858339854 ], [ -73.854408000209659, 40.705257008301636 ], [ -73.854399194791966, 40.70525990937719 ], [ -73.854387171219955, 40.705264251697706 ], [ -73.854373023433624, 40.705270791349839 ], [ -73.85436093168326, 40.705278660880559 ], [ -73.854345740003637, 40.705289656727253 ], [ -73.854331905028275, 40.705302504781699 ], [ -73.854323610694394, 40.7053119361263 ], [ -73.854311857993395, 40.70532713274288 ], [ -73.854303854668828, 40.705344748304427 ], [ -73.85429864922483, 40.705361526286985 ], [ -73.854297218486693, 40.705378896266922 ], [ -73.854298219996494, 40.705394371905676 ], [ -73.854299918231206, 40.705406747127356 ], [ -73.85430436790277, 40.705421177195426 ], [ -73.854311917179757, 40.705436955616129 ], [ -73.854323940914682, 40.705455329586719 ], [ -73.85433976577778, 40.705471369723433 ], [ -73.85435146179465, 40.705482662577232 ], [ -73.854363496442602, 40.705496053982223 ], [ -73.854370385672397, 40.705505808918787 ], [ -73.854378298087894, 40.705520580186906 ], [ -73.854383443482519, 40.70553454104239 ], [ -73.854386984216035, 40.705550091007169 ], [ -73.85438650523578, 40.705568398689678 ], [ -73.854383402202842, 40.705586420359865 ], [ -73.854292231004266, 40.70594311636706 ], [ -73.854396238245357, 40.706480034157849 ], [ -73.854530930127623, 40.70664295505324 ], [ -73.853187877860577, 40.707075215336957 ], [ -73.852555348888799, 40.707278787903796 ], [ -73.851584782238547, 40.707011484058377 ], [ -73.851516876530724, 40.706992780984621 ], [ -73.851564054808875, 40.706975919447835 ], [ -73.850643903943165, 40.706775280784143 ], [ -73.847990413299129, 40.706196640363316 ], [ -73.847269975968601, 40.706029348548746 ], [ -73.84633270676639, 40.705835984545914 ], [ -73.84476730500991, 40.705510786364471 ], [ -73.844263144130622, 40.705384381439686 ], [ -73.843868604418844, 40.705260114237355 ], [ -73.843420544956317, 40.705114267677523 ], [ -73.842576293966104, 40.704833947231009 ], [ -73.840237797483809, 40.703884973309989 ], [ -73.840237849182401, 40.703863412438892 ], [ -73.838836893646999, 40.703299995177396 ] ] ] ] } },
{ "type": "Feature", "properties": { "Borough": "QN", "Block": 3907, "Lot": 1110, "CD": 482, "BCT2020": "4064102", "BCTCB2020": "40641021002", "CT2010": "641.02", "CB2010": "1007", "SchoolDist": "24", "Council": 32, "ZipCode": 11385, "FireComp": "L143", "PolicePrct": 104, "HealthCent": 46, "HealthArea": 1810, "Sanitboro": null, "SanitDistr": null, "SanitSub": null, "Address": null, "ZoneDist1": "R3-2", "ZoneDist2": null, "ZoneDist3": null, "ZoneDist4": null, "Overlay1": null, "Overlay2": null, "SPDist1": null, "SPDist2": null, "SPDist3": null, "LtdHeight": null, "SplitZone": "N", "BldgClass": null, "LandUse": null, "Easements": 0, "OwnerType": null, "OwnerName": null, "LotArea": 0, "BldgArea": 0, "ComArea": 0, "ResArea": 0, "OfficeArea": 0, "RetailArea": 0, "GarageArea": 0, "StrgeArea": 0, "FactryArea": 0, "OtherArea": 0, "AreaSource": null, "NumBldgs": 0, "NumFloors": 0.0, "UnitsRes": 0, "UnitsTotal": 0, "LotFront": 0.0, "LotDepth": 0.0, "BldgFront": 0.0, "BldgDepth": 0.0, "Ext": null, "ProxCode": null, "IrrLotCode": null, "LotType": null, "BsmtCode": null, "AssessLand": 0.0, "AssessTot": 0.0, "ExemptTot": 0.0, "YearBuilt": 0, "YearAlter1": 0, "YearAlter2": 0, "HistDist": null, "Landmark": null, "BuiltFAR": 0.0, "ResidFAR": 0.75, "CommFAR": 0.0, "FacilFAR": 1.0, "BoroCode": 4, "BBL": 4039071109.9999995, "CondoNo": 0, "Tract2010": "064102", "XCoord": 1024778, "YCoord": 195898, "ZoneMap": "14b", "ZMCode": null, "Sanborn": null, "TaxMap": null, "EDesigNum": null, "APPBBL": 0.0, "APPDate": null, "PLUTOMapID": "3", "FIRM07_FLA": null, "PFIRM15_FL": null, "Version": "25v4", "DCPEdited": null, "Latitude": 40.7042793, "Longitude": -73.8538265, "Notes": null, "Shape_Leng": 0.0, "Shape_Area": 2711.8456431999998 }, "geometry": { "type": "MultiPolygon", "coordinates": [ [ [ [ -73.853809073064198, 40.704164383068701 ], [ -73.853953854396153, 40.704341514986893 ], [ -73.853844243403259, 40.704392833599144 ], [ -73.85369945994114, 40.70421570162501 ], [ -73.853809073064198, 40.704164383068701 ] ] ] ] } },
{ "type": "Feature", "properties": { "Borough": "QN", "Block": 3750, "Lot": 60, "CD": 405, "BCT2020": "4056100", "BCTCB2020": "40561001000", "CT2010": "561", "CB2010": "1000", "SchoolDist": "24", "Council": 32, "ZipCode": 11385, "FireComp": "E286", "PolicePrct": 104, "HealthCent": 46, "HealthArea": 2400, "Sanitboro": "4", "SanitDistr": "05", "SanitSub": "4C", "Address": "73-01 MYRTLE AVENUE", "ZoneDist1": "R3-2", "ZoneDist2": null, "ZoneDist3": null, "ZoneDist4": null, "Overlay1": null, "Overlay2": null, "SPDist1": null, "SPDist2": null, "SPDist3": null, "LtdHeight": null, "SplitZone": "N", "BldgClass": "Z8", "LandUse": "09", "Easements": 0, "OwnerType": "X", "OwnerName": "MT LEBANON CEMETARY", "LotArea": 7405200, "BldgArea": 21972, "ComArea": 21972, "ResArea": 0, "OfficeArea": 3620, "RetailArea": 0, "GarageArea": 0, "StrgeArea": 0, "FactryArea": 0, "OtherArea": 18352, "AreaSource": "2", "NumBldgs": 11, "NumFloors": 2.0, "UnitsRes": 0, "UnitsTotal": 1, "LotFront": 338.83, "LotDepth": 692.0, "BldgFront": 25.0, "BldgDepth": 40.0, "Ext": "N", "ProxCode": "0", "IrrLotCode": "Y", "LotType": "5", "BsmtCode": "0", "AssessLand": 14995350.0, "AssessTot": 19115100.0, "ExemptTot": 19115100.0, "YearBuilt": 1931, "YearAlter1": 0, "YearAlter2": 0, "HistDist": null, "Landmark": null, "BuiltFAR": 0.0, "ResidFAR": 0.75, "CommFAR": 0.0, "FacilFAR": 1.0, "BoroCode": 4, "BBL": 4037500059.9999995, "CondoNo": 0, "Tract2010": "0561", "XCoord": 1018602, "YCoord": 193946, "ZoneMap": "13d", "ZMCode": null, "Sanborn": "403 086", "TaxMap": "41903", "EDesigNum": null, "APPBBL": 0.0, "APPDate": null, "PLUTOMapID": "1", "FIRM07_FLA": null, "PFIRM15_FL": null, "Version": "25v4", "DCPEdited": null, "Latitude": 40.698947, "Longitude": -73.8761131, "Notes": null, "Shape_Leng": 0.0, "Shape_Area": 7286109.3212099997 }, "geometry": { "type": "MultiPolygon", "coordinates": [ [ [ [ -73.869567223824546, 40.70164360865332 ], [ -73.868959341623764, 40.699316086037562 ], [ -73.869259039080319, 40.699121825762312 ], [ -73.870595492805606, 40.697824151972767 ], [ -73.873034602389254, 40.697387595892728 ], [ -73.873236130769811, 40.697342623416709 ], [ -73.873302549340082, 40.697325724745461 ], [ -73.873430300940157, 40.697287632403217 ], [ -73.873632175610325, 40.69721829085352 ], [ -73.87377167662585, 40.697157222772681 ], [ -73.873886695086128, 40.697096929214915 ], [ -73.874004391313065, 40.697036347506128 ], [ -73.874120958344776, 40.696957787602884 ], [ -73.874222311005695, 40.696885345183965 ], [ -73.874319167696925, 40.696814089087724 ], [ -73.874396623254441, 40.696731836350345 ], [ -73.875479729119789, 40.695775121854339 ], [ -73.875787506412578, 40.695482709116149 ], [ -73.875850699103509, 40.695427972203554 ], [ -73.875885093439408, 40.695399701756195 ], [ -73.875965683236672, 40.695315493594386 ], [ -73.875991723804262, 40.695276813152802 ], [ -73.876008261409879, 40.695244545835479 ], [ -73.876020635939142, 40.69521012896589 ], [ -73.87605132532623, 40.695124799811239 ], [ -73.876096724516344, 40.695007696533203 ], [ -73.87613820579773, 40.694920034061752 ], [ -73.876181458105535, 40.694862975557221 ], [ -73.876198056323432, 40.694839981729217 ], [ -73.87626401557776, 40.694762203481858 ], [ -73.876336033452645, 40.694669808246005 ], [ -73.876379511971336, 40.69461499854075 ], [ -73.876403919358467, 40.694592835215836 ], [ -73.876430395222741, 40.694573108217647 ], [ -73.87647867442314, 40.694542645382938 ], [ -73.876502266080379, 40.694529131508524 ], [ -73.876552728055486, 40.694504409024304 ], [ -73.876844719071855, 40.694376517218963 ], [ -73.8772366414088, 40.694204619856436 ], [ -73.877313282657752, 40.694178062712425 ], [ -73.877391350160565, 40.694144068850306 ], [ -73.877455120194554, 40.694111133058058 ], [ -73.877525782778633, 40.694067341735796 ], [ -73.877578783876785, 40.694028597799281 ], [ -73.877640341706439, 40.693975475485317 ], [ -73.877678227713147, 40.693937160317027 ], [ -73.87772023694427, 40.693887867717699 ], [ -73.877748433605703, 40.693849343187217 ], [ -73.877777350311334, 40.693804034030798 ], [ -73.87779703133495, 40.693766556731866 ], [ -73.877819880589115, 40.693715013159334 ], [ -73.877835409846455, 40.693670539831231 ], [ -73.877849321333187, 40.693619310016096 ], [ -73.877858290692245, 40.69356042601715 ], [ -73.877859779314818, 40.693526704307004 ], [ -73.877861668708576, 40.693482176905512 ], [ -73.877884504611686, 40.694103237841041 ], [ -73.877889447381477, 40.694237679713019 ], [ -73.878500257696132, 40.695106481522025 ], [ -73.879375445286826, 40.69635128206771 ], [ -73.880430382149555, 40.69625220423422 ], [ -73.881226189992205, 40.696845840238794 ], [ -73.881442153422796, 40.696147813220172 ], [ -73.881755671600757, 40.696116760543781 ], [ -73.882597503225767, 40.696033377155196 ], [ -73.882947051640755, 40.696954478620867 ], [ -73.884149030611326, 40.700121630863919 ], [ -73.884162820607457, 40.700157965098235 ], [ -73.88270427722658, 40.700624655558862 ], [ -73.882632366204007, 40.70064766494837 ], [ -73.882443085930134, 40.700412021010102 ], [ -73.882267067747435, 40.700192888629083 ], [ -73.882184507064437, 40.700090104262969 ], [ -73.881728973207629, 40.699522977667876 ], [ -73.881135679203823, 40.699744892842048 ], [ -73.880977965359463, 40.699803881621683 ], [ -73.880646597625912, 40.699927823882462 ], [ -73.880316115580868, 40.700051432975712 ], [ -73.880155591794619, 40.700111471240227 ], [ -73.879828961755592, 40.700233639471129 ], [ -73.879498011384257, 40.700357418567584 ], [ -73.879349269537556, 40.700413051112946 ], [ -73.879015543064583, 40.700537866896966 ], [ -73.878681352458656, 40.700662855990821 ], [ -73.878524602831078, 40.700721480343411 ], [ -73.878196780563229, 40.70084408666812 ], [ -73.877861846798027, 40.700969349009341 ], [ -73.877709524082121, 40.701026315538904 ], [ -73.87737327890251, 40.701152068577123 ], [ -73.877236748203032, 40.701203128657774 ], [ -73.87717738100018, 40.701225330337422 ], [ -73.877046200755601, 40.701274389560346 ], [ -73.876780778851, 40.701373652435187 ], [ -73.876649592084959, 40.701422712955484 ], [ -73.876518403913551, 40.701471774246137 ], [ -73.876387216761387, 40.701520834550649 ], [ -73.876084439174079, 40.701634064860734 ], [ -73.876153551899392, 40.701704363980227 ], [ -73.876265892421031, 40.701818628406578 ], [ -73.876403084336758, 40.701958171646616 ], [ -73.87663288829097, 40.70219191125323 ], [ -73.87584400200933, 40.702256546213867 ], [ -73.869279173318006, 40.702794195835772 ], [ -73.86904635929352, 40.701779095502623 ], [ -73.869567223824546, 40.70164360865332 ] ] ] ] } },
{ "type": "Feature", "properties": { "Borough": "QN", "Block": 3866, "Lot": 15, "CD": 405, "BCT2020": "4063900", "BCTCB2020": "40639002004", "CT2010": "639", "CB2010": "2006", "SchoolDist": "24", "Council": 32, "ZipCode": 11385, "FireComp": "E319", "PolicePrct": 104, "HealthCent": 46, "HealthArea": 1810, "Sanitboro": "4", "SanitDistr": "05", "SanitSub": "4E", "Address": "82-64 88 PLACE", "ZoneDist1": "R3-2", "ZoneDist2": null, "ZoneDist3": null, "ZoneDist4": null, "Overlay1": null, "Overlay2": null, "SPDist1": null, "SPDist2": null, "SPDist3": null, "LtdHeight": null, "SplitZone": "N", "BldgClass": "B1", "LandUse": "01", "Easements": 0, "OwnerType": null, "OwnerName": "SERRANO, EDWIN", "LotArea": 4404, "BldgArea": 2160, "ComArea": 0, "ResArea": 2160, "OfficeArea": 0, "RetailArea": 0, "GarageArea": 0, "StrgeArea": 0, "FactryArea": 0, "OtherArea": 0, "AreaSource": "2", "NumBldgs": 2, "NumFloors": 2.0, "UnitsRes": 2, "UnitsTotal": 2, "LotFront": 26.67, "LotDepth": 165.17, "BldgFront": 20.0, "BldgDepth": 52.0, "Ext": "G", "ProxCode": "2", "IrrLotCode": "N", "LotType": "5", "BsmtCode": "2", "AssessLand": 20640.0, "AssessTot": 67500.0, "ExemptTot": 0.0, "YearBuilt": 1910, "YearAlter1": 0, "YearAlter2": 0, "HistDist": null, "Landmark": null, "BuiltFAR": 0.49, "ResidFAR": 0.75, "CommFAR": 0.0, "FacilFAR": 1.0, "BoroCode": 4, "BBL": 4038660015.0000005, "CondoNo": 0, "Tract2010": "0639", "XCoord": 1023490, "YCoord": 195183, "ZoneMap": "14b", "ZMCode": null, "Sanborn": "403 100", "TaxMap": "42003", "EDesigNum": null, "APPBBL": 0.0, "APPDate": null, "PLUTOMapID": "1", "FIRM07_FLA": null, "PFIRM15_FL": null, "Version": "25v4", "DCPEdited": null, "Latitude": 40.702322, "Longitude": -73.8584778, "Notes": null, "Shape_Leng": 0.0, "Shape_Area": 4538.0549367000003 }, "geometry": { "type": "MultiPolygon", "coordinates": [ [ [ [ -73.858164152327234, 40.702326292957906 ], [ -73.858178206878705, 40.702254122540758 ], [ -73.858792808651586, 40.702321270223138 ], [ -73.858787196759422, 40.702372526805853 ], [ -73.858729767441005, 40.702388089998898 ], [ -73.858164152327234, 40.702326292957906 ] ] ] ] } },
{ "type": "Feature", "properties": { "Borough": "QN", "Block": 3907, "Lot": 1125, "CD": 482, "BCT2020": "4064102", "BCTCB2020": "40641021005", "CT2010": "641.02", "CB2010": "1006", "SchoolDist": "24", "Council": 32, "ZipCode": 11385, "FireComp": "L143", "PolicePrct": 104, "HealthCent": 46, "HealthArea": 1810, "Sanitboro": null, "SanitDistr": null, "SanitSub": null, "Address": "MYRTLE AVENUE", "ZoneDist1": "R3-2", "ZoneDist2": null, "ZoneDist3": null, "ZoneDist4": null, "Overlay1": null, "Overlay2": null, "SPDist1": null, "SPDist2": null, "SPDist3": null, "LtdHeight": null, "SplitZone": "N", "BldgClass": "U7", "LandUse": "07", "Easements": 1, "OwnerType": "C", "OwnerName": "NYC DEPARTMENT OF PARKS AND RECREATION", "LotArea": 120000, "BldgArea": 0, "ComArea": 0, "ResArea": 0, "OfficeArea": 0, "RetailArea": 0, "GarageArea": 0, "StrgeArea": 0, "FactryArea": 0, "OtherArea": 0, "AreaSource": "7", "NumBldgs": 0, "NumFloors": 0.0, "UnitsRes": 0, "UnitsTotal": 0, "LotFront": 143.08, "LotDepth": 250.0, "BldgFront": 0.0, "BldgDepth": 0.0, "Ext": "N", "ProxCode": "0", "IrrLotCode": "Y", "LotType": "5", "BsmtCode": "0", "AssessLand": 0.0, "AssessTot": 0.0, "ExemptTot": 0.0, "YearBuilt": 0, "YearAlter1": 0, "YearAlter2": 0, "HistDist": null, "Landmark": null, "BuiltFAR": 0.0, "ResidFAR": 0.75, "CommFAR": 0.0, "FacilFAR": 1.0, "BoroCode": 4, "BBL": 4039071125.0, "CondoNo": 0, "Tract2010": "064102", "XCoord": 1024870, "YCoord": 195681, "ZoneMap": "14b", "ZMCode": null, "Sanborn": "404 028", "TaxMap": "42003", "EDesigNum": null, "APPBBL": 0.0, "APPDate": null, "PLUTOMapID": "1", "FIRM07_FLA": null, "PFIRM15_FL": null, "Version": "25v4", "DCPEdited": "t", "Latitude": 40.7036826, "Longitude": -73.8534978, "Notes": null, "Shape_Leng": 0.0, "Shape_Area": 125150.890165 }, "geometry": { "type": "MultiPolygon", "coordinates": [ [ [ [ -73.853844243403259, 40.704392833599144 ], [ -73.853953854396153, 40.704341514986893 ], [ -73.853809073064198, 40.704164383068701 ], [ -73.85369945994114, 40.70421570162501 ], [ -73.853497937383494, 40.703969153140079 ], [ -73.852166546532402, 40.702340225496826 ], [ -73.852715533915472, 40.702400392643781 ], [ -73.852961593192759, 40.702708382852634 ], [ -73.853214751481858, 40.703025254379085 ], [ -73.853328958361104, 40.703168204246261 ], [ -73.853655167695194, 40.70357650411399 ], [ -73.85373411209892, 40.703675313329569 ], [ -73.853815211618482, 40.703776821361537 ], [ -73.853872613714472, 40.703848666873263 ], [ -73.854038893110044, 40.704056783794279 ], [ -73.853937517397711, 40.704104245320607 ], [ -73.85407992868646, 40.704282488011124 ], [ -73.854181301049692, 40.704235026357253 ], [ -73.854311401695952, 40.704397861511644 ], [ -73.854351992317831, 40.704448665824401 ], [ -73.854415031550346, 40.704527566523119 ], [ -73.85472804079771, 40.704919323149127 ], [ -73.854758004366232, 40.704956826739497 ], [ -73.854514518742988, 40.705212851444202 ], [ -73.85398340428128, 40.704563086529468 ], [ -73.853844243403259, 40.704392833599144 ] ] ] ] } },
{ "type": "Feature", "properties": { "Borough": "QN", "Block": 3907, "Lot": 1400, "CD": 482, "BCT2020": "4064102", "BCTCB2020": "40641021004", "CT2010": "641.02", "CB2010": "1007", "SchoolDist": "24", "Council": 32, "ZipCode": 11375, "FireComp": "L143", "PolicePrct": 102, "HealthCent": 46, "HealthArea": 1810, "Sanitboro": null, "SanitDistr": null, "SanitSub": null, "Address": "UNION TURNPIKE", "ZoneDist1": "R3-2", "ZoneDist2": null, "ZoneDist3": null, "ZoneDist4": null, "Overlay1": null, "Overlay2": null, "SPDist1": null, "SPDist2": null, "SPDist3": null, "LtdHeight": null, "SplitZone": "N", "BldgClass": "U7", "LandUse": "07", "Easements": 1, "OwnerType": "X", "OwnerName": "MTA - LIRR", "LotArea": 268562, "BldgArea": 0, "ComArea": 0, "ResArea": 0, "OfficeArea": 0, "RetailArea": 0, "GarageArea": 0, "StrgeArea": 0, "FactryArea": 0, "OtherArea": 0, "AreaSource": "7", "NumBldgs": 0, "NumFloors": 0.0, "UnitsRes": 0, "UnitsTotal": 0, "LotFront": 80.42, "LotDepth": 3200.5, "BldgFront": 0.0, "BldgDepth": 0.0, "Ext": "N", "ProxCode": "0", "IrrLotCode": "Y", "LotType": "5", "BsmtCode": "0", "AssessLand": 0.0, "AssessTot": 0.0, "ExemptTot": 0.0, "YearBuilt": 0, "YearAlter1": 0, "YearAlter2": 0, "HistDist": null, "Landmark": null, "BuiltFAR": 0.0, "ResidFAR": 0.75, "CommFAR": 0.0, "FacilFAR": 1.0, "BoroCode": 4, "BBL": 4039071400.0, "CondoNo": 0, "Tract2010": "064102", "XCoord": 1025258, "YCoord": 196982, "ZoneMap": "14b", "ZMCode": null, "Sanborn": "404 028", "TaxMap": "42003", "EDesigNum": null, "APPBBL": 0.0, "APPDate": null, "PLUTOMapID": "1", "FIRM07_FLA": null, "PFIRM15_FL": null, "Version": "25v4", "DCPEdited": "t", "Latitude": 40.7072518, "Longitude": -73.8520905, "Notes": null, "Shape_Leng": 0.0, "Shape_Area": 267104.09314399998 }, "geometry": { "type": "MultiPolygon", "coordinates": [ [ [ [ -73.841649959958346, 40.704649227394015 ], [ -73.840530531639203, 40.704214725838696 ], [ -73.840533230457595, 40.704192589624867 ], [ -73.83862279204304, 40.703414252626104 ], [ -73.838836893646999, 40.703299995177396 ], [ -73.840237849182401, 40.703863412438892 ], [ -73.840237797483809, 40.703884973309989 ], [ -73.842576293966104, 40.704833947231009 ], [ -73.843420544956317, 40.705114267677523 ], [ -73.843868604418844, 40.705260114237355 ], [ -73.844263144130622, 40.705384381439686 ], [ -73.84476730500991, 40.705510786364471 ], [ -73.84633270676639, 40.705835984545914 ], [ -73.847269975968601, 40.706029348548746 ], [ -73.847990413299129, 40.706196640363316 ], [ -73.850643903943165, 40.706775280784143 ], [ -73.851564054808875, 40.706975919447835 ], [ -73.851516876530724, 40.706992780984621 ], [ -73.851584782238547, 40.707011484058377 ], [ -73.852555348888799, 40.707278787903796 ], [ -73.852297962754719, 40.707361622563319 ], [ -73.851413125326062, 40.707117230902774 ], [ -73.85126725821722, 40.707076940776929 ], [ -73.851239495855353, 40.707091262612103 ], [ -73.850437230385367, 40.706920883368753 ], [ -73.848807866595692, 40.706574833587304 ], [ -73.84718768404295, 40.706200133859738 ], [ -73.844688065766064, 40.705681252524393 ], [ -73.844220032650455, 40.705567553809651 ], [ -73.843614283427527, 40.705394400607773 ], [ -73.843066626943042, 40.705211309746396 ], [ -73.842378294720774, 40.704960348331589 ], [ -73.841649959958346, 40.704649227394015 ] ] ] ] } },
{ "type": "Feature", "properties": { "Borough": "QN", "Block": 3907, "Lot": 1425, "CD": 482, "BCT2020": "4064102", "BCTCB2020": "40641021001", "CT2010": "641.02", "CB2010": "1001", "SchoolDist": "24", "Council": 32, "ZipCode": 11385, "FireComp": "L143", "PolicePrct": 102, "HealthCent": 46, "HealthArea": 1810, "Sanitboro": null, "SanitDistr": null, "SanitSub": null, "Address": "UNION TURNPIKE", "ZoneDist1": "PARK", "ZoneDist2": "R3-2", "ZoneDist3": null, "ZoneDist4": null, "Overlay1": null, "Overlay2": null, "SPDist1": null, "SPDist2": null, "SPDist3": null, "LtdHeight": null, "SplitZone": "Y", "BldgClass": "Q2", "LandUse": "09", "Easements": 0, "OwnerType": "C", "OwnerName": "NYC DEPARTMENT OF PARKS AND RECREATION", "LotArea": 4126000, "BldgArea": 2193, "ComArea": 2193, "ResArea": 0, "OfficeArea": 0, "RetailArea": 0, "GarageArea": 0, "StrgeArea": 0, "FactryArea": 0, "OtherArea": 2193, "AreaSource": "2", "NumBldgs": 1, "NumFloors": 1.0, "UnitsRes": 0, "UnitsTotal": 0, "LotFront": 0.0, "LotDepth": 0.0, "BldgFront": 27.0, "BldgDepth": 47.0, "Ext": "N", "ProxCode": "0", "IrrLotCode": "Y", "LotType": "5", "BsmtCode": "0", "AssessLand": 46417500.0, "AssessTot": 54696150.0, "ExemptTot": 54696150.0, "YearBuilt": 1931, "YearAlter1": 0, "YearAlter2": 0, "HistDist": null, "Landmark": null, "BuiltFAR": 0.0, "ResidFAR": 0.0, "CommFAR": 0.0, "FacilFAR": 0.0, "BoroCode": 4, "BBL": 4039071425.0, "CondoNo": 0, "Tract2010": "064102", "XCoord": 1027796, "YCoord": 196800, "ZoneMap": "14b", "ZMCode": null, "Sanborn": "404 028", "TaxMap": "42003", "EDesigNum": null, "APPBBL": 0.0, "APPDate": null, "PLUTOMapID": "1", "FIRM07_FLA": null, "PFIRM15_FL": null, "Version": "25v4", "DCPEdited": "t", "Latitude": 40.7067401, "Longitude": -73.8429375, "Notes": null, "Shape_Leng": 0.0, "Shape_Area": 4138492.3333800002 }, "geometry": { "type": "MultiPolygon", "coordinates": [ [ [ [ -73.838361455054297, 40.708350246224661 ], [ -73.837310088598386, 40.707925759877313 ], [ -73.837354111440447, 40.70786097177735 ], [ -73.838092212960063, 40.70677471902696 ], [ -73.83817521188007, 40.706652567924323 ], [ -73.838216007280479, 40.706570224030749 ], [ -73.838254280382216, 40.706480295999711 ], [ -73.838283389895039, 40.706400530795833 ], [ -73.838297489809918, 40.706330077492751 ], [ -73.8383014228165, 40.706257616090923 ], [ -73.838294706070855, 40.706168442470528 ], [ -73.838278630043874, 40.706037507016859 ], [ -73.838255260375618, 40.705951351872258 ], [ -73.838219258436766, 40.705877500656541 ], [ -73.838152575978924, 40.705747391816352 ], [ -73.8372708868296, 40.704422633115115 ], [ -73.837253380182446, 40.704389128176345 ], [ -73.83724064726934, 40.70435016661682 ], [ -73.83723558507269, 40.704315804031822 ], [ -73.8372364621965, 40.704277382187612 ], [ -73.837242629748914, 40.70424487159778 ], [ -73.837250813505136, 40.704220122718617 ], [ -73.837263374602756, 40.704193269191343 ], [ -73.837283727686994, 40.704161584660937 ], [ -73.837308307258553, 40.704132885849191 ], [ -73.837330664164995, 40.704112085972078 ], [ -73.837355083532159, 40.704093293517687 ], [ -73.837410442651603, 40.704061226199343 ], [ -73.83862279204304, 40.703414252626104 ], [ -73.840533230457595, 40.704192589624867 ], [ -73.840530531639203, 40.704214725838696 ], [ -73.841649959958346, 40.704649227394015 ], [ -73.842378294720774, 40.704960348331589 ], [ -73.843066626943042, 40.705211309746396 ], [ -73.843614283427527, 40.705394400607773 ], [ -73.844220032650455, 40.705567553809651 ], [ -73.844688065766064, 40.705681252524393 ], [ -73.84718768404295, 40.706200133859738 ], [ -73.848807866595692, 40.706574833587304 ], [ -73.850437230385367, 40.706920883368753 ], [ -73.851239495855353, 40.707091262612103 ], [ -73.85126725821722, 40.707076940776929 ], [ -73.851413125326062, 40.707117230902774 ], [ -73.852297962754719, 40.707361622563319 ], [ -73.849906832692994, 40.708131130956097 ], [ -73.8482989170259, 40.708648548550514 ], [ -73.847917285587158, 40.708282862683667 ], [ -73.847478115876783, 40.707862036573509 ], [ -73.8465428599673, 40.708218609663945 ], [ -73.846530197234259, 40.708147035423757 ], [ -73.845907271474019, 40.708273333022035 ], [ -73.844125463343005, 40.708634571660049 ], [ -73.842499855025437, 40.708964114136663 ], [ -73.842388676820363, 40.708986651989896 ], [ -73.838361455054297, 40.708350246224661 ] ] ] ] } },
{ "type": "Feature", "properties": { "Borough": "QN", "Block": 3750, "Lot": 400, "CD": 405, "BCT2020": "4056100", "BCTCB2020": "40561001007", "CT2010": "561", "CB2010": "1001", "SchoolDist": "24", "Council": 32, "ZipCode": 11385, "FireComp": "E286", "PolicePrct": 104, "HealthCent": 46, "HealthArea": 2400, "Sanitboro": "4", "SanitDistr": "05", "SanitSub": "4C", "Address": "JACKIE ROBINSON PKWY", "ZoneDist1": "R3-2", "ZoneDist2": null, "ZoneDist3": null, "ZoneDist4": null, "Overlay1": null, "Overlay2": null, "SPDist1": null, "SPDist2": null, "SPDist3": null, "LtdHeight": null, "SplitZone": "N", "BldgClass": "Z8", "LandUse": "09", "Easements": 0, "OwnerType": "X", "OwnerName": "CYPRESS HILLS CEMETER", "LotArea": 2199780, "BldgArea": 38157, "ComArea": 38157, "ResArea": 0, "OfficeArea": 38157, "RetailArea": 0, "GarageArea": 0, "StrgeArea": 0, "FactryArea": 0, "OtherArea": 0, "AreaSource": "2", "NumBldgs": 1, "NumFloors": 3.0, "UnitsRes": 0, "UnitsTotal": 0, "LotFront": 213.83, "LotDepth": 997.83, "BldgFront": 79.0, "BldgDepth": 161.0, "Ext": "N", "ProxCode": "0", "IrrLotCode": "Y", "LotType": "5", "BsmtCode": "0", "AssessLand": 4504050.0, "AssessTot": 6009750.0, "ExemptTot": 6009750.0, "YearBuilt": 1931, "YearAlter1": 0, "YearAlter2": 0, "HistDist": null, "Landmark": null, "BuiltFAR": 0.02, "ResidFAR": 0.75, "CommFAR": 0.0, "FacilFAR": 1.0, "BoroCode": 4, "BBL": 4037500400.0000005, "CondoNo": 0, "Tract2010": "0561", "XCoord": 1019124, "YCoord": 192416, "ZoneMap": "13d", "ZMCode": "Y", "Sanborn": "499 999", "TaxMap": "41903", "EDesigNum": null, "APPBBL": 0.0, "APPDate": null, "PLUTOMapID": "1", "FIRM07_FLA": null, "PFIRM15_FL": null, "Version": "25v4", "DCPEdited": null, "Latitude": 40.6947455, "Longitude": -73.8742385, "Notes": null, "Shape_Leng": 0.0, "Shape_Area": 2167867.4755699998 }, "geometry": { "type": "MultiPolygon", "coordinates": [ [ [ [ -73.879332684023836, 40.691276773162087 ], [ -73.879711042230639, 40.691082227728238 ], [ -73.879925147814788, 40.691095656736863 ], [ -73.880590539312308, 40.691243732484232 ], [ -73.880562897895203, 40.691326468132473 ], [ -73.880750872671157, 40.691386986908888 ], [ -73.880827519405031, 40.691411663925209 ], [ -73.881055064923103, 40.691499214268951 ], [ -73.881225502866315, 40.691576408692065 ], [ -73.881273164404348, 40.691597994637888 ], [ -73.881346668165392, 40.691635974964441 ], [ -73.881498294998707, 40.691714320220839 ], [ -73.881742895480883, 40.691857724032232 ], [ -73.881883521394627, 40.691941011173441 ], [ -73.882014020972022, 40.692028132958534 ], [ -73.882022869975586, 40.692037681204681 ], [ -73.882028858706931, 40.692045701881376 ], [ -73.882032323563195, 40.6920512247018 ], [ -73.882035191429935, 40.69205653432752 ], [ -73.882038314225682, 40.692063494004685 ], [ -73.882041686869087, 40.692073734525678 ], [ -73.882043400807362, 40.692081942646709 ], [ -73.882044165228095, 40.692088530707906 ], [ -73.882044352947347, 40.692097413575468 ], [ -73.882043295298217, 40.692108071784475 ], [ -73.88204215547205, 40.692113743897046 ], [ -73.882041077577085, 40.692117834719639 ], [ -73.882038761858183, 40.692124717618803 ], [ -73.88203623853525, 40.692130658451617 ], [ -73.882032886047497, 40.692137152184394 ], [ -73.88203036447922, 40.692141355888424 ], [ -73.882025562060022, 40.692148268694226 ], [ -73.882020138981133, 40.692154863872076 ], [ -73.882014494669079, 40.692160764606164 ], [ -73.882008739175745, 40.692166015851804 ], [ -73.882001173445943, 40.692172005468464 ], [ -73.881993860291772, 40.692177001203937 ], [ -73.881981073717498, 40.692184246224272 ], [ -73.881973586892812, 40.692187757721989 ], [ -73.881963720181076, 40.692191682903506 ], [ -73.881954086770392, 40.692194824757841 ], [ -73.881945015456765, 40.692197218007742 ], [ -73.881916406372, 40.692199823507316 ], [ -73.87852510333461, 40.692508639671203 ], [ -73.878322360254529, 40.692534834529098 ], [ -73.878079075004067, 40.692589561093499 ], [ -73.877911723380635, 40.692659048952649 ], [ -73.87778355577025, 40.692738596363895 ], [ -73.877665832434744, 40.692836703500035 ], [ -73.877564086463977, 40.692975255233321 ], [ -73.877508112230359, 40.693130888821258 ], [ -73.87749770485182, 40.69334368235539 ], [ -73.87750333539995, 40.693467123442908 ], [ -73.877503126476157, 40.693495803696436 ], [ -73.877500882736271, 40.693525068828194 ], [ -73.877497242788621, 40.69355054950254 ], [ -73.877491948490899, 40.693576285000944 ], [ -73.877480085913092, 40.693617211464918 ], [ -73.877471460026982, 40.69364029856068 ], [ -73.877462889931266, 40.693660119602136 ], [ -73.877450022172283, 40.693685979457264 ], [ -73.877428098684575, 40.693722940127799 ], [ -73.877411244454123, 40.693747224244262 ], [ -73.877393604123156, 40.693769884000325 ], [ -73.877372674454833, 40.693793929596573 ], [ -73.877352660828535, 40.69381461643718 ], [ -73.877322351513669, 40.693842510779795 ], [ -73.877300221071806, 40.693860718073765 ], [ -73.877272670165368, 40.693881256386561 ], [ -73.877242114309752, 40.693901661725228 ], [ -73.877210777146118, 40.693920345405068 ], [ -73.87717789484266, 40.693937804555347 ], [ -73.877131592397561, 40.693959117903788 ], [ -73.877083990424183, 40.693977498708222 ], [ -73.876656963331797, 40.694129869042094 ], [ -73.876330448451156, 40.694246372230296 ], [ -73.876257960618062, 40.694272237052061 ], [ -73.876231872289566, 40.694285980514501 ], [ -73.876206289949423, 40.694300578188191 ], [ -73.876181459639255, 40.69431789714541 ], [ -73.876158885700292, 40.694335135620889 ], [ -73.876137892454452, 40.694357452912875 ], [ -73.875985101773566, 40.694519898171997 ], [ -73.875893912116538, 40.694605408800662 ], [ -73.8757624253318, 40.694783468271424 ], [ -73.875701754336887, 40.6949517210276 ], [ -73.875676848965995, 40.695026200706195 ], [ -73.875643797212845, 40.695125036733955 ], [ -73.875637053243892, 40.695139064854544 ], [ -73.875629470784716, 40.695152232035774 ], [ -73.875620034132297, 40.69516616621916 ], [ -73.875614206098405, 40.69517377286752 ], [ -73.875596712395705, 40.695193373367758 ], [ -73.875552366090318, 40.695229569257144 ], [ -73.875383392966512, 40.695358333215275 ], [ -73.87522119104041, 40.695498683080331 ], [ -73.875148027351827, 40.695569265945394 ], [ -73.874085541220978, 40.696594248891593 ], [ -73.873919718237687, 40.696729407822076 ], [ -73.873690504429533, 40.696870161949064 ], [ -73.873518360730358, 40.696953528486283 ], [ -73.873270647005668, 40.69704492153511 ], [ -73.873022899967424, 40.697111163524603 ], [ -73.872771006140283, 40.697152311225743 ], [ -73.870445621068484, 40.697579515638772 ], [ -73.868932151899884, 40.695114587528977 ], [ -73.871499851937358, 40.694648625929879 ], [ -73.874000051779262, 40.694219347060987 ], [ -73.878259400389993, 40.691941677592659 ], [ -73.878804737433313, 40.691652501400412 ], [ -73.878963047481491, 40.691568332475846 ], [ -73.879332684023836, 40.691276773162087 ] ] ] ] } },
{ "type": "Feature", "properties": { "Borough": "QN", "Block": 3866, "Lot": 17, "CD": 405, "BCT2020": "4063900", "BCTCB2020": "40639002004", "CT2010": "639", "CB2010": "2006", "SchoolDist": "24", "Council": 32, "ZipCode": 11385, "FireComp": "E319", "PolicePrct": 104, "HealthCent": 46, "HealthArea": 1810, "Sanitboro": "4", "SanitDistr": "05", "SanitSub": "4E", "Address": "82-68 88 PLACE", "ZoneDist1": "R3-2", "ZoneDist2": null, "ZoneDist3": null, "ZoneDist4": null, "Overlay1": null, "Overlay2": null, "SPDist1": null, "SPDist2": null, "SPDist3": null, "LtdHeight": null, "SplitZone": "N", "BldgClass": "B1", "LandUse": "01", "Easements": 0, "OwnerType": null, "OwnerName": "EILEEN POLIZZI", "LotArea": 3813, "BldgArea": 2160, "ComArea": 0, "ResArea": 2160, "OfficeArea": 0, "RetailArea": 0, "GarageArea": 0, "StrgeArea": 0, "FactryArea": 0, "OtherArea": 0, "AreaSource": "2", "NumBldgs": 2, "NumFloors": 2.0, "UnitsRes": 2, "UnitsTotal": 2, "LotFront": 23.08, "LotDepth": 165.17, "BldgFront": 20.0, "BldgDepth": 52.0, "Ext": "G", "ProxCode": "2", "IrrLotCode": "N", "LotType": "5", "BsmtCode": "2", "AssessLand": 17520.0, "AssessTot": 67920.0, "ExemptTot": 1420.0, "YearBuilt": 1910, "YearAlter1": 0, "YearAlter2": 0, "HistDist": null, "Landmark": null, "BuiltFAR": 0.57, "ResidFAR": 0.75, "CommFAR": 0.0, "FacilFAR": 1.0, "BoroCode": 4, "BBL": 4038660016.9999995, "CondoNo": 0, "Tract2010": "0639", "XCoord": 1023486, "YCoord": 195160, "ZoneMap": "14b", "ZMCode": null, "Sanborn": "403 100", "TaxMap": "42003", "EDesigNum": null, "APPBBL": 0.0, "APPDate": null, "PLUTOMapID": "1", "FIRM07_FLA": null, "PFIRM15_FL": null, "Version": "25v4", "DCPEdited": null, "Latitude": 40.7022589, "Longitude": -73.8584924, "Notes": null, "Shape_Leng": 0.0, "Shape_Area": 3678.1200276999998 }, "geometry": { "type": "MultiPolygon", "coordinates": [ [ [ [ -73.858178206878705, 40.702254122540758 ], [ -73.858189550483843, 40.702195882456216 ], [ -73.858799244777202, 40.702262493643978 ], [ -73.858792808651586, 40.702321270223138 ], [ -73.858178206878705, 40.702254122540758 ] ] ] ] } },
{ "type": "Feature", "properties": { "Borough": "QN", "Block": 3866, "Lot": 23, "CD": 405, "BCT2020": "4063900", "BCTCB2020": "40639002004", "CT2010": "639", "CB2010": "2006", "SchoolDist": "24", "Council": 32, "ZipCode": 11385, "FireComp": "E319", "PolicePrct": 104, "HealthCent": 46, "HealthArea": 1810, "Sanitboro": "4", "SanitDistr": "05", "SanitSub": "4E", "Address": "82-74 88 PLACE", "ZoneDist1": "R3-2", "ZoneDist2": null, "ZoneDist3": null, "ZoneDist4": null, "Overlay1": null, "Overlay2": null, "SPDist1": null, "SPDist2": null, "SPDist3": null, "LtdHeight": null, "SplitZone": "N", "BldgClass": "A1", "LandUse": "01", "Easements": 0, "OwnerType": null, "OwnerName": "SCHWAB, CRAIG", "LotArea": 4002, "BldgArea": 1026, "ComArea": 0, "ResArea": 1026, "OfficeArea": 0, "RetailArea": 0, "GarageArea": 0, "StrgeArea": 0, "FactryArea": 0, "OtherArea": 0, "AreaSource": "2", "NumBldgs": 1, "NumFloors": 2.0, "UnitsRes": 1, "UnitsTotal": 1, "LotFront": 25.0, "LotDepth": 160.08, "BldgFront": 18.0, "BldgDepth": 25.0, "Ext": "E", "ProxCode": "1", "IrrLotCode": "N", "LotType": "5", "BsmtCode": "2", "AssessLand": 14280.0, "AssessTot": 45660.0, "ExemptTot": 4300.0, "YearBuilt": 1920, "YearAlter1": 0, "YearAlter2": 0, "HistDist": null, "Landmark": null, "BuiltFAR": 0.26, "ResidFAR": 0.75, "CommFAR": 0.0, "FacilFAR": 1.0, "BoroCode": 4, "BBL": 4038660023.0, "CondoNo": 0, "Tract2010": "0639", "XCoord": 1023478, "YCoord": 195085, "ZoneMap": "14b", "ZMCode": null, "Sanborn": "403 100", "TaxMap": "42003", "EDesigNum": null, "APPBBL": 0.0, "APPDate": null, "PLUTOMapID": "1", "FIRM07_FLA": null, "PFIRM15_FL": null, "Version": "25v4", "DCPEdited": null, "Latitude": 40.702053, "Longitude": -73.8585217, "Notes": null, "Shape_Leng": 0.0, "Shape_Area": 4245.7882133000003 }, "geometry": { "type": "MultiPolygon", "coordinates": [ [ [ [ -73.858822346538417, 40.70205149055532 ], [ -73.858814703923073, 40.702121295223584 ], [ -73.858216799173888, 40.702055971048736 ], [ -73.858230269877652, 40.701986803989598 ], [ -73.858822346538417, 40.70205149055532 ] ] ] ] } },
{ "type": "Feature", "properties": { "Borough": "QN", "Block": 3866, "Lot": 27, "CD": 405, "BCT2020": "4063900", "BCTCB2020": "40639002004", "CT2010": "639", "CB2010": "2006", "SchoolDist": "24", "Council": 32, "ZipCode": 11385, "FireComp": "E319", "PolicePrct": 104, "HealthCent": 46, "HealthArea": 1810, "Sanitboro": "4", "SanitDistr": "05", "SanitSub": "4E", "Address": "82-80 88 PLACE", "ZoneDist1": "R3-2", "ZoneDist2": null, "ZoneDist3": null, "ZoneDist4": null, "Overlay1": null, "Overlay2": null, "SPDist1": null, "SPDist2": null, "SPDist3": null, "LtdHeight": null, "SplitZone": "N", "BldgClass": "A1", "LandUse": "01", "Easements": 0, "OwnerType": null, "OwnerName": "THOMAS A MACFARLAND", "LotArea": 3902, "BldgArea": 1344, "ComArea": 0, "ResArea": 1344, "OfficeArea": 0, "RetailArea": 0, "GarageArea": 0, "StrgeArea": 0, "FactryArea": 0, "OtherArea": 0, "AreaSource": "2", "NumBldgs": 2, "NumFloors": 2.0, "UnitsRes": 1, "UnitsTotal": 1, "LotFront": 25.0, "LotDepth": 156.08, "BldgFront": 16.0, "BldgDepth": 38.0, "Ext": "EG", "ProxCode": "1", "IrrLotCode": "N", "LotType": "5", "BsmtCode": "2", "AssessLand": 15420.0, "AssessTot": 49200.0, "ExemptTot": 0.0, "YearBuilt": 1920, "YearAlter1": 0, "YearAlter2": 0, "HistDist": null, "Landmark": null, "BuiltFAR": 0.34, "ResidFAR": 0.75, "CommFAR": 0.0, "FacilFAR": 1.0, "BoroCode": 4, "BBL": 4038660026.9999995, "CondoNo": 0, "Tract2010": "0639", "XCoord": 1023472, "YCoord": 195035, "ZoneMap": "14b", "ZMCode": null, "Sanborn": "403 100", "TaxMap": "42003", "EDesigNum": null, "APPBBL": 0.0, "APPDate": null, "PLUTOMapID": "1", "FIRM07_FLA": null, "PFIRM15_FL": null, "Version": "25v4", "DCPEdited": null, "Latitude": 40.7019158, "Longitude": -73.8585436, "Notes": null, "Shape_Leng": 0.0, "Shape_Area": 4249.3086138 }, "geometry": { "type": "MultiPolygon", "coordinates": [ [ [ [ -73.858243327668688, 40.701919752697911 ], [ -73.858257076941086, 40.701849159562045 ], [ -73.858837556919411, 40.701912579188615 ], [ -73.858829756288699, 40.701983822627206 ], [ -73.858243327668688, 40.701919752697911 ] ] ] ] } },
{ "type": "Feature", "properties": { "Borough": "QN", "Block": 3866, "Lot": 33, "CD": 405, "BCT2020": "4063900", "BCTCB2020": "40639002004", "CT2010": "639", "CB2010": "2006", "SchoolDist": "24", "Council": 32, "ZipCode": 11385, "FireComp": "E319", "PolicePrct": 104, "HealthCent": 46, "HealthArea": 1810, "Sanitboro": "4", "SanitDistr": "05", "SanitSub": "4E", "Address": "82-88 88 PLACE", "ZoneDist1": "R3-2", "ZoneDist2": null, "ZoneDist3": null, "ZoneDist4": null, "Overlay1": null, "Overlay2": null, "SPDist1": null, "SPDist2": null, "SPDist3": null, "LtdHeight": null, "SplitZone": "N", "BldgClass": "B2", "LandUse": "01", "Easements": 0, "OwnerType": null, "OwnerName": "CHAVEZ, ZULEYKA", "LotArea": 3700, "BldgArea": 1760, "ComArea": 0, "ResArea": 1760, "OfficeArea": 0, "RetailArea": 0, "GarageArea": 0, "StrgeArea": 0, "FactryArea": 0, "OtherArea": 0, "AreaSource": "2", "NumBldgs": 2, "NumFloors": 2.0, "UnitsRes": 2, "UnitsTotal": 2, "LotFront": 25.0, "LotDepth": 148.0, "BldgFront": 16.0, "BldgDepth": 52.0, "Ext": "G", "ProxCode": "1", "IrrLotCode": "N", "LotType": "5", "BsmtCode": "2", "AssessLand": 16620.0, "AssessTot": 69960.0, "ExemptTot": 0.0, "YearBuilt": 1920, "YearAlter1": 0, "YearAlter2": 0, "HistDist": null, "Landmark": null, "BuiltFAR": 0.48, "ResidFAR": 0.75, "CommFAR": 0.0, "FacilFAR": 1.0, "BoroCode": 4, "BBL": 4038660033.0, "CondoNo": 0, "Tract2010": "0639", "XCoord": 1023461, "YCoord": 194936, "ZoneMap": "14b", "ZMCode": null, "Sanborn": "403 100", "TaxMap": "42003", "EDesigNum": null, "APPBBL": 0.0, "APPDate": null, "PLUTOMapID": "1", "FIRM07_FLA": null, "PFIRM15_FL": null, "Version": "25v4", "DCPEdited": null, "Latitude": 40.7016441, "Longitude": -73.8585839, "Notes": null, "Shape_Leng": 0.0, "Shape_Area": 3927.1596095999998 }, "geometry": { "type": "MultiPolygon", "coordinates": [ [ [ [ -73.858867128184173, 40.701642491580998 ], [ -73.858859626820063, 40.701710994167932 ], [ -73.858295976329757, 40.701649412754726 ], [ -73.858309196790657, 40.701581534918176 ], [ -73.858867128184173, 40.701642491580998 ] ] ] ] } },
{ "type": "Feature", "properties": { "Borough": "QN", "Block": 3866, "Lot": 35, "CD": 405, "BCT2020": "4063900", "BCTCB2020": "40639002004", "CT2010": "639", "CB2010": "2006", "SchoolDist": "24", "Council": 32, "ZipCode": 11385, "FireComp": "E319", "PolicePrct": 104, "HealthCent": 46, "HealthArea": 1810, "Sanitboro": "4", "SanitDistr": "05", "SanitSub": "4E", "Address": "88 PLACE", "ZoneDist1": "R3-2", "ZoneDist2": null, "ZoneDist3": null, "ZoneDist4": null, "Overlay1": null, "Overlay2": null, "SPDist1": null, "SPDist2": null, "SPDist3": null, "LtdHeight": null, "SplitZone": "N", "BldgClass": "V0", "LandUse": "11", "Easements": 0, "OwnerType": null, "OwnerName": "HENRICH RUECKHEIM", "LotArea": 3644, "BldgArea": 0, "ComArea": 0, "ResArea": 0, "OfficeArea": 0, "RetailArea": 0, "GarageArea": 0, "StrgeArea": 0, "FactryArea": 0, "OtherArea": 0, "AreaSource": "7", "NumBldgs": 0, "NumFloors": 0.0, "UnitsRes": 0, "UnitsTotal": 0, "LotFront": 25.0, "LotDepth": 145.75, "BldgFront": 0.0, "BldgDepth": 0.0, "Ext": null, "ProxCode": "0", "IrrLotCode": "N", "LotType": "5", "BsmtCode": "5", "AssessLand": 14940.0, "AssessTot": 14940.0, "ExemptTot": 0.0, "YearBuilt": 0, "YearAlter1": 0, "YearAlter2": 0, "HistDist": null, "Landmark": null, "BuiltFAR": 0.0, "ResidFAR": 0.75, "CommFAR": 0.0, "FacilFAR": 1.0, "BoroCode": 4, "BBL": 4038660035.0, "CondoNo": 0, "Tract2010": "0639", "XCoord": 1023458, "YCoord": 194912, "ZoneMap": "14b", "ZMCode": null, "Sanborn": "403 100", "TaxMap": "42003", "EDesigNum": null, "APPBBL": 0.0, "APPDate": null, "PLUTOMapID": "1", "FIRM07_FLA": null, "PFIRM15_FL": null, "Version": "25v4", "DCPEdited": null, "Latitude": 40.7015783, "Longitude": -73.8585948, "Notes": null, "Shape_Leng": 0.0, "Shape_Area": 3887.1817998000001 }, "geometry": { "type": "MultiPolygon", "coordinates": [ [ [ [ -73.858874628327996, 40.701573987068905 ], [ -73.858867128184173, 40.701642491580998 ], [ -73.858309196790657, 40.701581534918176 ], [ -73.858322416017643, 40.701513656157978 ], [ -73.858874628327996, 40.701573987068905 ] ] ] ] } },
{ "type": "Feature", "properties": { "Borough": "QN", "Block": 3866, "Lot": 38, "CD": 405, "BCT2020": "4063900", "BCTCB2020": "40639002004", "CT2010": "639", "CB2010": "2006", "SchoolDist": "24", "Council": 32, "ZipCode": 11385, "FireComp": "E319", "PolicePrct": 104, "HealthCent": 46, "HealthArea": 1810, "Sanitboro": "4", "SanitDistr": "05", "SanitSub": "4E", "Address": "82-96 88 PLACE", "ZoneDist1": "R3-2", "ZoneDist2": null, "ZoneDist3": null, "ZoneDist4": null, "Overlay1": null, "Overlay2": null, "SPDist1": null, "SPDist2": null, "SPDist3": null, "LtdHeight": null, "SplitZone": "N", "BldgClass": "B2", "LandUse": "01", "Easements": 0, "OwnerType": null, "OwnerName": "LIPINSKY, PHILIP", "LotArea": 7100, "BldgArea": 1968, "ComArea": 0, "ResArea": 1968, "OfficeArea": 0, "RetailArea": 0, "GarageArea": 0, "StrgeArea": 0, "FactryArea": 0, "OtherArea": 0, "AreaSource": "2", "NumBldgs": 2, "NumFloors": 2.0, "UnitsRes": 2, "UnitsTotal": 2, "LotFront": 50.0, "LotDepth": 142.0, "BldgFront": 20.0, "BldgDepth": 48.0, "Ext": "G", "ProxCode": "1", "IrrLotCode": "N", "LotType": "5", "BsmtCode": "2", "AssessLand": 24480.0, "AssessTot": 77160.0, "ExemptTot": 1420.0, "YearBuilt": 1920, "YearAlter1": 0, "YearAlter2": 0, "HistDist": null, "Landmark": null, "BuiltFAR": 0.28, "ResidFAR": 0.75, "CommFAR": 0.0, "FacilFAR": 1.0, "BoroCode": 4, "BBL": 4038660037.9999995, "CondoNo": 0, "Tract2010": "0639", "XCoord": 1023451, "YCoord": 194849, "ZoneMap": "14b", "ZMCode": null, "Sanborn": "403 100", "TaxMap": "42003", "EDesigNum": null, "APPBBL": 0.0, "APPDate": null, "PLUTOMapID": "1", "FIRM07_FLA": null, "PFIRM15_FL": null, "Version": "25v4", "DCPEdited": null, "Latitude": 40.7014054, "Longitude": -73.8586204, "Notes": null, "Shape_Leng": 0.0, "Shape_Area": 7899.7777126000001 }, "geometry": { "type": "MultiPolygon", "coordinates": [ [ [ [ -73.858335635105689, 40.701445778316916 ], [ -73.858363223059229, 40.701304117685879 ], [ -73.858897780280358, 40.701362520361435 ], [ -73.858882129661282, 40.701505484479817 ], [ -73.858335635105689, 40.701445778316916 ] ] ] ] } },
{ "type": "Feature", "properties": { "Borough": "QN", "Block": 3869, "Lot": 82, "CD": 405, "BCT2020": "4063900", "BCTCB2020": "40639002005", "CT2010": "639", "CB2010": "2005", "SchoolDist": "24", "Council": 32, "ZipCode": 11385, "FireComp": "E319", "PolicePrct": 104, "HealthCent": 46, "HealthArea": 1810, "Sanitboro": "4", "SanitDistr": "05", "SanitSub": "4E", "Address": "88 LANE", "ZoneDist1": "R4-1", "ZoneDist2": "R3-2", "ZoneDist3": null, "ZoneDist4": null, "Overlay1": null, "Overlay2": null, "SPDist1": null, "SPDist2": null, "SPDist3": null, "LtdHeight": null, "SplitZone": "Y", "BldgClass": "V0", "LandUse": "11", "Easements": 0, "OwnerType": null, "OwnerName": "NILDA ZENO REVOCABLE TRUST", "LotArea": 2505, "BldgArea": 0, "ComArea": 0, "ResArea": 0, "OfficeArea": 0, "RetailArea": 0, "GarageArea": 0, "StrgeArea": 0, "FactryArea": 0, "OtherArea": 0, "AreaSource": "7", "NumBldgs": 0, "NumFloors": 0.0, "UnitsRes": 0, "UnitsTotal": 0, "LotFront": 25.0, "LotDepth": 100.83, "BldgFront": 0.0, "BldgDepth": 0.0, "Ext": null, "ProxCode": "0", "IrrLotCode": "N", "LotType": "3", "BsmtCode": "5", "AssessLand": 12420.0, "AssessTot": 12420.0, "ExemptTot": 0.0, "YearBuilt": 0, "YearAlter1": 0, "YearAlter2": 0, "HistDist": null, "Landmark": null, "BuiltFAR": 0.0, "ResidFAR": 1.0, "CommFAR": 0.0, "FacilFAR": 2.0, "BoroCode": 4, "BBL": 4038690082.0, "CondoNo": 0, "Tract2010": "0639", "XCoord": 1023730, "YCoord": 194796, "ZoneMap": "14b", "ZMCode": null, "Sanborn": "403 100", "TaxMap": "42003", "EDesigNum": null, "APPBBL": 0.0, "APPDate": null, "PLUTOMapID": "1", "FIRM07_FLA": null, "PFIRM15_FL": null, "Version": "25v4", "DCPEdited": null, "Latitude": 40.7012587, "Longitude": -73.8576145, "Notes": null, "Shape_Leng": 0.0, "Shape_Area": 2628.8152447000002 }, "geometry": { "type": "MultiPolygon", "coordinates": [ [ [ [ -73.857429377397125, 40.701275414029119 ], [ -73.857444069253091, 40.701203689304016 ], [ -73.857798947167723, 40.7012424662962 ], [ -73.857784254371524, 40.701314188386618 ], [ -73.857429377397125, 40.701275414029119 ] ] ] ] } },
{ "type": "Feature", "properties": { "Borough": "QN", "Block": 3886, "Lot": 340, "CD": 406, "BCT2020": "4064500", "BCTCB2020": "40645002004", "CT2010": "645", "CB2010": "2004", "SchoolDist": "28", "Council": 29, "ZipCode": 11375, "FireComp": "E305", "PolicePrct": 112, "HealthCent": 46, "HealthArea": 1810, "Sanitboro": "4", "SanitDistr": "06", "SanitSub": "2C", "Address": "UNION TURNPIKE", "ZoneDist1": "M1-1", "ZoneDist2": null, "ZoneDist3": null, "ZoneDist4": null, "Overlay1": null, "Overlay2": null, "SPDist1": null, "SPDist2": null, "SPDist3": null, "LtdHeight": null, "SplitZone": "N", "BldgClass": "U7", "LandUse": "07", "Easements": 1, "OwnerType": "X", "OwnerName": "MTA - LIRR", "LotArea": 104200, "BldgArea": 0, "ComArea": 0, "ResArea": 0, "OfficeArea": 0, "RetailArea": 0, "GarageArea": 0, "StrgeArea": 0, "FactryArea": 0, "OtherArea": 0, "AreaSource": "7", "NumBldgs": 0, "NumFloors": 0.0, "UnitsRes": 0, "UnitsTotal": 0, "LotFront": 0.0, "LotDepth": 0.0, "BldgFront": 0.0, "BldgDepth": 0.0, "Ext": "N", "ProxCode": "0", "IrrLotCode": "Y", "LotType": "5", "BsmtCode": "0", "AssessLand": 0.0, "AssessTot": 0.0, "ExemptTot": 0.0, "YearBuilt": 0, "YearAlter1": 0, "YearAlter2": 0, "HistDist": null, "Landmark": null, "BuiltFAR": 0.0, "ResidFAR": 0.0, "CommFAR": 1.0, "FacilFAR": 2.4, "BoroCode": 4, "BBL": 4038860340.0, "CondoNo": 0, "Tract2010": "0645", "XCoord": 1024560, "YCoord": 197344, "ZoneMap": "14b", "ZMCode": null, "Sanborn": "403 101", "TaxMap": "42003", "EDesigNum": null, "APPBBL": 0.0, "APPDate": null, "PLUTOMapID": "1", "FIRM07_FLA": null, "PFIRM15_FL": null, "Version": "25v4", "DCPEdited": "t", "Latitude": 40.7082486, "Longitude": -73.8546059, "Notes": null, "Shape_Leng": 0.0, "Shape_Area": 98268.604024500004 }, "geometry": { "type": "MultiPolygon", "coordinates": [ [ [ [ -73.856357529826241, 40.710021735122446 ], [ -73.856353826928213, 40.710015752948742 ], [ -73.856309968160261, 40.709944898141643 ], [ -73.856260865210018, 40.709865573741276 ], [ -73.856187634333722, 40.709747272977957 ], [ -73.856102118764554, 40.70966086551833 ], [ -73.855926774855206, 40.709483693646952 ], [ -73.855679646486024, 40.709233986225748 ], [ -73.855409528797509, 40.708961049525698 ], [ -73.855162053237507, 40.708773195817166 ], [ -73.854548944370308, 40.708307791275594 ], [ -73.854441258229684, 40.708226047954483 ], [ -73.854287680095069, 40.708116292705135 ], [ -73.854145239758736, 40.708024101528103 ], [ -73.853999578861476, 40.707938278928403 ], [ -73.853876568007777, 40.707871820650169 ], [ -73.853675170174057, 40.707773780696769 ], [ -73.853522050480521, 40.707707419748488 ], [ -73.853352505132165, 40.707641504140263 ], [ -73.853152749400635, 40.707573318223339 ], [ -73.853036063878278, 40.707537953722934 ], [ -73.852944625902751, 40.707512442396201 ], [ -73.852903005723761, 40.707501456978477 ], [ -73.852926173645756, 40.707493300006469 ], [ -73.852297962754719, 40.707361622563319 ], [ -73.852555348888799, 40.707278787903796 ], [ -73.853248425926395, 40.707414735135245 ], [ -73.853262681118807, 40.707410149903211 ], [ -73.853702616242586, 40.70752190746682 ], [ -73.854588783341882, 40.70766763294673 ], [ -73.855335846206586, 40.707707024433105 ], [ -73.855478242665598, 40.707895190680759 ], [ -73.855292503017154, 40.707893066930978 ], [ -73.855105035827023, 40.70788699552314 ], [ -73.85493825117203, 40.707878899466849 ], [ -73.854748744358304, 40.707865626162629 ], [ -73.854537755735564, 40.707846582910115 ], [ -73.854328103901551, 40.70782289336627 ], [ -73.854103812930916, 40.707792218533342 ], [ -73.853928502022285, 40.70776434663496 ], [ -73.854130450098765, 40.707907378252358 ], [ -73.854612332457336, 40.70824867187244 ], [ -73.85548892045162, 40.708914076034105 ], [ -73.85595752717964, 40.70937269912217 ], [ -73.856134083856659, 40.709545492333909 ], [ -73.856358321445811, 40.709764949047987 ], [ -73.856398225973379, 40.709804709631939 ], [ -73.856438372154017, 40.709849898817971 ], [ -73.856475600097852, 40.709897849748067 ], [ -73.856503167501685, 40.709938376535845 ], [ -73.856533761011136, 40.709990366079133 ], [ -73.85655798755252, 40.710039232820982 ], [ -73.856577091118808, 40.710085374534323 ], [ -73.856592915254197, 40.7101321848697 ], [ -73.856719812811349, 40.710535083143668 ], [ -73.856666144313905, 40.710548828280444 ], [ -73.856616994445503, 40.710440892071929 ], [ -73.856357529826241, 40.710021735122446 ] ] ] ] } },
{ "type": "Feature", "properties": { "Borough": "QN", "Block": 3907, "Lot": 990, "CD": 482, "BCT2020": "4064102", "BCTCB2020": "40641021016", "CT2010": "641.02", "CB2010": "1008", "SchoolDist": "24", "Council": 32, "ZipCode": 11385, "FireComp": "L143", "PolicePrct": 102, "HealthCent": 46, "HealthArea": 1810, "Sanitboro": null, "SanitDistr": null, "SanitSub": null, "Address": "MYRTLE AVENUE", "ZoneDist1": "R5", "ZoneDist2": "PARK", "ZoneDist3": null, "ZoneDist4": null, "Overlay1": null, "Overlay2": null, "SPDist1": null, "SPDist2": null, "SPDist3": null, "LtdHeight": null, "SplitZone": "Y", "BldgClass": "U7", "LandUse": "07", "Easements": 0, "OwnerType": "C", "OwnerName": "NYC PARKS THE ARSENAL, CENTRAL PARK", "LotArea": 58705, "BldgArea": 0, "ComArea": 0, "ResArea": 0, "OfficeArea": 0, "RetailArea": 0, "GarageArea": 0, "StrgeArea": 0, "FactryArea": 0, "OtherArea": 0, "AreaSource": "7", "NumBldgs": 0, "NumFloors": 0.0, "UnitsRes": 0, "UnitsTotal": 0, "LotFront": 182.08, "LotDepth": 850.0, "BldgFront": 0.0, "BldgDepth": 0.0, "Ext": "N", "ProxCode": "0", "IrrLotCode": "Y", "LotType": "5", "BsmtCode": "0", "AssessLand": 0.0, "AssessTot": 0.0, "ExemptTot": 0.0, "YearBuilt": 0, "YearAlter1": 0, "YearAlter2": 0, "HistDist": null, "Landmark": null, "BuiltFAR": 0.0, "ResidFAR": 1.5, "CommFAR": 0.0, "FacilFAR": 2.0, "BoroCode": 4, "BBL": 4039070990.0, "CondoNo": 0, "Tract2010": "064102", "XCoord": 1025667, "YCoord": 194416, "ZoneMap": "14b", "ZMCode": null, "Sanborn": "404 028", "TaxMap": "42003", "EDesigNum": null, "APPBBL": 0.0, "APPDate": null, "PLUTOMapID": "1", "FIRM07_FLA": null, "PFIRM15_FL": null, "Version": "25v4", "DCPEdited": null, "Latitude": 40.7002068, "Longitude": -73.850631, "Notes": null, "Shape_Leng": 0.0, "Shape_Area": 234796.03488200001 }, "geometry": { "type": "MultiPolygon", "coordinates": [ [ [ [ -73.851918986421069, 40.702133704898749 ], [ -73.849940388803446, 40.699684035759873 ], [ -73.849862176244628, 40.699718174712025 ], [ -73.848900070612359, 40.698594219112692 ], [ -73.849097505381565, 40.698521965516569 ], [ -73.849021241755878, 40.698414373935449 ], [ -73.849410599261418, 40.698317042987547 ], [ -73.849593504983829, 40.698543270559824 ], [ -73.849693644234918, 40.698667126581171 ], [ -73.850204800854712, 40.699299338524966 ], [ -73.850274660616293, 40.699385740922637 ], [ -73.850309250191359, 40.699428523441824 ], [ -73.850438222537306, 40.699588036043139 ], [ -73.850929085059136, 40.700195126423445 ], [ -73.85255289441109, 40.702203334008907 ], [ -73.851918986421069, 40.702133704898749 ] ] ] ] } }
]
}
