{
"type": "FeatureCollection",
"name": "pluto_Rockaway_Community_Park",
"crs": { "type": "name", "properties": { "name": "urn:ogc:def:crs:OGC:1.3:CRS84" } },
"features": [
{ "type": "Feature", "properties": { "Borough": "QN", "Block": 15971, "Lot": 1, "CD": 414, "BCT2020": "4097207", "BCTCB2020": "40972071000", "CT2010": "972.03", "CB2010": "1002", "SchoolDist": "27", "Council": 31, "ZipCode": 11691, "FireComp": "E265", "PolicePrct": 101, "HealthCent": 45, "HealthArea": 3800, "Sanitboro": "4", "SanitDistr": "14", "SanitSub": "2E", "Address": "NORTON AVENUE", "ZoneDist1": "PARK", "ZoneDist2": null, "ZoneDist3": null, "ZoneDist4": null, "Overlay1": null, "Overlay2": null, "SPDist1": null, "SPDist2": null, "SPDist3": null, "LtdHeight": null, "SplitZone": "N", "BldgClass": "Q0", "LandUse": "09", "Easements": 0, "OwnerType": "C", "OwnerName": "NYC DEPARTMENT OF PARKS AND RECREATION", "LotArea": 11892, "BldgArea": 0, "ComArea": 0, "ResArea": 0, "OfficeArea": 0, "RetailArea": 0, "GarageArea": 0, "StrgeArea": 0, "FactryArea": 0, "OtherArea": 0, "AreaSource": "7", "NumBldgs": 0, "NumFloors": 0.0, "UnitsRes": 0, "UnitsTotal": 0, "LotFront": 95.51, "LotDepth": 125.02, "BldgFront": 0.0, "BldgDepth": 0.0, "Ext": null, "ProxCode": "0", "IrrLotCode": "N", "LotType": "2", "BsmtCode": "5", "AssessLand": 142200.0, "AssessTot": 142200.0, "ExemptTot": 142200.0, "YearBuilt": 0, "YearAlter1": 0, "YearAlter2": 0, "HistDist": null, "Landmark": null, "BuiltFAR": 0.0, "ResidFAR": 0.0, "CommFAR": 0.0, "FacilFAR": 0.0, "BoroCode": 4, "BBL": 4159710000.9999995, "CondoNo": 0, "Tract2010": "097203", "XCoord": 1045390, "YCoord": 156808, "ZoneMap": "30c", "ZMCode": null, "Sanborn": "408 051", "TaxMap": "46103", "EDesigNum": null, "APPBBL": 0.0, "APPDate": null, "PLUTOMapID": "1", "FIRM07_FLA": "1", "PFIRM15_FL": "1", "Version": "25v4", "DCPEdited": "t", "Latitude": 40.5968671, "Longitude": -73.7798419, "Notes": null, "Shape_Leng": 0.0, "Shape_Area": 9564.0485626999998 }, "geometry": { "type": "MultiPolygon", "coordinates": [ [ [ [ -73.779988999961503, 40.596950552284355 ], [ -73.779735319460215, 40.597125976093551 ], [ -73.779693750305171, 40.59677888902354 ], [ -73.779898811035324, 40.59663708680575 ], [ -73.779951131836484, 40.596634367545271 ], [ -73.779988999961503, 40.596950552284355 ] ] ] ] } },
{ "type": "Feature", "properties": { "Borough": "QN", "Block": 15971, "Lot": 100, "CD": 414, "BCT2020": "4097207", "BCTCB2020": "40972071000", "CT2010": "972.03", "CB2010": "1002", "SchoolDist": "27", "Council": 31, "ZipCode": 11691, "FireComp": "E265", "PolicePrct": 101, "HealthCent": 45, "HealthArea": 3800, "Sanitboro": "4", "SanitDistr": "14", "SanitSub": "2E", "Address": "NORTON AVENUE", "ZoneDist1": "PARK", "ZoneDist2": "C3A", "ZoneDist3": null, "ZoneDist4": null, "Overlay1": null, "Overlay2": null, "SPDist1": "CR-5", "SPDist2": null, "SPDist3": null, "LtdHeight": null, "SplitZone": "Y", "BldgClass": "Q0", "LandUse": "09", "Easements": 1, "OwnerType": "C", "OwnerName": "NYC DEPARTMENT OF PARKS AND RECREATION", "LotArea": 6252, "BldgArea": 0, "ComArea": 0, "ResArea": 0, "OfficeArea": 0, "RetailArea": 0, "GarageArea": 0, "StrgeArea": 0, "FactryArea": 0, "OtherArea": 0, "AreaSource": "7", "NumBldgs": 0, "NumFloors": 0.0, "UnitsRes": 0, "UnitsTotal": 0, "LotFront": 50.01, "LotDepth": 125.02, "BldgFront": 0.0, "BldgDepth": 0.0, "Ext": null, "ProxCode": "0", "IrrLotCode": "N", "LotType": "5", "BsmtCode": "5", "AssessLand": 70650.0, "AssessTot": 70650.0, "ExemptTot": 70650.0, "YearBuilt": 0, "YearAlter1": 0, "YearAlter2": 0, "HistDist": null, "Landmark": null, "BuiltFAR": 0.0, "ResidFAR": 0.0, "CommFAR": 0.0, "FacilFAR": 0.0, "BoroCode": 4, "BBL": 4159710100.0, "CondoNo": 0, "Tract2010": "097203", "XCoord": 1045336, "YCoord": 156758, "ZoneMap": "30c", "ZMCode": null, "Sanborn": "408 051", "TaxMap": "46103", "EDesigNum": null, "APPBBL": 0.0, "APPDate": null, "PLUTOMapID": "1", "FIRM07_FLA": "1", "PFIRM15_FL": "1", "Version": "25v4", "DCPEdited": "t", "Latitude": 40.5967302, "Longitude": -73.7800368, "Notes": null, "Shape_Leng": 0.0, "Shape_Area": 4929.7358258000004 }, "geometry": { "type": "MultiPolygon", "coordinates": [ [ [ [ -73.779947430807979, 40.596603464300507 ], [ -73.780032798630387, 40.596544431062085 ], [ -73.780080803663836, 40.596511235085757 ], [ -73.780094657139117, 40.5966269088917 ], [ -73.780122374661346, 40.596858322106392 ], [ -73.780096200849698, 40.596876421984902 ], [ -73.780089218877137, 40.596875155020314 ], [ -73.780081573378652, 40.596871439257399 ], [ -73.780069476049931, 40.596859209398986 ], [ -73.780057709596377, 40.59685915088005 ], [ -73.780049463917905, 40.596867606343174 ], [ -73.78004607144284, 40.596876781563111 ], [ -73.780044366409356, 40.596884038302342 ], [ -73.78004486479945, 40.59691192140432 ], [ -73.779988999961503, 40.596950552284355 ], [ -73.779951131836484, 40.596634367545271 ], [ -73.779947430807979, 40.596603464300507 ] ] ] ] } },
{ "type": "Feature", "properties": { "Borough": "QN", "Block": 15976, "Lot": 45, "CD": 414, "BCT2020": "4097207", "BCTCB2020": "40972071001", "CT2010": "972.03", "CB2010": "1003", "SchoolDist": "27", "Council": 31, "ZipCode": 11691, "FireComp": "E265", "PolicePrct": 101, "HealthCent": 45, "HealthArea": 3800, "Sanitboro": "4", "SanitDistr": "14", "SanitSub": "2E", "Address": "ELIZABETH AVENUE", "ZoneDist1": "PARK", "ZoneDist2": null, "ZoneDist3": null, "ZoneDist4": null, "Overlay1": null, "Overlay2": null, "SPDist1": null, "SPDist2": null, "SPDist3": null, "LtdHeight": null, "SplitZone": "N", "BldgClass": "Q0", "LandUse": "09", "Easements": 0, "OwnerType": "C", "OwnerName": "NYC DEPARTMENT OF PARKS AND RECREATION", "LotArea": 64722, "BldgArea": 0, "ComArea": 0, "ResArea": 0, "OfficeArea": 0, "RetailArea": 0, "GarageArea": 0, "StrgeArea": 0, "FactryArea": 0, "OtherArea": 0, "AreaSource": "7", "NumBldgs": 0, "NumFloors": 0.0, "UnitsRes": 0, "UnitsTotal": 0, "LotFront": 316.8, "LotDepth": 408.6, "BldgFront": 0.0, "BldgDepth": 0.0, "Ext": null, "ProxCode": "0", "IrrLotCode": "Y", "LotType": "5", "BsmtCode": "5", "AssessLand": 92400.0, "AssessTot": 92400.0, "ExemptTot": 92400.0, "YearBuilt": 0, "YearAlter1": 0, "YearAlter2": 0, "HistDist": null, "Landmark": null, "BuiltFAR": 0.0, "ResidFAR": 0.0, "CommFAR": 0.0, "FacilFAR": 0.0, "BoroCode": 4, "BBL": 4159760045.0, "CondoNo": 0, "Tract2010": "097203", "XCoord": 1044933, "YCoord": 156830, "ZoneMap": "30c", "ZMCode": null, "Sanborn": "408 060", "TaxMap": "46103", "EDesigNum": null, "APPBBL": 0.0, "APPDate": null, "PLUTOMapID": "1", "FIRM07_FLA": "1", "PFIRM15_FL": "1", "Version": "25v4", "DCPEdited": "t", "Latitude": 40.5969306, "Longitude": -73.7814873, "Notes": null, "Shape_Leng": 0.0, "Shape_Area": 65184.336517099997 }, "geometry": { "type": "MultiPolygon", "coordinates": [ [ [ [ -73.78193852221159, 40.597661439121168 ], [ -73.780688561624714, 40.596596043133033 ], [ -73.781828471080146, 40.596536792348587 ], [ -73.78193852221159, 40.597661439121168 ] ] ] ] } },
{ "type": "Feature", "properties": { "Borough": "QN", "Block": 15977, "Lot": 1, "CD": 414, "BCT2020": "4097207", "BCTCB2020": "40972071000", "CT2010": "972.03", "CB2010": "1002", "SchoolDist": "27", "Council": 31, "ZipCode": 11691, "FireComp": "E265", "PolicePrct": 101, "HealthCent": 45, "HealthArea": 3800, "Sanitboro": "4", "SanitDistr": "14", "SanitSub": "2E", "Address": "CONCH PLACE", "ZoneDist1": "PARK", "ZoneDist2": "C3A", "ZoneDist3": null, "ZoneDist4": null, "Overlay1": null, "Overlay2": null, "SPDist1": "CR-5", "SPDist2": null, "SPDist3": null, "LtdHeight": null, "SplitZone": "Y", "BldgClass": "U9", "LandUse": "07", "Easements": 1, "OwnerType": "C", "OwnerName": "NYC DEPARTMENT OF ENVIRONMENTAL PROTECTION", "LotArea": 134, "BldgArea": 0, "ComArea": 0, "ResArea": 0, "OfficeArea": 0, "RetailArea": 0, "GarageArea": 0, "StrgeArea": 0, "FactryArea": 0, "OtherArea": 0, "AreaSource": "7", "NumBldgs": 0, "NumFloors": 0.0, "UnitsRes": 0, "UnitsTotal": 0, "LotFront": 1.0, "LotDepth": 127.0, "BldgFront": 0.0, "BldgDepth": 0.0, "Ext": "N", "ProxCode": "0", "IrrLotCode": "N", "LotType": "5", "BsmtCode": "0", "AssessLand": 0.0, "AssessTot": 0.0, "ExemptTot": 0.0, "YearBuilt": 0, "YearAlter1": 0, "YearAlter2": 0, "HistDist": null, "Landmark": null, "BuiltFAR": 0.0, "ResidFAR": 0.0, "CommFAR": 0.0, "FacilFAR": 0.0, "BoroCode": 4, "BBL": 4159770000.9999995, "CondoNo": 0, "Tract2010": "097203", "XCoord": 1045317, "YCoord": 156741, "ZoneMap": "30c", "ZMCode": null, "Sanborn": "408 060", "TaxMap": "46103", "EDesigNum": null, "APPBBL": 0.0, "APPDate": null, "PLUTOMapID": "1", "FIRM07_FLA": "1", "PFIRM15_FL": "1", "Version": "25v4", "DCPEdited": "t", "Latitude": 40.5966837, "Longitude": -73.7801053, "Notes": null, "Shape_Leng": 0.0, "Shape_Area": 134.0236568 }, "geometry": { "type": "MultiPolygon", "coordinates": [ [ [ [ -73.780122374661346, 40.596858322106392 ], [ -73.780094657139117, 40.5966269088917 ], [ -73.780080803663836, 40.596511235085757 ], [ -73.780084297982611, 40.59650881851524 ], [ -73.780098418205398, 40.596626713468488 ], [ -73.780126587424434, 40.596861913412077 ], [ -73.780122374661346, 40.596858322106392 ] ] ] ] } },
{ "type": "Feature", "properties": { "Borough": "QN", "Block": 15977, "Lot": 50, "CD": 414, "BCT2020": "4097207", "BCTCB2020": "40972071000", "CT2010": "972.03", "CB2010": "1002", "SchoolDist": "27", "Council": 31, "ZipCode": 11691, "FireComp": "E265", "PolicePrct": 101, "HealthCent": 45, "HealthArea": 3800, "Sanitboro": "4", "SanitDistr": "14", "SanitSub": "2E", "Address": "CONCH PLACE", "ZoneDist1": "PARK", "ZoneDist2": null, "ZoneDist3": null, "ZoneDist4": null, "Overlay1": null, "Overlay2": null, "SPDist1": null, "SPDist2": null, "SPDist3": null, "LtdHeight": null, "SplitZone": "N", "BldgClass": "Q0", "LandUse": "09", "Easements": 1, "OwnerType": "C", "OwnerName": "NYC DEPARTMENT OF PARKS AND RECREATION", "LotArea": 41900, "BldgArea": 0, "ComArea": 0, "ResArea": 0, "OfficeArea": 0, "RetailArea": 0, "GarageArea": 0, "StrgeArea": 0, "FactryArea": 0, "OtherArea": 0, "AreaSource": "7", "NumBldgs": 0, "NumFloors": 0.0, "UnitsRes": 0, "UnitsTotal": 0, "LotFront": 460.0, "LotDepth": 100.0, "BldgFront": 0.0, "BldgDepth": 0.0, "Ext": null, "ProxCode": "0", "IrrLotCode": "Y", "LotType": "5", "BsmtCode": "0", "AssessLand": 475650.0, "AssessTot": 475650.0, "ExemptTot": 475650.0, "YearBuilt": 0, "YearAlter1": 0, "YearAlter2": 0, "HistDist": null, "Landmark": null, "BuiltFAR": 0.0, "ResidFAR": 0.0, "CommFAR": 0.0, "FacilFAR": 0.0, "BoroCode": 4, "BBL": 4159770050.0, "CondoNo": 0, "Tract2010": "097203", "XCoord": 1045167, "YCoord": 156888, "ZoneMap": "30c", "ZMCode": null, "Sanborn": "408 060", "TaxMap": "46103", "EDesigNum": null, "APPBBL": 0.0, "APPDate": null, "PLUTOMapID": "1", "FIRM07_FLA": "1", "PFIRM15_FL": "1", "Version": "25v4", "DCPEdited": "t", "Latitude": 40.5970882, "Longitude": -73.7806441, "Notes": null, "Shape_Leng": 0.0, "Shape_Area": 42337.684763500001 }, "geometry": { "type": "MultiPolygon", "coordinates": [ [ [ [ -73.780098418205398, 40.596626713468488 ], [ -73.780084297982611, 40.59650881851524 ], [ -73.780094032244634, 40.596502086824493 ], [ -73.780098836262525, 40.596499438592815 ], [ -73.780104917620008, 40.596496685637341 ], [ -73.780110554866638, 40.596494645047642 ], [ -73.780117683878643, 40.596492677508841 ], [ -73.780123323903211, 40.59649155996501 ], [ -73.780127946356345, 40.596490952900439 ], [ -73.780129440321261, 40.596490757566642 ], [ -73.780132957008945, 40.596490479769223 ], [ -73.780136759187727, 40.596490329432704 ], [ -73.780140550220779, 40.596490330419378 ], [ -73.780144920677699, 40.596490522511374 ], [ -73.78014998965925, 40.596491001395812 ], [ -73.780155585419195, 40.596491859523724 ], [ -73.780161531791052, 40.596493167671369 ], [ -73.780167897922937, 40.596495058322105 ], [ -73.780174236223033, 40.596497501924041 ], [ -73.780180275254295, 40.5965004356298 ], [ -73.780186264833659, 40.596504054599052 ], [ -73.780189292666051, 40.596506212680453 ], [ -73.780192373888426, 40.596508688696531 ], [ -73.780317482476676, 40.596615328823162 ], [ -73.781305822653422, 40.597457743474259 ], [ -73.781103630441066, 40.597596635452966 ], [ -73.781084204323577, 40.597583878881196 ], [ -73.780977976867419, 40.59751449067479 ], [ -73.780916465210353, 40.597477641817832 ], [ -73.780800124394432, 40.597416775681069 ], [ -73.780743214274509, 40.597387499048978 ], [ -73.780177582027719, 40.59690538037097 ], [ -73.780168922272338, 40.596897998868023 ], [ -73.780168708717426, 40.596897090058434 ], [ -73.780162587169471, 40.596884408001223 ], [ -73.780150840760342, 40.596878261876604 ], [ -73.780145066633651, 40.596877664766261 ], [ -73.780126587424434, 40.596861913412077 ], [ -73.780098418205398, 40.596626713468488 ] ] ] ] } },
{ "type": "Feature", "properties": { "Borough": "QN", "Block": 15977, "Lot": 75, "CD": 414, "BCT2020": "4097207", "BCTCB2020": "40972071000", "CT2010": "972.03", "CB2010": "1002", "SchoolDist": "27", "Council": 31, "ZipCode": 11691, "FireComp": "E265", "PolicePrct": 101, "HealthCent": 45, "HealthArea": 3800, "Sanitboro": "4", "SanitDistr": "14", "SanitSub": "2E", "Address": "CONCH PLACE", "ZoneDist1": "PARK", "ZoneDist2": null, "ZoneDist3": null, "ZoneDist4": null, "Overlay1": null, "Overlay2": null, "SPDist1": null, "SPDist2": null, "SPDist3": null, "LtdHeight": null, "SplitZone": "N", "BldgClass": "Q0", "LandUse": "09", "Easements": 0, "OwnerType": "C", "OwnerName": "NYC DEPARTMENT OF PARKS AND RECREATION", "LotArea": 2000, "BldgArea": 0, "ComArea": 0, "ResArea": 0, "OfficeArea": 0, "RetailArea": 0, "GarageArea": 0, "StrgeArea": 0, "FactryArea": 0, "OtherArea": 0, "AreaSource": "4", "NumBldgs": 0, "NumFloors": 0.0, "UnitsRes": 0, "UnitsTotal": 0, "LotFront": 20.0, "LotDepth": 100.0, "BldgFront": 0.0, "BldgDepth": 0.0, "Ext": null, "ProxCode": "0", "IrrLotCode": "N", "LotType": "5", "BsmtCode": "5", "AssessLand": 21915.0, "AssessTot": 21915.0, "ExemptTot": 21915.0, "YearBuilt": 0, "YearAlter1": 0, "YearAlter2": 0, "HistDist": null, "Landmark": null, "BuiltFAR": 0.0, "ResidFAR": 0.0, "CommFAR": 0.0, "FacilFAR": 0.0, "BoroCode": 4, "BBL": 4159770074.9999995, "CondoNo": 0, "Tract2010": "097203", "XCoord": 1045013, "YCoord": 157063, "ZoneMap": "30c", "ZMCode": null, "Sanborn": "408 060", "TaxMap": "46103", "EDesigNum": null, "APPBBL": 0.0, "APPDate": null, "PLUTOMapID": "1", "FIRM07_FLA": "1", "PFIRM15_FL": "1", "Version": "25v4", "DCPEdited": "t", "Latitude": 40.5975696, "Longitude": -73.7811971, "Notes": null, "Shape_Leng": 0.0, "Shape_Area": 1485.6208691 }, "geometry": { "type": "MultiPolygon", "coordinates": [ [ [ [ -73.781305822653422, 40.597457743474259 ], [ -73.781353831896894, 40.597498663826634 ], [ -73.781158631423693, 40.597632753058079 ], [ -73.781103630441066, 40.597596635452966 ], [ -73.781305822653422, 40.597457743474259 ] ] ] ] } },
{ "type": "Feature", "properties": { "Borough": "QN", "Block": 15980, "Lot": 2, "CD": 414, "BCT2020": "4097207", "BCTCB2020": "40972071000", "CT2010": "972.03", "CB2010": "2000", "SchoolDist": "27", "Council": 31, "ZipCode": 11692, "FireComp": "E265", "PolicePrct": 101, "HealthCent": 45, "HealthArea": 3800, "Sanitboro": "4", "SanitDistr": "14", "SanitSub": "2E", "Address": "54-02 ALMEDA AVENUE", "ZoneDist1": "PARK", "ZoneDist2": null, "ZoneDist3": null, "ZoneDist4": null, "Overlay1": null, "Overlay2": null, "SPDist1": null, "SPDist2": null, "SPDist3": null, "LtdHeight": null, "SplitZone": "N", "BldgClass": "Q1", "LandUse": "09", "Easements": 0, "OwnerType": "C", "OwnerName": "NYC DEPARTMENT OF PARKS AND RECREATION", "LotArea": 11520794, "BldgArea": 72663, "ComArea": 72663, "ResArea": 0, "OfficeArea": 0, "RetailArea": 0, "GarageArea": 0, "StrgeArea": 407, "FactryArea": 0, "OtherArea": 72256, "AreaSource": "2", "NumBldgs": 4, "NumFloors": 2.0, "UnitsRes": 0, "UnitsTotal": 1, "LotFront": 2140.0, "LotDepth": 230.0, "BldgFront": 20.33, "BldgDepth": 20.0, "Ext": "N", "ProxCode": "0", "IrrLotCode": "Y", "LotType": "5", "BsmtCode": "0", "AssessLand": 56599686.0, "AssessTot": 80622450.0, "ExemptTot": 80622450.0, "YearBuilt": 2009, "YearAlter1": 2009, "YearAlter2": 0, "HistDist": null, "Landmark": null, "BuiltFAR": 0.01, "ResidFAR": 0.0, "CommFAR": 0.0, "FacilFAR": 0.0, "BoroCode": 4, "BBL": 4159800002.0, "CondoNo": 0, "Tract2010": "097203", "XCoord": 1045270, "YCoord": 159323, "ZoneMap": "30c", "ZMCode": "Y", "Sanborn": "408 051", "TaxMap": "46103", "EDesigNum": null, "APPBBL": 4159800002.0, "APPDate": "07/21/2014", "PLUTOMapID": "1", "FIRM07_FLA": "1", "PFIRM15_FL": "1", "Version": "25v4", "DCPEdited": "t", "Latitude": 40.603771, "Longitude": -73.7802513, "Notes": null, "Shape_Leng": 0.0, "Shape_Area": 7984629.1386900004 }, "geometry": { "type": "MultiPolygon", "coordinates": [ [ [ [ -73.781353831896894, 40.597498663826634 ], [ -73.781945267150505, 40.598002760716476 ], [ -73.781897731478551, 40.598005768237478 ], [ -73.782155982338551, 40.598541495402806 ], [ -73.782202539801432, 40.598681986345042 ], [ -73.782214005508621, 40.59891191653746 ], [ -73.782141823797758, 40.599174742702836 ], [ -73.782057984628366, 40.599334327589183 ], [ -73.78171480896286, 40.599540065040536 ], [ -73.780888641651984, 40.600110584426318 ], [ -73.779648778052888, 40.601248407676913 ], [ -73.779987001179052, 40.601427155875832 ], [ -73.780592834303604, 40.60188468677714 ], [ -73.780593286835156, 40.601885027978284 ], [ -73.780593322198726, 40.601885055069182 ], [ -73.780593392010573, 40.601885020984689 ], [ -73.780593716216373, 40.601884864905301 ], [ -73.781510782180405, 40.601443528967167 ], [ -73.781650486248651, 40.601399933823238 ], [ -73.782232058757543, 40.601303565755231 ], [ -73.78206170183843, 40.60058659517582 ], [ -73.782084191660203, 40.600227710335112 ], [ -73.782504906968029, 40.599423291610591 ], [ -73.782424019399514, 40.598596658427958 ], [ -73.782176557788702, 40.597989775715121 ], [ -73.789185338683552, 40.597596043368085 ], [ -73.789185989014712, 40.597598190487929 ], [ -73.789189276026391, 40.597621258904837 ], [ -73.789192551964362, 40.59764859949091 ], [ -73.789192468339095, 40.597675079219513 ], [ -73.789192395506205, 40.59769814154938 ], [ -73.789192333468932, 40.597717785476661 ], [ -73.789193372498815, 40.597743410904179 ], [ -73.789193313146384, 40.597762204749415 ], [ -73.789190992319604, 40.597787824926449 ], [ -73.789186436055431, 40.597810878938198 ], [ -73.789181878295864, 40.597834787636955 ], [ -73.789175068635501, 40.597862106937463 ], [ -73.789166042124364, 40.597881737998449 ], [ -73.789153637042361, 40.597906485045456 ], [ -73.789140122895716, 40.597927815230733 ], [ -73.789118748039016, 40.59795425500738 ], [ -73.789104108412388, 40.59797729057405 ], [ -73.789087227764995, 40.598000321937342 ], [ -73.789068115860033, 40.598019079016176 ], [ -73.789052384733495, 40.598032715510413 ], [ -73.789027674124853, 40.598051462293391 ], [ -73.789005206518013, 40.598068503062805 ], [ -73.788977122906417, 40.598090660131774 ], [ -73.788961387829673, 40.598105153051392 ], [ -73.788936666478548, 40.598127315455663 ], [ -73.788916443739282, 40.598143507486974 ], [ -73.788896218397142, 40.598160554199929 ], [ -73.788877093700904, 40.598184434253625 ], [ -73.788860217123585, 40.598205756463514 ], [ -73.788844464681006, 40.598225375127001 ], [ -73.788832073844731, 40.598246706420724 ], [ -73.788814091075622, 40.598262901719664 ], [ -73.788797242693661, 40.598275681600938 ], [ -73.788772544226831, 40.598290158838402 ], [ -73.788764653723149, 40.598304665329742 ], [ -73.788744451416918, 40.598314024206942 ], [ -73.788725352160881, 40.59833021743588 ], [ -73.788705175381637, 40.598331888588163 ], [ -73.788676058315346, 40.598325855510502 ], [ -73.788641317503263, 40.59832664615206 ], [ -73.788606554947052, 40.598334268984381 ], [ -73.788584109979482, 40.5983444783095 ], [ -73.788553802206351, 40.598361505471743 ], [ -73.788536954040183, 40.598373431546712 ], [ -73.78851110465601, 40.598397300991152 ], [ -73.788503211380032, 40.598412661060458 ], [ -73.788493083471209, 40.598426310562253 ], [ -73.788468377173217, 40.598442493416883 ], [ -73.788441433237523, 40.598458672978488 ], [ -73.788416740155, 40.598471441023456 ], [ -73.788394299323258, 40.598479941191819 ], [ -73.788367374316849, 40.598490140375624 ], [ -73.78834044688044, 40.598500341388828 ], [ -73.78830903185893, 40.5985122424933 ], [ -73.788288837151413, 40.598519892094728 ], [ -73.788261886625037, 40.598537779893149 ], [ -73.788239445643143, 40.598546280031023 ], [ -73.788221496073163, 40.598553081834083 ], [ -73.788210246922233, 40.598566726564442 ], [ -73.788204568799628, 40.598590632235023 ], [ -73.788191044873315, 40.598614524266011 ], [ -73.788175298773197, 40.598632432801942 ], [ -73.788152827634519, 40.598651181687842 ], [ -73.788127002409055, 40.598667363241717 ], [ -73.788106787149658, 40.598681846017016 ], [ -73.788092175735812, 40.598695488127071 ], [ -73.788070804440167, 40.59872021842137 ], [ -73.788058437970506, 40.598733008309225 ], [ -73.788038216152003, 40.59874920018764 ], [ -73.788017998542557, 40.598763682944274 ], [ -73.788001698897631, 40.598779882980757 ], [ -73.787982039751668, 40.598795220445936 ], [ -73.78795172931359, 40.598812248280886 ], [ -73.787928157482028, 40.598824163686011 ], [ -73.787915766539967, 40.598844641280714 ], [ -73.787892168761985, 40.598865096325 ], [ -73.78787421666236, 40.598871896312751 ], [ -73.787857366621452, 40.598884678729696 ], [ -73.787841603780478, 40.598908565745155 ], [ -73.787823609325571, 40.598929031131519 ], [ -73.787805624618983, 40.598946080788807 ], [ -73.787782024043025, 40.598967394008064 ], [ -73.787750633043501, 40.59897160531446 ], [ -73.78774273801244, 40.59898782001666 ], [ -73.787723618510086, 40.599009137913143 ], [ -73.787698915318884, 40.599025321444458 ], [ -73.787678702869329, 40.599038098537804 ], [ -73.78765623428211, 40.599055993647767 ], [ -73.787651674271672, 40.599080755879925 ], [ -73.787641535751106, 40.599096964584625 ], [ -73.787622413347734, 40.599119139740253 ], [ -73.787594332756782, 40.5991330622319 ], [ -73.787593234421593, 40.599133606762081 ], [ -73.787594332653882, 40.599140441955356 ], [ -73.787583076740844, 40.599155794902472 ], [ -73.787562835652167, 40.599177965217727 ], [ -73.787534760652093, 40.599196706373228 ], [ -73.78751457120093, 40.599202645717334 ], [ -73.787502204943195, 40.599214583618576 ], [ -73.787475267414834, 40.599228200069767 ], [ -73.787450554825895, 40.599246946509801 ], [ -73.787431482495577, 40.599253743434119 ], [ -73.787402333702815, 40.599257959801598 ], [ -73.787381019104572, 40.59926475348481 ], [ -73.787351826764379, 40.599282636916037 ], [ -73.787324890797706, 40.599295400571584 ], [ -73.787304663193439, 40.599313298843292 ], [ -73.787283311549047, 40.599332053232622 ], [ -73.787267578342139, 40.599346544165776 ], [ -73.78724397463364, 40.599368707356746 ], [ -73.787232718600649, 40.599384061105589 ], [ -73.78721583997509, 40.599405386667591 ], [ -73.787191122905853, 40.599425838572806 ], [ -73.787169788749594, 40.599439465425462 ], [ -73.787149596768373, 40.599445408382593 ], [ -73.787124957560408, 40.599441090585856 ], [ -73.787102540333237, 40.599442759059052 ], [ -73.787096909567637, 40.599451290986487 ], [ -73.787099090796076, 40.599470087228035 ], [ -73.78709232522155, 40.59948288639697 ], [ -73.787065366918128, 40.599503334118182 ], [ -73.787038422629834, 40.599518661505776 ], [ -73.787008122533337, 40.59953226985278 ], [ -73.786994611617786, 40.599551890664763 ], [ -73.786976594601583, 40.599580046318714 ], [ -73.786969822440398, 40.599594554677829 ], [ -73.786984317067464, 40.599617642280826 ], [ -73.78700218375505, 40.599637322151217 ], [ -73.787024532914401, 40.599657008578887 ], [ -73.787023386773171, 40.599665548824305 ], [ -73.787000927492983, 40.599680027157667 ], [ -73.786978503213334, 40.599684257653117 ], [ -73.786949349175302, 40.599689327497245 ], [ -73.786932471599528, 40.599710650342786 ], [ -73.786922306632874, 40.599735402225214 ], [ -73.786908787053136, 40.599758438669809 ], [ -73.786894141231897, 40.599782329384539 ], [ -73.786872774172167, 40.599806206697174 ], [ -73.78685814044691, 40.59982668001296 ], [ -73.786845745171732, 40.599848009326621 ], [ -73.786819902683931, 40.599869317264776 ], [ -73.786796326028224, 40.599882940719745 ], [ -73.786780594114532, 40.599896575143376 ], [ -73.786755875508746, 40.599917031468657 ], [ -73.786732290529187, 40.599933216954376 ], [ -73.78670983503352, 40.599946840716832 ], [ -73.786690739491604, 40.599960471556138 ], [ -73.786668268692736, 40.599979221909713 ], [ -73.78664355439652, 40.599997966331308 ], [ -73.786624440806349, 40.600017577605946 ], [ -73.78660535189222, 40.600029501072669 ], [ -73.786585145607376, 40.600040566933927 ], [ -73.786560459778627, 40.600050771698037 ], [ -73.786531287523403, 40.600061820962303 ], [ -73.786500995375889, 40.600072868972674 ], [ -73.78647070704649, 40.600083063296168 ], [ -73.786467299734838, 40.600096723363301 ], [ -73.786444856154233, 40.60010693227354 ], [ -73.786424663909699, 40.600112874181619 ], [ -73.786398889632366, 40.600112826224752 ], [ -73.786365227954093, 40.6001264289849 ], [ -73.786337180771255, 40.600136626607757 ], [ -73.786306869302294, 40.600153654927212 ], [ -73.786292270882413, 40.60016302288674 ], [ -73.786267575561752, 40.600175786868057 ], [ -73.786239514664317, 40.600190256464415 ], [ -73.786209212882738, 40.60020386735814 ], [ -73.786184503846883, 40.600220903318913 ], [ -73.786165415892128, 40.600232827634514 ], [ -73.786142972651319, 40.600242181964141 ], [ -73.786112688460179, 40.600250666992785 ], [ -73.786077916511701, 40.600260851018497 ], [ -73.786057708856475, 40.600271918624792 ], [ -73.786024060825312, 40.60028125112926 ], [ -73.785993764114735, 40.600294007287133 ], [ -73.785971278539577, 40.600316174141092 ], [ -73.785953281593535, 40.600337495591909 ], [ -73.785934165084569, 40.600357957669438 ], [ -73.785917295117116, 40.600376720160739 ], [ -73.785902666459179, 40.600395483233086 ], [ -73.785884654675797, 40.600421074074106 ], [ -73.785873403630106, 40.600434720327939 ], [ -73.785852033257768, 40.600459451214213 ], [ -73.785834021330771, 40.60048504112553 ], [ -73.785823875018323, 40.600503816148198 ], [ -73.785810340099772, 40.600531123619554 ], [ -73.785801311043571, 40.600550750811536 ], [ -73.785793403174836, 40.600570384527934 ], [ -73.785779317716973, 40.600594701230918 ], [ -73.78576636058034, 40.600616458062397 ], [ -73.785753957785417, 40.600640351897098 ], [ -73.785738192458012, 40.600664239536798 ], [ -73.78572355820593, 40.600684709945035 ], [ -73.785704430549671, 40.600708591305114 ], [ -73.78568979626597, 40.600729065305607 ], [ -73.785676281876121, 40.600749537798428 ], [ -73.785660522090524, 40.60077171714822 ], [ -73.785641951474943, 40.600796882742131 ], [ -73.785633488916076, 40.600814803524017 ], [ -73.785619943050079, 40.600845099854212 ], [ -73.785601943220215, 40.60086727400865 ], [ -73.785588415049745, 40.600892019490445 ], [ -73.785582730300774, 40.60091763422718 ], [ -73.785578169835489, 40.600941541768989 ], [ -73.785573618803909, 40.600962887437831 ], [ -73.785567936788638, 40.600987647572715 ], [ -73.785564481053257, 40.601016684808634 ], [ -73.785563266544557, 40.601045723554492 ], [ -73.785564330135514, 40.601063662209157 ], [ -73.785566480805343, 40.601091853472546 ], [ -73.78556979110428, 40.601108088954547 ], [ -73.785575304216508, 40.601136286582182 ], [ -73.785578584661849, 40.601161065214214 ], [ -73.785581868741389, 40.601185841177589 ], [ -73.785579529176843, 40.601215732426425 ], [ -73.785572727020281, 40.601240491305035 ], [ -73.785561452284995, 40.601261824413363 ], [ -73.785550163821441, 40.601287427759637 ], [ -73.785546709170418, 40.601316462318401 ], [ -73.785543285248551, 40.601335248031852 ], [ -73.785534248974784, 40.601357439003785 ], [ -73.785517363393751, 40.601381322678954 ], [ -73.785497120832261, 40.601403493546044 ], [ -73.785479125083569, 40.601423962159046 ], [ -73.785462256374259, 40.60144186822366 ], [ -73.785447638334517, 40.601457215513122 ], [ -73.785428516950091, 40.601479387625851 ], [ -73.78541614012758, 40.601494740021863 ], [ -73.785393656266876, 40.601516904923265 ], [ -73.785368935542465, 40.601537360026583 ], [ -73.785341991150332, 40.601552684339417 ], [ -73.785316164125163, 40.601568864336429 ], [ -73.785283625456074, 40.601581616198139 ], [ -73.785253340990621, 40.601589247314422 ], [ -73.785220813293463, 40.601598582516417 ], [ -73.785195019098666, 40.601604511971274 ], [ -73.785172587466263, 40.601610449470797 ], [ -73.785143428046013, 40.601617228058792 ], [ -73.785114260481961, 40.601626568598149 ], [ -73.785082855513579, 40.601635052178153 ], [ -73.785054835001077, 40.601636709845451 ], [ -73.785025699225287, 40.601635798926658 ], [ -73.784997681462798, 40.601636602816775 ], [ -73.784962918312573, 40.601643369943574 ], [ -73.784942730634853, 40.601648457915694 ], [ -73.784916895110428, 40.601667199866277 ], [ -73.784889964428089, 40.601678255590762 ], [ -73.784879877031429, 40.601678236688187 ], [ -73.78487093243757, 40.601672239532128 ], [ -73.784859725025242, 40.601672218528869 ], [ -73.784841759304655, 40.601683288365109 ], [ -73.784813694715922, 40.601698610370981 ], [ -73.784795738786073, 40.601706264477308 ], [ -73.784786780866938, 40.60170368662876 ], [ -73.784768861499018, 40.601701090137929 ], [ -73.784735201781345, 40.601712984217905 ], [ -73.784710522113997, 40.601720624781095 ], [ -73.78468135994892, 40.601728258771715 ], [ -73.784647714846614, 40.601736736191029 ], [ -73.784625281801141, 40.601742674499995 ], [ -73.784596115201197, 40.601752016751355 ], [ -73.784566941993887, 40.601763063675619 ], [ -73.784537763141174, 40.601775822467921 ], [ -73.784510832363921, 40.601786874506907 ], [ -73.784482774712998, 40.601799636309991 ], [ -73.784451338152294, 40.601817513035961 ], [ -73.784428882986631, 40.601830286182953 ], [ -73.784404183477264, 40.601844758965612 ], [ -73.78438396966294, 40.601857532800295 ], [ -73.784362635815299, 40.60187030628267 ], [ -73.784332332550164, 40.601884769361249 ], [ -73.784306507794795, 40.601900097291519 ], [ -73.784281803163822, 40.601915425564428 ], [ -73.784253734377998, 40.601931602030561 ], [ -73.784223422886143, 40.601948628044141 ], [ -73.784197595327043, 40.601964807789145 ], [ -73.784169528160206, 40.601980131473248 ], [ -73.784144816277475, 40.601998022598472 ], [ -73.784121230041649, 40.602014206624425 ], [ -73.784101018776511, 40.602026125724386 ], [ -73.784086416870679, 40.602036348921949 ], [ -73.784063957255498, 40.602050826765755 ], [ -73.784039245422548, 40.602068719624818 ], [ -73.784014535030295, 40.602085756118832 ], [ -73.783988701952126, 40.60210364317706 ], [ -73.783965113969515, 40.602120682692515 ], [ -73.783941516582061, 40.602140284998349 ], [ -73.783915680589459, 40.602159025801775 ], [ -73.783893217026204, 40.602174359967258 ], [ -73.783871878550457, 40.602188840802889 ], [ -73.783851663326288, 40.602201613537467 ], [ -73.783829199270741, 40.602217802292927 ], [ -73.783820009515892, 40.602224166039278 ], [ -73.783803366085635, 40.602235691233297 ], [ -73.78378088587975, 40.602256146616824 ], [ -73.783761770800297, 40.602275758246719 ], [ -73.783735927605335, 40.602297062812895 ], [ -73.783715687054098, 40.602318378765268 ], [ -73.783698813311915, 40.602337994607389 ], [ -73.783681943433621, 40.602356753173012 ], [ -73.783661703199357, 40.602377215514323 ], [ -73.783644844377037, 40.602392557431635 ], [ -73.783621223438089, 40.602418993789641 ], [ -73.783607717692362, 40.602436904916786 ], [ -73.783595338603234, 40.602453110879445 ], [ -73.783576220757823, 40.602473575238946 ], [ -73.783557097367009, 40.602495746116325 ], [ -73.783539089547375, 40.602519629226123 ], [ -73.783521091696812, 40.602540095686919 ], [ -73.783506448038779, 40.602563129609237 ], [ -73.78349629752563, 40.60258361094975 ], [ -73.783487253654854, 40.602607509951184 ], [ -73.783478222060396, 40.602627995156759 ], [ -73.783470300979175, 40.602651042673621 ], [ -73.783471320904894, 40.60268264850329 ], [ -73.783470109796397, 40.602709977100069 ], [ -73.783464426852774, 40.602734737128387 ], [ -73.783458743904959, 40.602759497155077 ], [ -73.783451945251215, 40.602782546703843 ], [ -73.783446273266335, 40.602803891092073 ], [ -73.783438349379509, 40.602827794042135 ], [ -73.783429309079182, 40.602851692210287 ], [ -73.783419138355299, 40.602877299210796 ], [ -73.783406730329077, 40.602902044790511 ], [ -73.783396561899309, 40.602927649951766 ], [ -73.783384156621807, 40.602951543607332 ], [ -73.78337398586541, 40.602977150603621 ], [ -73.783372781100894, 40.603003626446181 ], [ -73.783371552943777, 40.603036937244227 ], [ -73.783364758567629, 40.603058279424999 ], [ -73.783357979259904, 40.603075349614329 ], [ -73.783351176557943, 40.603099253837364 ], [ -73.783342121478213, 40.603126568548667 ], [ -73.783334212120806, 40.603147054019885 ], [ -73.783325184751661, 40.60316582825223 ], [ -73.78331278615758, 40.603188013538038 ], [ -73.783300389007707, 40.603209345224414 ], [ -73.783290245560096, 40.603227262660106 ], [ -73.78327672569084, 40.603249445909064 ], [ -73.783262090006858, 40.603269916919132 ], [ -73.783248570113912, 40.603292101921127 ], [ -73.783236164717067, 40.6033159946385 ], [ -73.783228255778681, 40.603335624578222 ], [ -73.783220334166145, 40.603359526680272 ], [ -73.783210166066183, 40.603384277303952 ], [ -73.783201139721697, 40.603403053285959 ], [ -73.783194347670957, 40.603424394625449 ], [ -73.783185314682001, 40.603444875286115 ], [ -73.783172903682129, 40.603470477112651 ], [ -73.783164973706747, 40.603496943010079 ], [ -73.783157056288317, 40.603519135822403 ], [ -73.783151384265537, 40.603540477433199 ], [ -73.783142340138525, 40.603564377410507 ], [ -73.783136657000739, 40.603589137419334 ], [ -73.783132085575062, 40.603616464180725 ], [ -73.78313312467499, 40.603642090572301 ], [ -73.783139757488158, 40.603669435822191 ], [ -73.783138562508839, 40.603692495935988 ], [ -73.783136251815975, 40.603713846655552 ], [ -73.783133935579286, 40.603736903731019 ], [ -73.783128256766958, 40.603759955459395 ], [ -73.783128167955994, 40.603787288930441 ], [ -73.783134805862716, 40.603813779583888 ], [ -73.783148180021499, 40.603836867218135 ], [ -73.783164926652276, 40.603856545644952 ], [ -73.783185032005164, 40.603877082256901 ], [ -73.783205137251798, 40.603897621542913 ], [ -73.783227495036954, 40.603914747579047 ], [ -73.783255459505156, 40.603931028753976 ], [ -73.783275614713233, 40.603936192593487 ], [ -73.783293569852262, 40.603929392408837 ], [ -73.78332606290698, 40.603931162030051 ], [ -73.783350667598782, 40.603946583072336 ], [ -73.783374158883774, 40.603960294638071 ], [ -73.783392054597968, 40.603971432831571 ], [ -73.783418882798358, 40.603991983844274 ], [ -73.783446833492874, 40.604012535210231 ], [ -73.783464720919099, 40.604026236187842 ], [ -73.783481463717138, 40.604046767325002 ], [ -73.783484770882538, 40.60406385829949 ], [ -73.783489234138017, 40.604069843513443 ], [ -73.783499242013733, 40.604093779361733 ], [ -73.783503644311864, 40.604118558407684 ], [ -73.783514777335768, 40.60414164185552 ], [ -73.783530389036642, 40.604165588267968 ], [ -73.783543784464598, 40.604181842821376 ], [ -73.78356053961231, 40.604198957306707 ], [ -73.783579538858007, 40.604215224177132 ], [ -73.783596292928678, 40.604232337818807 ], [ -73.783607445386281, 40.604249442657363 ], [ -73.783617458760375, 40.604271669378484 ], [ -73.783628591852121, 40.604294751894791 ], [ -73.783636378957866, 40.604312704992168 ], [ -73.783638573215455, 40.604327230969339 ], [ -73.783626202671684, 40.604340017609609 ], [ -73.783604844062239, 40.604360477831769 ], [ -73.7836059404042, 40.60436816858148 ], [ -73.783627163233206, 40.604389560905126 ], [ -73.783628198660026, 40.604416043646438 ], [ -73.783637144725603, 40.604422038223262 ], [ -73.783640465790072, 40.604434858871215 ], [ -73.783651621065587, 40.604451108268172 ], [ -73.783680733493298, 40.604458851810364 ], [ -73.783709826668328, 40.604472572105074 ], [ -73.783729932374158, 40.604493108621575 ], [ -73.78374556360744, 40.6045110755664 ], [ -73.783764536522824, 40.604535883803131 ], [ -73.783776803610792, 40.604554697256461 ], [ -73.783793552277658, 40.604573520988772 ], [ -73.783806958808213, 40.604586358867159 ], [ -73.783824806633802, 40.604612017739271 ], [ -73.783840429621876, 40.604632547635127 ], [ -73.783853818020972, 40.604651363189923 ], [ -73.783870552902385, 40.604674458906054 ], [ -73.783891778320466, 40.604695852942392 ], [ -73.783890601738108, 40.60471293278556 ], [ -73.783887190542941, 40.604728301973445 ], [ -73.783901686775465, 40.60475053618827 ], [ -73.783924017371916, 40.604776203480974 ], [ -73.783936273486177, 40.604798434395157 ], [ -73.783948518546666, 40.604824082702606 ], [ -73.783950704591177, 40.604841171635876 ], [ -73.783957353987816, 40.604864245596836 ], [ -73.783950580174803, 40.604879608458411 ], [ -73.783930336151656, 40.604901776364933 ], [ -73.783932502840784, 40.604924843731823 ], [ -73.783917886445053, 40.604939338982916 ], [ -73.783899890725948, 40.604958948222354 ], [ -73.783874078160252, 40.604970859497726 ], [ -73.783853873158307, 40.604980215753798 ], [ -73.783836993253075, 40.605001538970946 ], [ -73.78382010890293, 40.605024570549865 ], [ -73.783809958578431, 40.605044196388199 ], [ -73.78381778731891, 40.605049336919656 ], [ -73.783821121193014, 40.605057884644317 ], [ -73.78379529233122, 40.605074065214595 ], [ -73.783784046818667, 40.605086002145669 ], [ -73.783763794256132, 40.605110735579068 ], [ -73.783745787481237, 40.605133762272516 ], [ -73.783732276776192, 40.605153383530386 ], [ -73.78371763261508, 40.605176418394009 ], [ -73.783709722035496, 40.605196903048537 ], [ -73.783693959340638, 40.605219082033635 ], [ -73.783680455704811, 40.605236139567708 ], [ -73.783668054431004, 40.60525832404651 ], [ -73.783664605610753, 40.605285650178068 ], [ -73.783670137638921, 40.605307869368737 ], [ -73.783667841259316, 40.605324094250641 ], [ -73.783648727797456, 40.605343705024602 ], [ -73.783629613364724, 40.605362460185191 ], [ -73.783600416260583, 40.605380341817288 ], [ -73.783571231310987, 40.605394808642373 ], [ -73.783558863206338, 40.605406744271299 ], [ -73.783554295815009, 40.605433214689846 ], [ -73.783535175432505, 40.605454532801801 ], [ -73.783516052739216, 40.605475849064717 ], [ -73.783491332746763, 40.605495449157821 ], [ -73.783472276059129, 40.605497121506573 ], [ -73.783444216772821, 40.605509879455816 ], [ -73.783421812486182, 40.605507275218372 ], [ -73.783401644489544, 40.605505530637799 ], [ -73.783384797472081, 40.605516601436847 ], [ -73.783380267604841, 40.60553111380991 ], [ -73.783391426229088, 40.605545657624134 ], [ -73.783404839633931, 40.605556785515638 ], [ -73.783403655794828, 40.605576429989974 ], [ -73.783387921728774, 40.605590066703826 ], [ -73.783358762066641, 40.605595990234619 ], [ -73.783338610216759, 40.605589973653828 ], [ -73.783317326465365, 40.605586515064815 ], [ -73.783302722090909, 40.605597593682496 ], [ -73.783288089874958, 40.605617211850827 ], [ -73.783268977965562, 40.605635540197049 ], [ -73.783252104536402, 40.605654727288268 ], [ -73.783239701476148, 40.605677766321499 ], [ -73.783232899680002, 40.605701668693584 ], [ -73.783239607166422, 40.60570680622552 ], [ -73.783251896504069, 40.605718788374574 ], [ -73.783252961220612, 40.605735874281535 ], [ -73.783241701519231, 40.60575208223198 ], [ -73.783222604817155, 40.60576571249053 ], [ -73.783197892958839, 40.605782748803605 ], [ -73.783192194571626, 40.60581177996589 ], [ -73.783176431093892, 40.605834811725884 ], [ -73.783156193631783, 40.60585442021106 ], [ -73.783131485597821, 40.605870601913914 ], [ -73.783111268639331, 40.60588423095659 ], [ -73.783091033920442, 40.60590298483104 ], [ -73.783070793645024, 40.605923444303599 ], [ -73.78305169795216, 40.605937076375838 ], [ -73.783037079581732, 40.60595242343858 ], [ -73.78301458232562, 40.605978004424898 ], [ -73.782997709019568, 40.605996766476103 ], [ -73.782981969330393, 40.60601211040845 ], [ -73.782963995363204, 40.606024890065839 ], [ -73.782950502485761, 40.606038531791484 ], [ -73.782937013706658, 40.606051317162446 ], [ -73.782905602391708, 40.606060655578013 ], [ -73.782893207477343, 40.606081129854168 ], [ -73.782885341350891, 40.606087095371947 ], [ -73.782859533737536, 40.606097294542231 ], [ -73.782828116941403, 40.606108341300107 ], [ -73.782804526044501, 40.606125379565228 ], [ -73.78279994597797, 40.606155266507514 ], [ -73.782793160649319, 40.606174045856783 ], [ -73.782775193268748, 40.606185114362965 ], [ -73.782747154587739, 40.60619104170145 ], [ -73.782740352557099, 40.606214945883451 ], [ -73.782738052775997, 40.606232879029506 ], [ -73.782723427500486, 40.606249934327877 ], [ -73.782720998356595, 40.606250751958655 ], [ -73.782713331800224, 40.606253332719902 ], [ -73.782704373360616, 40.606250751950114 ], [ -73.782681950957766, 40.60625327332378 ], [ -73.782675206104855, 40.606259237267899 ], [ -73.782651612435345, 40.606277132863667 ], [ -73.782658318731606, 40.606282268670505 ], [ -73.782658265884379, 40.606298497778518 ], [ -73.78263021166066, 40.606309549926571 ], [ -73.782602147401121, 40.606324017791181 ], [ -73.782603243668859, 40.606331705788705 ], [ -73.782597570017074, 40.606353049204301 ], [ -73.782586311737319, 40.606368402488442 ], [ -73.782560498762308, 40.606379458863756 ], [ -73.782536946299643, 40.606385391971102 ], [ -73.782510045520141, 40.606386194698295 ], [ -73.782486480697443, 40.606395547947251 ], [ -73.7824628869365, 40.606413440741171 ], [ -73.782437040522098, 40.606434744085036 ], [ -73.782422427829928, 40.606447531783758 ], [ -73.78240219674737, 40.606465428261345 ], [ -73.78237860282799, 40.606483321959068 ], [ -73.78235276203111, 40.6065029197649 ], [ -73.782331416643288, 40.606518252980926 ], [ -73.782311195070776, 40.606533590247857 ], [ -73.782289848082002, 40.606549778978938 ], [ -73.782270737027261, 40.606567679397457 ], [ -73.78225387682177, 40.606583022945131 ], [ -73.782238126045357, 40.6066009297326 ], [ -73.782218996660689, 40.606624809580786 ], [ -73.782208866219747, 40.606638459355096 ], [ -73.78219311105552, 40.606658073496625 ], [ -73.782177361446358, 40.606675982118084 ], [ -73.782160487370533, 40.606695594132219 ], [ -73.782142487486141, 40.606716915894161 ], [ -73.78212223588713, 40.606739939828621 ], [ -73.782108739535474, 40.606755288902249 ], [ -73.782088486330267, 40.606779167432052 ], [ -73.782074986078257, 40.606795370178567 ], [ -73.782053616638422, 40.606818391142674 ], [ -73.78203561438653, 40.606839711043115 ], [ -73.782020986004738, 40.606857621771667 ], [ -73.782004104560983, 40.606879797479387 ], [ -73.78198608990931, 40.606904534009495 ], [ -73.781970336912764, 40.606924150802207 ], [ -73.781953461506205, 40.606943762781896 ], [ -73.781936594452347, 40.606960814643571 ], [ -73.781919721804172, 40.606979576537185 ], [ -73.781901720569195, 40.607000894662001 ], [ -73.781881474009836, 40.607023064041428 ], [ -73.781862358218717, 40.607042674430467 ], [ -73.781843238534464, 40.60706313673542 ], [ -73.781822994724678, 40.607084453263106 ], [ -73.781807254393399, 40.607099798873158 ], [ -73.781787024038479, 40.607117698005162 ], [ -73.781764533187982, 40.60714071762019 ], [ -73.781747663247629, 40.607158622211379 ], [ -73.78173079767619, 40.607174819441191 ], [ -73.781708306294931, 40.607198693648513 ], [ -73.781692556439054, 40.607216599442424 ], [ -73.781673442122312, 40.607235356117165 ], [ -73.781656574928036, 40.60725240701592 ], [ -73.781637467500019, 40.607269454489042 ], [ -73.781617245812797, 40.607283936945294 ], [ -73.781598125984388, 40.607304399209042 ], [ -73.781579001648197, 40.607326570671056 ], [ -73.781558774446992, 40.607342762315213 ], [ -73.781550893695666, 40.607353852580822 ], [ -73.781538517691573, 40.607368349114481 ], [ -73.781522768841768, 40.607386256643359 ], [ -73.781501395124508, 40.607410133020664 ], [ -73.781477790658386, 40.607431440413677 ], [ -73.781459802039606, 40.607448489986638 ], [ -73.781437314860568, 40.607470655023796 ], [ -73.781419327425127, 40.607487705512781 ], [ -73.781403577417606, 40.607505613105523 ], [ -73.781385581473174, 40.60752522286927 ], [ -73.781367591213439, 40.607543127028976 ], [ -73.78134735939642, 40.60756102691694 ], [ -73.781324886242871, 40.60757892169606 ], [ -73.78130464881491, 40.607598527177842 ], [ -73.781286644900376, 40.60761984879607 ], [ -73.781270902839211, 40.607636048014669 ], [ -73.781249546850219, 40.607654797671486 ], [ -73.781225938314662, 40.607676961366955 ], [ -73.781210199408676, 40.607691452375839 ], [ -73.781184352091401, 40.6077127581122 ], [ -73.781161864844904, 40.607734922175098 ], [ -73.781142750230785, 40.60775367876073 ], [ -73.781114644732796, 40.607780102450967 ], [ -73.781100028201095, 40.60779459642211 ], [ -73.781082039389773, 40.607811645934135 ], [ -73.781062927650282, 40.607829546151159 ], [ -73.781042695664866, 40.607847445985072 ], [ -73.781022459773141, 40.607866198655813 ], [ -73.781003340693474, 40.607886660737925 ], [ -73.780987586082034, 40.607906276554502 ], [ -73.78096735015427, 40.607925030051788 ], [ -73.780947115312244, 40.607943783631356 ], [ -73.780931363478857, 40.607962543921062 ], [ -73.780720052654587, 40.608147494462074 ], [ -73.780457020000156, 40.608382742636024 ], [ -73.780360353244234, 40.608467972457724 ], [ -73.780245723524487, 40.608562565623927 ], [ -73.780071545993991, 40.608701462149817 ], [ -73.779743427893109, 40.608960497367661 ], [ -73.779454638933032, 40.609187153307118 ], [ -73.779401834892568, 40.609225487155356 ], [ -73.779340060248046, 40.609265514705712 ], [ -73.77927043577003, 40.609306379894896 ], [ -73.779154779012771, 40.609371929922204 ], [ -73.779069443379626, 40.609419598930174 ], [ -73.778984111505579, 40.609464703982965 ], [ -73.778898789885545, 40.609508103465437 ], [ -73.778815714116007, 40.609549798001325 ], [ -73.778755100352527, 40.609577013005477 ], [ -73.778693374880518, 40.60960166478251 ], [ -73.778631657862363, 40.609623754485149 ], [ -73.778568831458898, 40.609643279205017 ], [ -73.778484701999091, 40.60966447099883 ], [ -73.778392728332989, 40.609684793989771 ], [ -73.778289549255121, 40.60970509518787 ], [ -73.778138149065839, 40.609732988292372 ], [ -73.777981149610412, 40.609760019279413 ], [ -73.777832006099146, 40.609783646918835 ], [ -73.777688477042844, 40.609803868658986 ], [ -73.77754831931442, 40.609821534692877 ], [ -73.777390229277529, 40.609839167633069 ], [ -73.777279240918318, 40.609848347524142 ], [ -73.7772276762052, 40.60985080954547 ], [ -73.777178357066418, 40.60985242029475 ], [ -73.777131281515992, 40.609852328928262 ], [ -73.777086453954894, 40.609851388221401 ], [ -73.777031548737028, 40.609847866792514 ], [ -73.776978891195981, 40.609841785051465 ], [ -73.776928479134781, 40.60983485220823 ], [ -73.776880316166043, 40.609825364333524 ], [ -73.776804162033201, 40.609807278743567 ], [ -73.776733611887821, 40.60979005776943 ], [ -73.776667544151479, 40.60977199086507 ], [ -73.776605960677401, 40.609753933483709 ], [ -73.776581333732764, 40.609745345961386 ], [ -73.77655447156252, 40.609734189265815 ], [ -73.776475027473651, 40.609694743901848 ], [ -73.776448172168358, 40.609681877148368 ], [ -73.776423548689664, 40.609671580390199 ], [ -73.776400037886333, 40.609663846844889 ], [ -73.776379878621228, 40.609659535481796 ], [ -73.776358596784959, 40.609655224605163 ], [ -73.776313783684799, 40.609650011523293 ], [ -73.776265595058817, 40.6096482102637 ], [ -73.77621403167042, 40.609650671750195 ], [ -73.776068283823179, 40.609664054906773 ], [ -73.775889438881862, 40.60968410947364 ], [ -73.775836193967137, 40.609690080047351 ], [ -73.775750976657193, 40.609701018067092 ], [ -73.775561466742147, 40.609729689619989 ], [ -73.775479616285736, 40.609739781172017 ], [ -73.775438138997742, 40.609742261196502 ], [ -73.775395551837576, 40.609741324212955 ], [ -73.775351856032941, 40.609736966624581 ], [ -73.775308174611652, 40.609728338786368 ], [ -73.775264500720127, 40.609717151648653 ], [ -73.775223080968374, 40.609702548732045 ], [ -73.775182788806774, 40.609685386871824 ], [ -73.775146990735294, 40.609665670067756 ], [ -73.775053040030627, 40.609608256806801 ], [ -73.774983704515478, 40.609562850741248 ], [ -73.77492332416557, 40.609520024159949 ], [ -73.774871910639433, 40.60947807057039 ], [ -73.774736701785443, 40.609357366599724 ], [ -73.774569045267597, 40.609221225919477 ], [ -73.774498642292187, 40.609160441015476 ], [ -73.774328827926453, 40.608999524165533 ], [ -73.774269596943086, 40.608949013490815 ], [ -73.774245023189323, 40.608924194436455 ], [ -73.774233866096026, 40.608909651580326 ], [ -73.774222715260876, 40.608892545839502 ], [ -73.774182601341195, 40.60882327876552 ], [ -73.774172564304649, 40.60880873802099 ], [ -73.774150316551925, 40.608781452738498 ], [ -73.774144660819687, 40.608774516428227 ], [ -73.774133519790126, 40.608754851317322 ], [ -73.774129066327873, 40.60874544558397 ], [ -73.774126858956336, 40.608736044270323 ], [ -73.774125768311706, 40.60872664699243 ], [ -73.774126925431645, 40.608716401289698 ], [ -73.774130320638761, 40.608706156391776 ], [ -73.774133719243778, 40.608695912420544 ], [ -73.774147243354037, 40.608673732097834 ], [ -73.774166373324292, 40.60865070735899 ], [ -73.774191115876675, 40.608625984362519 ], [ -73.774222582094652, 40.608600420980409 ], [ -73.774247889363807, 40.60858167989204 ], [ -73.774270896900347, 40.608564641730666 ], [ -73.774271768601054, 40.608564030790447 ], [ -73.774334589776345, 40.608598235986463 ], [ -73.774506098364057, 40.608708570167202 ], [ -73.774654329121987, 40.608842235091331 ], [ -73.774772908995743, 40.608987182847095 ], [ -73.774812159760401, 40.609081352868607 ], [ -73.774833597933537, 40.609124330123208 ], [ -73.774872600494092, 40.609292492094582 ], [ -73.774898030088991, 40.609355168042399 ], [ -73.775004283634516, 40.609492404457008 ], [ -73.775036540263088, 40.60952718017559 ], [ -73.775093987437884, 40.609559266730187 ], [ -73.775167068624611, 40.609577679659594 ], [ -73.775354013288378, 40.609610018750068 ], [ -73.775525485105462, 40.609608526937926 ], [ -73.775741987591502, 40.609573150556905 ], [ -73.776112698686674, 40.609513582090152 ], [ -73.776250744298579, 40.609468175723599 ], [ -73.776410052374629, 40.60940031194707 ], [ -73.775944036453396, 40.609117454639197 ], [ -73.775926711322739, 40.609101738266808 ], [ -73.775889439329674, 40.609070989603772 ], [ -73.775825002662515, 40.609017830630677 ], [ -73.775784776296874, 40.608981878846365 ], [ -73.775726690317825, 40.608923680637659 ], [ -73.775706588720666, 40.608902288216264 ], [ -73.775686495643257, 40.60887833190835 ], [ -73.775624031451272, 40.60878937764366 ], [ -73.77561793703542, 40.608781455766326 ], [ -73.775598364630682, 40.608756014460674 ], [ -73.775570448834415, 40.6087252106066 ], [ -73.775538057068502, 40.608692688786519 ], [ -73.775497825776398, 40.608657587812829 ], [ -73.775374892728863, 40.608553139634104 ], [ -73.775338023947839, 40.608518901627853 ], [ -73.775307870346793, 40.608486385039889 ], [ -73.775249827784037, 40.608416229566132 ], [ -73.775129312580006, 40.608259680640195 ], [ -73.775073502016113, 40.608192092340907 ], [ -73.775048936407956, 40.60816556702391 ], [ -73.774990830417607, 40.608113347033445 ], [ -73.774967372166728, 40.608090238607616 ], [ -73.774946165340154, 40.608064572699206 ], [ -73.774931677600406, 40.60803977355873 ], [ -73.774927244760633, 40.60802524302823 ], [ -73.774925060909595, 40.608008156689458 ], [ -73.774925184471144, 40.608006281570098 ], [ -73.774926242727602, 40.607990221422483 ], [ -73.774930904214301, 40.607937271662266 ], [ -73.77492983651473, 40.607921040359429 ], [ -73.774926525006777, 40.607906512863181 ], [ -73.774908783528261, 40.607850103525543 ], [ -73.774899879900616, 40.60783129572296 ], [ -73.774890967640431, 40.607815048954656 ], [ -73.774873107986011, 40.607793658939023 ], [ -73.774826196004781, 40.607746587519017 ], [ -73.774806100817329, 40.60772348565451 ], [ -73.774778212225286, 40.60768414020891 ], [ -73.774760374136463, 40.607656771578618 ], [ -73.774747014737031, 40.607630267259424 ], [ -73.774738128486348, 40.60760633285058 ], [ -73.774732586031078, 40.607588384391839 ], [ -73.774729287902176, 40.607569585815497 ], [ -73.774728234088812, 40.607549938794378 ], [ -73.774727181960841, 40.607529435415536 ], [ -73.774729475292276, 40.607514064388937 ], [ -73.774737433920251, 40.60747991588493 ], [ -73.774737462750323, 40.607471373573802 ], [ -73.774736942707293, 40.607459841368204 ], [ -73.774735293387025, 40.607450014317152 ], [ -73.774727499078566, 40.607435478019049 ], [ -73.774717461031202, 40.607420938321731 ], [ -73.774698485978604, 40.60739783955529 ], [ -73.774689551968891, 40.607388425051347 ], [ -73.774677256415444, 40.607379004868527 ], [ -73.774635884381624, 40.607350737267133 ], [ -73.774621350765159, 40.607339604312479 ], [ -73.774607947126214, 40.607325910763066 ], [ -73.774601252781054, 40.607317355253372 ], [ -73.774590114860345, 40.607296833827363 ], [ -73.774581225823994, 40.60727375400576 ], [ -73.774572349539127, 40.607247258466664 ], [ -73.774564611888636, 40.607215639371312 ], [ -73.77454587763475, 40.607121642806774 ], [ -73.774582382602446, 40.606931236463268 ], [ -73.774590318799099, 40.606904772174104 ], [ -73.774616303351266, 40.606843324589647 ], [ -73.774625377512507, 40.606810882973441 ], [ -73.774628849830407, 40.606778432202042 ], [ -73.774626732428743, 40.606741701112902 ], [ -73.774622359211051, 40.606709233100538 ], [ -73.774605873866591, 40.606612679816813 ], [ -73.774601448744988, 40.60659558731146 ], [ -73.774590368637021, 40.606557983101737 ], [ -73.774585937750999, 40.606542599711169 ], [ -73.774584872933801, 40.606525513802318 ], [ -73.774584898893693, 40.606517827009483 ], [ -73.77458716626181, 40.606510142777054 ], [ -73.774589436509586, 40.606501605702007 ], [ -73.774592826383738, 40.606493925513448 ], [ -73.774605212387812, 40.606476866847714 ], [ -73.774618715710503, 40.606460663223501 ], [ -73.774655826316803, 40.606423153608304 ], [ -73.774671585432543, 40.606402684139766 ], [ -73.774706512358421, 40.606348084481326 ], [ -73.774716662671096, 40.606329314131095 ], [ -73.774724567497643, 40.606311392054742 ], [ -73.7747370312687, 40.606271270236434 ], [ -73.774754093220878, 40.606196991556779 ], [ -73.77476203381201, 40.606168820730062 ], [ -73.774776752133008, 40.606124431224117 ], [ -73.77481406838362, 40.606026276124396 ], [ -73.774827663656026, 40.605982741775051 ], [ -73.774833359933638, 40.605955418384333 ], [ -73.774834716297619, 40.605885380994039 ], [ -73.774835895222211, 40.605868299486893 ], [ -73.774839307462045, 40.605852929730027 ], [ -73.774849476048644, 40.605829034450373 ], [ -73.774881060018615, 40.605768450546151 ], [ -73.774892364855802, 40.605739429943519 ], [ -73.774903712990167, 40.605697600303891 ], [ -73.774910559305525, 40.605661738635774 ], [ -73.774912910133565, 40.605629285652512 ], [ -73.774912947589243, 40.605618178621221 ], [ -73.774911892544026, 40.605598532515714 ], [ -73.774907516377482, 40.605566920029673 ], [ -73.774894282415886, 40.60550368626857 ], [ -73.774888767698556, 40.605477194661965 ], [ -73.774880071818913, 40.605396885977719 ], [ -73.774875826992073, 40.605325982994181 ], [ -73.774878181919561, 40.605292674493754 ], [ -73.774886145398156, 40.605257670541093 ], [ -73.774898604896123, 40.605218403298103 ], [ -73.7749189396405, 40.605170609122219 ], [ -73.775039765799775, 40.604900075322995 ], [ -73.775159476097414, 40.604628684684215 ], [ -73.775167390434575, 40.604608202459822 ], [ -73.775174191670459, 40.604586007004052 ], [ -73.775179868011037, 40.604563808508715 ], [ -73.775184425484724, 40.60454160957854 ], [ -73.775186738744594, 40.604520260022099 ], [ -73.775187929062568, 40.604499761868908 ], [ -73.775186871078887, 40.604480969442825 ], [ -73.775183568995033, 40.604463026390746 ], [ -73.775180256398968, 40.604448498058034 ], [ -73.775174700907698, 40.604434820775474 ], [ -73.775168014779311, 40.604422847810206 ], [ -73.775159085177961, 40.604412581503318 ], [ -73.77514902327151, 40.604404873112088 ], [ -73.775140634895337, 40.604400159491426 ], [ -73.775132241337843, 40.604396299629791 ], [ -73.775122164813268, 40.604393290154412 ], [ -73.775112086617469, 40.604391135281027 ], [ -73.775098640298879, 40.604390254336565 ], [ -73.775084072138171, 40.604390225797552 ], [ -73.775053804916652, 40.604392730313911 ], [ -73.775023528953994, 40.604397794939167 ], [ -73.774939416491264, 40.604415568509062 ], [ -73.774914750311851, 40.604418936816884 ], [ -73.774891209850111, 40.604420597111911 ], [ -73.774834056824517, 40.604419631350844 ], [ -73.774791482916555, 40.604416133021594 ], [ -73.774772438429551, 40.604413531930248 ], [ -73.774754523278702, 40.604409226434619 ], [ -73.774737729983002, 40.604404066859857 ], [ -73.774723180898334, 40.604398059672889 ], [ -73.774716471315742, 40.604393776242112 ], [ -73.774706966259131, 40.604387352192731 ], [ -73.77469858667979, 40.604380074825002 ], [ -73.774694124197495, 40.604374087429328 ], [ -73.774690781778915, 40.604368102315362 ], [ -73.774688560634004, 40.604362117560242 ], [ -73.774687463641342, 40.604355281326576 ], [ -73.774686394270717, 40.604339904616943 ], [ -73.774688690385062, 40.604323678985857 ], [ -73.774694351968577, 40.604306608868725 ], [ -73.774703382387585, 40.604286980793937 ], [ -73.774715780692731, 40.60426650555867 ], [ -73.774731543842435, 40.604244326877073 ], [ -73.77475066898954, 40.604223011150744 ], [ -73.774772036030981, 40.604200844378184 ], [ -73.774795642601092, 40.604179535595641 ], [ -73.774820361878966, 40.604160793727864 ], [ -73.774843954003813, 40.604143758016249 ], [ -73.774867533506793, 40.604130136095137 ], [ -73.774889982508753, 40.60411993121086 ], [ -73.774913545914544, 40.604111435040132 ], [ -73.774940461944752, 40.604105508331273 ], [ -73.77496961773042, 40.60410043969091 ], [ -73.774999888898463, 40.604097084197818 ], [ -73.775032392121105, 40.604095439602339 ], [ -73.775067134529763, 40.604095507675595 ], [ -73.77510411008943, 40.604097288403757 ], [ -73.7751164334219, 40.604099019076351 ], [ -73.775128750359684, 40.604101605177554 ], [ -73.77515786239772, 40.604110203645462 ], [ -73.775186963390055, 40.604121365983858 ], [ -73.775263060963084, 40.604153119717992 ], [ -73.775284330679213, 40.604160848280948 ], [ -73.775303364188019, 40.604166010405365 ], [ -73.775324648744231, 40.604168614955043 ], [ -73.77533473133326, 40.604169489292111 ], [ -73.775343699507175, 40.604168652235359 ], [ -73.775352671764281, 40.604166960582397 ], [ -73.775360523212569, 40.604164413049666 ], [ -73.775368381153427, 40.604161012764521 ], [ -73.77537623966937, 40.604156756034946 ], [ -73.775391966296283, 40.604145684214068 ], [ -73.775407699886955, 40.604132900518486 ], [ -73.775436934895268, 40.604103917609919 ], [ -73.7754650669591, 40.604069805826754 ], [ -73.775495480637176, 40.604023742224136 ], [ -73.775557434776616, 40.603929905393528 ], [ -73.775591238422948, 40.603875303345397 ], [ -73.775646511423759, 40.603768639765548 ], [ -73.775666801026873, 40.603733659841893 ], [ -73.77570171822741, 40.603681623668628 ], [ -73.775765874667599, 40.603598893532677 ], [ -73.775790626566888, 40.603569902697345 ], [ -73.775854723651051, 40.603505110822958 ], [ -73.775870473105314, 40.603487204063548 ], [ -73.775881734108381, 40.60347099591074 ], [ -73.775889443862411, 40.603456415407635 ], [ -73.775895269148478, 40.603445398815552 ], [ -73.775905458841763, 40.60341466755839 ], [ -73.77591116196011, 40.603384783067952 ], [ -73.775922626517811, 40.603307931298339 ], [ -73.775927177930257, 40.603287438858104 ], [ -73.775933966096986, 40.603268661751976 ], [ -73.775949789906889, 40.603228547269708 ], [ -73.775989263845503, 40.603154311205685 ], [ -73.776003937791131, 40.603122736844291 ], [ -73.776016373194651, 40.60309030258729 ], [ -73.776023197377356, 40.603060419357597 ], [ -73.776027827781562, 40.603016010921444 ], [ -73.776033784118241, 40.602910960138082 ], [ -73.776054484265586, 40.602753834716459 ], [ -73.776052827135629, 40.602746999160104 ], [ -73.776048366920676, 40.602740299606531 ], [ -73.776040535562942, 40.602735869915151 ], [ -73.776032137529711, 40.602733718399172 ], [ -73.776017574134926, 40.602732409459065 ], [ -73.776004123614612, 40.60273323690113 ], [ -73.775989546008105, 40.602735770433455 ], [ -73.775951412666203, 40.602745091239512 ], [ -73.775911022598521, 40.602758679651288 ], [ -73.775889444422901, 40.602768297707215 ], [ -73.775872862209297, 40.602775688981261 ], [ -73.775858264619472, 40.60278420201837 ], [ -73.775845909402619, 40.602792719346809 ], [ -73.775834669794875, 40.602802948063385 ], [ -73.77582454207348, 40.602814885483262 ], [ -73.775815529844934, 40.602828536046808 ], [ -73.77580875259612, 40.602844752031196 ], [ -73.775798565817126, 40.602874627762098 ], [ -73.77578263009913, 40.602948055129943 ], [ -73.775778090148407, 40.602965129166662 ], [ -73.775771316307669, 40.602979637784436 ], [ -73.775763426513706, 40.602993286103008 ], [ -73.775755542329605, 40.60300523141165 ], [ -73.775745421512923, 40.603015459628132 ], [ -73.77573418517747, 40.603023980050168 ], [ -73.775726324060571, 40.603029089563933 ], [ -73.775715099197299, 40.603034194347252 ], [ -73.775689297862087, 40.603041829948154 ], [ -73.775660146680423, 40.603046042332963 ], [ -73.775629882959151, 40.603047693320583 ], [ -73.775617558150699, 40.603046814627902 ], [ -73.775606358555123, 40.603045085284755 ], [ -73.77559740081702, 40.603042504963774 ], [ -73.775587887369355, 40.603038642024131 ], [ -73.775580994758869, 40.603033645905086 ], [ -73.775576726395201, 40.603024740380818 ], [ -73.775580761102347, 40.602992075406981 ], [ -73.775588701529486, 40.602963050829487 ], [ -73.775598881011192, 40.602935736242415 ], [ -73.775612419491111, 40.602908430896214 ], [ -73.77562819868136, 40.602881981772164 ], [ -73.775646212185151, 40.602857247142254 ], [ -73.775666459557115, 40.602835077093971 ], [ -73.775688944218601, 40.602813767776141 ], [ -73.775726029354814, 40.602783089162138 ], [ -73.775823777744193, 40.602708969656106 ], [ -73.775867603793884, 40.602673178368477 ], [ -73.775889444489053, 40.60265440956622 ], [ -73.775901320402369, 40.602644204006509 ], [ -73.775976648753527, 40.602571747137254 ], [ -73.776017107597781, 40.602537657511583 ], [ -73.776036204844402, 40.602524029283316 ], [ -73.776058655998, 40.602512968732462 ], [ -73.776082223208562, 40.602502764958992 ], [ -73.776108024294828, 40.602495127513144 ], [ -73.776133819538018, 40.602489198257388 ], [ -73.776160722247084, 40.60248668873858 ], [ -73.776186502707915, 40.602485885316639 ], [ -73.77621002980311, 40.602487638550826 ], [ -73.77621787032524, 40.602489362125404 ], [ -73.776229061139006, 40.602493655124455 ], [ -73.77623912630429, 40.602499655139596 ], [ -73.776251419525181, 40.602509928924256 ], [ -73.776278227212657, 40.602536459292374 ], [ -73.776294996161113, 40.602548450921603 ], [ -73.776308426607102, 40.602553601963102 ], [ -73.776322989742368, 40.602555338627802 ], [ -73.776333076171753, 40.602555358279247 ], [ -73.776347653622125, 40.602552822862947 ], [ -73.776363353959525, 40.602549436867442 ], [ -73.776377942844221, 40.602543487650436 ], [ -73.776392536358145, 40.602535828225555 ], [ -73.776407136687965, 40.602526460604864 ], [ -73.776420618740559, 40.602516238041055 ], [ -73.776431866351103, 40.602504300071651 ], [ -73.776457738801952, 40.602475308514357 ], [ -73.776477997226863, 40.602449722600262 ], [ -73.776494892032758, 40.602424131138037 ], [ -73.77650841849966, 40.602400240403234 ], [ -73.776518583213587, 40.602377198647694 ], [ -73.776524260233685, 40.602355001004064 ], [ -73.776527694221372, 40.602333654435135 ], [ -73.776525349180602, 40.602308879117174 ], [ -73.77651827805542, 40.602300748902451 ], [ -73.77650653427564, 40.602294321562354 ], [ -73.776478554099626, 40.602282736735383 ], [ -73.776469748614971, 40.602277059785145 ], [ -73.77646431195258, 40.602269467683143 ], [ -73.776464145158272, 40.602235300547299 ], [ -73.776467559134773, 40.602219933501587 ], [ -73.776470968599625, 40.602206273734204 ], [ -73.776476612954241, 40.602193470245176 ], [ -73.776482256740536, 40.602181525041445 ], [ -73.776490134861859, 40.602171289634519 ], [ -73.776499135423848, 40.60216105565835 ], [ -73.776513744228637, 40.602149127822287 ], [ -73.77653059319843, 40.602137200747038 ], [ -73.776605827497747, 40.602092077769036 ], [ -73.776636156605477, 40.60207078269228 ], [ -73.776705839781684, 40.602010271473198 ], [ -73.776735069893135, 40.601982995593424 ], [ -73.776759810559966, 40.60195741926605 ], [ -73.776787937095065, 40.601924159993352 ], [ -73.77684759932697, 40.60184398524445 ], [ -73.776875732680651, 40.601809019346263 ], [ -73.77692521837632, 40.60175615658747 ], [ -73.776960076587187, 40.601721203818087 ], [ -73.776994918077804, 40.601690522192868 ], [ -73.77702974187325, 40.601665818243355 ], [ -73.77716450989297, 40.601578955011711 ], [ -73.77733632702234, 40.601471665842887 ], [ -73.777358525980134, 40.601456078696003 ], [ -73.777366655505872, 40.601450370488308 ], [ -73.777397004020486, 40.601423095688723 ], [ -73.777426246630199, 40.601391547633447 ], [ -73.777467877035249, 40.60134123138662 ], [ -73.777479138488516, 40.601325024832953 ], [ -73.777491531337176, 40.601305403890017 ], [ -73.777523121619794, 40.601242256443292 ], [ -73.777535521888836, 40.601220070773515 ], [ -73.777550157563269, 40.601199600485486 ], [ -73.777564784807225, 40.601181690397567 ], [ -73.777601883492949, 40.601146742695562 ], [ -73.777641229169248, 40.601110089202443 ], [ -73.777734512534138, 40.6010282689764 ], [ -73.777915446322879, 40.600875725346128 ], [ -73.777939035408735, 40.600858687152247 ], [ -73.777990695429608, 40.600825473940013 ], [ -73.778010917576765, 40.600810139351445 ], [ -73.778031145288651, 40.600793095476249 ], [ -73.778045771777386, 40.600776039930487 ], [ -73.778055913537059, 40.600758974793642 ], [ -73.778064938013358, 40.600741055566118 ], [ -73.778071726957606, 40.600721422806146 ], [ -73.778076280366605, 40.600700078436738 ], [ -73.778078592572498, 40.600678727811918 ], [ -73.778080916133518, 40.600653960710211 ], [ -73.778081177387591, 40.600575377842397 ], [ -73.778080093093678, 40.600564273155399 ], [ -73.778074598598536, 40.600531804928885 ], [ -73.778074629837036, 40.600522408931809 ], [ -73.778076899435604, 40.600513871781814 ], [ -73.77808255295264, 40.6004985071758 ], [ -73.778091572914718, 40.600482296228385 ], [ -73.778102835818316, 40.600465234173051 ], [ -73.778121974644094, 40.600438790361572 ], [ -73.77813884669655, 40.600420032610216 ], [ -73.778159080041775, 40.600401281353243 ], [ -73.778181545951668, 40.600385095543878 ], [ -73.778206248692612, 40.600370621422968 ], [ -73.778218595744619, 40.60036466663734 ], [ -73.778232054275222, 40.600361276056262 ], [ -73.7782477524878, 40.600358742564829 ], [ -73.778264566526801, 40.600357068593127 ], [ -73.778282496208305, 40.600357103223494 ], [ -73.778302666561203, 40.60035799494311 ], [ -73.778347467910478, 40.600364915537433 ], [ -73.778367623296276, 40.600369224801867 ], [ -73.778387772700427, 40.600376096863755 ], [ -73.778470597474794, 40.600407006037393 ], [ -73.778507541110002, 40.600418182591802 ], [ -73.778714694152612, 40.60046726891369 ], [ -73.778794206108586, 40.600483652294102 ], [ -73.778866997857108, 40.600498312628197 ], [ -73.778957508766368, 40.600513825415 ], [ -73.778987958702757, 40.600519044218835 ], [ -73.779103320353187, 40.600538486137694 ], [ -73.779130773369303, 40.600538966722191 ], [ -73.779190707391336, 40.600545058819698 ], [ -73.779247827806699, 40.600554567409681 ], [ -73.779307180874198, 40.600566638725297 ], [ -73.779369886285124, 40.600582133870546 ], [ -73.779424746901, 40.600597614912374 ], [ -73.779485197573706, 40.600616521405563 ], [ -73.779685573040908, 40.600682676779094 ], [ -73.779760579433344, 40.600705883168047 ], [ -73.779834470188888, 40.600727380834833 ], [ -73.779902771566086, 40.600744593874062 ], [ -73.779934132806517, 40.600749780709833 ], [ -73.779967746646918, 40.600751551591962 ], [ -73.780002488927821, 40.600750764492339 ], [ -73.780038366380751, 40.600745708370113 ], [ -73.78007425117805, 40.600738088435911 ], [ -73.780109027215602, 40.600727051542258 ], [ -73.780142691685384, 40.600713448778137 ], [ -73.780171882049174, 40.600697276379506 ], [ -73.780257206850152, 40.600649606520463 ], [ -73.780288644497958, 40.600630874579039 ], [ -73.780320096879635, 40.6006087278327 ], [ -73.780344824534936, 40.600586566370531 ], [ -73.780435904399212, 40.600492782628322 ], [ -73.780598932287077, 40.600329947194759 ], [ -73.780639415863391, 40.60028646436789 ], [ -73.78067879865327, 40.600237852711238 ], [ -73.780694557158952, 40.600216528727486 ], [ -73.780709205795773, 40.600191784198842 ], [ -73.780722742346839, 40.600165329170437 ], [ -73.780737980290382, 40.600131621986741 ], [ -73.780739682533365, 40.600125217077526 ], [ -73.780739716200927, 40.600114967398689 ], [ -73.780738631475558, 40.600103861816358 ], [ -73.780732012930542, 40.600072245256349 ], [ -73.780732043795027, 40.600062849258308 ], [ -73.780733190634493, 40.600054309996814 ], [ -73.780738850322052, 40.600037236897798 ], [ -73.780745631197604, 40.600020166945065 ], [ -73.780755773250021, 40.600003101569875 ], [ -73.780767028571901, 40.599987748367511 ], [ -73.780780526170332, 40.599972399529783 ], [ -73.780795138247598, 40.599958761944812 ], [ -73.780810867007105, 40.599946833024966 ], [ -73.780827708929465, 40.599936615354473 ], [ -73.780847915642951, 40.599926403270182 ], [ -73.780871482416501, 40.599916198515054 ], [ -73.780969099181448, 40.599878802336271 ], [ -73.781010623388127, 40.599860089358373 ], [ -73.781103781250195, 40.599815851398311 ], [ -73.781128481824624, 40.599801378402773 ], [ -73.781149821728221, 40.59978604263361 ], [ -73.781166685571762, 40.599769846481827 ], [ -73.781212784397553, 40.599722954815071 ], [ -73.781237512525763, 40.59970079324502 ], [ -73.781317304514076, 40.599630903356925 ], [ -73.781340897886764, 40.599612156184051 ], [ -73.781406030244867, 40.599570426484107 ], [ -73.781421761710831, 40.599557643800885 ], [ -73.781434126692389, 40.599545710230956 ], [ -73.781456631886243, 40.599517563899994 ], [ -73.781478024363253, 40.599486855311739 ], [ -73.781498312296662, 40.599451020666073 ], [ -73.781520867862483, 40.599407499803554 ], [ -73.781524263762094, 40.599397255603016 ], [ -73.781531068321641, 40.599372499637603 ], [ -73.781535586988582, 40.59936140472486 ], [ -73.781541225640325, 40.599350309266839 ], [ -73.781547982665884, 40.59934007422352 ], [ -73.781565983061355, 40.59931875162421 ], [ -73.78158958984443, 40.599296588680737 ], [ -73.781626666309421, 40.599266764509409 ], [ -73.781633402365458, 40.599262932980182 ], [ -73.781642379575871, 40.599259107468818 ], [ -73.781656957806291, 40.599255715940522 ], [ -73.781669287580371, 40.599254885706813 ], [ -73.781696179914462, 40.599255790536347 ], [ -73.781758910262582, 40.599262744816905 ], [ -73.781773476823076, 40.59926362619435 ], [ -73.78178580659889, 40.599262795948142 ], [ -73.781797016885847, 40.599261108967646 ], [ -73.781809075233966, 40.599257287543494 ], [ -73.781820021793578, 40.599251327951855 ], [ -73.781843060183647, 40.599231299930587 ], [ -73.781862179321863, 40.59920998300769 ], [ -73.781880186362116, 40.599186954842175 ], [ -73.781897078163581, 40.599161362494989 ], [ -73.781944399376826, 40.599082869021714 ], [ -73.781972591374782, 40.599029110789189 ], [ -73.781988385452124, 40.598996681341973 ], [ -73.781999672212365, 40.598971933023101 ], [ -73.782006466982949, 40.598949737145162 ], [ -73.782012137404024, 40.598929248343083 ], [ -73.782014456651993, 40.598905336679479 ], [ -73.782015662725243, 40.598879711766543 ], [ -73.782014635172274, 40.598850669711091 ], [ -73.782011386846335, 40.598816494970336 ], [ -73.782005935588259, 40.598769506919744 ], [ -73.782004847512397, 40.59876010879438 ], [ -73.781996065843089, 40.598703717439129 ], [ -73.781991655978956, 40.598681501287189 ], [ -73.781936121244513, 40.598530208443307 ], [ -73.781851512650732, 40.598359212761324 ], [ -73.781638076339505, 40.598176870350152 ], [ -73.781590036789538, 40.598132364150956 ], [ -73.781554306096069, 40.598093004470954 ], [ -73.781542032443738, 40.598076750970471 ], [ -73.781517496218996, 40.598040830084038 ], [ -73.781506335356156, 40.598027142430524 ], [ -73.781496286072439, 40.598016017195661 ], [ -73.781485111234815, 40.598006600701559 ], [ -73.781472812448186, 40.597998034914092 ], [ -73.781456404558, 40.597989843136261 ], [ -73.781445944094443, 40.597990296913274 ], [ -73.781429115527914, 40.597996245269982 ], [ -73.781417902137306, 40.597998573392637 ], [ -73.781399983687919, 40.59799533519179 ], [ -73.781387673725263, 40.597990185955567 ], [ -73.781377606463948, 40.597984189062053 ], [ -73.781367546724681, 40.597977336739156 ], [ -73.781358609028786, 40.597968777342246 ], [ -73.781351912455492, 40.597960221292041 ], [ -73.781347460996543, 40.597950817674402 ], [ -73.781344129490023, 40.597941417026199 ], [ -73.781340864652634, 40.597912367103049 ], [ -73.781339901383049, 40.597864532037732 ], [ -73.781343466799214, 40.597802186508027 ], [ -73.781342422773875, 40.597778267526941 ], [ -73.781340211944453, 40.597769722698246 ], [ -73.781335755402182, 40.597761171835202 ], [ -73.781330181107677, 40.597752617921309 ], [ -73.781321243443628, 40.597744059441396 ], [ -73.781301127836272, 40.597727792732663 ], [ -73.78125639951179, 40.59769866648039 ], [ -73.781242981051463, 40.597689671692343 ], [ -73.781162477574895, 40.597635278779336 ], [ -73.781158631423693, 40.597632753058079 ], [ -73.781353831896894, 40.597498663826634 ] ] ], [ [ [ -73.774844850879887, 40.608450282915207 ], [ -73.774780449007466, 40.608451030118388 ], [ -73.774683130858989, 40.608445791617449 ], [ -73.774771260387553, 40.608416144550979 ], [ -73.774797058145779, 40.608410215680372 ], [ -73.7748065960877, 40.608407032151028 ], [ -73.774813619490686, 40.608401423103089 ], [ -73.774814484568381, 40.608394020650316 ], [ -73.774810597488667, 40.608383763289751 ], [ -73.774795543902698, 40.608360671313328 ], [ -73.774774977714856, 40.608311090411426 ], [ -73.774753834202727, 40.608266632404501 ], [ -73.774731561316514, 40.608223879547658 ], [ -73.77470816209879, 40.608183687369547 ], [ -73.774697007800128, 40.608168290876996 ], [ -73.774681371166395, 40.60815203181901 ], [ -73.774662368869329, 40.608136619921616 ], [ -73.77462659773164, 40.608109217833004 ], [ -73.774417549757075, 40.607950786045926 ], [ -73.774377311459915, 40.607919102245496 ], [ -73.77435048793518, 40.607896840763971 ], [ -73.774328143226867, 40.607875442767629 ], [ -73.774309160727157, 40.607854904977906 ], [ -73.774294654250298, 40.607836087033299 ], [ -73.774281274897419, 40.607815559417077 ], [ -73.77426902144488, 40.607793327478937 ], [ -73.774257893314029, 40.607770243147421 ], [ -73.774247889992409, 40.607745451899746 ], [ -73.774237896545259, 40.607718100453582 ], [ -73.774221286056758, 40.607658275647921 ], [ -73.774218000829848, 40.607636061422859 ], [ -73.774216944757526, 40.607616412552197 ], [ -73.77421812796149, 40.607598479135582 ], [ -73.774222665741306, 40.607582257926708 ], [ -73.774238474376347, 40.607547268532137 ], [ -73.774247890115575, 40.60753111447314 ], [ -73.774255382778648, 40.607518259850465 ], [ -73.774275636698789, 40.607494383617038 ], [ -73.774286881432005, 40.607483300460757 ], [ -73.774298121587904, 40.607473927341132 ], [ -73.774326199683827, 40.607456044111885 ], [ -73.774353147197317, 40.607441576153334 ], [ -73.774381201686708, 40.607431382384 ], [ -73.774409242103204, 40.607424603403061 ], [ -73.774463067896534, 40.607416166780816 ], [ -73.774503425340598, 40.607412831227201 ], [ -73.774551616866063, 40.607412925865447 ], [ -73.77459979541041, 40.607416863963984 ], [ -73.774609877045123, 40.607418163361373 ], [ -73.774618270949048, 40.607422024181268 ], [ -73.774626660762422, 40.607426738676956 ], [ -73.774632807699675, 40.60743187653123 ], [ -73.774636709113352, 40.607437863663357 ], [ -73.77464005288968, 40.607443848779397 ], [ -73.774642268366009, 40.607451540974886 ], [ -73.774643335364885, 40.607466916755286 ], [ -73.774642161656601, 40.607483145503821 ], [ -73.77463417926721, 40.607523276105397 ], [ -73.774634141776247, 40.60753437953656 ], [ -73.774634107171124, 40.607544628286377 ], [ -73.774639617398947, 40.607572828264765 ], [ -73.774646251105096, 40.607599320233682 ], [ -73.774656251786354, 40.607624963368245 ], [ -73.774667375363919, 40.607649755022472 ], [ -73.774686318642736, 40.60768225162311 ], [ -73.774708622408866, 40.607714752975618 ], [ -73.774732046937928, 40.607748112967307 ], [ -73.774758838936776, 40.607779769346081 ], [ -73.774764421771195, 40.607785758935783 ], [ -73.774771125929959, 40.607791751559901 ], [ -73.774802438322752, 40.607812312538741 ], [ -73.774815849535472, 40.60782344410466 ], [ -73.774822547942492, 40.607831144084578 ], [ -73.774825323516751, 40.60783883637076 ], [ -73.774826942720054, 40.607857629893353 ], [ -73.774826801512035, 40.607899486014695 ], [ -73.77483109422765, 40.607955868990821 ], [ -73.774835461871746, 40.607990043428501 ], [ -73.774839890028275, 40.608006281407327 ], [ -73.774848795444726, 40.608024235533293 ], [ -73.774888948702483, 40.608081543427026 ], [ -73.7749391212718, 40.60815937142447 ], [ -73.774973703210307, 40.608207272315141 ], [ -73.77499491308167, 40.608232083701914 ], [ -73.775045163616582, 40.608286849436986 ], [ -73.775065254508405, 40.608311659454429 ], [ -73.775110996330383, 40.608374103169211 ], [ -73.775239288989056, 40.608550312287178 ], [ -73.775260495617459, 40.608576832827424 ], [ -73.775287301370028, 40.608604218006391 ], [ -73.775319705681397, 40.608633323261103 ], [ -73.775365530116659, 40.608670998133547 ], [ -73.775448248828823, 40.608736076021337 ], [ -73.775504134816586, 40.608781455516684 ], [ -73.775522012176353, 40.608797719761817 ], [ -73.775535411010765, 40.608812266876335 ], [ -73.775541550736875, 40.608819966641057 ], [ -73.775548787630655, 40.608834499031161 ], [ -73.775559838829921, 40.608880646368817 ], [ -73.775561469870681, 40.608885248527272 ], [ -73.774844850879887, 40.608450282915207 ] ] ], [ [ [ -73.774551472332774, 40.608438704618798 ], [ -73.774502251734589, 40.608432524245011 ], [ -73.774512314152858, 40.608431010989229 ], [ -73.774523521598596, 40.608431032998865 ], [ -73.774536968723069, 40.60843191400992 ], [ -73.774560492088384, 40.608435378618964 ], [ -73.77458344960354, 40.608440425913621 ], [ -73.774551472332774, 40.608438704618798 ] ] ] ] } },
{ "type": "Feature", "properties": { "Borough": "QN", "Block": 15980, "Lot": 100, "CD": 414, "BCT2020": "4097207", "BCTCB2020": "40972071000", "CT2010": "972.03", "CB2010": "2000", "SchoolDist": "27", "Council": 31, "ZipCode": 11691, "FireComp": "E265", "PolicePrct": 101, "HealthCent": 45, "HealthArea": 3800, "Sanitboro": "4", "SanitDistr": "14", "SanitSub": "2E", "Address": "51-10 ALMEDA AVENUE", "ZoneDist1": "M1-1", "ZoneDist2": null, "ZoneDist3": null, "ZoneDist4": null, "Overlay1": null, "Overlay2": null, "SPDist1": null, "SPDist2": null, "SPDist3": null, "LtdHeight": null, "SplitZone": "N", "BldgClass": "Y6", "LandUse": "07", "Easements": 0, "OwnerType": "C", "OwnerName": "NYC DEPARTMENT OF SANITATION", "LotArea": 392770, "BldgArea": 80100, "ComArea": 80100, "ResArea": 0, "OfficeArea": 0, "RetailArea": 0, "GarageArea": 80100, "StrgeArea": 0, "FactryArea": 0, "OtherArea": 0, "AreaSource": "2", "NumBldgs": 3, "NumFloors": 2.0, "UnitsRes": 0, "UnitsTotal": 1, "LotFront": 1244.0, "LotDepth": 351.0, "BldgFront": 0.0, "BldgDepth": 0.0, "Ext": "N", "ProxCode": "1", "IrrLotCode": "Y", "LotType": "6", "BsmtCode": "0", "AssessLand": 2299500.0, "AssessTot": 8447850.0, "ExemptTot": 8447850.0, "YearBuilt": 2007, "YearAlter1": 2009, "YearAlter2": 0, "HistDist": null, "Landmark": null, "BuiltFAR": 0.2, "ResidFAR": 0.0, "CommFAR": 1.0, "FacilFAR": 2.4, "BoroCode": 4, "BBL": 4159800100.0000005, "CondoNo": 0, "Tract2010": "097203", "XCoord": 1044976, "YCoord": 158136, "ZoneMap": "30c", "ZMCode": null, "Sanborn": "408 051", "TaxMap": "46103", "EDesigNum": null, "APPBBL": 4159800002.0, "APPDate": "07/21/2014", "PLUTOMapID": "1", "FIRM07_FLA": "1", "PFIRM15_FL": "1", "Version": "25v4", "DCPEdited": "t", "Latitude": 40.600515, "Longitude": -73.7813207, "Notes": null, "Shape_Leng": 0.0, "Shape_Area": 395179.25301500002 }, "geometry": { "type": "MultiPolygon", "coordinates": [ [ [ [ -73.781971778147295, 40.598001273033894 ], [ -73.782176557788702, 40.597989775715121 ], [ -73.782424019399514, 40.598596658427958 ], [ -73.782504906968029, 40.599423291610591 ], [ -73.782084191660203, 40.600227710335112 ], [ -73.78206170183843, 40.60058659517582 ], [ -73.782232058757543, 40.601303565755231 ], [ -73.781650486248651, 40.601399933823238 ], [ -73.781510782180405, 40.601443528967167 ], [ -73.780593716216373, 40.601884864905301 ], [ -73.780593275009338, 40.601885019004641 ], [ -73.780593205197505, 40.601885053089106 ], [ -73.780592834303604, 40.60188468677714 ], [ -73.779987001179052, 40.601427155875832 ], [ -73.779648778052888, 40.601248407676913 ], [ -73.780888641651984, 40.600110584426318 ], [ -73.78171480896286, 40.599540065040536 ], [ -73.782057984628366, 40.599334327589183 ], [ -73.782141823797758, 40.599174742702836 ], [ -73.782214005508621, 40.59891191653746 ], [ -73.782202539801432, 40.598681986345042 ], [ -73.782155982338551, 40.598541495402806 ], [ -73.781897731478551, 40.598005768237478 ], [ -73.781945151357405, 40.59800276049652 ], [ -73.781945267150505, 40.598002760716476 ], [ -73.781971778147295, 40.598001273033894 ] ] ] ] } },
{ "type": "Feature", "properties": { "Borough": "QN", "Block": 15980, "Lot": 500, "CD": 414, "BCT2020": "4097207", "BCTCB2020": "40972071000", "CT2010": "972.03", "CB2010": "2000", "SchoolDist": "27", "Council": 31, "ZipCode": 11691, "FireComp": "E265", "PolicePrct": 101, "HealthCent": 45, "HealthArea": 3800, "Sanitboro": "4", "SanitDistr": "14", "SanitSub": "2E", "Address": "ALMEDA AVENUE", "ZoneDist1": "PARK", "ZoneDist2": null, "ZoneDist3": null, "ZoneDist4": null, "Overlay1": null, "Overlay2": null, "SPDist1": null, "SPDist2": null, "SPDist3": null, "LtdHeight": null, "SplitZone": "N", "BldgClass": "Q0", "LandUse": "09", "Easements": 0, "OwnerType": "C", "OwnerName": "NYC DEPARTMENT OF CITYWIDE ADMINISTRATIVE SERVICES", "LotArea": 12886, "BldgArea": 0, "ComArea": 0, "ResArea": 0, "OfficeArea": 0, "RetailArea": 0, "GarageArea": 0, "StrgeArea": 0, "FactryArea": 0, "OtherArea": 0, "AreaSource": "7", "NumBldgs": 0, "NumFloors": 0.0, "UnitsRes": 0, "UnitsTotal": 0, "LotFront": 48.0, "LotDepth": 280.0, "BldgFront": 0.0, "BldgDepth": 0.0, "Ext": null, "ProxCode": "0", "IrrLotCode": "Y", "LotType": "5", "BsmtCode": "5", "AssessLand": 164250.0, "AssessTot": 164250.0, "ExemptTot": 164250.0, "YearBuilt": 0, "YearAlter1": 0, "YearAlter2": 0, "HistDist": null, "Landmark": null, "BuiltFAR": 0.0, "ResidFAR": 0.0, "CommFAR": 0.0, "FacilFAR": 0.0, "BoroCode": 4, "BBL": 4159800500.0, "CondoNo": 0, "Tract2010": "097203", "XCoord": 1046655, "YCoord": 161253, "ZoneMap": "25b", "ZMCode": null, "Sanborn": "408 051", "TaxMap": "46103", "EDesigNum": null, "APPBBL": 0.0, "APPDate": null, "PLUTOMapID": "1", "FIRM07_FLA": "1", "PFIRM15_FL": "1", "Version": "25v4", "DCPEdited": "t", "Latitude": 40.6090588, "Longitude": -73.7752457, "Notes": null, "Shape_Leng": 0.0, "Shape_Area": 111278.924828 }, "geometry": { "type": "MultiPolygon", "coordinates": [ [ [ [ -73.776250744298579, 40.609468175723599 ], [ -73.776112698686674, 40.609513582090152 ], [ -73.775741987591502, 40.609573150556905 ], [ -73.775525485105462, 40.609608526937926 ], [ -73.775354013288378, 40.609610018750068 ], [ -73.775167068624611, 40.609577679659594 ], [ -73.775093987437884, 40.609559266730187 ], [ -73.775036540263088, 40.60952718017559 ], [ -73.775004283634516, 40.609492404457008 ], [ -73.774898030088991, 40.609355168042399 ], [ -73.774872600494092, 40.609292492094582 ], [ -73.774833597933537, 40.609124330123208 ], [ -73.774812159760401, 40.609081352868607 ], [ -73.774772908995743, 40.608987182847095 ], [ -73.774654329121987, 40.608842235091331 ], [ -73.774506098364057, 40.608708570167202 ], [ -73.774334589776345, 40.608598235986463 ], [ -73.774271768601054, 40.608564030790447 ], [ -73.774330439440064, 40.608522906061786 ], [ -73.774389964952761, 40.608485438749163 ], [ -73.774425903157905, 40.608464153443137 ], [ -73.774448358243419, 40.608452242207846 ], [ -73.774470807668962, 40.60844203564924 ], [ -73.774491003964584, 40.608435242160077 ], [ -73.774501101043796, 40.60843269725622 ], [ -73.774502251734589, 40.608432524245011 ], [ -73.774551472332774, 40.608438704618798 ], [ -73.77458344960354, 40.608440425913621 ], [ -73.774615368376303, 40.60844744345949 ], [ -73.774641135530899, 40.608450910616313 ], [ -73.774652342871832, 40.608450932613181 ], [ -73.774662431865906, 40.608450098729733 ], [ -73.774671404718234, 40.60844840629278 ], [ -73.774680376346154, 40.608446718287006 ], [ -73.774683130858989, 40.608445791617449 ], [ -73.774780449007466, 40.608451030118388 ], [ -73.774844850879887, 40.608450282915207 ], [ -73.775561469870681, 40.608885248527272 ], [ -73.775563171269326, 40.608890048934697 ], [ -73.775566505834931, 40.608897742376982 ], [ -73.775586552350063, 40.608936221290499 ], [ -73.775595476878053, 40.608948195921762 ], [ -73.775604409564366, 40.608958463115904 ], [ -73.775611115688861, 40.608963602009403 ], [ -73.775620061534056, 40.60896959720732 ], [ -73.775658095112306, 40.608991027444041 ], [ -73.775673753490778, 40.60900130509733 ], [ -73.775741924486624, 40.60905952294538 ], [ -73.77583130827206, 40.609142551068011 ], [ -73.775859250177334, 40.609165668066275 ], [ -73.77588943933003, 40.609187081155405 ], [ -73.775919638649555, 40.609205079434282 ], [ -73.775956757240522, 40.60922180616177 ], [ -73.775967215608802, 40.60922182564854 ], [ -73.775978438615255, 40.609217578119896 ], [ -73.775992472019965, 40.609210344581058 ], [ -73.775999219204607, 40.609203952350292 ], [ -73.776005969709573, 40.609195850915583 ], [ -73.776007409438847, 40.609184428709383 ], [ -73.775969173140965, 40.609140257256776 ], [ -73.775944036453396, 40.609117454639197 ], [ -73.776410052374629, 40.60940031194707 ], [ -73.776250744298579, 40.609468175723599 ] ] ] ] } },
{ "type": "Feature", "properties": { "Borough": "QN", "Block": 16003, "Lot": 1, "CD": 414, "BCT2020": "4097207", "BCTCB2020": "40972071002", "CT2010": "972.03", "CB2010": "4002", "SchoolDist": "27", "Council": 31, "ZipCode": 11692, "FireComp": "E265", "PolicePrct": 100, "HealthCent": 45, "HealthArea": 3800, "Sanitboro": "4", "SanitDistr": "14", "SanitSub": "2E", "Address": "ALMEDA AVENUE", "ZoneDist1": "R4", "ZoneDist2": null, "ZoneDist3": null, "ZoneDist4": null, "Overlay1": null, "Overlay2": null, "SPDist1": null, "SPDist2": null, "SPDist3": null, "LtdHeight": null, "SplitZone": "N", "BldgClass": "V3", "LandUse": "11", "Easements": 0, "OwnerType": "C", "OwnerName": "NYC DEPARTMENT OF PARKS AND RECREATION", "LotArea": 96798, "BldgArea": 0, "ComArea": 0, "ResArea": 0, "OfficeArea": 0, "RetailArea": 0, "GarageArea": 0, "StrgeArea": 0, "FactryArea": 0, "OtherArea": 0, "AreaSource": "7", "NumBldgs": 0, "NumFloors": 0.0, "UnitsRes": 0, "UnitsTotal": 0, "LotFront": 220.75, "LotDepth": 440.0, "BldgFront": 0.0, "BldgDepth": 0.0, "Ext": null, "ProxCode": "0", "IrrLotCode": "Y", "LotType": "3", "BsmtCode": "5", "AssessLand": 236520.0, "AssessTot": 236520.0, "ExemptTot": 236520.0, "YearBuilt": 0, "YearAlter1": 0, "YearAlter2": 0, "HistDist": null, "Landmark": null, "BuiltFAR": 0.0, "ResidFAR": 1.0, "CommFAR": 0.0, "FacilFAR": 2.0, "BoroCode": 4, "BBL": 4160030000.9999995, "CondoNo": 0, "Tract2010": "097203", "XCoord": 1042895, "YCoord": 156768, "ZoneMap": "30c", "ZMCode": null, "Sanborn": "408 059", "TaxMap": "46104", "EDesigNum": null, "APPBBL": 0.0, "APPDate": null, "PLUTOMapID": "1", "FIRM07_FLA": "1", "PFIRM15_FL": "1", "Version": "25v4", "DCPEdited": "t", "Latitude": 40.5967741, "Longitude": -73.7888264, "Notes": null, "Shape_Leng": 0.0, "Shape_Area": 93834.1010637 }, "geometry": { "type": "MultiPolygon", "coordinates": [ [ [ [ -73.788371851186241, 40.596191940678537 ], [ -73.789158999723909, 40.596150372959386 ], [ -73.789219236962779, 40.596759860343283 ], [ -73.789200917869053, 40.596773095130644 ], [ -73.7891986563084, 40.596779925059735 ], [ -73.78920311539612, 40.59678762009603 ], [ -73.789223225871751, 40.59680644738598 ], [ -73.78922396230486, 40.596807671455515 ], [ -73.789241752084592, 40.59698767046244 ], [ -73.789240571971419, 40.596990979630178 ], [ -73.789236006195409, 40.597017451129183 ], [ -73.789223601405595, 40.597042200026138 ], [ -73.789216799932959, 40.59706695737259 ], [ -73.78922120779346, 40.597090882453038 ], [ -73.78922002461907, 40.597110523403913 ], [ -73.789212088494338, 40.597139552612674 ], [ -73.789198570225196, 40.597162590168196 ], [ -73.789186172279756, 40.597184776178594 ], [ -73.789171527842782, 40.597208665431175 ], [ -73.78916584868773, 40.597233425672002 ], [ -73.789159048660622, 40.597257330251246 ], [ -73.789160096967109, 40.597280394557629 ], [ -73.789156685769186, 40.597296616674235 ], [ -73.78914316123803, 40.597320508901554 ], [ -73.789121814769302, 40.597338407195153 ], [ -73.789135216680805, 40.597352952744735 ], [ -73.78913407124405, 40.597360638491203 ], [ -73.789132742461931, 40.597362364838787 ], [ -73.788488699718215, 40.597396374482209 ], [ -73.788371851186241, 40.596191940678537 ] ] ] ] } },
{ "type": "Feature", "properties": { "Borough": "QN", "Block": 15961, "Lot": 110, "CD": 414, "BCT2020": "4097207", "BCTCB2020": "40972070001", "CT2010": "972.03", "CB2010": "0001", "SchoolDist": null, "Council": 31, "ZipCode": 0, "FireComp": null, "PolicePrct": 0, "HealthCent": 0, "HealthArea": 0, "Sanitboro": null, "SanitDistr": null, "SanitSub": null, "Address": "BEACH 43 STREET", "ZoneDist1": "R3A", "ZoneDist2": null, "ZoneDist3": null, "ZoneDist4": null, "Overlay1": null, "Overlay2": null, "SPDist1": "CR-5", "SPDist2": null, "SPDist3": null, "LtdHeight": null, "SplitZone": "N", "BldgClass": "Z9", "LandUse": null, "Easements": 0, "OwnerType": "C", "OwnerName": "NYC HOUSING PRESERVATION AND DEVELOPMENT", "LotArea": 235600, "BldgArea": 8000, "ComArea": 8000, "ResArea": 0, "OfficeArea": 0, "RetailArea": 0, "GarageArea": 0, "StrgeArea": 0, "FactryArea": 0, "OtherArea": 8000, "AreaSource": "2", "NumBldgs": 1, "NumFloors": 0.0, "UnitsRes": 0, "UnitsTotal": 0, "LotFront": 570.0, "LotDepth": 110.0, "BldgFront": 0.0, "BldgDepth": 0.0, "Ext": "N", "ProxCode": "0", "IrrLotCode": "Y", "LotType": "5", "BsmtCode": "0", "AssessLand": 253350.0, "AssessTot": 296550.0, "ExemptTot": 296550.0, "YearBuilt": 0, "YearAlter1": 0, "YearAlter2": 0, "HistDist": null, "Landmark": null, "BuiltFAR": 0.03, "ResidFAR": 0.75, "CommFAR": 0.0, "FacilFAR": 1.0, "BoroCode": 4, "BBL": 4159610110.0, "CondoNo": 0, "Tract2010": "097203", "XCoord": 1046886, "YCoord": 158215, "ZoneMap": "31a", "ZMCode": null, "Sanborn": "408 061", "TaxMap": "46103", "EDesigNum": null, "APPBBL": 0.0, "APPDate": null, "PLUTOMapID": "1", "FIRM07_FLA": "1", "PFIRM15_FL": "1", "Version": "25v4", "DCPEdited": "t", "Latitude": 40.6007185, "Longitude": -73.7744419, "Notes": null, "Shape_Leng": 0.0, "Shape_Area": 102412.42507100001 }, "geometry": { "type": "MultiPolygon", "coordinates": [ [ [ [ -73.774227207210103, 40.59933311298893 ], [ -73.774229968222301, 40.599317401623495 ], [ -73.774256685430672, 40.599165368997213 ], [ -73.774260994283082, 40.599140852588562 ], [ -73.774267965443713, 40.599101179212724 ], [ -73.774281324523542, 40.599025163398302 ], [ -73.774650805307559, 40.599125849372911 ], [ -73.774720225383604, 40.599122595144927 ], [ -73.774731254336558, 40.599217751838289 ], [ -73.774765126401775, 40.599510015198234 ], [ -73.77477209833387, 40.59957016500038 ], [ -73.774778236717069, 40.59962313874729 ], [ -73.774790994656996, 40.599733230365892 ], [ -73.774803792827711, 40.599843642737277 ], [ -73.774816045763899, 40.599949365878715 ], [ -73.774827506606542, 40.600048253380265 ], [ -73.774835347667278, 40.600115907171066 ], [ -73.774841571220492, 40.600169595131646 ], [ -73.774848163224931, 40.600226479780389 ], [ -73.774860573530901, 40.600333554944463 ], [ -73.774873378940825, 40.600444036587405 ], [ -73.774885948876587, 40.600552491644621 ], [ -73.774893795785715, 40.600620204001331 ], [ -73.774917537668017, 40.600825041555296 ], [ -73.77492740754812, 40.60091020462702 ], [ -73.774937390001284, 40.60099633145115 ], [ -73.77494921619784, 40.601098366083185 ], [ -73.774957191905386, 40.601167177332691 ], [ -73.774958687791539, 40.601180089283616 ], [ -73.774967986109445, 40.601260310077876 ], [ -73.774970909154703, 40.601285523280218 ], [ -73.774972821795188, 40.601302022795913 ], [ -73.77498081927817, 40.601371031275164 ], [ -73.77498729219289, 40.601426878267894 ], [ -73.774996651331548, 40.601507636788533 ], [ -73.7750218692007, 40.601725199813281 ], [ -73.774977801893641, 40.601744174032341 ], [ -73.774960740949098, 40.601747198596605 ], [ -73.774953004218787, 40.60171472490714 ], [ -73.774921829539693, 40.601654872533963 ], [ -73.774916244214779, 40.601649736712169 ], [ -73.774909534898967, 40.601645452371265 ], [ -73.774878234118461, 40.60162232769224 ], [ -73.774868182506722, 40.601612059074924 ], [ -73.774861499020233, 40.601600086092837 ], [ -73.77485816657375, 40.601591539025101 ], [ -73.774854862305276, 40.601573595871187 ], [ -73.774851725667503, 40.601506964378764 ], [ -73.774851800575973, 40.601484755827741 ], [ -73.774854269515856, 40.601417282563403 ], [ -73.774850978513811, 40.601396776538671 ], [ -73.774846558230223, 40.601377975668953 ], [ -73.774769882322261, 40.601185638008204 ], [ -73.774711281973282, 40.601033907983478 ], [ -73.774711599445595, 40.601022806013404 ], [ -73.774716682013917, 40.601011283874655 ], [ -73.774732458809126, 40.600984834027862 ], [ -73.774735280201426, 40.600978861927608 ], [ -73.774735867353783, 40.600971175227862 ], [ -73.774732576989408, 40.600949814677328 ], [ -73.774725925295556, 40.600928447446954 ], [ -73.774698168965116, 40.600851518808518 ], [ -73.774693739642728, 40.600836134579289 ], [ -73.774688189580772, 40.600819894381466 ], [ -73.77468600602927, 40.600802807188145 ], [ -73.774683834016344, 40.600782302433302 ], [ -73.774686308759257, 40.600713119968695 ], [ -73.774685276928693, 40.60068663897583 ], [ -73.77468088498965, 40.600660151306904 ], [ -73.774671995127733, 40.600637925994803 ], [ -73.774664195237449, 40.600624242518343 ], [ -73.774651918225942, 40.600609699244544 ], [ -73.774599409509761, 40.600561763015833 ], [ -73.774588240993069, 40.600550635816617 ], [ -73.774579310683421, 40.600540369372865 ], [ -73.774461078432893, 40.600376136301236 ], [ -73.774446582197228, 40.600354755481483 ], [ -73.774418731063363, 40.600306013005238 ], [ -73.774405357273054, 40.600284631626664 ], [ -73.77438862267023, 40.600262389117617 ], [ -73.774370752541373, 40.600244418240408 ], [ -73.774356223403757, 40.600232430727942 ], [ -73.774337217076592, 40.600219581646556 ], [ -73.774273469491646, 40.600181871996924 ], [ -73.774234320167523, 40.600160440833584 ], [ -73.774216988444152, 40.600148874633589 ], [ -73.774209732322092, 40.600140747507972 ], [ -73.774206391260194, 40.600134760621735 ], [ -73.774203051988493, 40.600127920806372 ], [ -73.774199739924313, 40.600113394279411 ], [ -73.774196496000883, 40.600078367392648 ], [ -73.774195403700404, 40.600069822870054 ], [ -73.774192069733388, 40.600062129379658 ], [ -73.774184279882547, 40.60004588391255 ], [ -73.77417313342491, 40.60002792530944 ], [ -73.774121834619322, 40.599954366790527 ], [ -73.774118986945155, 40.599948900076704 ], [ -73.774227207210103, 40.59933311298893 ] ] ] ] } }
]
}
