{
"type": "FeatureCollection",
"name": "pluto_Claremont_Park",
"crs": { "type": "name", "properties": { "name": "urn:ogc:def:crs:OGC:1.3:CRS84" } },
"features": [
{ "type": "Feature", "properties": { "Borough": "BX", "Block": 2788, "Lot": 1, "CD": 204, "BCT2020": "2017100", "BCTCB2020": "20171001000", "CT2010": "171", "CB2010": "1000", "SchoolDist": "09", "Council": 16, "ZipCode": 10457, "FireComp": "E092", "PolicePrct": 44, "HealthCent": 25, "HealthArea": 2320, "Sanitboro": "2", "SanitDistr": "04", "SanitSub": "3B", "Address": "EAST MT EDEN AVENUE", "ZoneDist1": "PARK", "ZoneDist2": null, "ZoneDist3": null, "ZoneDist4": null, "Overlay1": null, "Overlay2": null, "SPDist1": null, "SPDist2": null, "SPDist3": null, "LtdHeight": null, "SplitZone": "N", "BldgClass": "Q1", "LandUse": "09", "Easements": 0, "OwnerType": "C", "OwnerName": "NYC DEPARTMENT OF PARKS AND RECREATION", "LotArea": 1648310, "BldgArea": 10200, "ComArea": 10200, "ResArea": 0, "OfficeArea": 3800, "RetailArea": 0, "GarageArea": 6400, "StrgeArea": 0, "FactryArea": 0, "OtherArea": 0, "AreaSource": "2", "NumBldgs": 7, "NumFloors": 2.0, "UnitsRes": 0, "UnitsTotal": 1, "LotFront": 1190.0, "LotDepth": 2075.0, "BldgFront": 70.83, "BldgDepth": 70.83, "Ext": "N", "ProxCode": "0", "IrrLotCode": "Y", "LotType": "4", "BsmtCode": "0", "AssessLand": 7840350.0, "AssessTot": 9444150.0, "ExemptTot": 9444150.0, "YearBuilt": 1931, "YearAlter1": 1974, "YearAlter2": 0, "HistDist": null, "Landmark": null, "BuiltFAR": 0.01, "ResidFAR": 0.0, "CommFAR": 0.0, "FacilFAR": 0.0, "BoroCode": 2, "BBL": 2027880001.0, "CondoNo": 0, "Tract2010": "0171", "XCoord": 1009856, "YCoord": 245484, "ZoneMap": "3d", "ZMCode": null, "Sanborn": "215 100", "TaxMap": "21101", "EDesigNum": null, "APPBBL": 0.0, "APPDate": null, "PLUTOMapID": "1", "FIRM07_FLA": null, "PFIRM15_FL": null, "Version": "25v4", "DCPEdited": "t", "Latitude": 40.8404349, "Longitude": -73.9074582, "Notes": null, "Shape_Leng": 0.0, "Shape_Area": 1652311.1650100001 }, "geometry": { "type": "MultiPolygon", "coordinates": [ [ [ [ -73.908826489734096, 40.839441010904167 ], [ -73.90947564771659, 40.842045386362265 ], [ -73.90949023522289, 40.842103363606348 ], [ -73.90949876856223, 40.842161207255153 ], [ -73.909501065748444, 40.842237608022685 ], [ -73.909498743291394, 40.842273034303943 ], [ -73.909473422566151, 40.842659184526525 ], [ -73.909469827413233, 40.842714020963086 ], [ -73.907654090113851, 40.842618304255474 ], [ -73.90514904779873, 40.842486202069644 ], [ -73.905300519349396, 40.840791419281828 ], [ -73.905307243142346, 40.8407333869905 ], [ -73.905319309769737, 40.840657866980955 ], [ -73.905336871683076, 40.840575211435208 ], [ -73.905355061506185, 40.840506293474391 ], [ -73.905375665053299, 40.84044000330352 ], [ -73.905402607523271, 40.84036535192368 ], [ -73.905424527135708, 40.840311606750731 ], [ -73.905448113393021, 40.840258938128727 ], [ -73.905489294722386, 40.840177710348968 ], [ -73.905548310042519, 40.840068156747016 ], [ -73.905581583701519, 40.84000950052873 ], [ -73.905619658296558, 40.839944820348251 ], [ -73.905667154716369, 40.839867447335116 ], [ -73.905716180364209, 40.839791050683004 ], [ -73.905781664452931, 40.839693903041223 ], [ -73.905839919205093, 40.839611678748149 ], [ -73.905918556841698, 40.839506244555899 ], [ -73.906006483664058, 40.839396950331384 ], [ -73.906110637578394, 40.839274217557112 ], [ -73.906247144740703, 40.839123119393079 ], [ -73.906526897515164, 40.838800873112014 ], [ -73.906590777649697, 40.838727288708021 ], [ -73.906840144008356, 40.838421175498326 ], [ -73.906901411701639, 40.838343967033147 ], [ -73.906956852242175, 40.838283226557273 ], [ -73.907019127698717, 40.838222868960585 ], [ -73.907065783953257, 40.838182097962815 ], [ -73.907101074080117, 40.838153425843778 ], [ -73.90712640714753, 40.838133884855651 ], [ -73.907161409733476, 40.838108203885668 ], [ -73.907196785185405, 40.838083689413416 ], [ -73.907229085160679, 40.838062479078623 ], [ -73.907267248297586, 40.83803876284825 ], [ -73.907298648010865, 40.838020275709482 ], [ -73.907326891504553, 40.838004393008205 ], [ -73.907344694746627, 40.837994729733133 ], [ -73.907458936758118, 40.837918600042109 ], [ -73.907532107929399, 40.837861407130944 ], [ -73.90760915282425, 40.837792155977617 ], [ -73.907639220386201, 40.837762070262542 ], [ -73.907690371874864, 40.837706010396346 ], [ -73.907732330575783, 40.837654441074463 ], [ -73.907773935889409, 40.837596880538236 ], [ -73.90780999938336, 40.837540116084263 ], [ -73.907853111791411, 40.837472122591116 ], [ -73.907924075601542, 40.837395255466525 ], [ -73.908021576781465, 40.837323466613078 ], [ -73.908107787902523, 40.83727916984887 ], [ -73.908186859521024, 40.837249816459739 ], [ -73.908268096448523, 40.837228832077543 ], [ -73.909126981241783, 40.837066174131422 ], [ -73.909145093843989, 40.837064078544749 ], [ -73.909164027106684, 40.8370652632074 ], [ -73.909181916035266, 40.837069749236022 ], [ -73.909196759376883, 40.837076588450444 ], [ -73.909209397711138, 40.837085769132386 ], [ -73.90921906710652, 40.837096752835841 ], [ -73.909225028568954, 40.837108076785498 ], [ -73.909229158996496, 40.837134406986102 ], [ -73.909232052528907, 40.837170510108052 ], [ -73.909231453791023, 40.837212206185534 ], [ -73.909226744267897, 40.837253124588464 ], [ -73.909217391639416, 40.837295811564339 ], [ -73.909210737279778, 40.83731783510413 ], [ -73.909202533612444, 40.837340520253321 ], [ -73.909189086470164, 40.837371374094147 ], [ -73.909177109178557, 40.83739464614483 ], [ -73.909162199325621, 40.837419922947262 ], [ -73.9091398047035, 40.837458055679285 ], [ -73.909118790938635, 40.837493838340343 ], [ -73.909101997316654, 40.837522431148983 ], [ -73.909078885965798, 40.83756178071021 ], [ -73.909057950401774, 40.83760017843754 ], [ -73.909017908632435, 40.837677843374749 ], [ -73.908972043437544, 40.83777499944707 ], [ -73.908925928147397, 40.837884158880293 ], [ -73.908879129627138, 40.838011505999283 ], [ -73.908839296372918, 40.838140034607115 ], [ -73.908805242633832, 40.838274959502385 ], [ -73.908780742140451, 40.838399285064021 ], [ -73.908768519398706, 40.838478472118489 ], [ -73.908758090523378, 40.838565496773889 ], [ -73.908748418768724, 40.83869350361379 ], [ -73.908745511163431, 40.838832061462291 ], [ -73.908748963741687, 40.83894533386546 ], [ -73.908758609712066, 40.839067800792762 ], [ -73.90877340842988, 40.839183518168049 ], [ -73.908790455983009, 40.839282308817616 ], [ -73.908809440810828, 40.839371752008475 ], [ -73.908826489734096, 40.839441010904167 ] ] ] ] } },
{ "type": "Feature", "properties": { "Borough": "BX", "Block": 9999, "Lot": 100, "CD": 204, "BCT2020": "2017100", "BCTCB2020": "20171001001", "CT2010": "229.02", "CB2010": "1004", "SchoolDist": "09", "Council": 15, "ZipCode": 10457, "FireComp": "E042", "PolicePrct": 44, "HealthCent": 25, "HealthArea": 2310, "Sanitboro": "2", "SanitDistr": "04", "SanitSub": "3B", "Address": null, "ZoneDist1": "R8", "ZoneDist2": null, "ZoneDist3": null, "ZoneDist4": null, "Overlay1": null, "Overlay2": null, "SPDist1": null, "SPDist2": null, "SPDist3": null, "LtdHeight": null, "SplitZone": "N", "BldgClass": null, "LandUse": null, "Easements": 0, "OwnerType": null, "OwnerName": null, "LotArea": 0, "BldgArea": 0, "ComArea": 0, "ResArea": 0, "OfficeArea": 0, "RetailArea": 0, "GarageArea": 0, "StrgeArea": 0, "FactryArea": 0, "OtherArea": 0, "AreaSource": null, "NumBldgs": 0, "NumFloors": 0.0, "UnitsRes": 0, "UnitsTotal": 0, "LotFront": 0.0, "LotDepth": 0.0, "BldgFront": 0.0, "BldgDepth": 0.0, "Ext": null, "ProxCode": null, "IrrLotCode": null, "LotType": null, "BsmtCode": null, "AssessLand": 0.0, "AssessTot": 0.0, "ExemptTot": 0.0, "YearBuilt": 0, "YearAlter1": 0, "YearAlter2": 0, "HistDist": null, "Landmark": null, "BuiltFAR": 0.0, "ResidFAR": 6.02, "CommFAR": 0.0, "FacilFAR": 6.5, "BoroCode": 2, "BBL": 2099990100.0, "CondoNo": 0, "Tract2010": "022902", "XCoord": 1009409, "YCoord": 246379, "ZoneMap": "3d", "ZMCode": null, "Sanborn": null, "TaxMap": null, "EDesigNum": null, "APPBBL": 0.0, "APPDate": null, "PLUTOMapID": "3", "FIRM07_FLA": null, "PFIRM15_FL": null, "Version": "25v4", "DCPEdited": null, "Latitude": 40.8428923, "Longitude": -73.9090696, "Notes": null, "Shape_Leng": 0.0, "Shape_Area": 28199.7298477 }, "geometry": { "type": "MultiPolygon", "coordinates": [ [ [ [ -73.907944616063006, 40.84293431077635 ], [ -73.907937553169816, 40.842932984069627 ], [ -73.907930596105842, 40.84293136396979 ], [ -73.907923769985189, 40.842929454850008 ], [ -73.907917091321877, 40.842927261322536 ], [ -73.90791058136665, 40.842924792356484 ], [ -73.907904262693492, 40.842922053407918 ], [ -73.90789815192629, 40.842919054362319 ], [ -73.907892269099008, 40.842915804270234 ], [ -73.907886629733312, 40.842912311176136 ], [ -73.90788125397161, 40.842908587896055 ], [ -73.907876158324271, 40.842904644146557 ], [ -73.907871354561721, 40.842900492570742 ], [ -73.907866861832915, 40.842896147738941 ], [ -73.907862690694344, 40.842891620286949 ], [ -73.907858856551769, 40.8428869247821 ], [ -73.907855367647315, 40.842882075453538 ], [ -73.907852237067445, 40.842877087873177 ], [ -73.907849474155441, 40.842871976268484 ], [ -73.907847087373, 40.842866756877697 ], [ -73.9078450825359, 40.842861445014371 ], [ -73.907843470197832, 40.842856057000887 ], [ -73.90784224702972, 40.842850609817397 ], [ -73.90784142457747, 40.842845118867004 ], [ -73.907841000609409, 40.84283960388963 ], [ -73.907840980947213, 40.842834078443659 ], [ -73.90784135972531, 40.842828560512324 ], [ -73.907842141655792, 40.84282306716451 ], [ -73.907843318347261, 40.842817614707549 ], [ -73.907844893411792, 40.842812219289435 ], [ -73.907846857346172, 40.842806899895557 ], [ -73.90784920407755, 40.842801669903345 ], [ -73.90785192773933, 40.842796545539571 ], [ -73.907855018729194, 40.842791543948145 ], [ -73.907858470193361, 40.84278667867332 ], [ -73.907862268672801, 40.842781966688406 ], [ -73.907866405003901, 40.842777420703442 ], [ -73.907870863525304, 40.842773055093275 ], [ -73.907875634856481, 40.842768882400314 ], [ -73.907880701128377, 40.842764917082704 ], [ -73.907886049331339, 40.842761169002159 ], [ -73.907891659285369, 40.842757652531198 ], [ -73.907897517870666, 40.842754374938792 ], [ -73.907903605020238, 40.84275134867363 ], [ -73.907909903981235, 40.842748581166667 ], [ -73.907916393585083, 40.842746083864547 ], [ -73.907923053448286, 40.84274386134998 ], [ -73.907929868354344, 40.842741921726571 ], [ -73.907936810758486, 40.842740271247798 ], [ -73.907943862034685, 40.842738913577797 ], [ -73.907951004112547, 40.842737853053777 ], [ -73.90795821098682, 40.842737094339057 ], [ -73.907965461285428, 40.842736639089175 ], [ -73.907972734956161, 40.842736489130829 ], [ -73.907980008099742, 40.842736641682109 ], [ -73.908449071779046, 40.842755064232954 ], [ -73.908456282542275, 40.842755799389906 ], [ -73.908463428905065, 40.842756823537066 ], [ -73.908470494122739, 40.842758135740993 ], [ -73.908477458269132, 40.842759728875251 ], [ -73.908484299863346, 40.84276160099764 ], [ -73.908491002388558, 40.842763745905742 ], [ -73.90849754558954, 40.84276615638786 ], [ -73.908503910628554, 40.842768829585026 ], [ -73.908510080778953, 40.842771753937924 ], [ -73.908516037211868, 40.842774923911186 ], [ -73.908521764519193, 40.842778327780309 ], [ -73.908527244754907, 40.842781958420474 ], [ -73.90853246515799, 40.842785804107933 ], [ -73.908537410097296, 40.842789854875754 ], [ -73.908542063065781, 40.84279409983489 ], [ -73.908546414606619, 40.842798525676663 ], [ -73.908550450523364, 40.842803120510069 ], [ -73.908554158939126, 40.842807872612106 ], [ -73.908557531612274, 40.842812765916179 ], [ -73.908560556769402, 40.842817788614305 ], [ -73.908563228264057, 40.842822926230454 ], [ -73.908565536861332, 40.842828164452293 ], [ -73.908567475422913, 40.842833486957609 ], [ -73.908569039119755, 40.842838881280386 ], [ -73.908570224448113, 40.842844331103883 ], [ -73.908571029117354, 40.842849820278531 ], [ -73.908571446095664, 40.842855335247634 ], [ -73.908571480034482, 40.842860857106913 ], [ -73.908571127315682, 40.842866375061313 ], [ -73.908570389395095, 40.842871869285197 ], [ -73.908569269598786, 40.842877327232685 ], [ -73.908567769379005, 40.842882731670812 ], [ -73.90856589327521, 40.842888067461878 ], [ -73.908563648462575, 40.842893322730461 ], [ -73.908561039815893, 40.842898477819944 ], [ -73.908558073300426, 40.842903520941469 ], [ -73.908554760611807, 40.842908437714406 ], [ -73.908551107829183, 40.842913213752077 ], [ -73.908547126868058, 40.842917836434218 ], [ -73.90854282831873, 40.84292229313423 ], [ -73.908538223993475, 40.842926568637708 ], [ -73.908533329542678, 40.8429306539199 ], [ -73.908528155455741, 40.842934534516637 ], [ -73.908522718485088, 40.842938203331826 ], [ -73.908517032747142, 40.842941647741704 ], [ -73.908511113790127, 40.842944857805307 ], [ -73.908504979364707, 40.842947823663259 ], [ -73.908498646000467, 40.842950539891987 ], [ -73.908492131665682, 40.842952997553667 ], [ -73.908485455211149, 40.842955187627396 ], [ -73.908478634487807, 40.842957107534694 ], [ -73.908471690766333, 40.842958748090346 ], [ -73.908464641899869, 40.842960107634639 ], [ -73.908457506947983, 40.842961180746016 ], [ -73.90845014474445, 40.842961927739879 ], [ -73.90844271073675, 40.842962258555588 ], [ -73.908434553128004, 40.842961996321627 ], [ -73.907956238979992, 40.84293594004356 ], [ -73.907950352612403, 40.842935244648935 ], [ -73.907944616063006, 40.84293431077635 ] ] ], [ [ [ -73.908804460238144, 40.842978128752463 ], [ -73.908797524962296, 40.842977069656861 ], [ -73.90879055822316, 40.842975658498538 ], [ -73.908783699717262, 40.842973966414398 ], [ -73.90877697202032, 40.842971998945458 ], [ -73.90877039066045, 40.842969759615443 ], [ -73.908763975563232, 40.842967257392289 ], [ -73.908757748203541, 40.842964498736123 ], [ -73.908751722670132, 40.842961489931191 ], [ -73.908745918119081, 40.842958241786192 ], [ -73.908740349852948, 40.842954761422611 ], [ -73.908735035589018, 40.842951060734329 ], [ -73.908729989638303, 40.842947148518547 ], [ -73.908725226192487, 40.842943037585165 ], [ -73.908720758233827, 40.842938740493096 ], [ -73.908716598749336, 40.842934266287209 ], [ -73.908712762149705, 40.842929630207905 ], [ -73.908709256457115, 40.842924844891336 ], [ -73.908706092562028, 40.842919923814883 ], [ -73.908703280905783, 40.842914882465756 ], [ -73.908700827531874, 40.842909732393565 ], [ -73.908698740681587, 40.842904489833757 ], [ -73.908697025067099, 40.842899171940353 ], [ -73.908695686619652, 40.842893790430367 ], [ -73.90869472884053, 40.842888363294499 ], [ -73.908694154134622, 40.842882904922064 ], [ -73.908693966005075, 40.84287743070977 ], [ -73.908694163216424, 40.842871956719321 ], [ -73.908694745859393, 40.842866498428421 ], [ -73.908695711378442, 40.842861071896408 ], [ -73.908697057437863, 40.842855692515307 ], [ -73.908698780603885, 40.842850374588679 ], [ -73.908700877104337, 40.842845135430025 ], [ -73.908703337450888, 40.842839988334219 ], [ -73.908706158204879, 40.842834948689834 ], [ -73.90870932855411, 40.84283003004326 ], [ -73.908712842525688, 40.842825248452463 ], [ -73.908716686003757, 40.842820614864614 ], [ -73.908720851807288, 40.842816145419135 ], [ -73.908725325600102, 40.842811850898158 ], [ -73.908730095576971, 40.842807743925952 ], [ -73.908735147511379, 40.842803837037181 ], [ -73.908740468387151, 40.842800141181201 ], [ -73.908746041448339, 40.842796666051989 ], [ -73.90875185136899, 40.842793421673043 ], [ -73.90875788028589, 40.842790419661355 ], [ -73.908764112879268, 40.842787665525165 ], [ -73.908770532393135, 40.842785169039551 ], [ -73.908777116344268, 40.842782936543401 ], [ -73.90878384698712, 40.842780974299579 ], [ -73.90879070779414, 40.842779287646593 ], [ -73.908797678374185, 40.842777883011316 ], [ -73.908804736359926, 40.842776763890136 ], [ -73.908811862691891, 40.842775932108111 ], [ -73.908819038416794, 40.842775391162967 ], [ -73.908826241060979, 40.842775142962104 ], [ -73.908833514206478, 40.842775297299724 ], [ -73.909324433030861, 40.842800689927394 ], [ -73.909331546453856, 40.842801485272098 ], [ -73.909338593174837, 40.842802564166348 ], [ -73.909345557554317, 40.842803924006468 ], [ -73.909352416133146, 40.842805560173609 ], [ -73.909359151071854, 40.842807468217025 ], [ -73.909365745630595, 40.842809643608227 ], [ -73.909372178559494, 40.842812081812603 ], [ -73.909378435657118, 40.84281477202547 ], [ -73.90938449446152, 40.842817708793817 ], [ -73.909390341871031, 40.84282088499414 ], [ -73.909395963581474, 40.842824290576836 ], [ -73.909401336026278, 40.842827917492741 ], [ -73.909406452063777, 40.84283175310388 ], [ -73.909411293970848, 40.842835788442976 ], [ -73.909415849862853, 40.842840013547409 ], [ -73.909420105439835, 40.842844414015957 ], [ -73.909424048926809, 40.842848979045819 ], [ -73.909427670979071, 40.842853695079889 ], [ -73.909430960708718, 40.842858550394702 ], [ -73.909433908880189, 40.842863529757985 ], [ -73.909436505820025, 40.842868620529799 ], [ -73.909438747026172, 40.842873809154142 ], [ -73.909440623930934, 40.842879078474084 ], [ -73.909442133246174, 40.842884416940954 ], [ -73.909443270257825, 40.842889807235871 ], [ -73.909444030024503, 40.84289523697128 ], [ -73.909444412679989, 40.842900688830809 ], [ -73.90944441714403, 40.842906148591048 ], [ -73.909444040900809, 40.842911600773711 ], [ -73.90944328881929, 40.842917031076347 ], [ -73.909442158607121, 40.84292242318444 ], [ -73.909440656123621, 40.842927761960013 ], [ -73.909438784910321, 40.842933034689707 ], [ -73.909436551052806, 40.842938223391712 ], [ -73.909433959080459, 40.842943316355957 ], [ -73.909431018709796, 40.842948298281271 ], [ -73.909427735908224, 40.842953155704961 ], [ -73.909424120057395, 40.842957874995527 ], [ -73.909420181860327, 40.842962442860241 ], [ -73.909415930809587, 40.842966846506656 ], [ -73.909411382454962, 40.842971073482119 ], [ -73.909406544961115, 40.84297511291836 ], [ -73.909401433878088, 40.84297895219261 ], [ -73.909396064532658, 40.842982583203757 ], [ -73.909390450045123, 40.842985994417297 ], [ -73.909384604646192, 40.842989173963346 ], [ -73.90937854861312, 40.842992115584742 ], [ -73.90937229715712, 40.842994811262841 ], [ -73.909365867035532, 40.842997252809894 ], [ -73.909359275993438, 40.842999433129307 ], [ -73.909352541775363, 40.843001346798282 ], [ -73.909345684658632, 40.843002987558478 ], [ -73.909338723595809, 40.843004352579534 ], [ -73.909331678750817, 40.843005436608131 ], [ -73.909324565443143, 40.843006236977267 ], [ -73.909317407468365, 40.843006751865474 ], [ -73.909310225099077, 40.843006978529864 ], [ -73.908809634345502, 40.842978482211706 ], [ -73.908804460238144, 40.842978128752463 ] ] ] ] } }
]
}
