{
"type": "FeatureCollection",
"name": "pluto_Prospect_Park",
"crs": { "type": "name", "properties": { "name": "urn:ogc:def:crs:OGC:1.3:CRS84" } },
"features": [
{ "type": "Feature", "properties": { "Borough": "BK", "Block": 1117, "Lot": 1, "CD": 355, "BCT2020": "3017700", "BCTCB2020": "30177001007", "CT2010": "177", "CB2010": "1010", "SchoolDist": "17", "Council": 39, "ZipCode": 11226, "FireComp": "E220", "PolicePrct": 78, "HealthCent": 39, "HealthArea": 4600, "Sanitboro": "3", "SanitDistr": "55", "SanitSub": null, "Address": "95 PROSPECT PARK WEST", "ZoneDist1": "PARK", "ZoneDist2": null, "ZoneDist3": null, "ZoneDist4": null, "Overlay1": null, "Overlay2": null, "SPDist1": null, "SPDist2": null, "SPDist3": null, "LtdHeight": null, "SplitZone": "N", "BldgClass": "Q1", "LandUse": "09", "Easements": 0, "OwnerType": "C", "OwnerName": "NYC DEPARTMENT OF PARKS AND RECREATION", "LotArea": 17142400, "BldgArea": 0, "ComArea": 0, "ResArea": 0, "OfficeArea": 0, "RetailArea": 0, "GarageArea": 0, "StrgeArea": 0, "FactryArea": 0, "OtherArea": 0, "AreaSource": "7", "NumBldgs": 32, "NumFloors": 1.0, "UnitsRes": 0, "UnitsTotal": 0, "LotFront": 526.0, "LotDepth": 250.0, "BldgFront": 0.0, "BldgDepth": 0.0, "Ext": "N", "ProxCode": "1", "IrrLotCode": "Y", "LotType": "3", "BsmtCode": "0", "AssessLand": 115634250.0, "AssessTot": 139075650.0, "ExemptTot": 139075650.0, "YearBuilt": 2013, "YearAlter1": 0, "YearAlter2": 0, "HistDist": "Scenic Landmark", "Landmark": "INDIVIDUAL LANDMARK", "BuiltFAR": 0.0, "ResidFAR": 0.0, "CommFAR": 0.0, "FacilFAR": 0.0, "BoroCode": 3, "BBL": 3011170000.9999995, "CondoNo": 0, "Tract2010": "0177", "XCoord": 992675, "YCoord": 180238, "ZoneMap": "16d", "ZMCode": "Y", "Sanborn": "306 057", "TaxMap": "30406", "EDesigNum": null, "APPBBL": 0.0, "APPDate": null, "PLUTOMapID": "1", "FIRM07_FLA": null, "PFIRM15_FL": null, "Version": "25v4", "DCPEdited": "t", "Latitude": 40.6613843, "Longitude": -73.9696332, "Notes": null, "Shape_Leng": 0.0, "Shape_Area": 20441521.998399999 }, "geometry": { "type": "MultiPolygon", "coordinates": [ [ [ [ -73.970353565706333, 40.672308991363138 ], [ -73.970341691009111, 40.672303979596336 ], [ -73.97032142153995, 40.672296047978172 ], [ -73.970300846615217, 40.672288601761373 ], [ -73.970279949861919, 40.672281643450518 ], [ -73.97025728370204, 40.67227474683483 ], [ -73.970234314455723, 40.672268440865231 ], [ -73.970211091906037, 40.672262709324073 ], [ -73.970187600656146, 40.672257573874504 ], [ -73.970163909158686, 40.67225304532662 ], [ -73.970140041256869, 40.672249120088658 ], [ -73.970116026392901, 40.672245808878131 ], [ -73.970091852706133, 40.672243098306701 ], [ -73.970067572371832, 40.6722410190049 ], [ -73.970043244405531, 40.672239554676388 ], [ -73.970030059688341, 40.672239095605036 ], [ -73.969994424461348, 40.672238491012145 ], [ -73.969945596363075, 40.672239908200929 ], [ -73.969906021080206, 40.672242975754735 ], [ -73.969838288656405, 40.67184801958409 ], [ -73.969515253662294, 40.671873458066536 ], [ -73.969582127128703, 40.672293386276053 ], [ -73.969544398640906, 40.672297897763116 ], [ -73.969488771557593, 40.672308280212391 ], [ -73.969452572353234, 40.6723175666001 ], [ -73.969400056099857, 40.672334943292348 ], [ -73.96936642023698, 40.672348753542792 ], [ -73.969318506409707, 40.672372624094699 ], [ -73.969288419139232, 40.67239053808234 ], [ -73.969260011642348, 40.672409971625761 ], [ -73.969223746667382, 40.672438637861056 ], [ -73.968467357585396, 40.671433278431167 ], [ -73.967354015764684, 40.66988806439236 ], [ -73.966051934878379, 40.668092951079998 ], [ -73.964249016610566, 40.665516366505372 ], [ -73.963344744766431, 40.664200285554713 ], [ -73.963327560930836, 40.664167764330898 ], [ -73.963311657902466, 40.664130908374609 ], [ -73.963297431454606, 40.664088056393858 ], [ -73.963300961006354, 40.664028956807797 ], [ -73.963315720357087, 40.663971789621968 ], [ -73.963348296826226, 40.663924445579752 ], [ -73.963388146155509, 40.663885778568144 ], [ -73.963432138785308, 40.663854096290514 ], [ -73.963341164585088, 40.663712577479195 ], [ -73.963728971790076, 40.663533661601882 ], [ -73.96363284482571, 40.663388005272452 ], [ -73.963229621566896, 40.663563929768678 ], [ -73.963131972056615, 40.663423407217621 ], [ -73.9630529582615, 40.66343517758299 ], [ -73.962978036496665, 40.663433456808256 ], [ -73.962911434139372, 40.663421252209552 ], [ -73.96284461482378, 40.663397258846125 ], [ -73.962780433572647, 40.663359030901205 ], [ -73.962728290459395, 40.663308821918044 ], [ -73.962683465114011, 40.663239890068638 ], [ -73.962664974482436, 40.663174684098649 ], [ -73.96266516956635, 40.663101024770654 ], [ -73.962677041522682, 40.663048098157624 ], [ -73.962702859974542, 40.662998155924683 ], [ -73.962719759295837, 40.662976076296161 ], [ -73.962794785127656, 40.662902847492695 ], [ -73.962833119765747, 40.662865436343836 ], [ -73.962871456676623, 40.662828011713849 ], [ -73.962909793538984, 40.662790596943267 ], [ -73.962948525535637, 40.662752789665589 ], [ -73.962978617487806, 40.662721927031789 ], [ -73.963007599330879, 40.662690315768543 ], [ -73.963035358828563, 40.662658074554805 ], [ -73.963061879270526, 40.662625231495326 ], [ -73.963087015110546, 40.662591939478538 ], [ -73.963103665319082, 40.662568751121171 ], [ -73.963119426545234, 40.662544896200032 ], [ -73.963134087148319, 40.662520652736752 ], [ -73.963160108205116, 40.66247108241857 ], [ -73.963181613893923, 40.662420262506124 ], [ -73.963190629679318, 40.662394470996759 ], [ -73.963205155425797, 40.662342246760254 ], [ -73.963210574066252, 40.662316259664607 ], [ -73.963216443941889, 40.662284856090437 ], [ -73.963220974197213, 40.662252965846484 ], [ -73.963224080690935, 40.662220967892864 ], [ -73.963225768119827, 40.662188916440826 ], [ -73.963224864741591, 40.662124759874388 ], [ -73.963222286747111, 40.662092740348484 ], [ -73.963218286210363, 40.662060810385128 ], [ -73.963212877074056, 40.662028988056754 ], [ -73.963206348461725, 40.661998731417363 ], [ -73.963197548613635, 40.661946368998287 ], [ -73.963188626252531, 40.661893271828838 ], [ -73.963179703795689, 40.661840174574579 ], [ -73.963170781463049, 40.661787077319318 ], [ -73.963161859034543, 40.661733980145456 ], [ -73.963152936725265, 40.661680891924178 ], [ -73.963144014324712, 40.661627795585908 ], [ -73.963135092049313, 40.661574697488902 ], [ -73.963126169677651, 40.661521600228497 ], [ -73.96311724743066, 40.661468502130738 ], [ -73.963108325081393, 40.661415415659413 ], [ -73.963099402862312, 40.661362318395931 ], [ -73.963090479453157, 40.661309214020285 ], [ -73.963081545394644, 40.661256120347524 ], [ -73.963072624316595, 40.661203025841623 ], [ -73.962963748491461, 40.660533523534781 ], [ -73.962561168517539, 40.657934597907406 ], [ -73.962362413631141, 40.656729188532999 ], [ -73.962127324490098, 40.655253209419278 ], [ -73.962165574396977, 40.655239100187934 ], [ -73.962207218313665, 40.655220035570956 ], [ -73.962248045031075, 40.655196900396263 ], [ -73.962292660382687, 40.65516521429906 ], [ -73.962320091818171, 40.655141326336008 ], [ -73.962336029513878, 40.655124862085927 ], [ -73.962598678247275, 40.655214791759306 ], [ -73.962716626783433, 40.655101502199642 ], [ -73.962416714468972, 40.654999175725393 ], [ -73.962445565759424, 40.654950333136938 ], [ -73.962459177210874, 40.654921960559228 ], [ -73.962472124132617, 40.654885283238549 ], [ -73.962479816219513, 40.654850975228236 ], [ -73.962483053908358, 40.654823219673773 ], [ -73.96248366457047, 40.654794994086679 ], [ -73.96248162064451, 40.654767064877092 ], [ -73.971431266200483, 40.65129008003305 ], [ -73.971503155836686, 40.651366434716557 ], [ -73.971572174994009, 40.651426031845773 ], [ -73.971659318617526, 40.65148830882633 ], [ -73.971377855302919, 40.651831442346584 ], [ -73.971609084750014, 40.651934074207119 ], [ -73.97189277393953, 40.651570789000928 ], [ -73.971964201946903, 40.651594125388485 ], [ -73.972034980434088, 40.651613166165639 ], [ -73.972110140936223, 40.651629238925864 ], [ -73.972177634667872, 40.651640222761266 ], [ -73.972248475813302, 40.651648379797763 ], [ -73.973766106917466, 40.656894106154709 ], [ -73.973671706579921, 40.656961071982003 ], [ -73.97361545835949, 40.657029854720008 ], [ -73.973576532356432, 40.657133109660975 ], [ -73.973581743276043, 40.657240441401136 ], [ -73.973621793445304, 40.657328715621659 ], [ -73.973696949414986, 40.65741192790157 ], [ -73.973475540176537, 40.657653323702505 ], [ -73.973694489820232, 40.657757832308704 ], [ -73.973873144454146, 40.657552203824324 ], [ -73.97389954089104, 40.657560338776747 ], [ -73.973932095388932, 40.657569227994259 ], [ -73.973961643431991, 40.657576325420742 ], [ -73.973964750383885, 40.65758686489545 ], [ -73.974010856808846, 40.657741294817178 ], [ -73.974042530816533, 40.657845896838417 ], [ -73.974090310590285, 40.658003701315387 ], [ -73.974135891309544, 40.658109580702018 ], [ -73.974149869996054, 40.658135256728627 ], [ -73.974208142239277, 40.658226402924299 ], [ -73.974257144091979, 40.658290141604965 ], [ -73.974311667902825, 40.658351460945177 ], [ -73.974369689275832, 40.658407451845392 ], [ -73.974400178593442, 40.658434348896769 ], [ -73.974464163773959, 40.658486060071866 ], [ -73.974525967811232, 40.658530729488014 ], [ -73.974616136559717, 40.658586537354473 ], [ -73.974726641455817, 40.658642895459145 ], [ -73.974889608180447, 40.658722369395903 ], [ -73.975117079393186, 40.658834581067673 ], [ -73.976344736919387, 40.659429334296462 ], [ -73.977723979531973, 40.660097328537574 ], [ -73.979232326130202, 40.660826483626067 ], [ -73.979214611777238, 40.660868688487 ], [ -73.979205812886264, 40.660905674616998 ], [ -73.979202969070485, 40.66095036574653 ], [ -73.979206953177325, 40.660987394699234 ], [ -73.978915653914655, 40.660991438552323 ], [ -73.9789210280248, 40.661215961278579 ], [ -73.979230349306931, 40.661213936088899 ], [ -73.979261537261038, 40.661255644547381 ], [ -73.979293840757038, 40.661296024999523 ], [ -73.979332232842964, 40.661340809200368 ], [ -73.979362996475331, 40.661374569685044 ], [ -73.978004430043669, 40.66300410927164 ], [ -73.976343893442703, 40.664997564493177 ], [ -73.975502417940248, 40.666007469567042 ], [ -73.974600699102211, 40.667090560401142 ], [ -73.973759234190013, 40.668093033134674 ], [ -73.973331581993321, 40.667899884635055 ], [ -73.973221759044051, 40.6680349882431 ], [ -73.973642737355092, 40.668235928696987 ], [ -73.97309577388323, 40.668892341596468 ], [ -73.972474331698137, 40.669645027693605 ], [ -73.971696510364126, 40.670568119175861 ], [ -73.971125274293215, 40.671272558999796 ], [ -73.970353565706333, 40.672308991363138 ] ], [ [ -73.973087206698452, 40.658671970208673 ], [ -73.973042117786036, 40.658700419511106 ], [ -73.972972966860553, 40.658733604250671 ], [ -73.972918346092797, 40.658752742548138 ], [ -73.972859261930864, 40.658767564528439 ], [ -73.972754734438141, 40.658780642108113 ], [ -73.972682522536857, 40.6587805411123 ], [ -73.972595300815854, 40.658776131948358 ], [ -73.97253786576924, 40.658780507337212 ], [ -73.972494167631694, 40.658787838651349 ], [ -73.972442664808042, 40.658801280835455 ], [ -73.972392512642699, 40.658820025583985 ], [ -73.972331763307821, 40.658851985498956 ], [ -73.972291012161151, 40.658881061341809 ], [ -73.972260909006366, 40.658908233374419 ], [ -73.972085784493729, 40.659120661823017 ], [ -73.972108700234585, 40.659173347528025 ], [ -73.971947707980959, 40.659337662893236 ], [ -73.971875784622625, 40.659344563881206 ], [ -73.971424721718634, 40.659837464926625 ], [ -73.972946893598987, 40.660803045241728 ], [ -73.974258584426366, 40.659347108833295 ], [ -73.973137942310714, 40.658631034905092 ], [ -73.973087206698452, 40.658671970208673 ] ] ] ] } },
{ "type": "Feature", "properties": { "Borough": "BK", "Block": 1183, "Lot": 1, "CD": 355, "BCT2020": "3017700", "BCTCB2020": "30177001000", "CT2010": "177", "CB2010": "1000", "SchoolDist": "17", "Council": 35, "ZipCode": 11225, "FireComp": "E280", "PolicePrct": 78, "HealthCent": 39, "HealthArea": 4600, "Sanitboro": "3", "SanitDistr": "09", "SanitSub": "1A", "Address": "1000 FLATBUSH AVENUE", "ZoneDist1": "PARK", "ZoneDist2": null, "ZoneDist3": null, "ZoneDist4": null, "Overlay1": null, "Overlay2": null, "SPDist1": null, "SPDist2": null, "SPDist3": null, "LtdHeight": null, "SplitZone": "N", "BldgClass": "Q1", "LandUse": "09", "Easements": 0, "OwnerType": "C", "OwnerName": "NYC DEPARTMENT OF PARKS AND RECREATION", "LotArea": 2691000, "BldgArea": 67081, "ComArea": 48038, "ResArea": 0, "OfficeArea": 0, "RetailArea": 0, "GarageArea": 0, "StrgeArea": 0, "FactryArea": 0, "OtherArea": 48038, "AreaSource": "2", "NumBldgs": 18, "NumFloors": 0.0, "UnitsRes": 0, "UnitsTotal": 0, "LotFront": 3137.0, "LotDepth": 713.0, "BldgFront": 0.0, "BldgDepth": 0.0, "Ext": "N", "ProxCode": "0", "IrrLotCode": "Y", "LotType": "5", "BsmtCode": "0", "AssessLand": 17171723.0, "AssessTot": 24010200.0, "ExemptTot": 24010200.0, "YearBuilt": 2014, "YearAlter1": 0, "YearAlter2": 0, "HistDist": null, "Landmark": "INDIVIDUAL LANDMARK", "BuiltFAR": 0.02, "ResidFAR": 0.0, "CommFAR": 0.0, "FacilFAR": 0.0, "BoroCode": 3, "BBL": 3011830000.9999995, "CondoNo": 0, "Tract2010": "0177", "XCoord": 994264, "YCoord": 182529, "ZoneMap": "16d", "ZMCode": "Y", "Sanborn": "306 057", "TaxMap": "30408", "EDesigNum": null, "APPBBL": 3011830000.9999995, "APPDate": "05/09/2013", "PLUTOMapID": "1", "FIRM07_FLA": null, "PFIRM15_FL": null, "Version": "25v4", "DCPEdited": "t", "Latitude": 40.667671, "Longitude": -73.9639025, "Notes": null, "Shape_Leng": 0.0, "Shape_Area": 1920513.1708500001 }, "geometry": { "type": "MultiPolygon", "coordinates": [ [ [ [ -73.964490213554953, 40.671872383230657 ], [ -73.964873437391859, 40.670896772365886 ], [ -73.96498819112837, 40.670584898380312 ], [ -73.96520505568914, 40.669995507022641 ], [ -73.965152689150912, 40.669918418812195 ], [ -73.964673716886097, 40.669656831138887 ], [ -73.964887275300484, 40.669385942986978 ], [ -73.963473203018623, 40.668998838612701 ], [ -73.963422523255204, 40.668988480024886 ], [ -73.963370908621087, 40.668981255803011 ], [ -73.963318692662853, 40.668977212817843 ], [ -73.963266218272693, 40.668976378370431 ], [ -73.963228095450063, 40.668977743017933 ], [ -73.963190131499914, 40.668980704287783 ], [ -73.963152442227695, 40.668985253263813 ], [ -73.963115139930238, 40.6689913755948 ], [ -73.96307834415866, 40.668999053165166 ], [ -73.963042162489771, 40.669008262749955 ], [ -73.963006706127643, 40.669018974606352 ], [ -73.962972087380592, 40.66903115823164 ], [ -73.962622084844725, 40.669163334485582 ], [ -73.962430147323161, 40.669096360723309 ], [ -73.962416351581567, 40.669025051654678 ], [ -73.962422381928164, 40.6689247255635 ], [ -73.962601391518149, 40.668613039766974 ], [ -73.962163882992883, 40.668662110887929 ], [ -73.961406623131168, 40.664747462952917 ], [ -73.961419172539351, 40.664747835459188 ], [ -73.961637804849573, 40.664254405342675 ], [ -73.961782889113522, 40.663912064801949 ], [ -73.961894066074578, 40.66366750674559 ], [ -73.962066821869669, 40.663387770692232 ], [ -73.962396752899636, 40.663362800218174 ], [ -73.965482606878538, 40.66788046374743 ], [ -73.965905614133518, 40.668477329833536 ], [ -73.966355666389106, 40.669117723134143 ], [ -73.967654546732788, 40.670873770217362 ], [ -73.966002727570284, 40.67050669752917 ], [ -73.965356481661331, 40.672151980021162 ], [ -73.964785811442965, 40.671967356286778 ], [ -73.964514730892063, 40.671879655269514 ], [ -73.964490213554953, 40.671872383230657 ] ] ] ] } },
{ "type": "Feature", "properties": { "Borough": "BK", "Block": 1183, "Lot": 30, "CD": 355, "BCT2020": "3017700", "BCTCB2020": "30177001000", "CT2010": "177", "CB2010": "1000", "SchoolDist": "17", "Council": 35, "ZipCode": 11225, "FireComp": "E280", "PolicePrct": 78, "HealthCent": 39, "HealthArea": 4600, "Sanitboro": "3", "SanitDistr": "09", "SanitSub": "1A", "Address": "990 WASHINGTON AVENUE", "ZoneDist1": "PARK", "ZoneDist2": "R6", "ZoneDist3": null, "ZoneDist4": null, "Overlay1": null, "Overlay2": null, "SPDist1": null, "SPDist2": null, "SPDist3": null, "LtdHeight": null, "SplitZone": "Y", "BldgClass": "P9", "LandUse": "08", "Easements": 0, "OwnerType": "C", "OwnerName": "NYC DEPARTMENT OF PARKS AND RECREATION", "LotArea": 118906, "BldgArea": 19043, "ComArea": 19043, "ResArea": 0, "OfficeArea": 0, "RetailArea": 0, "GarageArea": 0, "StrgeArea": 0, "FactryArea": 0, "OtherArea": 0, "AreaSource": "2", "NumBldgs": 1, "NumFloors": 1.0, "UnitsRes": 0, "UnitsTotal": 1, "LotFront": 345.43, "LotDepth": 569.0, "BldgFront": 45.0, "BldgDepth": 62.0, "Ext": null, "ProxCode": "1", "IrrLotCode": "Y", "LotType": "5", "BsmtCode": "0", "AssessLand": 909450.0, "AssessTot": 18838800.0, "ExemptTot": 18838800.0, "YearBuilt": 2012, "YearAlter1": 0, "YearAlter2": 0, "HistDist": null, "Landmark": null, "BuiltFAR": 0.16, "ResidFAR": 0.0, "CommFAR": 0.0, "FacilFAR": 0.0, "BoroCode": 3, "BBL": 3011830030.0, "CondoNo": 0, "Tract2010": "0177", "XCoord": 994429, "YCoord": 183118, "ZoneMap": "16d", "ZMCode": null, "Sanborn": "306 057", "TaxMap": "30408", "EDesigNum": null, "APPBBL": 3011830000.9999995, "APPDate": "05/09/2013", "PLUTOMapID": "1", "FIRM07_FLA": null, "PFIRM15_FL": null, "Version": "25v4", "DCPEdited": "t", "Latitude": 40.6692875, "Longitude": -73.9633068, "Notes": null, "Shape_Leng": 0.0, "Shape_Area": 126071.174661 }, "geometry": { "type": "MultiPolygon", "coordinates": [ [ [ [ -73.962345346070776, 40.669600115493964 ], [ -73.962273938704925, 40.669231007289511 ], [ -73.962163882992883, 40.668662110887929 ], [ -73.962601391518149, 40.668613039766974 ], [ -73.962422381928164, 40.6689247255635 ], [ -73.962416351581567, 40.669025051654678 ], [ -73.962430147323161, 40.669096360723309 ], [ -73.962622084844725, 40.669163334485582 ], [ -73.962972087380592, 40.66903115823164 ], [ -73.963006706127643, 40.669018974606352 ], [ -73.963042162489771, 40.669008262749955 ], [ -73.96307834415866, 40.668999053165166 ], [ -73.963115139930238, 40.6689913755948 ], [ -73.963152442227695, 40.668985253263813 ], [ -73.963190131499914, 40.668980704287783 ], [ -73.963228095450063, 40.668977743017933 ], [ -73.963266218272693, 40.668976378370431 ], [ -73.963318692662853, 40.668977212817843 ], [ -73.963370908621087, 40.668981255803011 ], [ -73.963422523255204, 40.668988480024886 ], [ -73.963473203018623, 40.668998838612701 ], [ -73.964887275300484, 40.669385942986978 ], [ -73.964673716886097, 40.669656831138887 ], [ -73.964651792927356, 40.669644857440993 ], [ -73.964112085267487, 40.669489974832331 ], [ -73.963533307874329, 40.66943077041649 ], [ -73.963384558338134, 40.669731272996877 ], [ -73.963381227978743, 40.669735356670159 ], [ -73.963376088905434, 40.669738161929601 ], [ -73.963369924212913, 40.669739258590916 ], [ -73.963363676499966, 40.669738479465984 ], [ -73.962905736988958, 40.669608384209106 ], [ -73.96283621132325, 40.669590853871938 ], [ -73.962765148395619, 40.669577324824971 ], [ -73.962692950179999, 40.669567871152033 ], [ -73.96262002119586, 40.669562546942672 ], [ -73.962483746848321, 40.669578359514254 ], [ -73.962345346070776, 40.669600115493964 ] ] ] ] } },
{ "type": "Feature", "properties": { "Borough": "BK", "Block": 1117, "Lot": 2, "CD": 355, "BCT2020": "3017100", "BCTCB2020": "30171001003", "CT2010": "171", "CB2010": "1003", "SchoolDist": "15", "Council": 39, "ZipCode": 11218, "FireComp": "E240", "PolicePrct": 72, "HealthCent": 39, "HealthArea": 4700, "Sanitboro": "3", "SanitDistr": "07", "SanitSub": "1D", "Address": "PROSPECT PARK WEST", "ZoneDist1": "PARK", "ZoneDist2": null, "ZoneDist3": null, "ZoneDist4": null, "Overlay1": null, "Overlay2": null, "SPDist1": null, "SPDist2": null, "SPDist3": null, "LtdHeight": null, "SplitZone": "N", "BldgClass": "Z8", "LandUse": "09", "Easements": 0, "OwnerType": "X", "OwnerName": "NY QUARTERLY MEETNG RLGS", "LotArea": 331200, "BldgArea": 1000, "ComArea": 1000, "ResArea": 0, "OfficeArea": 0, "RetailArea": 0, "GarageArea": 0, "StrgeArea": 0, "FactryArea": 0, "OtherArea": 1000, "AreaSource": "2", "NumBldgs": 1, "NumFloors": 1.0, "UnitsRes": 0, "UnitsTotal": 0, "LotFront": 68.42, "LotDepth": 78.95, "BldgFront": 20.0, "BldgDepth": 50.0, "Ext": "N", "ProxCode": "0", "IrrLotCode": "Y", "LotType": "5", "BsmtCode": "0", "AssessLand": 2326500.0, "AssessTot": 2930850.0, "ExemptTot": 2930850.0, "YearBuilt": 1931, "YearAlter1": 0, "YearAlter2": 0, "HistDist": null, "Landmark": null, "BuiltFAR": 0.0, "ResidFAR": 0.0, "CommFAR": 0.0, "FacilFAR": 0.0, "BoroCode": 3, "BBL": 3011170002.0, "CondoNo": 0, "Tract2010": "0171", "XCoord": 991782, "YCoord": 179603, "ZoneMap": "16d", "ZMCode": null, "Sanborn": "306 057", "TaxMap": "30406", "EDesigNum": null, "APPBBL": 0.0, "APPDate": null, "PLUTOMapID": "1", "FIRM07_FLA": null, "PFIRM15_FL": null, "Version": "25v4", "DCPEdited": "t", "Latitude": 40.6596422, "Longitude": -73.9728526, "Notes": null, "Shape_Leng": 0.0, "Shape_Area": 333559.627492 }, "geometry": { "type": "MultiPolygon", "coordinates": [ [ [ [ -73.973087206698452, 40.658671970208673 ], [ -73.973137942310714, 40.658631034905092 ], [ -73.974258584426366, 40.659347108833295 ], [ -73.972946893598987, 40.660803045241728 ], [ -73.971424721718634, 40.659837464926625 ], [ -73.971875784622625, 40.659344563881206 ], [ -73.971947707980959, 40.659337662893236 ], [ -73.972108700234585, 40.659173347528025 ], [ -73.972085784493729, 40.659120661823017 ], [ -73.972260909006366, 40.658908233374419 ], [ -73.972291012161151, 40.658881061341809 ], [ -73.972331763307821, 40.658851985498956 ], [ -73.972392512642699, 40.658820025583985 ], [ -73.972442664808042, 40.658801280835455 ], [ -73.972494167631694, 40.658787838651349 ], [ -73.97253786576924, 40.658780507337212 ], [ -73.972595300815854, 40.658776131948358 ], [ -73.972682522536857, 40.6587805411123 ], [ -73.972754734438141, 40.658780642108113 ], [ -73.972859261930864, 40.658767564528439 ], [ -73.972918346092797, 40.658752742548138 ], [ -73.972972966860553, 40.658733604250671 ], [ -73.973042117786036, 40.658700419511106 ], [ -73.973087206698452, 40.658671970208673 ] ] ] ] } },
{ "type": "Feature", "properties": { "Borough": "BK", "Block": 1183, "Lot": 8, "CD": 355, "BCT2020": "3017700", "BCTCB2020": "30177001000", "CT2010": "177", "CB2010": "1000", "SchoolDist": "17", "Council": 35, "ZipCode": 11238, "FireComp": "E280", "PolicePrct": 78, "HealthCent": 39, "HealthArea": 4600, "Sanitboro": "3", "SanitDistr": "08", "SanitSub": "1B", "Address": "FLATBUSH AVENUE", "ZoneDist1": "PARK", "ZoneDist2": null, "ZoneDist3": null, "ZoneDist4": null, "Overlay1": null, "Overlay2": null, "SPDist1": null, "SPDist2": null, "SPDist3": null, "LtdHeight": null, "SplitZone": "N", "BldgClass": "Q1", "LandUse": "09", "Easements": 0, "OwnerType": "C", "OwnerName": "NYC DEPARTMENT OF PARKS AND RECREATION", "LotArea": 350000, "BldgArea": 400, "ComArea": 400, "ResArea": 0, "OfficeArea": 400, "RetailArea": 0, "GarageArea": 0, "StrgeArea": 0, "FactryArea": 0, "OtherArea": 0, "AreaSource": "2", "NumBldgs": 1, "NumFloors": 1.0, "UnitsRes": 0, "UnitsTotal": 0, "LotFront": 575.0, "LotDepth": 620.0, "BldgFront": 25.0, "BldgDepth": 16.0, "Ext": "N", "ProxCode": "0", "IrrLotCode": "Y", "LotType": "5", "BsmtCode": "0", "AssessLand": 4904550.0, "AssessTot": 5963400.0, "ExemptTot": 5963400.0, "YearBuilt": 1930, "YearAlter1": 0, "YearAlter2": 0, "HistDist": null, "Landmark": null, "BuiltFAR": 0.0, "ResidFAR": 0.0, "CommFAR": 0.0, "FacilFAR": 0.0, "BoroCode": 3, "BBL": 3011830008.0, "CondoNo": 0, "Tract2010": "0177", "XCoord": 993503, "YCoord": 183952, "ZoneMap": "16c", "ZMCode": "Y", "Sanborn": "306 057", "TaxMap": "30408", "EDesigNum": null, "APPBBL": 0.0, "APPDate": null, "PLUTOMapID": "1", "FIRM07_FLA": null, "PFIRM15_FL": null, "Version": "25v4", "DCPEdited": "t", "Latitude": 40.6715776, "Longitude": -73.9666437, "Notes": null, "Shape_Leng": 0.0, "Shape_Area": 359025.42594599997 }, "geometry": { "type": "MultiPolygon", "coordinates": [ [ [ [ -73.965356481661331, 40.672151980021162 ], [ -73.966002727570284, 40.67050669752917 ], [ -73.967654546732788, 40.670873770217362 ], [ -73.967850673499328, 40.671135332948126 ], [ -73.967337604643234, 40.672636725724693 ], [ -73.966985499109327, 40.6725699235785 ], [ -73.966609801606225, 40.672485924523336 ], [ -73.966267652390044, 40.67240298767716 ], [ -73.965852829173485, 40.672295158721965 ], [ -73.965374007781037, 40.672157649579837 ], [ -73.965356481661331, 40.672151980021162 ] ] ] ] } },
{ "type": "Feature", "properties": { "Borough": "BK", "Block": 1183, "Lot": 26, "CD": 355, "BCT2020": "3017700", "BCTCB2020": "30177001000", "CT2010": "177", "CB2010": "1000", "SchoolDist": "17", "Council": 35, "ZipCode": 11238, "FireComp": "E280", "PolicePrct": 78, "HealthCent": 39, "HealthArea": 4600, "Sanitboro": "3", "SanitDistr": "08", "SanitSub": "1B", "Address": "186 EASTERN PARKWAY", "ZoneDist1": "R6", "ZoneDist2": null, "ZoneDist3": null, "ZoneDist4": null, "Overlay1": null, "Overlay2": null, "SPDist1": null, "SPDist2": null, "SPDist3": null, "LtdHeight": null, "SplitZone": "N", "BldgClass": "P7", "LandUse": "08", "Easements": 0, "OwnerType": "C", "OwnerName": "NYC DEPARTMENT OF CULTURAL AFFAIRS", "LotArea": 537000, "BldgArea": 566000, "ComArea": 566000, "ResArea": 0, "OfficeArea": 566000, "RetailArea": 0, "GarageArea": 0, "StrgeArea": 0, "FactryArea": 0, "OtherArea": 0, "AreaSource": "2", "NumBldgs": 1, "NumFloors": 5.0, "UnitsRes": 0, "UnitsTotal": 1, "LotFront": 540.0, "LotDepth": 828.0, "BldgFront": 100.0, "BldgDepth": 500.0, "Ext": "N", "ProxCode": "0", "IrrLotCode": "Y", "LotType": "3", "BsmtCode": "0", "AssessLand": 15707250.0, "AssessTot": 71841150.0, "ExemptTot": 71841150.0, "YearBuilt": 1915, "YearAlter1": 2011, "YearAlter2": 2011, "HistDist": null, "Landmark": "INDIVIDUAL LANDMARK", "BuiltFAR": 1.05, "ResidFAR": 2.43, "CommFAR": 0.0, "FacilFAR": 4.8, "BoroCode": 3, "BBL": 3011830026.0, "CondoNo": 0, "Tract2010": "0177", "XCoord": 994304, "YCoord": 183579, "ZoneMap": "16d", "ZMCode": "Y", "Sanborn": "306 057", "TaxMap": "30408", "EDesigNum": null, "APPBBL": 3011830026.0, "APPDate": "05/09/2013", "PLUTOMapID": "1", "FIRM07_FLA": null, "PFIRM15_FL": null, "Version": "25v4", "DCPEdited": "t", "Latitude": 40.6705529, "Longitude": -73.9637567, "Notes": null, "Shape_Leng": 0.0, "Shape_Area": 496592.47181700001 }, "geometry": { "type": "MultiPolygon", "coordinates": [ [ [ [ -73.962345346070776, 40.669600115493964 ], [ -73.962483746848321, 40.669578359514254 ], [ -73.96262002119586, 40.669562546942672 ], [ -73.962692950179999, 40.669567871152033 ], [ -73.962765148395619, 40.669577324824971 ], [ -73.96283621132325, 40.669590853871938 ], [ -73.962905736988958, 40.669608384209106 ], [ -73.963363676499966, 40.669738479465984 ], [ -73.963369924212913, 40.669739258590916 ], [ -73.963376088905434, 40.669738161929601 ], [ -73.963381227978743, 40.669735356670159 ], [ -73.963384558338134, 40.669731272996877 ], [ -73.963533307874329, 40.66943077041649 ], [ -73.964112085267487, 40.669489974832331 ], [ -73.964651792927356, 40.669644857440993 ], [ -73.964673716886097, 40.669656831138887 ], [ -73.965152689150912, 40.669918418812195 ], [ -73.96520505568914, 40.669995507022641 ], [ -73.96498819112837, 40.670584898380312 ], [ -73.964873437391859, 40.670896772365886 ], [ -73.964490213554953, 40.671872383230657 ], [ -73.963966681097759, 40.671717097082769 ], [ -73.963483660128546, 40.671602477030511 ], [ -73.963030719609549, 40.671519477155385 ], [ -73.962706151996102, 40.671465078101043 ], [ -73.962345346070776, 40.669600115493964 ] ] ] ] } },
{ "type": "Feature", "properties": { "Borough": "BK", "Block": 1183, "Lot": 43, "CD": 355, "BCT2020": "3017700", "BCTCB2020": "30177001000", "CT2010": "177", "CB2010": "1000", "SchoolDist": "17", "Council": 35, "ZipCode": 11238, "FireComp": "E280", "PolicePrct": 78, "HealthCent": 39, "HealthArea": 4600, "Sanitboro": null, "SanitDistr": null, "SanitSub": null, "Address": "WASHINGTON AVENUE", "ZoneDist1": "PARK", "ZoneDist2": null, "ZoneDist3": null, "ZoneDist4": null, "Overlay1": null, "Overlay2": null, "SPDist1": null, "SPDist2": null, "SPDist3": null, "LtdHeight": null, "SplitZone": "N", "BldgClass": "U7", "LandUse": "07", "Easements": 0, "OwnerType": "C", "OwnerName": "NYC TRANSIT AUTHORITY", "LotArea": 35911, "BldgArea": 0, "ComArea": 0, "ResArea": 0, "OfficeArea": 0, "RetailArea": 0, "GarageArea": 0, "StrgeArea": 0, "FactryArea": 0, "OtherArea": 0, "AreaSource": "7", "NumBldgs": 0, "NumFloors": 0.0, "UnitsRes": 0, "UnitsTotal": 0, "LotFront": 170.83, "LotDepth": 450.0, "BldgFront": 0.0, "BldgDepth": 0.0, "Ext": "N", "ProxCode": "0", "IrrLotCode": "N", "LotType": "5", "BsmtCode": "0", "AssessLand": 0.0, "AssessTot": 0.0, "ExemptTot": 0.0, "YearBuilt": 0, "YearAlter1": 0, "YearAlter2": 0, "HistDist": null, "Landmark": null, "BuiltFAR": 0.0, "ResidFAR": 0.0, "CommFAR": 0.0, "FacilFAR": 0.0, "BoroCode": 3, "BBL": 3011830042.9999995, "CondoNo": 0, "Tract2010": "0177", "XCoord": 994897, "YCoord": 181179, "ZoneMap": "16d", "ZMCode": null, "Sanborn": "306 057", "TaxMap": "30408", "EDesigNum": null, "APPBBL": 0.0, "APPDate": null, "PLUTOMapID": "1", "FIRM07_FLA": null, "PFIRM15_FL": null, "Version": "25v4", "DCPEdited": "t", "Latitude": 40.6639648, "Longitude": -73.9616228, "Notes": null, "Shape_Leng": 0.0, "Shape_Area": 35911.003217099998 }, "geometry": { "type": "MultiPolygon", "coordinates": [ [ [ [ -73.961406623131168, 40.664747462952917 ], [ -73.96131441259476, 40.664270748908876 ], [ -73.961514892800025, 40.663805914174517 ], [ -73.96162068845581, 40.663580103307545 ], [ -73.961722877762782, 40.663413800789506 ], [ -73.962066821869669, 40.663387770692232 ], [ -73.961894066074578, 40.66366750674559 ], [ -73.961782889113522, 40.663912064801949 ], [ -73.961637804849573, 40.664254405342675 ], [ -73.961419172539351, 40.664747835459188 ], [ -73.961406623131168, 40.664747462952917 ] ] ] ] } },
{ "type": "Feature", "properties": { "Borough": "BK", "Block": 1183, "Lot": 51, "CD": 355, "BCT2020": "3017700", "BCTCB2020": "30177001000", "CT2010": "177", "CB2010": "1003", "SchoolDist": "17", "Council": 35, "ZipCode": 11225, "FireComp": "E280", "PolicePrct": 78, "HealthCent": 39, "HealthArea": 4600, "Sanitboro": "3", "SanitDistr": "09", "SanitSub": "2A", "Address": "35 WASHINGTON AVENUE", "ZoneDist1": "PARK", "ZoneDist2": null, "ZoneDist3": null, "ZoneDist4": null, "Overlay1": null, "Overlay2": null, "SPDist1": null, "SPDist2": null, "SPDist3": null, "LtdHeight": null, "SplitZone": "N", "BldgClass": "U5", "LandUse": "07", "Easements": 0, "OwnerType": "C", "OwnerName": "FIRE DEPARTMENT OF NEW YORK", "LotArea": 24025, "BldgArea": 0, "ComArea": 0, "ResArea": 0, "OfficeArea": 0, "RetailArea": 0, "GarageArea": 0, "StrgeArea": 0, "FactryArea": 0, "OtherArea": 0, "AreaSource": "7", "NumBldgs": 1, "NumFloors": 0.0, "UnitsRes": 0, "UnitsTotal": 0, "LotFront": 310.58, "LotDepth": 155.67, "BldgFront": 0.0, "BldgDepth": 0.0, "Ext": "N", "ProxCode": "0", "IrrLotCode": "N", "LotType": "5", "BsmtCode": "0", "AssessLand": 0.0, "AssessTot": 0.0, "ExemptTot": 0.0, "YearBuilt": 1913, "YearAlter1": 0, "YearAlter2": 0, "HistDist": null, "Landmark": "INDIVIDUAL LANDMARK", "BuiltFAR": 0.0, "ResidFAR": 0.0, "CommFAR": 0.0, "FacilFAR": 0.0, "BoroCode": 3, "BBL": 3011830051.0, "CondoNo": 0, "Tract2010": "0177", "XCoord": 994961, "YCoord": 181086, "ZoneMap": "16d", "ZMCode": null, "Sanborn": "306 057", "TaxMap": "30408", "EDesigNum": null, "APPBBL": 0.0, "APPDate": null, "PLUTOMapID": "1", "FIRM07_FLA": null, "PFIRM15_FL": null, "Version": "25v4", "DCPEdited": "t", "Latitude": 40.6637094, "Longitude": -73.9613923, "Notes": null, "Shape_Leng": 0.0, "Shape_Area": 22435.720651700001 }, "geometry": { "type": "MultiPolygon", "coordinates": [ [ [ [ -73.961156941762624, 40.663456629470559 ], [ -73.961722877762782, 40.663413800789506 ], [ -73.96162068845581, 40.663580103307545 ], [ -73.961514892800025, 40.663805914174517 ], [ -73.96131441259476, 40.664270748908876 ], [ -73.961156941762624, 40.663456629470559 ] ] ] ] } },
{ "type": "Feature", "properties": { "Borough": "BK", "Block": 1183, "Lot": 2, "CD": 355, "BCT2020": "3017700", "BCTCB2020": "30177001000", "CT2010": "177", "CB2010": "1000", "SchoolDist": "17", "Council": 35, "ZipCode": 11238, "FireComp": "E280", "PolicePrct": 78, "HealthCent": 39, "HealthArea": 4600, "Sanitboro": "3", "SanitDistr": "55", "SanitSub": null, "Address": "415 FLATBUSH AVENUE", "ZoneDist1": "R6", "ZoneDist2": null, "ZoneDist3": null, "ZoneDist4": null, "Overlay1": null, "Overlay2": null, "SPDist1": null, "SPDist2": null, "SPDist3": null, "LtdHeight": null, "SplitZone": "N", "BldgClass": "P8", "LandUse": "08", "Easements": 0, "OwnerType": "C", "OwnerName": "BROOKLYN PUBLIC LIBRARY", "LotArea": 140000, "BldgArea": 206640, "ComArea": 206640, "ResArea": 0, "OfficeArea": 0, "RetailArea": 0, "GarageArea": 0, "StrgeArea": 0, "FactryArea": 0, "OtherArea": 206640, "AreaSource": "2", "NumBldgs": 1, "NumFloors": 5.0, "UnitsRes": 0, "UnitsTotal": 1, "LotFront": 610.0, "LotDepth": 581.25, "BldgFront": 246.0, "BldgDepth": 168.0, "Ext": "N", "ProxCode": "0", "IrrLotCode": "Y", "LotType": "3", "BsmtCode": "0", "AssessLand": 2142000.0, "AssessTot": 38938950.0, "ExemptTot": 38938950.0, "YearBuilt": 1941, "YearAlter1": 1987, "YearAlter2": 0, "HistDist": null, "Landmark": "INDIVIDUAL LANDMARK", "BuiltFAR": 1.48, "ResidFAR": 2.43, "CommFAR": 0.0, "FacilFAR": 4.8, "BoroCode": 3, "BBL": 3011830002.0, "CondoNo": 0, "Tract2010": "0177", "XCoord": 993107, "YCoord": 184168, "ZoneMap": "16c", "ZMCode": "Y", "Sanborn": "306 057", "TaxMap": "30408", "EDesigNum": null, "APPBBL": 0.0, "APPDate": null, "PLUTOMapID": "1", "FIRM07_FLA": null, "PFIRM15_FL": null, "Version": "25v4", "DCPEdited": "t", "Latitude": 40.6721709, "Longitude": -73.968071, "Notes": null, "Shape_Leng": 0.0, "Shape_Area": 133395.937664 }, "geometry": { "type": "MultiPolygon", "coordinates": [ [ [ [ -73.967337604643234, 40.672636725724693 ], [ -73.967850673499328, 40.671135332948126 ], [ -73.968923918951532, 40.67256662144262 ], [ -73.96881365344025, 40.672722204667373 ], [ -73.968462470099681, 40.672726813613728 ], [ -73.968203311035623, 40.672714841529093 ], [ -73.968072659688715, 40.672706974317144 ], [ -73.967917529075393, 40.672694942319318 ], [ -73.967833364302734, 40.67268859166677 ], [ -73.967716767782619, 40.67267773913585 ], [ -73.967501127313653, 40.672656794332632 ], [ -73.967415000978093, 40.672647023517037 ], [ -73.967337604643234, 40.672636725724693 ] ] ] ] } },
{ "type": "Feature", "properties": { "Borough": "BK", "Block": 5051, "Lot": 1, "CD": 314, "BCT2020": "3017700", "BCTCB2020": "30177001013", "CT2010": "177", "CB2010": "1018", "SchoolDist": "17", "Council": 40, "ZipCode": 11226, "FireComp": "L147", "PolicePrct": 70, "HealthCent": 39, "HealthArea": 4600, "Sanitboro": "3", "SanitDistr": "14", "SanitSub": "1B", "Address": "305 PARKSIDE AVENUE", "ZoneDist1": "PARK", "ZoneDist2": null, "ZoneDist3": null, "ZoneDist4": null, "Overlay1": null, "Overlay2": null, "SPDist1": null, "SPDist2": null, "SPDist3": null, "LtdHeight": null, "SplitZone": "N", "BldgClass": "Q1", "LandUse": "09", "Easements": 0, "OwnerType": "C", "OwnerName": "NYC DEPARTMENT OF PARKS AND RECREATION", "LotArea": 1613749, "BldgArea": 23578, "ComArea": 23578, "ResArea": 0, "OfficeArea": 0, "RetailArea": 0, "GarageArea": 0, "StrgeArea": 0, "FactryArea": 0, "OtherArea": 23578, "AreaSource": "2", "NumBldgs": 10, "NumFloors": 2.0, "UnitsRes": 0, "UnitsTotal": 2, "LotFront": 2021.25, "LotDepth": 858.08, "BldgFront": 264.0, "BldgDepth": 63.33, "Ext": "N", "ProxCode": "0", "IrrLotCode": "Y", "LotType": "1", "BsmtCode": "0", "AssessLand": 19606950.0, "AssessTot": 23589900.0, "ExemptTot": 23589900.0, "YearBuilt": 1964, "YearAlter1": 0, "YearAlter2": 0, "HistDist": null, "Landmark": null, "BuiltFAR": 0.01, "ResidFAR": 0.0, "CommFAR": 0.0, "FacilFAR": 0.0, "BoroCode": 3, "BBL": 3050510000.9999995, "CondoNo": 0, "Tract2010": "0177", "XCoord": 992986, "YCoord": 176372, "ZoneMap": "16d", "ZMCode": "Y", "Sanborn": "310A046", "TaxMap": "31601", "EDesigNum": null, "APPBBL": 0.0, "APPDate": null, "PLUTOMapID": "1", "FIRM07_FLA": null, "PFIRM15_FL": null, "Version": "25v4", "DCPEdited": "t", "Latitude": 40.6507727, "Longitude": -73.9685173, "Notes": null, "Shape_Leng": 0.0, "Shape_Area": 1559543.9013100001 }, "geometry": { "type": "MultiPolygon", "coordinates": [ [ [ [ -73.971773590580682, 40.65037947349493 ], [ -73.971668181899858, 40.650426496660742 ], [ -73.971578837264431, 40.650479493193686 ], [ -73.971500586147755, 40.650541338236906 ], [ -73.971452120823685, 40.65058569992425 ], [ -73.971414973171719, 40.650628982101132 ], [ -73.971381626447481, 40.65067288104725 ], [ -73.971356183735281, 40.650713876086854 ], [ -73.971321301539362, 40.650786752372767 ], [ -73.971298440400361, 40.650859250760668 ], [ -73.971291352467915, 40.650894148497841 ], [ -73.971285982579872, 40.650937209803004 ], [ -73.971284486295659, 40.650993307051152 ], [ -73.971287917567352, 40.651039605238658 ], [ -73.966266484144597, 40.652999137752751 ], [ -73.964873809838494, 40.650946639228209 ], [ -73.971210864233058, 40.648440875994112 ], [ -73.971773590580682, 40.65037947349493 ] ] ] ] } }
]
}
