{
"type": "FeatureCollection",
"name": "pluto_The_Battery-Governors_Island-Ellis_Island-Liberty_Island",
"crs": { "type": "name", "properties": { "name": "urn:ogc:def:crs:OGC:1.3:CRS84" } },
"features": [
{ "type": "Feature", "properties": { "Borough": "MN", "Block": 1, "Lot": 10, "CD": 101, "BCT2020": "1000500", "BCTCB2020": "10005000003", "CT2010": "5", "CB2010": "1000", "SchoolDist": "02", "Council": 1, "ZipCode": 10004, "FireComp": "E007", "PolicePrct": 1, "HealthCent": 15, "HealthArea": 8100, "Sanitboro": "1", "SanitDistr": "01", "SanitSub": "3B", "Address": "301 COMFORT ROAD", "ZoneDist1": "R3-2", "ZoneDist2": "C4-1", "ZoneDist3": null, "ZoneDist4": null, "Overlay1": null, "Overlay2": null, "SPDist1": "GI", "SPDist2": null, "SPDist3": null, "LtdHeight": null, "SplitZone": "Y", "BldgClass": "Y4", "LandUse": "08", "Easements": 0, "OwnerType": "X", "OwnerName": "GOVERNORS ISLAND CORPORATION", "LotArea": 7600835, "BldgArea": 2542066, "ComArea": 2542066, "ResArea": 0, "OfficeArea": 0, "RetailArea": 0, "GarageArea": 0, "StrgeArea": 0, "FactryArea": 0, "OtherArea": 2542066, "AreaSource": "2", "NumBldgs": 132, "NumFloors": 3.5, "UnitsRes": 0, "UnitsTotal": 1, "LotFront": 0.0, "LotDepth": 0.0, "BldgFront": 0.0, "BldgDepth": 0.0, "Ext": "N", "ProxCode": "0", "IrrLotCode": "N", "LotType": "5", "BsmtCode": "1", "AssessLand": 102535195.0, "AssessTot": 160973945.0, "ExemptTot": 160973945.0, "YearBuilt": 1900, "YearAlter1": 0, "YearAlter2": 0, "HistDist": "Governors Island Historic District", "Landmark": "INDIVIDUAL LANDMARK", "BuiltFAR": 0.33, "ResidFAR": 0.75, "CommFAR": 0.0, "FacilFAR": 1.0, "BoroCode": 1, "BBL": 1000010010.0, "CondoNo": 0, "Tract2010": "0005", "XCoord": 979063, "YCoord": 190216, "ZoneMap": "16a", "ZMCode": "Y", "Sanborn": "199 999", "TaxMap": "10101", "EDesigNum": null, "APPBBL": 1000010010.0, "APPDate": "09/20/2024", "PLUTOMapID": "1", "FIRM07_FLA": "1", "PFIRM15_FL": "1", "Version": "25v4", "DCPEdited": null, "Latitude": 40.6887742, "Longitude": -74.0187035, "Notes": null, "Shape_Leng": 0.0, "Shape_Area": 7414501.585930001 }, "geometry": { "type": "MultiPolygon", "coordinates": [ [ [ [ -74.012084616225835, 40.692051314761294 ], [ -74.012145664130429, 40.692038222199947 ], [ -74.012201212942344, 40.692044194916505 ], [ -74.012324660067279, 40.692091160801205 ], [ -74.012359451330497, 40.692107386212356 ], [ -74.012389751564143, 40.692122757410317 ], [ -74.012408830781794, 40.692133858746068 ], [ -74.012430156074572, 40.69215521211008 ], [ -74.012448117481455, 40.692193644882643 ], [ -74.012457660284426, 40.692212862629589 ], [ -74.012540136590729, 40.692196199797657 ], [ -74.012559213157559, 40.692192778467806 ], [ -74.012625272071446, 40.692179572343363 ], [ -74.012828523430073, 40.692138939384627 ], [ -74.013223512328466, 40.692058604162185 ], [ -74.013244832831148, 40.692054331471155 ], [ -74.013285229821193, 40.692046640171178 ], [ -74.01330318327976, 40.692042367014103 ], [ -74.013314404915008, 40.692037240024398 ], [ -74.013326747356814, 40.692027844460746 ], [ -74.013332354574572, 40.692019301577112 ], [ -74.013335158984077, 40.692009904417908 ], [ -74.013333473443524, 40.691999655938005 ], [ -74.01332561497388, 40.69198513519428 ], [ -74.013315513767751, 40.691972325645807 ], [ -74.013275107928678, 40.691934747381481 ], [ -74.013265568347535, 40.69192620621196 ], [ -74.012975434264305, 40.691651202634091 ], [ -74.012895746146555, 40.691576043884041 ], [ -74.012875543684487, 40.691555547834433 ], [ -74.012865443442166, 40.691547004854066 ], [ -74.012816058047093, 40.69150003508625 ], [ -74.012754335415522, 40.691476125083838 ], [ -74.012651083248628, 40.691399263215189 ], [ -74.01262527402325, 40.691408659235208 ], [ -74.012610678769903, 40.691365101245474 ], [ -74.012596643408969, 40.691323248782076 ], [ -74.012580363470647, 40.691273708902216 ], [ -74.01255791085579, 40.69121990031244 ], [ -74.012527597652266, 40.691145591528674 ], [ -74.012489443486956, 40.691143033652061 ], [ -74.012489441751057, 40.691133638652296 ], [ -74.012235832578583, 40.691125123083985 ], [ -74.012205535302044, 40.691123417967546 ], [ -74.012205525896761, 40.691071315242148 ], [ -74.012205524662974, 40.691064480339548 ], [ -74.012206636548186, 40.691011096986685 ], [ -74.012211083610637, 40.690774923930839 ], [ -74.012223366472227, 40.690443084162823 ], [ -74.012239043561564, 40.690263283694307 ], [ -74.012256961894195, 40.690060846770734 ], [ -74.012273753639377, 40.689837058013509 ], [ -74.012288297696273, 40.689595329469995 ], [ -74.012306193969494, 40.689280145799536 ], [ -74.012715673023777, 40.688773589550955 ], [ -74.012722404108715, 40.688765902000682 ], [ -74.012731379613385, 40.688753089492607 ], [ -74.012740352967768, 40.688741128815238 ], [ -74.012749330157533, 40.688730877323636 ], [ -74.012758303396183, 40.688718919323996 ], [ -74.012784104620238, 40.688685604784055 ], [ -74.01286824461657, 40.688582242101347 ], [ -74.012887315898539, 40.688556615934132 ], [ -74.01294116251465, 40.688485716336196 ], [ -74.012962478352023, 40.688456672454777 ], [ -74.012999500153256, 40.688410543249375 ], [ -74.013011839169138, 40.688393459136996 ], [ -74.013025300808366, 40.688375520388256 ], [ -74.013038763705666, 40.688358436146835 ], [ -74.013060077370952, 40.688331100513921 ], [ -74.013075782817154, 40.688311454163831 ], [ -74.013134117900307, 40.688237134679824 ], [ -74.01316552675425, 40.688188445028075 ], [ -74.013183476392143, 40.688163671688827 ], [ -74.013230600325059, 40.688139750572617 ], [ -74.013254162557502, 40.688129499234819 ], [ -74.013281090019674, 40.688116682811156 ], [ -74.013306896502286, 40.688106431125924 ], [ -74.013351775578627, 40.688079947354666 ], [ -74.013478561385455, 40.688012453948978 ], [ -74.014247112535386, 40.687602370750859 ], [ -74.014881018915872, 40.687253796510895 ], [ -74.014911314925229, 40.687246960424872 ], [ -74.014920289953437, 40.687245249257359 ], [ -74.014955073376683, 40.6872401199347 ], [ -74.014985371639668, 40.687237554118603 ], [ -74.015014545276287, 40.687237550378924 ], [ -74.015041476297114, 40.687238401514477 ], [ -74.015105437147454, 40.687244370910243 ], [ -74.01518398408777, 40.687254612182258 ], [ -74.0152490660994, 40.68726400056363 ], [ -74.015259165516255, 40.68725972719924 ], [ -74.015306291123053, 40.687254596243605 ], [ -74.01532424592466, 40.687257156753013 ], [ -74.015335466947079, 40.687258863548387 ], [ -74.015518372847936, 40.687280193215372 ], [ -74.015607019887298, 40.687288723670775 ], [ -74.015683323044385, 40.687294692018973 ], [ -74.01575850265084, 40.687292118130735 ], [ -74.015844901191002, 40.687281856854405 ], [ -74.01593915455237, 40.687270740685754 ], [ -74.016022185837883, 40.687258771469388 ], [ -74.016118682036563, 40.687242528206895 ], [ -74.016165806725013, 40.687228854645653 ], [ -74.016205075962404, 40.68721859960781 ], [ -74.016270151110561, 40.687189549032254 ], [ -74.016348688870636, 40.687151957043476 ], [ -74.016503517387605, 40.687075062111674 ], [ -74.016758205125441, 40.686970818664079 ], [ -74.016957914499457, 40.68689135297349 ], [ -74.017036452168853, 40.686856321533241 ], [ -74.017103770281111, 40.686825561889457 ], [ -74.017294502927868, 40.686739264696207 ], [ -74.017719719430787, 40.686545308092732 ], [ -74.018440002708303, 40.68621293001344 ], [ -74.018951599562513, 40.685975393714209 ], [ -74.019508073097754, 40.685725035164147 ], [ -74.020270973364745, 40.68538409801144 ], [ -74.020430283519019, 40.685310612686557 ], [ -74.02053910922514, 40.685262760143367 ], [ -74.02060081441067, 40.685235417807924 ], [ -74.020671491893125, 40.685202946285806 ], [ -74.021066397672698, 40.685022649687149 ], [ -74.021540958044966, 40.684810733525623 ], [ -74.021997565601822, 40.684603089002096 ], [ -74.022226427121439, 40.684498838192944 ], [ -74.022319543581474, 40.684456112680657 ], [ -74.022384611881279, 40.684426204957283 ], [ -74.022399187569562, 40.684419543598636 ], [ -74.024036789797734, 40.683921389836001 ], [ -74.024060759965124, 40.683920210950198 ], [ -74.024184185189995, 40.683918476149323 ], [ -74.024254874312405, 40.683923587141983 ], [ -74.024324440077137, 40.683923572604243 ], [ -74.024337904892874, 40.683925278052406 ], [ -74.024361467369729, 40.683927835057652 ], [ -74.024405227297123, 40.683930388738872 ], [ -74.024539876498267, 40.683942318258268 ], [ -74.024589815293083, 40.683947962663254 ], [ -74.025902235534673, 40.684358679249435 ], [ -74.025922389441476, 40.684375930019812 ], [ -74.026030140596376, 40.684466445269194 ], [ -74.026105344499882, 40.684532197314638 ], [ -74.026183917681195, 40.684610761937549 ], [ -74.026280444017885, 40.684687615097552 ], [ -74.026335443924538, 40.684738851665813 ], [ -74.026373610752643, 40.684784967228154 ], [ -74.026417392156304, 40.684840476594324 ], [ -74.026462305884934, 40.684917339487853 ], [ -74.026521817837704, 40.685028365382259 ], [ -74.026564485426377, 40.685102668647517 ], [ -74.026589194003151, 40.685159891495523 ], [ -74.026617273751555, 40.685231633377384 ], [ -74.026634128090265, 40.685293127302579 ], [ -74.026636389773188, 40.685337543655749 ], [ -74.026638638048283, 40.685351210198775 ], [ -74.02664425762103, 40.685373415547872 ], [ -74.026655488980879, 40.685398183388934 ], [ -74.026662227617351, 40.685414411762061 ], [ -74.026670089829977, 40.685435762920285 ], [ -74.026675710631778, 40.685457970943865 ], [ -74.026673472223422, 40.685472491353394 ], [ -74.026672355952712, 40.685491282549329 ], [ -74.02666563630406, 40.685522887579332 ], [ -74.026676865998894, 40.685543386048089 ], [ -74.026673505479323, 40.685556198447252 ], [ -74.026670149886542, 40.685586948111272 ], [ -74.026669039801746, 40.685618553610546 ], [ -74.026670170923992, 40.685639907233778 ], [ -74.026664575595447, 40.685675781293888 ], [ -74.026661216684076, 40.685695428601292 ], [ -74.026657858866926, 40.685715073984326 ], [ -74.026629835448688, 40.68578597504861 ], [ -74.026614137973681, 40.685814166518099 ], [ -74.026617509436207, 40.685826123615414 ], [ -74.026623125234451, 40.685841497737769 ], [ -74.026618645094189, 40.685861998889962 ], [ -74.026592855843646, 40.685908127257484 ], [ -74.026568185291197, 40.685947424970784 ], [ -74.026548003157515, 40.685981595011668 ], [ -74.02651212213604, 40.686046520202567 ], [ -74.026467265839997, 40.68611742414339 ], [ -74.02642577212832, 40.686174663006774 ], [ -74.026376422973669, 40.686231047202604 ], [ -74.026312490634837, 40.686295124100361 ], [ -74.026220514827472, 40.68638397771133 ], [ -74.026174527436297, 40.68642840227087 ], [ -74.02606572486927, 40.686530071171767 ], [ -74.025784186518223, 40.686794066884794 ], [ -74.025580044584913, 40.686997400868592 ], [ -74.02538710911783, 40.687166565610532 ], [ -74.025187449070742, 40.6873562308514 ], [ -74.024984419663625, 40.687545043627431 ], [ -74.024959743834529, 40.687568110069456 ], [ -74.024748870255678, 40.687786818481854 ], [ -74.024563789859897, 40.687964521482677 ], [ -74.024457224312073, 40.688060208970427 ], [ -74.024339441078624, 40.688165295553731 ], [ -74.024322615652949, 40.68817981804299 ], [ -74.024194737150125, 40.688294302430343 ], [ -74.023971515237619, 40.688513011039383 ], [ -74.023811107295401, 40.688664230051387 ], [ -74.023674252482508, 40.688791526388428 ], [ -74.023536276771722, 40.688915406338971 ], [ -74.023390448563376, 40.689048682704964 ], [ -74.023133566563175, 40.68929473136248 ], [ -74.022684861744779, 40.689716771669616 ], [ -74.022439188066357, 40.689939752671727 ], [ -74.022250730023444, 40.690121721908739 ], [ -74.021899606251722, 40.690442952459151 ], [ -74.021714576656038, 40.690618699489526 ], [ -74.019762601450012, 40.69212699681907 ], [ -74.019272014745169, 40.693240135122373 ], [ -74.019198283327242, 40.693242486011037 ], [ -74.019150029699659, 40.693243349453887 ], [ -74.019097288249583, 40.693246772872996 ], [ -74.019058012521938, 40.693249342989674 ], [ -74.018822353983481, 40.693257922650297 ], [ -74.018737067840817, 40.693257082618416 ], [ -74.018685446410515, 40.693251111505418 ], [ -74.018641678543219, 40.693245140036574 ], [ -74.018610256425674, 40.69324001841408 ], [ -74.018581079082097, 40.693240877655029 ], [ -74.018551901141421, 40.693239174031561 ], [ -74.018389184621185, 40.693241763557232 ], [ -74.018017746145233, 40.693265738102788 ], [ -74.017728226199168, 40.693281155962069 ], [ -74.017420748407545, 40.693298285878093 ], [ -74.01723222732025, 40.693319665852506 ], [ -74.017118886911504, 40.693325660980058 ], [ -74.017006671062475, 40.693343615527645 ], [ -74.016905678186333, 40.69335302701851 ], [ -74.016821510702059, 40.693345351507666 ], [ -74.016737347306417, 40.693349632870977 ], [ -74.016689091773301, 40.693342806708493 ], [ -74.016659913036364, 40.693333416792164 ], [ -74.016546565051371, 40.693304390455076 ], [ -74.016344560762036, 40.693265984109502 ], [ -74.016267127027788, 40.693255741717216 ], [ -74.016222243873315, 40.693275396222589 ], [ -74.01618745790681, 40.693283087775448 ], [ -74.01616389102567, 40.693279672746272 ], [ -74.016102164432056, 40.693256619135504 ], [ -74.016051659630435, 40.693233565793861 ], [ -74.01595402065773, 40.693196850903384 ], [ -74.01578344081193, 40.693156728341158 ], [ -74.015433300697111, 40.69308075476701 ], [ -74.015388408992806, 40.693068802736754 ], [ -74.01536933188639, 40.693064533283653 ], [ -74.015323318745544, 40.693053008210725 ], [ -74.015303119691694, 40.693047460140832 ], [ -74.015278427176739, 40.693041484898288 ], [ -74.015249249010893, 40.69302782157601 ], [ -74.015233535821736, 40.693020136888016 ], [ -74.015181909365097, 40.692994518610675 ], [ -74.015153298869791, 40.693016729848999 ], [ -74.015105603943894, 40.693007340093203 ], [ -74.015084281981345, 40.693000509780489 ], [ -74.015066324497013, 40.692992824438633 ], [ -74.014901356575407, 40.692961242093084 ], [ -74.014890134701332, 40.692959962928711 ], [ -74.014880596635308, 40.692960390140023 ], [ -74.014860959784514, 40.692971497737439 ], [ -74.014850860560799, 40.692975200078017 ], [ -74.014842165056265, 40.692975984662517 ], [ -74.014791383648884, 40.692967234500699 ], [ -74.01469150534767, 40.692948457907619 ], [ -74.01458377090691, 40.692927970344705 ], [ -74.014545613992581, 40.692922851127349 ], [ -74.014455838599488, 40.692916881928817 ], [ -74.014389628604761, 40.692908349671292 ], [ -74.014373955881695, 40.692905828056624 ], [ -74.014331273060421, 40.692898960901793 ], [ -74.014302094000271, 40.69289127589218 ], [ -74.014275161609305, 40.692882738685732 ], [ -74.0142628149773, 40.692877615392128 ], [ -74.014249348919691, 40.692871637642192 ], [ -74.014225777885201, 40.692858828054881 ], [ -74.014194354263921, 40.692838331677713 ], [ -74.014150581586549, 40.692806733518964 ], [ -74.014052937170831, 40.692735850707123 ], [ -74.014024876680253, 40.692712792025823 ], [ -74.014000184730946, 40.692691441116416 ], [ -74.013968756652659, 40.692659842333626 ], [ -74.013896924480449, 40.69258553885993 ], [ -74.013810497993319, 40.692500134717157 ], [ -74.013775701642672, 40.692461701375954 ], [ -74.01370498780733, 40.69237543970884 ], [ -74.013672438359507, 40.692337859829543 ], [ -74.013648865898062, 40.692316510553724 ], [ -74.013593872245124, 40.692272953789463 ], [ -74.013571423963555, 40.692252458961143 ], [ -74.013546732509994, 40.692225981316412 ], [ -74.013496221859796, 40.692165343089428 ], [ -74.013471528331422, 40.692139721027502 ], [ -74.013465917187474, 40.692134597710947 ], [ -74.013459181045633, 40.692130326524179 ], [ -74.013451328091506, 40.692126057137699 ], [ -74.013443470581478, 40.692122641507332 ], [ -74.013432248621328, 40.692120079933957 ], [ -74.013418781558471, 40.692119512332859 ], [ -74.013375018991724, 40.692128627798965 ], [ -74.013291984567786, 40.692151699359322 ], [ -74.013256076267339, 40.692160244747058 ], [ -74.013127029872351, 40.692185028720424 ], [ -74.013081022985105, 40.692194432536269 ], [ -74.013058581270244, 40.69220126449833 ], [ -74.013010331879073, 40.692220063535359 ], [ -74.012997989527648, 40.692223481433111 ], [ -74.012986767343975, 40.692226044611964 ], [ -74.012954224144522, 40.692231172165961 ], [ -74.012883529803801, 40.692239721270866 ], [ -74.012853232094272, 40.692244851226427 ], [ -74.012726431100859, 40.692271342770248 ], [ -74.012625271765003, 40.692289721867581 ], [ -74.012604117914776, 40.692293565246104 ], [ -74.012588409737731, 40.692297837133232 ], [ -74.012572699567002, 40.692303816448131 ], [ -74.012558113515496, 40.692310652825924 ], [ -74.012545769499383, 40.692318341882213 ], [ -74.012533428102657, 40.692327737277679 ], [ -74.012522207466503, 40.692338844498771 ], [ -74.012513233698783, 40.692350802475339 ], [ -74.012507624246467, 40.692361051744641 ], [ -74.012499155181587, 40.692372364810034 ], [ -74.012084616225835, 40.692051314761294 ] ], [ [ -74.018427150595727, 40.693147894670254 ], [ -74.018422041786991, 40.69271044058322 ], [ -74.018263337309165, 40.692700205971867 ], [ -74.017081072274209, 40.692623963844881 ], [ -74.017069490211838, 40.692728006168529 ], [ -74.017072307213482, 40.69272818763519 ], [ -74.017067545415898, 40.692770959048829 ], [ -74.017000495241646, 40.692766634618259 ], [ -74.01698745514615, 40.692883776885218 ], [ -74.017051688538714, 40.69288791885247 ], [ -74.017031011272508, 40.693073663154955 ], [ -74.017030843807788, 40.693075574990814 ], [ -74.017030762625581, 40.693077490328228 ], [ -74.017030769045604, 40.693079405735311 ], [ -74.017030864164894, 40.693081321130791 ], [ -74.017031046885279, 40.693083231995523 ], [ -74.017031315885944, 40.693085137409582 ], [ -74.01703167369368, 40.693087033858482 ], [ -74.01703211657177, 40.693088920340188 ], [ -74.017032647158757, 40.693090793338889 ], [ -74.017033262813001, 40.693092651016109 ], [ -74.017033963647563, 40.693094491530296 ], [ -74.017034748561287, 40.693096312288894 ], [ -74.017035615024284, 40.693098111367036 ], [ -74.01703656424624, 40.693099885250362 ], [ -74.017037595236658, 40.693101633857886 ], [ -74.017038704148149, 40.693103353673408 ], [ -74.01703989241085, 40.693105042857866 ], [ -74.017041157605007, 40.693106699655146 ], [ -74.017042497310726, 40.693108322140397 ], [ -74.01704391141908, 40.693109907720846 ], [ -74.017045395422741, 40.69311145463945 ], [ -74.017046950420038, 40.693112960972087 ], [ -74.017048575201898, 40.693114425798839 ], [ -74.017050263833653, 40.69311584661029 ], [ -74.017052018730496, 40.693117220563366 ], [ -74.01705383384855, 40.693118548493935 ], [ -74.017055708196281, 40.693119826051685 ], [ -74.017057641775637, 40.693121054074261 ], [ -74.017059629640599, 40.693122229884558 ], [ -74.017061670798512, 40.693123351558768 ], [ -74.017063761512929, 40.693124419263647 ], [ -74.017065899697158, 40.693125429320474 ], [ -74.017068083920989, 40.693126383568313 ], [ -74.01707030835783, 40.693127278328951 ], [ -74.01707257531524, 40.693128113683173 ], [ -74.017074877870016, 40.693128887791836 ], [ -74.017077214591509, 40.693129600657784 ], [ -74.01707958218492, 40.693130251441197 ], [ -74.017081979327443, 40.693130838220952 ], [ -74.017084399975204, 40.693131361916748 ], [ -74.017086844457722, 40.693131819935758 ], [ -74.017089307719814, 40.693132213115064 ], [ -74.017091788770784, 40.693132540534705 ], [ -74.017094282775403, 40.693132802194079 ], [ -74.017096786215291, 40.693132997259987 ], [ -74.0171866166081, 40.693138790544772 ], [ -74.017184086975661, 40.693161300129056 ], [ -74.017183958302496, 40.693162734676001 ], [ -74.017183896018679, 40.693164171889684 ], [ -74.017183899901752, 40.693165609094947 ], [ -74.01718397006519, 40.693167046289169 ], [ -74.017184105294348, 40.693168480797304 ], [ -74.017184305591954, 40.693169909857779 ], [ -74.017184572165135, 40.69317133355419 ], [ -74.017184905014901, 40.693172749124948 ], [ -74.017185301723174, 40.693174154732844 ], [ -74.017185762286076, 40.693175548700005 ], [ -74.017186286706988, 40.693176930864098 ], [ -74.017186873884356, 40.693178296870947 ], [ -74.017187524917134, 40.693179647557983 ], [ -74.017188236287794, 40.693180978410361 ], [ -74.017189007996762, 40.69318229118187 ], [ -74.017189838942684, 40.69318358244491 ], [ -74.017190730117221, 40.693184850189006 ], [ -74.017191678108645, 40.693186093664714 ], [ -74.017192684020685, 40.693187311949174 ], [ -74.017193742021504, 40.693188501362862 ], [ -74.017194856733397, 40.693189662826526 ], [ -74.017196023645624, 40.693190794581788 ], [ -74.017197240119771, 40.693191893953781 ], [ -74.017198508685013, 40.693192959937036 ], [ -74.017199823295343, 40.693193991781158 ], [ -74.01720118537915, 40.693194987559366 ], [ -74.01720259229873, 40.693195947273395 ], [ -74.01720404295483, 40.693196869166925 ], [ -74.017205533938963, 40.693197751482813 ], [ -74.017207065030988, 40.693198594137222 ], [ -74.017208632823881, 40.693199394454233 ], [ -74.017210237317869, 40.693200153353892 ], [ -74.017211876093086, 40.693200868996392 ], [ -74.017213545633183, 40.693201541465996 ], [ -74.017215245937422, 40.693202167916077 ], [ -74.017216973378154, 40.693202750357464 ], [ -74.017218726857308, 40.693203284941141 ], [ -74.017220503955841, 40.693203772755069 ], [ -74.017222302366122, 40.693204213799596 ], [ -74.017224119778589, 40.693204606987429 ], [ -74.017225953665132, 40.693204950730049 ], [ -74.017227801720097, 40.693205245862842 ], [ -74.017229663939787, 40.69320549138326 ], [ -74.017231534500482, 40.693205688378448 ], [ -74.01723341450041, 40.693205834841855 ], [ -74.017308507976082, 40.693210677477438 ], [ -74.017380628309013, 40.693210453353437 ], [ -74.018268380633074, 40.693157385817493 ], [ -74.018427150595727, 40.693147894670254 ] ], [ [ -74.014911026205866, 40.687364285631261 ], [ -74.014856319660126, 40.687378981721587 ], [ -74.014804356280337, 40.687398615006458 ], [ -74.014507285721422, 40.687553744617439 ], [ -74.014505127013763, 40.687554926340432 ], [ -74.014503248727209, 40.68755635934432 ], [ -74.014501701628291, 40.687558005642607 ], [ -74.014500527361207, 40.687559822144252 ], [ -74.01449975525955, 40.687561758313855 ], [ -74.014499409052306, 40.687563765625903 ], [ -74.014499494662928, 40.687565789031211 ], [ -74.014500012080049, 40.687567775489072 ], [ -74.014500947113802, 40.687569669199014 ], [ -74.014502273597557, 40.687571424068118 ], [ -74.014503958548147, 40.687572989902463 ], [ -74.014505954478622, 40.687574327806288 ], [ -74.014508209507468, 40.68757540005705 ], [ -74.014509436342479, 40.687575789763066 ], [ -74.014510663179038, 40.687576178632781 ], [ -74.014511602572952, 40.687576366752815 ], [ -74.014528568635683, 40.687579505603431 ], [ -74.014543523062343, 40.68758032688396 ], [ -74.014994918482941, 40.687605106009613 ], [ -74.015462036117029, 40.68786684742475 ], [ -74.015941086403259, 40.687961193702179 ], [ -74.016329623744667, 40.687653963753114 ], [ -74.016278402848954, 40.687587925515636 ], [ -74.016186181182022, 40.687474367593211 ], [ -74.016165366595772, 40.687455372315512 ], [ -74.016141102958585, 40.687438921547347 ], [ -74.016113918116659, 40.687425372609468 ], [ -74.016084405840914, 40.687415021663838 ], [ -74.016053210987792, 40.687408098349692 ], [ -74.016021016206537, 40.687404748310307 ], [ -74.015083407826211, 40.687351608612673 ], [ -74.015025413767205, 40.687350497699008 ], [ -74.014967669389847, 40.687354743765532 ], [ -74.014911026205866, 40.687364285631261 ] ] ] ] } },
{ "type": "Feature", "properties": { "Borough": "MN", "Block": 1, "Lot": 111, "CD": 101, "BCT2020": "1000500", "BCTCB2020": "10005001003", "CT2010": "5", "CB2010": "1000", "SchoolDist": "02", "Council": 1, "ZipCode": 10004, "FireComp": "E007", "PolicePrct": 1, "HealthCent": 15, "HealthArea": 8100, "Sanitboro": "1", "SanitDistr": "01", "SanitSub": "3B", "Address": "ANDES ROAD", "ZoneDist1": "R3-2", "ZoneDist2": null, "ZoneDist3": null, "ZoneDist4": null, "Overlay1": null, "Overlay2": null, "SPDist1": "GI", "SPDist2": null, "SPDist3": null, "LtdHeight": null, "SplitZone": "N", "BldgClass": "Y4", "LandUse": "08", "Easements": 0, "OwnerType": null, "OwnerName": "GOVERNORS ISLAND CORPORATION", "LotArea": 64451, "BldgArea": 63500, "ComArea": 63500, "ResArea": 0, "OfficeArea": 0, "RetailArea": 1420, "GarageArea": 0, "StrgeArea": 0, "FactryArea": 0, "OtherArea": 62080, "AreaSource": "2", "NumBldgs": 2, "NumFloors": 3.0, "UnitsRes": 0, "UnitsTotal": 1, "LotFront": 0.0, "LotDepth": 0.0, "BldgFront": 0.0, "BldgDepth": 0.0, "Ext": "N", "ProxCode": "0", "IrrLotCode": "N", "LotType": "5", "BsmtCode": "1", "AssessLand": 870089.0, "AssessTot": 4266000.0, "ExemptTot": 0.0, "YearBuilt": 0, "YearAlter1": 0, "YearAlter2": 0, "HistDist": null, "Landmark": null, "BuiltFAR": 0.99, "ResidFAR": 0.75, "CommFAR": 0.0, "FacilFAR": 1.0, "BoroCode": 1, "BBL": 1000010110.9999999, "CondoNo": 0, "Tract2010": "0005", "XCoord": 979359, "YCoord": 191727, "ZoneMap": "16a", "ZMCode": null, "Sanborn": "1", "TaxMap": "1", "EDesigNum": null, "APPBBL": 1000010010.0, "APPDate": "09/01/2022", "PLUTOMapID": "1", "FIRM07_FLA": "1", "PFIRM15_FL": "1", "Version": "25v4", "DCPEdited": null, "Latitude": 40.6929217, "Longitude": -74.0176373, "Notes": null, "Shape_Leng": 0.0, "Shape_Area": 64451.003998599997 }, "geometry": { "type": "MultiPolygon", "coordinates": [ [ [ [ -74.018263337309165, 40.692700205971867 ], [ -74.018265757759394, 40.692930514135334 ], [ -74.018260315527229, 40.692930547362621 ], [ -74.0182614879742, 40.693013624810739 ], [ -74.018266176573746, 40.693013722211482 ], [ -74.018268380633074, 40.693157385817493 ], [ -74.017380628309013, 40.693210453353437 ], [ -74.017308507976082, 40.693210677477438 ], [ -74.01723341450041, 40.693205834841855 ], [ -74.017231534500482, 40.693205688378448 ], [ -74.017229663939787, 40.69320549138326 ], [ -74.017227801720097, 40.693205245862842 ], [ -74.017225953665132, 40.693204950730049 ], [ -74.017224119778589, 40.693204606987429 ], [ -74.017222302366122, 40.693204213799596 ], [ -74.017220503955841, 40.693203772755069 ], [ -74.017218726857308, 40.693203284941141 ], [ -74.017216973378154, 40.693202750357464 ], [ -74.017215245937422, 40.693202167916077 ], [ -74.017213545633183, 40.693201541465996 ], [ -74.017211876093086, 40.693200868996392 ], [ -74.017210237317869, 40.693200153353892 ], [ -74.017208632823881, 40.693199394454233 ], [ -74.017207065030988, 40.693198594137222 ], [ -74.017205533938963, 40.693197751482813 ], [ -74.01720404295483, 40.693196869166925 ], [ -74.01720259229873, 40.693195947273395 ], [ -74.01720118537915, 40.693194987559366 ], [ -74.017199823295343, 40.693193991781158 ], [ -74.017198508685013, 40.693192959937036 ], [ -74.017197240119771, 40.693191893953781 ], [ -74.017196023645624, 40.693190794581788 ], [ -74.017194856733397, 40.693189662826526 ], [ -74.017193742021504, 40.693188501362862 ], [ -74.017192684020685, 40.693187311949174 ], [ -74.017191678108645, 40.693186093664714 ], [ -74.017190730117221, 40.693184850189006 ], [ -74.017189838942684, 40.69318358244491 ], [ -74.017189007996762, 40.69318229118187 ], [ -74.017188236287794, 40.693180978410361 ], [ -74.017187524917134, 40.693179647557983 ], [ -74.017186873884356, 40.693178296870947 ], [ -74.017186286706988, 40.693176930864098 ], [ -74.017185762286076, 40.693175548700005 ], [ -74.017185301723174, 40.693174154732844 ], [ -74.017184905014901, 40.693172749124948 ], [ -74.017184572165135, 40.69317133355419 ], [ -74.017184305591954, 40.693169909857779 ], [ -74.017184105294348, 40.693168480797304 ], [ -74.01718397006519, 40.693167046289169 ], [ -74.017183899901752, 40.693165609094947 ], [ -74.017183896018679, 40.693164171889684 ], [ -74.017183958302496, 40.693162734676001 ], [ -74.017184086975661, 40.693161300129056 ], [ -74.0171866166081, 40.693138790544772 ], [ -74.017096786215291, 40.693132997259987 ], [ -74.017094282775403, 40.693132802194079 ], [ -74.017091788770784, 40.693132540534705 ], [ -74.017089307719814, 40.693132213115064 ], [ -74.017086844457722, 40.693131819935758 ], [ -74.017084399975204, 40.693131361916748 ], [ -74.017081979327443, 40.693130838220952 ], [ -74.01707958218492, 40.693130251441197 ], [ -74.017077214591509, 40.693129600657784 ], [ -74.017074877870016, 40.693128887791836 ], [ -74.01707257531524, 40.693128113683173 ], [ -74.01707030835783, 40.693127278328951 ], [ -74.017068083920989, 40.693126383568313 ], [ -74.017065899697158, 40.693125429320474 ], [ -74.017063761512929, 40.693124419263647 ], [ -74.017061670798512, 40.693123351558768 ], [ -74.017059629640599, 40.693122229884558 ], [ -74.017057641775637, 40.693121054074261 ], [ -74.017055708196281, 40.693119826051685 ], [ -74.01705383384855, 40.693118548493935 ], [ -74.017052018730496, 40.693117220563366 ], [ -74.017050263833653, 40.69311584661029 ], [ -74.017048575201898, 40.693114425798839 ], [ -74.017046950420038, 40.693112960972087 ], [ -74.017045395422741, 40.69311145463945 ], [ -74.01704391141908, 40.693109907720846 ], [ -74.017042497310726, 40.693108322140397 ], [ -74.017041157605007, 40.693106699655146 ], [ -74.01703989241085, 40.693105042857866 ], [ -74.017038704148149, 40.693103353673408 ], [ -74.017037595236658, 40.693101633857886 ], [ -74.01703656424624, 40.693099885250362 ], [ -74.017035615024284, 40.693098111367036 ], [ -74.017034748561287, 40.693096312288894 ], [ -74.017033963647563, 40.693094491530296 ], [ -74.017033262813001, 40.693092651016109 ], [ -74.017032647158757, 40.693090793338889 ], [ -74.01703211657177, 40.693088920340188 ], [ -74.01703167369368, 40.693087033858482 ], [ -74.017031315885944, 40.693085137409582 ], [ -74.017031046885279, 40.693083231995523 ], [ -74.017030864164894, 40.693081321130791 ], [ -74.017030769045604, 40.693079405735311 ], [ -74.017030762625581, 40.693077490328228 ], [ -74.017030843807788, 40.693075574990814 ], [ -74.017031011272508, 40.693073663154955 ], [ -74.017051688538714, 40.69288791885247 ], [ -74.01698745514615, 40.692883776885218 ], [ -74.017000495241646, 40.692766634618259 ], [ -74.017067545415898, 40.692770959048829 ], [ -74.017072307213482, 40.69272818763519 ], [ -74.017069490211838, 40.692728006168529 ], [ -74.017081072274209, 40.692623963844881 ], [ -74.018263337309165, 40.692700205971867 ] ] ] ] } },
{ "type": "Feature", "properties": { "Borough": "MN", "Block": 1, "Lot": 112, "CD": 101, "BCT2020": "1000500", "BCTCB2020": "10005001003", "CT2010": "5", "CB2010": "1000", "SchoolDist": "02", "Council": 1, "ZipCode": 10004, "FireComp": "E007", "PolicePrct": 1, "HealthCent": 15, "HealthArea": 8100, "Sanitboro": "1", "SanitDistr": "01", "SanitSub": "3B", "Address": "ANDES ROAD", "ZoneDist1": "R3-2", "ZoneDist2": null, "ZoneDist3": null, "ZoneDist4": null, "Overlay1": null, "Overlay2": null, "SPDist1": "GI", "SPDist2": null, "SPDist3": null, "LtdHeight": null, "SplitZone": "N", "BldgClass": "Y4", "LandUse": "08", "Easements": 0, "OwnerType": null, "OwnerName": "GOVERNORS ISLAND CORPORATION", "LotArea": 7225, "BldgArea": 8445, "ComArea": 8445, "ResArea": 0, "OfficeArea": 0, "RetailArea": 0, "GarageArea": 0, "StrgeArea": 0, "FactryArea": 0, "OtherArea": 8445, "AreaSource": "2", "NumBldgs": 1, "NumFloors": 0.0, "UnitsRes": 0, "UnitsTotal": 1, "LotFront": 0.0, "LotDepth": 0.0, "BldgFront": 0.0, "BldgDepth": 0.0, "Ext": "N", "ProxCode": "0", "IrrLotCode": "N", "LotType": "5", "BsmtCode": "1", "AssessLand": 97538.0, "AssessTot": 550163.0, "ExemptTot": 0.0, "YearBuilt": 0, "YearAlter1": 0, "YearAlter2": 0, "HistDist": null, "Landmark": null, "BuiltFAR": 1.17, "ResidFAR": 0.75, "CommFAR": 0.0, "FacilFAR": 1.0, "BoroCode": 1, "BBL": 1000010112.0, "CondoNo": 0, "Tract2010": "0005", "XCoord": 979162, "YCoord": 191729, "ZoneMap": "16a", "ZMCode": null, "Sanborn": "1", "TaxMap": "1", "EDesigNum": null, "APPBBL": 1000010010.0, "APPDate": "09/01/2022", "PLUTOMapID": "1", "FIRM07_FLA": "1", "PFIRM15_FL": "1", "Version": "25v4", "DCPEdited": null, "Latitude": 40.6929271, "Longitude": -74.0183477, "Notes": null, "Shape_Leng": 0.0, "Shape_Area": 7225.2538820999998 }, "geometry": { "type": "MultiPolygon", "coordinates": [ [ [ [ -74.018263337309165, 40.692700205971867 ], [ -74.018422041786991, 40.69271044058322 ], [ -74.018427150595727, 40.693147894670254 ], [ -74.018268380633074, 40.693157385817493 ], [ -74.018266176573746, 40.693013722211482 ], [ -74.0182614879742, 40.693013624810739 ], [ -74.018260315527229, 40.692930547362621 ], [ -74.018265757759394, 40.692930514135334 ], [ -74.018263337309165, 40.692700205971867 ] ] ] ] } },
{ "type": "Feature", "properties": { "Borough": "MN", "Block": 1, "Lot": 201, "CD": 101, "BCT2020": "1000100", "BCTCB2020": "10001001000", "CT2010": "1", "CB2010": "1000", "SchoolDist": "02", "Council": 1, "ZipCode": 10004, "FireComp": "E007", "PolicePrct": 1, "HealthCent": 15, "HealthArea": 8200, "Sanitboro": "1", "SanitDistr": "01", "SanitSub": null, "Address": "1 ELLIS ISLAND", "ZoneDist1": null, "ZoneDist2": null, "ZoneDist3": null, "ZoneDist4": null, "Overlay1": null, "Overlay2": null, "SPDist1": null, "SPDist2": null, "SPDist3": null, "LtdHeight": null, "SplitZone": null, "BldgClass": "Z9", "LandUse": null, "Easements": 0, "OwnerType": "X", "OwnerName": "U S GOVT LAND & BLDGS", "LotArea": 2764190, "BldgArea": 603130, "ComArea": 603130, "ResArea": 0, "OfficeArea": 0, "RetailArea": 0, "GarageArea": 0, "StrgeArea": 0, "FactryArea": 0, "OtherArea": 603130, "AreaSource": "2", "NumBldgs": 13, "NumFloors": 0.0, "UnitsRes": 0, "UnitsTotal": 0, "LotFront": 0.0, "LotDepth": 0.0, "BldgFront": 0.0, "BldgDepth": 0.0, "Ext": "N", "ProxCode": "0", "IrrLotCode": "N", "LotType": "5", "BsmtCode": "0", "AssessLand": 14972400.0, "AssessTot": 114857550.0, "ExemptTot": 114857550.0, "YearBuilt": 1900, "YearAlter1": 0, "YearAlter2": 0, "HistDist": "Ellis Island Historic District", "Landmark": "INTERIOR LANDMARK", "BuiltFAR": 0.22, "ResidFAR": 0.0, "CommFAR": 0.0, "FacilFAR": 0.0, "BoroCode": 1, "BBL": 1000010201.0000001, "CondoNo": 0, "Tract2010": "0001", "XCoord": 972790, "YCoord": 193648, "ZoneMap": "12b", "ZMCode": null, "Sanborn": "199 999", "TaxMap": "10101", "EDesigNum": null, "APPBBL": 0.0, "APPDate": null, "PLUTOMapID": "1", "FIRM07_FLA": null, "PFIRM15_FL": "1", "Version": "25v4", "DCPEdited": null, "Latitude": 40.6981883, "Longitude": -74.0413288, "Notes": null, "Shape_Leng": 0.0, "Shape_Area": 1148538.64118 }, "geometry": { "type": "MultiPolygon", "coordinates": [ [ [ [ -74.038234261690931, 40.69836441906358 ], [ -74.0386768511935, 40.698368527534193 ], [ -74.038807036648279, 40.698369338609922 ], [ -74.039003994689864, 40.698369271573661 ], [ -74.039351747704984, 40.698109490717123 ], [ -74.039552160627281, 40.69825676320567 ], [ -74.039612787842117, 40.698298171456727 ], [ -74.03968352281116, 40.698351104472067 ], [ -74.039771098256836, 40.698415988683095 ], [ -74.039883376936842, 40.698501364509546 ], [ -74.040030460157695, 40.698609793842841 ], [ -74.040339227421413, 40.698840306785641 ], [ -74.040558170587886, 40.699004226038276 ], [ -74.040550320363408, 40.699014480215276 ], [ -74.040889404464139, 40.699265482081294 ], [ -74.041247581870152, 40.699535266138774 ], [ -74.041550457933099, 40.699301975130261 ], [ -74.041755737086575, 40.699143028598037 ], [ -74.041675455017497, 40.699081130292122 ], [ -74.041663665990598, 40.699072167209543 ], [ -74.039918816051681, 40.697703575911369 ], [ -74.039925545219916, 40.697698447040437 ], [ -74.040007438291184, 40.69764418190119 ], [ -74.040287890672616, 40.697454887273778 ], [ -74.040784835659892, 40.697099387886553 ], [ -74.041319908640133, 40.696705434380753 ], [ -74.041557714723126, 40.696529393876666 ], [ -74.041663156544843, 40.696449920110119 ], [ -74.041669894926088, 40.696454186969447 ], [ -74.042373888510227, 40.697003152552902 ], [ -74.043282248077674, 40.697710054863641 ], [ -74.04368422287763, 40.698022523654785 ], [ -74.043644960887107, 40.698050724456166 ], [ -74.043666294165334, 40.698066092640573 ], [ -74.042713951841151, 40.698796746099788 ], [ -74.042976691591207, 40.69899310531617 ], [ -74.042375451902672, 40.699474213294643 ], [ -74.041740985713361, 40.699981962314439 ], [ -74.041076708270566, 40.700463384449662 ], [ -74.040917001097938, 40.70034768212858 ], [ -74.040801350645509, 40.70026230759148 ], [ -74.040703192418533, 40.70033537182205 ], [ -74.040014953411571, 40.70084079540073 ], [ -74.037927854399214, 40.699172530382583 ], [ -74.038098138498171, 40.699040082565766 ], [ -74.038232114370999, 40.698365975273724 ], [ -74.038234261690931, 40.69836441906358 ] ] ] ] } },
{ "type": "Feature", "properties": { "Borough": "MN", "Block": 1, "Lot": 101, "CD": 101, "BCT2020": "1000100", "BCTCB2020": "10001001001", "CT2010": "1", "CB2010": "1001", "SchoolDist": "02", "Council": 1, "ZipCode": 10004, "FireComp": "E007", "PolicePrct": 1, "HealthCent": 15, "HealthArea": 8200, "Sanitboro": null, "SanitDistr": null, "SanitSub": null, "Address": "1 LIBERTY ISLAND", "ZoneDist1": "R3-2", "ZoneDist2": null, "ZoneDist3": null, "ZoneDist4": null, "Overlay1": null, "Overlay2": null, "SPDist1": null, "SPDist2": null, "SPDist3": null, "LtdHeight": null, "SplitZone": "N", "BldgClass": "P7", "LandUse": "08", "Easements": 0, "OwnerType": "X", "OwnerName": "U S GOVT LAND & BLDGS", "LotArea": 541886, "BldgArea": 541886, "ComArea": 541886, "ResArea": 0, "OfficeArea": 0, "RetailArea": 0, "GarageArea": 0, "StrgeArea": 0, "FactryArea": 0, "OtherArea": 541886, "AreaSource": "2", "NumBldgs": 10, "NumFloors": 0.0, "UnitsRes": 0, "UnitsTotal": 0, "LotFront": 500.0, "LotDepth": 1046.0, "BldgFront": 0.0, "BldgDepth": 0.0, "Ext": "N", "ProxCode": "0", "IrrLotCode": "Y", "LotType": "5", "BsmtCode": "0", "AssessLand": 4225950.0, "AssessTot": 14697900.0, "ExemptTot": 14697900.0, "YearBuilt": 1900, "YearAlter1": 0, "YearAlter2": 0, "HistDist": null, "Landmark": "INDIVIDUAL LANDMARK", "BuiltFAR": 1.0, "ResidFAR": 0.75, "CommFAR": 0.0, "FacilFAR": 1.0, "BoroCode": 1, "BBL": 1000010101.0, "CondoNo": 0, "Tract2010": "0001", "XCoord": 971677, "YCoord": 190636, "ZoneMap": "16a", "ZMCode": null, "Sanborn": "199 999", "TaxMap": "10101", "EDesigNum": null, "APPBBL": 0.0, "APPDate": null, "PLUTOMapID": "1", "FIRM07_FLA": null, "PFIRM15_FL": "1", "Version": "25v4", "DCPEdited": null, "Latitude": 40.6899196, "Longitude": -74.0453371, "Notes": null, "Shape_Leng": 0.0, "Shape_Area": 501897.28978300001 }, "geometry": { "type": "MultiPolygon", "coordinates": [ [ [ [ -74.042625971731411, 40.690038786286593 ], [ -74.042573949248364, 40.689975209280306 ], [ -74.042581598956531, 40.689950799392413 ], [ -74.042638741665357, 40.689925527316348 ], [ -74.042694847421487, 40.689996414813351 ], [ -74.042727085703589, 40.689981361655171 ], [ -74.042694996809701, 40.690056285415181 ], [ -74.042625971731411, 40.690038786286593 ] ] ], [ [ [ -74.043182976148046, 40.689830634021725 ], [ -74.042871727207398, 40.689974724588708 ], [ -74.042791800873587, 40.689951143870076 ], [ -74.04308511625814, 40.689814184819163 ], [ -74.043182976148046, 40.689830634021725 ] ] ], [ [ [ -74.043830606974254, 40.689939494140631 ], [ -74.04384862511192, 40.68992739885428 ], [ -74.04371194364451, 40.689181862418764 ], [ -74.043993940264798, 40.688888592883856 ], [ -74.044767767374935, 40.688754064025922 ], [ -74.045400903936866, 40.688930258300346 ], [ -74.045956868828114, 40.689326446161637 ], [ -74.046414178617766, 40.690014230682955 ], [ -74.046766661454811, 40.689878434003369 ], [ -74.046818568871998, 40.689945218056764 ], [ -74.04683216109477, 40.689937167412353 ], [ -74.046827667569644, 40.689929887658167 ], [ -74.046900910082655, 40.68989360966966 ], [ -74.04746087774258, 40.689617445454253 ], [ -74.047469291082606, 40.689616997179755 ], [ -74.047477711706279, 40.68961829765874 ], [ -74.04748556083436, 40.689621179643332 ], [ -74.047493010311527, 40.689626193381066 ], [ -74.04761476558788, 40.689773189584848 ], [ -74.047465608737753, 40.689830653550509 ], [ -74.047432356678257, 40.68979043385395 ], [ -74.047341492583328, 40.689837467028532 ], [ -74.047003248026655, 40.690003839499894 ], [ -74.046956753904539, 40.69002669439174 ], [ -74.046918139432179, 40.690041570949859 ], [ -74.046908483724167, 40.690031954140181 ], [ -74.046892241400627, 40.690039878870081 ], [ -74.046960044310524, 40.690127104335879 ], [ -74.047220644901941, 40.690519028930602 ], [ -74.047132454564519, 40.690541285575584 ], [ -74.047103479483596, 40.690563428378709 ], [ -74.04711899281186, 40.690645838681796 ], [ -74.047183602648758, 40.690684223719693 ], [ -74.047211953361426, 40.690722877431547 ], [ -74.047213056876728, 40.690729145924493 ], [ -74.046985179756646, 40.690816936544692 ], [ -74.047065299281414, 40.690937429448269 ], [ -74.046784354466141, 40.691042664657601 ], [ -74.044674778545172, 40.690621238192826 ], [ -74.04396194105847, 40.690066022149828 ], [ -74.043732046522379, 40.690027379875204 ], [ -74.043663692188332, 40.689934177426636 ], [ -74.043650855052832, 40.689909279669685 ], [ -74.043830606974254, 40.689939494140631 ] ] ] ] } },
{ "type": "Feature", "properties": { "Borough": "MN", "Block": 1, "Lot": 150, "CD": 101, "BCT2020": "1000500", "BCTCB2020": "10005001005", "CT2010": "5", "CB2010": "1008", "SchoolDist": "02", "Council": 1, "ZipCode": 10004, "FireComp": "E007", "PolicePrct": 1, "HealthCent": 15, "HealthArea": 8100, "Sanitboro": "1", "SanitDistr": "01", "SanitSub": "3B", "Address": "COMFORT ROAD", "ZoneDist1": "R3-2", "ZoneDist2": null, "ZoneDist3": null, "ZoneDist4": null, "Overlay1": null, "Overlay2": null, "SPDist1": "GI", "SPDist2": null, "SPDist3": null, "LtdHeight": null, "SplitZone": "N", "BldgClass": "Y4", "LandUse": "08", "Easements": 0, "OwnerType": "X", "OwnerName": "GOVERNORS ISLAND CORPORATION", "LotArea": 64181, "BldgArea": 22560, "ComArea": 22560, "ResArea": 0, "OfficeArea": 22560, "RetailArea": 0, "GarageArea": 0, "StrgeArea": 0, "FactryArea": 0, "OtherArea": 0, "AreaSource": "2", "NumBldgs": 1, "NumFloors": 0.0, "UnitsRes": 0, "UnitsTotal": 1, "LotFront": 0.0, "LotDepth": 0.0, "BldgFront": 0.0, "BldgDepth": 0.0, "Ext": null, "ProxCode": "1", "IrrLotCode": "N", "LotType": "5", "BsmtCode": "0", "AssessLand": 865801.0, "AssessTot": 1437301.0, "ExemptTot": 1437301.0, "YearBuilt": 0, "YearAlter1": 0, "YearAlter2": 0, "HistDist": null, "Landmark": null, "BuiltFAR": 0.35, "ResidFAR": 0.75, "CommFAR": 0.0, "FacilFAR": 1.0, "BoroCode": 1, "BBL": 1000010150.0, "CondoNo": 0, "Tract2010": "0005", "XCoord": 979937, "YCoord": 189789, "ZoneMap": "16a", "ZMCode": null, "Sanborn": "1", "TaxMap": "1", "EDesigNum": null, "APPBBL": 1000010010.0, "APPDate": "09/20/2024", "PLUTOMapID": "1", "FIRM07_FLA": "1", "PFIRM15_FL": "1", "Version": "25v4", "DCPEdited": null, "Latitude": 40.6876026, "Longitude": -74.0155517, "Notes": null, "Shape_Leng": 0.0, "Shape_Area": 64161.392981500001 }, "geometry": { "type": "MultiPolygon", "coordinates": [ [ [ [ -74.014967669389847, 40.687354743765532 ], [ -74.015025413767205, 40.687350497699008 ], [ -74.015083407826211, 40.687351608612673 ], [ -74.016021016206537, 40.687404748310307 ], [ -74.016053210987792, 40.687408098349692 ], [ -74.016084405840914, 40.687415021663838 ], [ -74.016113918116659, 40.687425372609468 ], [ -74.016141102958585, 40.687438921547347 ], [ -74.016165366595772, 40.687455372315512 ], [ -74.016186181182022, 40.687474367593211 ], [ -74.016278402848954, 40.687587925515636 ], [ -74.016329623744667, 40.687653963753114 ], [ -74.015941086403259, 40.687961193702179 ], [ -74.015462036117029, 40.68786684742475 ], [ -74.014994918482941, 40.687605106009613 ], [ -74.014543523062343, 40.68758032688396 ], [ -74.014528568635683, 40.687579505603431 ], [ -74.014511602572952, 40.687576366752815 ], [ -74.014510663179038, 40.687576178632781 ], [ -74.014509436342479, 40.687575789763066 ], [ -74.014508209507468, 40.68757540005705 ], [ -74.014505954478622, 40.687574327806288 ], [ -74.014503958548147, 40.687572989902463 ], [ -74.014502273597557, 40.687571424068118 ], [ -74.014500947113802, 40.687569669199014 ], [ -74.014500012080049, 40.687567775489072 ], [ -74.014499494662928, 40.687565789031211 ], [ -74.014499409052306, 40.687563765625903 ], [ -74.01449975525955, 40.687561758313855 ], [ -74.014500527361207, 40.687559822144252 ], [ -74.014501701628291, 40.687558005642607 ], [ -74.014503248727209, 40.68755635934432 ], [ -74.014505127013763, 40.687554926340432 ], [ -74.014507285721422, 40.687553744617439 ], [ -74.014804356280337, 40.687398615006458 ], [ -74.014856319660126, 40.687378981721587 ], [ -74.014911026205866, 40.687364285631261 ], [ -74.014967669389847, 40.687354743765532 ] ] ] ] } },
{ "type": "Feature", "properties": { "Borough": "MN", "Block": 3, "Lot": 1, "CD": 101, "BCT2020": "1031900", "BCTCB2020": "10319001003", "CT2010": "319", "CB2010": "1001", "SchoolDist": "02", "Council": 1, "ZipCode": 10004, "FireComp": "L015", "PolicePrct": 1, "HealthCent": 15, "HealthArea": 9000, "Sanitboro": "1", "SanitDistr": "01", "SanitSub": "1A", "Address": "10 BATTERY PARK", "ZoneDist1": "PARK", "ZoneDist2": null, "ZoneDist3": null, "ZoneDist4": null, "Overlay1": null, "Overlay2": null, "SPDist1": null, "SPDist2": null, "SPDist3": null, "LtdHeight": null, "SplitZone": "N", "BldgClass": "Q1", "LandUse": "09", "Easements": 0, "OwnerType": "C", "OwnerName": "NYC DEPARTMENT OF PARKS AND RECREATION", "LotArea": 945425, "BldgArea": 945425, "ComArea": 945425, "ResArea": 0, "OfficeArea": 0, "RetailArea": 0, "GarageArea": 0, "StrgeArea": 0, "FactryArea": 0, "OtherArea": 945425, "AreaSource": "2", "NumBldgs": 9, "NumFloors": 1.0, "UnitsRes": 0, "UnitsTotal": 4, "LotFront": 323.0, "LotDepth": 1260.0, "BldgFront": 89.0, "BldgDepth": 57.0, "Ext": "N", "ProxCode": "1", "IrrLotCode": "Y", "LotType": "1", "BsmtCode": "0", "AssessLand": 103167471.0, "AssessTot": 137326050.0, "ExemptTot": 137326050.0, "YearBuilt": 1951, "YearAlter1": 0, "YearAlter2": 0, "HistDist": null, "Landmark": "INDIVIDUAL LANDMARK", "BuiltFAR": 1.0, "ResidFAR": 0.0, "CommFAR": 0.0, "FacilFAR": 0.0, "BoroCode": 1, "BBL": 1000030001.0000001, "CondoNo": 0, "Tract2010": "0319", "XCoord": 979916, "YCoord": 195328, "ZoneMap": "12b", "ZMCode": null, "Sanborn": "101S087", "TaxMap": "10101", "EDesigNum": null, "APPBBL": 0.0, "APPDate": null, "PLUTOMapID": "1", "FIRM07_FLA": "1", "PFIRM15_FL": "1", "Version": "25v4", "DCPEdited": "t", "Latitude": 40.7028059, "Longitude": -74.015631, "Notes": null, "Shape_Leng": 0.0, "Shape_Area": 921410.46296300006 }, "geometry": { "type": "MultiPolygon", "coordinates": [ [ [ [ -74.015587143433763, 40.70458560365465 ], [ -74.015306149984013, 40.704573025432431 ], [ -74.014467207679445, 40.704535469871203 ], [ -74.014457944537796, 40.704533806838676 ], [ -74.014450627838215, 40.704532058985698 ], [ -74.014442094455504, 40.704529501699277 ], [ -74.014435763405118, 40.7045272142811 ], [ -74.01442424404334, 40.704522086391393 ], [ -74.014412242793597, 40.704515154839967 ], [ -74.014403965481293, 40.704509156648697 ], [ -74.014392860459594, 40.704498872376483 ], [ -74.014384530208886, 40.704488447298488 ], [ -74.014378127352472, 40.704477268285821 ], [ -74.014374273640755, 40.704467282962533 ], [ -74.014372306430985, 40.704459157933869 ], [ -74.014371322542829, 40.704450922853169 ], [ -74.014513946705861, 40.703616708845999 ], [ -74.014548074723734, 40.70346788002427 ], [ -74.014559176459699, 40.703386713861605 ], [ -74.014564457864296, 40.703328751899498 ], [ -74.014565118351584, 40.703269295582963 ], [ -74.014563094012829, 40.703204754463428 ], [ -74.014552264953437, 40.703112727288648 ], [ -74.014527371040757, 40.703028765049559 ], [ -74.014518184838309, 40.703010251706942 ], [ -74.014480173579969, 40.702933639144177 ], [ -74.014424383995888, 40.702824366453825 ], [ -74.014377260641751, 40.702747550593507 ], [ -74.014338631199138, 40.702700781921699 ], [ -74.014125304576368, 40.702499377132902 ], [ -74.014065141593036, 40.702442576554091 ], [ -74.014053767623025, 40.702428508400182 ], [ -74.014045444746458, 40.702418213803071 ], [ -74.014041748538418, 40.702413642368171 ], [ -74.014037392941233, 40.702402552270911 ], [ -74.014028715077245, 40.702380458327283 ], [ -74.014026566231379, 40.702357390211759 ], [ -74.014031648762028, 40.702330843468076 ], [ -74.014032920576525, 40.702324207451454 ], [ -74.014051501556111, 40.702291799512423 ], [ -74.014074621979589, 40.702261312623797 ], [ -74.014081448643907, 40.702252309435963 ], [ -74.014097507067262, 40.702225771244443 ], [ -74.014108600231282, 40.702187140775749 ], [ -74.01410593327239, 40.70213672779574 ], [ -74.014097088031392, 40.702094796639422 ], [ -74.014084933406664, 40.701991736507594 ], [ -74.014034189877194, 40.70145228910858 ], [ -74.014033648482638, 40.701449103215815 ], [ -74.014033067487006, 40.701443141889733 ], [ -74.01403280789107, 40.70143545971365 ], [ -74.014032984186471, 40.701429510009532 ], [ -74.014033514179488, 40.701423336054532 ], [ -74.014034886145581, 40.701414708068562 ], [ -74.014034990111341, 40.701414053411995 ], [ -74.014036713804217, 40.701406823852814 ], [ -74.014040034118878, 40.70139661620837 ], [ -74.014043241516561, 40.701388951604486 ], [ -74.014052242595127, 40.701372711609515 ], [ -74.014058477595384, 40.701363958805402 ], [ -74.014067226749802, 40.701353692782476 ], [ -74.014076531051757, 40.701344560544555 ], [ -74.014089136325282, 40.701334266199574 ], [ -74.01409562073556, 40.701329696220064 ], [ -74.014101286489662, 40.701326041250091 ], [ -74.014106773693953, 40.701322769968066 ], [ -74.014113310302832, 40.701319188764387 ], [ -74.014121606296669, 40.701315090410368 ], [ -74.01412999592479, 40.7013114099299 ], [ -74.014138428178612, 40.701308139128123 ], [ -74.014145135437658, 40.701305821342984 ], [ -74.014154528650252, 40.701302974582767 ], [ -74.014166884565441, 40.70129989246194 ], [ -74.014173757674996, 40.701298485968806 ], [ -74.014191144284197, 40.701299052090533 ], [ -74.014523861535395, 40.701369332202603 ], [ -74.014536151744707, 40.701374578869569 ], [ -74.014547167906457, 40.701380863920342 ], [ -74.014555676893863, 40.701387862570172 ], [ -74.014559064166846, 40.701396932117362 ], [ -74.014558231844603, 40.701405797722863 ], [ -74.01455983614801, 40.701421201593668 ], [ -74.014564799367093, 40.701435489434701 ], [ -74.014572001258415, 40.701449793144171 ], [ -74.014576026905061, 40.701456413200461 ], [ -74.014580981447949, 40.701463081747555 ], [ -74.014586637526392, 40.701469659267566 ], [ -74.014590059014267, 40.701473223949662 ], [ -74.014595451063499, 40.701478333679674 ], [ -74.014603412109082, 40.701484947807238 ], [ -74.014610356535513, 40.70148998171404 ], [ -74.014617215524851, 40.701494395204307 ], [ -74.014625437669565, 40.701499061514731 ], [ -74.014633702341598, 40.701503152402246 ], [ -74.014640501879612, 40.701506116899353 ], [ -74.0146464494524, 40.701508438572084 ], [ -74.014651819373896, 40.701510332560233 ], [ -74.01465487348058, 40.701511327320034 ], [ -74.014659113326218, 40.701512613572362 ], [ -74.014666038165814, 40.701514486702131 ], [ -74.014677074738685, 40.701516916662143 ], [ -74.014686005010276, 40.701518404115305 ], [ -74.014694248900724, 40.701519417968797 ], [ -74.014706418708244, 40.701520295296376 ], [ -74.014716073997263, 40.70152047872368 ], [ -74.014725999050739, 40.701520177555146 ], [ -74.014734144321096, 40.701519602956751 ], [ -74.014746033301719, 40.701518139913375 ], [ -74.014754784173391, 40.701516610671646 ], [ -74.014765244777166, 40.701514235572198 ], [ -74.014778693735153, 40.701510258164944 ], [ -74.014790805625651, 40.701505695551674 ], [ -74.01480262501876, 40.701500219821476 ], [ -74.014813606505243, 40.701494071564873 ], [ -74.014823053376489, 40.701487797424058 ], [ -74.014833775233981, 40.701479251153934 ], [ -74.014834094626337, 40.701478998040571 ], [ -74.014948776331039, 40.70131669259775 ], [ -74.014778718167634, 40.701254524879211 ], [ -74.014989197481441, 40.700988793630671 ], [ -74.015005183113757, 40.700968611505587 ], [ -74.015025458894712, 40.700978297881115 ], [ -74.015077073388085, 40.700917647272377 ], [ -74.015145260768463, 40.700844049712266 ], [ -74.015182559972772, 40.700871507698629 ], [ -74.015283586337389, 40.700948369355366 ], [ -74.015327365279305, 40.700981675321032 ], [ -74.015447474734685, 40.70107219960822 ], [ -74.015558703211795, 40.701157524444717 ], [ -74.015581694232651, 40.701175871062574 ], [ -74.015746068447115, 40.701313030113461 ], [ -74.015925344310006, 40.701461857540096 ], [ -74.016059046563456, 40.70157373133339 ], [ -74.016064871684961, 40.701578628436508 ], [ -74.016189131042779, 40.701696312003151 ], [ -74.016229891392285, 40.70173491533869 ], [ -74.016314085458319, 40.70181348668136 ], [ -74.01635898867309, 40.701857896266254 ], [ -74.016405017906521, 40.701904867696143 ], [ -74.016549835077669, 40.702050906462382 ], [ -74.0167058798407, 40.702212319653434 ], [ -74.016742927346058, 40.702254166517534 ], [ -74.016888870084202, 40.702409601520145 ], [ -74.016961843093839, 40.702495006134853 ], [ -74.017014611749715, 40.702560768156715 ], [ -74.017021117899176, 40.702567719144895 ], [ -74.017042677269018, 40.70259236840532 ], [ -74.017180767211087, 40.702748657847593 ], [ -74.017249249803598, 40.702827228964857 ], [ -74.017360396594839, 40.702956189027297 ], [ -74.017395199058313, 40.702998037767991 ], [ -74.017428879950813, 40.703040740336327 ], [ -74.017460318979744, 40.703084297821917 ], [ -74.017489512068934, 40.703127853876858 ], [ -74.0175164586704, 40.703173120280894 ], [ -74.017542287098806, 40.703218387766185 ], [ -74.01756586639442, 40.703264507415597 ], [ -74.017587204795632, 40.70331148299077 ], [ -74.017606296251373, 40.703358457896137 ], [ -74.017624267326696, 40.703406287559531 ], [ -74.017639991447368, 40.70345411672114 ], [ -74.017652351717359, 40.703502801816995 ], [ -74.017655803792522, 40.703518018130275 ], [ -74.017669205663466, 40.703577111181922 ], [ -74.017682694443366, 40.703651421972666 ], [ -74.017687191761311, 40.703681315518978 ], [ -74.017689444296195, 40.703711211160964 ], [ -74.017691697055028, 40.70374195787987 ], [ -74.01769170491103, 40.703771853861141 ], [ -74.017690589821697, 40.703801751017288 ], [ -74.017688354092698, 40.703831646500021 ], [ -74.017683870266609, 40.703861540483665 ], [ -74.01767938874886, 40.703891438063231 ], [ -74.01767266363612, 40.70392133514521 ], [ -74.017664814247297, 40.7039503759651 ], [ -74.017657677818974, 40.703977560918716 ], [ -74.017520889542695, 40.70431683150553 ], [ -74.016984856041489, 40.704187598248751 ], [ -74.016849386179317, 40.704525114558969 ], [ -74.016811072436965, 40.70462056869475 ], [ -74.01662073359779, 40.704613720487345 ], [ -74.01637948420742, 40.704605040240615 ], [ -74.016373801125965, 40.704620811699122 ], [ -74.015587143433763, 40.70458560365465 ] ] ], [ [ [ -74.014844156072982, 40.700620520367828 ], [ -74.01467695385935, 40.700825460672164 ], [ -74.014650384793939, 40.700813245965485 ], [ -74.014851578229525, 40.700576425580898 ], [ -74.014877894486602, 40.700596464202846 ], [ -74.014852119290069, 40.700626868187996 ], [ -74.014844156072982, 40.700620520367828 ] ] ], [ [ [ -74.014085621269345, 40.700553604262993 ], [ -74.013992156885379, 40.700883846984347 ], [ -74.013960052081515, 40.700997280037427 ], [ -74.013957635245049, 40.701005819801594 ], [ -74.013648851438219, 40.700971199068988 ], [ -74.013653278187391, 40.700951687088974 ], [ -74.013951402301117, 40.700990387525003 ], [ -74.01402206134415, 40.700756342740661 ], [ -74.014088232896796, 40.700543648686391 ], [ -74.01409496594313, 40.700546212490316 ], [ -74.014235164630691, 40.700111432730424 ], [ -74.014243178528133, 40.700113157925536 ], [ -74.014287638605836, 40.700147012097908 ], [ -74.014155579435126, 40.700576099432269 ], [ -74.01429475779068, 40.700643562361336 ], [ -74.014469794255575, 40.700424877143391 ], [ -74.014543716591731, 40.70034200345345 ], [ -74.014569161140429, 40.700361378325539 ], [ -74.014520296127159, 40.700417183257187 ], [ -74.014326187365626, 40.700658077387502 ], [ -74.014380065392075, 40.700684551266214 ], [ -74.014580082109248, 40.700780925383135 ], [ -74.014085621269345, 40.700553604262993 ] ] ] ] } },
{ "type": "Feature", "properties": { "Borough": "MN", "Block": 3, "Lot": 4, "CD": 101, "BCT2020": "1031900", "BCTCB2020": "10319001000", "CT2010": "319", "CB2010": "1000", "SchoolDist": "02", "Council": 1, "ZipCode": 10004, "FireComp": "L015", "PolicePrct": 1, "HealthCent": 15, "HealthArea": 9000, "Sanitboro": "1", "SanitDistr": "01", "SanitSub": "1A", "Address": "SOUTH STREET", "ZoneDist1": "PARK", "ZoneDist2": "C5-5", "ZoneDist3": null, "ZoneDist4": null, "Overlay1": null, "Overlay2": null, "SPDist1": "LM", "SPDist2": null, "SPDist3": null, "LtdHeight": null, "SplitZone": "Y", "BldgClass": "Q0", "LandUse": "09", "Easements": 0, "OwnerType": null, "OwnerName": "UNAVAILABLE OWNER", "LotArea": 3875, "BldgArea": 0, "ComArea": 0, "ResArea": 0, "OfficeArea": 0, "RetailArea": 0, "GarageArea": 0, "StrgeArea": 0, "FactryArea": 0, "OtherArea": 0, "AreaSource": "7", "NumBldgs": 0, "NumFloors": 0.0, "UnitsRes": 0, "UnitsTotal": 0, "LotFront": 0.0, "LotDepth": 0.0, "BldgFront": 0.0, "BldgDepth": 0.0, "Ext": null, "ProxCode": "0", "IrrLotCode": "N", "LotType": "0", "BsmtCode": "5", "AssessLand": 69.0, "AssessTot": 69.0, "ExemptTot": 0.0, "YearBuilt": 0, "YearAlter1": 0, "YearAlter2": 0, "HistDist": null, "Landmark": null, "BuiltFAR": 0.0, "ResidFAR": 0.0, "CommFAR": 0.0, "FacilFAR": 0.0, "BoroCode": 1, "BBL": 1000030003.9999999, "CondoNo": 0, "Tract2010": "0319", "XCoord": 980385, "YCoord": 194763, "ZoneMap": "12b", "ZMCode": null, "Sanborn": "11S 087", "TaxMap": "10101", "EDesigNum": null, "APPBBL": 0.0, "APPDate": null, "PLUTOMapID": "1", "FIRM07_FLA": "1", "PFIRM15_FL": "1", "Version": "25v4", "DCPEdited": null, "Latitude": 40.7012553, "Longitude": -74.0139392, "Notes": null, "Shape_Leng": 0.0, "Shape_Area": 2771.6997584000001 }, "geometry": { "type": "MultiPolygon", "coordinates": [ [ [ [ -74.013873357504991, 40.701169149111657 ], [ -74.01387398694574, 40.701169145439394 ], [ -74.01388683596943, 40.701170289316515 ], [ -74.013921862474234, 40.701177699998127 ], [ -74.013956123833864, 40.701186942338339 ], [ -74.013989452074483, 40.701197970595608 ], [ -74.014021686035832, 40.701210732336975 ], [ -74.014022228023364, 40.701210965518115 ], [ -74.014031885542451, 40.701216292699293 ], [ -74.014039776845138, 40.701223087915942 ], [ -74.014045524264134, 40.701231024266512 ], [ -74.014048849823055, 40.701239721044303 ], [ -74.014049593600589, 40.701248756623059 ], [ -74.014047719998672, 40.701257698981323 ], [ -74.014043318957206, 40.701266115668915 ], [ -74.01403660200134, 40.701273602412527 ], [ -74.014036460110731, 40.701273727585189 ], [ -74.014036045981896, 40.70127408787647 ], [ -74.014024056109676, 40.701285046657361 ], [ -74.014012969284607, 40.70129653757791 ], [ -74.0140028266119, 40.701308520140415 ], [ -74.013993665015064, 40.701320948244621 ], [ -74.013985519882254, 40.701333776960546 ], [ -74.013978419567223, 40.701346957677373 ], [ -74.013972393849343, 40.701360440867887 ], [ -74.01396746019681, 40.701374178756254 ], [ -74.013967101810522, 40.701375122489772 ], [ -74.013965166701837, 40.701378006161796 ], [ -74.013962201898821, 40.701380332527464 ], [ -74.013958467999387, 40.7013818990117 ], [ -74.013954293653981, 40.701382566783273 ], [ -74.013950043374308, 40.701382279077897 ], [ -74.013946091131672, 40.701381059359839 ], [ -74.013942783552295, 40.701379015591819 ], [ -74.013940409341103, 40.701376326942388 ], [ -74.013940341932908, 40.701376218025189 ], [ -74.013923760446858, 40.701349710745419 ], [ -74.013865057610872, 40.701269828957699 ], [ -74.013864272952546, 40.701268762797767 ], [ -74.013830104540858, 40.701234199821101 ], [ -74.013829530595075, 40.701233574945242 ], [ -74.013825820136191, 40.701228806316124 ], [ -74.01382298638535, 40.7012237043635 ], [ -74.013821081468564, 40.70121836002221 ], [ -74.013820139700243, 40.701212870665927 ], [ -74.013820177590617, 40.701207334261952 ], [ -74.013821195270168, 40.701201851870884 ], [ -74.01382317374096, 40.701196524221785 ], [ -74.013826077516384, 40.701191444098612 ], [ -74.013829852310153, 40.701186705208869 ], [ -74.013834432845499, 40.701182393895458 ], [ -74.01383973416327, 40.701178586802691 ], [ -74.013845661521273, 40.701175354131436 ], [ -74.0138521073129, 40.701172752701702 ], [ -74.013858955467157, 40.701170831132139 ], [ -74.013866081880423, 40.701169621815801 ], [ -74.013873357504991, 40.701169149111657 ] ] ] ] } },
{ "type": "Feature", "properties": { "Borough": "MN", "Block": 3, "Lot": 10, "CD": 101, "BCT2020": "1031900", "BCTCB2020": "10319001006", "CT2010": "319", "CB2010": "1003", "SchoolDist": "02", "Council": 1, "ZipCode": 10004, "FireComp": "L015", "PolicePrct": 1, "HealthCent": 15, "HealthArea": 9000, "Sanitboro": "1", "SanitDistr": "01", "SanitSub": "1A", "Address": "1 SOUTH STREET", "ZoneDist1": "M1-4", "ZoneDist2": null, "ZoneDist3": null, "ZoneDist4": null, "Overlay1": null, "Overlay2": null, "SPDist1": "LM", "SPDist2": null, "SPDist3": null, "LtdHeight": null, "SplitZone": "N", "BldgClass": "O2", "LandUse": "05", "Easements": 0, "OwnerType": "X", "OwnerName": "UNITED STATES AMERICA", "LotArea": 123800, "BldgArea": 123800, "ComArea": 123800, "ResArea": 0, "OfficeArea": 123800, "RetailArea": 0, "GarageArea": 0, "StrgeArea": 0, "FactryArea": 0, "OtherArea": 0, "AreaSource": "2", "NumBldgs": 1, "NumFloors": 3.0, "UnitsRes": 0, "UnitsTotal": 1, "LotFront": 362.0, "LotDepth": 177.33, "BldgFront": 37.0, "BldgDepth": 227.0, "Ext": "N", "ProxCode": "1", "IrrLotCode": "Y", "LotType": "2", "BsmtCode": "0", "AssessLand": 8150850.0, "AssessTot": 12284100.0, "ExemptTot": 12284100.0, "YearBuilt": 1960, "YearAlter1": 0, "YearAlter2": 0, "HistDist": null, "Landmark": null, "BuiltFAR": 1.0, "ResidFAR": 0.0, "CommFAR": 2.0, "FacilFAR": 6.5, "BoroCode": 1, "BBL": 1000030010.0, "CondoNo": 0, "Tract2010": "0319", "XCoord": 980245, "YCoord": 194640, "ZoneMap": "12b", "ZMCode": null, "Sanborn": "101S087", "TaxMap": "10101", "EDesigNum": null, "APPBBL": 0.0, "APPDate": null, "PLUTOMapID": "1", "FIRM07_FLA": "1", "PFIRM15_FL": "1", "Version": "25v4", "DCPEdited": null, "Latitude": 40.7009177, "Longitude": -74.014444, "Notes": null, "Shape_Leng": 0.0, "Shape_Area": 42164.696180400002 }, "geometry": { "type": "MultiPolygon", "coordinates": [ [ [ [ -74.01461306276849, 40.701201443480535 ], [ -74.014541423672171, 40.701179456534632 ], [ -74.014485024512624, 40.701162477170158 ], [ -74.014424044333111, 40.70114722459104 ], [ -74.014355745549096, 40.701130731187888 ], [ -74.014291556948521, 40.701117308752998 ], [ -74.014232183344674, 40.701106328836573 ], [ -74.014177455639881, 40.70109714845109 ], [ -74.01412048919029, 40.701087998928358 ], [ -74.014059408765021, 40.701079440597624 ], [ -74.01399512448927, 40.701072730509097 ], [ -74.013935664353696, 40.701066016130518 ], [ -74.013870748202947, 40.701058557704755 ], [ -74.013827160299471, 40.701053548820738 ], [ -74.013729240905761, 40.701049261247036 ], [ -74.013680170797102, 40.701048761830464 ], [ -74.01359459571772, 40.701048771765343 ], [ -74.013575327066704, 40.701050091395174 ], [ -74.013597037160508, 40.700944386286956 ], [ -74.013653278187391, 40.700951687088974 ], [ -74.013648851438219, 40.700971199068988 ], [ -74.013957635245049, 40.701005819801594 ], [ -74.013960052081515, 40.700997280037427 ], [ -74.013992156885379, 40.700883846984347 ], [ -74.014085621269345, 40.700553604262993 ], [ -74.014580082109248, 40.700780925383135 ], [ -74.014649448461725, 40.700814348142643 ], [ -74.014650384793939, 40.700813245965485 ], [ -74.01467695385935, 40.700825460672164 ], [ -74.014844156072982, 40.700620520367828 ], [ -74.014852119290069, 40.700626868187996 ], [ -74.014680874677865, 40.700828864912424 ], [ -74.014815567766391, 40.700893763997605 ], [ -74.014825453082665, 40.700885643748101 ], [ -74.014943523487545, 40.700940726471416 ], [ -74.014977195623985, 40.700955241118834 ], [ -74.015005183113757, 40.700968611505587 ], [ -74.014989197481441, 40.700988793630671 ], [ -74.014778718167634, 40.701254524879211 ], [ -74.014696430925, 40.701226628424457 ], [ -74.01461306276849, 40.701201443480535 ] ] ] ] } },
{ "type": "Feature", "properties": { "Borough": "MN", "Block": 16, "Lot": 1, "CD": 101, "BCT2020": "1031704", "BCTCB2020": "10317044000", "CT2010": "317.04", "CB2010": "4001", "SchoolDist": "02", "Council": 1, "ZipCode": 10004, "FireComp": "L015", "PolicePrct": 1, "HealthCent": 15, "HealthArea": 8900, "Sanitboro": "1", "SanitDistr": "01", "SanitSub": "1A", "Address": "22 BATTERY PLACE", "ZoneDist1": "C6-4", "ZoneDist2": null, "ZoneDist3": null, "ZoneDist4": null, "Overlay1": null, "Overlay2": null, "SPDist1": "LM", "SPDist2": null, "SPDist3": null, "LtdHeight": null, "SplitZone": "N", "BldgClass": "K2", "LandUse": "05", "Easements": 0, "OwnerType": "C", "OwnerName": "NYC DEPARTMENT OF SMALL BUSINESS SERVICES", "LotArea": 83100, "BldgArea": 28732, "ComArea": 28732, "ResArea": 0, "OfficeArea": 0, "RetailArea": 28732, "GarageArea": 0, "StrgeArea": 0, "FactryArea": 0, "OtherArea": 0, "AreaSource": "2", "NumBldgs": 1, "NumFloors": 3.0, "UnitsRes": 0, "UnitsTotal": 1, "LotFront": 77.0, "LotDepth": 293.0, "BldgFront": 40.0, "BldgDepth": 323.0, "Ext": "N", "ProxCode": "1", "IrrLotCode": "Y", "LotType": "5", "BsmtCode": "0", "AssessLand": 3253500.0, "AssessTot": 6170400.0, "ExemptTot": 6170400.0, "YearBuilt": 1886, "YearAlter1": 2012, "YearAlter2": 0, "HistDist": null, "Landmark": "INDIVIDUAL LANDMARK", "BuiltFAR": 0.35, "ResidFAR": 10.0, "CommFAR": 10.0, "FacilFAR": 10.0, "BoroCode": 1, "BBL": 1000160001.0000001, "CondoNo": 0, "Tract2010": "031704", "XCoord": 979250, "YCoord": 195800, "ZoneMap": "12b", "ZMCode": null, "Sanborn": "101S088", "TaxMap": "10101", "EDesigNum": null, "APPBBL": 0.0, "APPDate": null, "PLUTOMapID": "1", "FIRM07_FLA": "1", "PFIRM15_FL": "1", "Version": "25v4", "DCPEdited": "t", "Latitude": 40.7041011, "Longitude": -74.0180334, "Notes": null, "Shape_Leng": 0.0, "Shape_Area": 32089.7842719 }, "geometry": { "type": "MultiPolygon", "coordinates": [ [ [ [ -74.017517368867829, 40.704678974210751 ], [ -74.017525830711904, 40.704679843346184 ], [ -74.01757409363799, 40.704683249954904 ], [ -74.017660516749757, 40.704677259315169 ], [ -74.017861417521161, 40.704655875983619 ], [ -74.01807690783356, 40.704632779859146 ], [ -74.01811167743594, 40.704543089132891 ], [ -74.018241881468654, 40.704573817704578 ], [ -74.0182821594546, 40.704583036483498 ], [ -74.018170168874079, 40.704569037386406 ], [ -74.018133162679291, 40.704657610104334 ], [ -74.017506629204902, 40.7047063717716 ], [ -74.017517368867829, 40.704678974210751 ] ] ], [ [ [ -74.017610893463328, 40.704440386908054 ], [ -74.017648036025662, 40.704345630573656 ], [ -74.017614765225048, 40.704338094602555 ], [ -74.017764801588854, 40.704316791033484 ], [ -74.017773775510918, 40.704293727577721 ], [ -74.017556428582623, 40.704249037447326 ], [ -74.01753807668311, 40.704298035193254 ], [ -74.017529592707831, 40.704318802831807 ], [ -74.017520889542695, 40.70431683150553 ], [ -74.017657677818974, 40.703977560918716 ], [ -74.017656966283056, 40.703980271374029 ], [ -74.017646872190468, 40.704009316211639 ], [ -74.017635657222655, 40.704037502944374 ], [ -74.017579777548676, 40.704186697027779 ], [ -74.017792839610237, 40.704235641817775 ], [ -74.017854527904035, 40.70407420061035 ], [ -74.017751263344053, 40.704051152479494 ], [ -74.017794073288457, 40.703947083070524 ], [ -74.017801461893455, 40.703943379887505 ], [ -74.017811983349731, 40.703942275221785 ], [ -74.017824640036025, 40.703947534031073 ], [ -74.017829244054454, 40.703956187250476 ], [ -74.017801764420284, 40.704031500156212 ], [ -74.017911764706014, 40.704056253716161 ], [ -74.017839982147791, 40.704240762100561 ], [ -74.018444921379682, 40.70416464714112 ], [ -74.018660491168617, 40.704430254451395 ], [ -74.017560717208823, 40.704568389675629 ], [ -74.017610893463328, 40.704440386908054 ] ] ] ] } },
{ "type": "Feature", "properties": { "Borough": "BK", "Block": 245, "Lot": 29, "CD": 302, "BCT2020": "3000700", "BCTCB2020": "30007001004", "CT2010": "7", "CB2010": "1003", "SchoolDist": "13", "Council": 33, "ZipCode": 11201, "FireComp": "E224", "PolicePrct": 84, "HealthCent": 38, "HealthArea": 2300, "Sanitboro": "3", "SanitDistr": "02", "SanitSub": "1A", "Address": "ATLANTIC AVENUE", "ZoneDist1": "M2-1", "ZoneDist2": null, "ZoneDist3": null, "ZoneDist4": null, "Overlay1": null, "Overlay2": null, "SPDist1": "SV-1", "SPDist2": null, "SPDist3": null, "LtdHeight": null, "SplitZone": "N", "BldgClass": "Q9", "LandUse": "09", "Easements": 0, "OwnerType": "C", "OwnerName": "NYC DEPARTMENT OF PARKS AND RECREATION", "LotArea": 392346, "BldgArea": 4500, "ComArea": 4500, "ResArea": 0, "OfficeArea": 0, "RetailArea": 4500, "GarageArea": 0, "StrgeArea": 0, "FactryArea": 0, "OtherArea": 0, "AreaSource": "2", "NumBldgs": 2, "NumFloors": 1.0, "UnitsRes": 0, "UnitsTotal": 1, "LotFront": 331.25, "LotDepth": 680.0, "BldgFront": 340.0, "BldgDepth": 680.0, "Ext": "N", "ProxCode": "0", "IrrLotCode": "Y", "LotType": "5", "BsmtCode": "0", "AssessLand": 3193650.0, "AssessTot": 10010250.0, "ExemptTot": 10010250.0, "YearBuilt": 1925, "YearAlter1": 0, "YearAlter2": 0, "HistDist": null, "Landmark": null, "BuiltFAR": 0.01, "ResidFAR": 0.0, "CommFAR": 2.0, "FacilFAR": 0.0, "BoroCode": 3, "BBL": 3002450029.0, "CondoNo": 0, "Tract2010": "0007", "XCoord": 983648, "YCoord": 191717, "ZoneMap": "16a", "ZMCode": "Y", "Sanborn": "302 001", "TaxMap": "30107", "EDesigNum": null, "APPBBL": 3002450029.0, "APPDate": "10/12/2016", "PLUTOMapID": "1", "FIRM07_FLA": "1", "PFIRM15_FL": "1", "Version": "25v4", "DCPEdited": "t", "Latitude": 40.6928956, "Longitude": -74.0021709, "Notes": null, "Shape_Leng": 0.0, "Shape_Area": 383329.56106400001 }, "geometry": { "type": "MultiPolygon", "coordinates": [ [ [ [ -73.99978149290699, 40.692872982565511 ], [ -73.999944763599899, 40.692536798754233 ], [ -74.000203931173289, 40.692604782365969 ], [ -74.000366470611411, 40.692270097429528 ], [ -74.000109130829514, 40.692198353685193 ], [ -74.000208417029796, 40.691993912458379 ], [ -74.000918927610527, 40.692191994267986 ], [ -74.001069639646062, 40.691916065876214 ], [ -74.001892437709103, 40.692132473624469 ], [ -74.001877253017653, 40.692165239414443 ], [ -74.001766164245822, 40.692401839432989 ], [ -74.001756064845083, 40.69242490168569 ], [ -74.001749332117797, 40.69243686146919 ], [ -74.003943230524072, 40.693191881729462 ], [ -74.003967921390483, 40.69324740100911 ], [ -74.00347644095325, 40.694015298748234 ], [ -74.003413501173398, 40.694032352768389 ], [ -74.001379238366681, 40.693297079052343 ], [ -74.001328844002686, 40.69327886219466 ], [ -74.001039793444804, 40.693203044130286 ], [ -73.99978149290699, 40.692872982565511 ] ], [ [ -74.000508132293945, 40.692678747326035 ], [ -74.000413108720437, 40.692874409701417 ], [ -74.00085631800053, 40.69299066605732 ], [ -74.000951340440011, 40.692795003317642 ], [ -74.000508132293945, 40.692678747326035 ] ] ] ] } },
{ "type": "Feature", "properties": { "Borough": "BK", "Block": 281, "Lot": 1, "CD": 306, "BCT2020": "3004700", "BCTCB2020": "30047001003", "CT2010": "47", "CB2010": "1002", "SchoolDist": "15", "Council": 39, "ZipCode": 11201, "FireComp": "E224", "PolicePrct": 76, "HealthCent": 38, "HealthArea": 4000, "Sanitboro": "3", "SanitDistr": "06", "SanitSub": "2C", "Address": "70 COLUMBIA STREET", "ZoneDist1": "M2-1", "ZoneDist2": null, "ZoneDist3": null, "ZoneDist4": null, "Overlay1": null, "Overlay2": null, "SPDist1": null, "SPDist2": null, "SPDist3": null, "LtdHeight": null, "SplitZone": "N", "BldgClass": "T2", "LandUse": "07", "Easements": 0, "OwnerType": "X", "OwnerName": "PORT AUTHORITY OF NY AND NJ", "LotArea": 1277192, "BldgArea": 721396, "ComArea": 721396, "ResArea": 0, "OfficeArea": 0, "RetailArea": 0, "GarageArea": 0, "StrgeArea": 0, "FactryArea": 0, "OtherArea": 721396, "AreaSource": "2", "NumBldgs": 16, "NumFloors": 0.0, "UnitsRes": 0, "UnitsTotal": 1, "LotFront": 300.0, "LotDepth": 1200.0, "BldgFront": 0.0, "BldgDepth": 0.0, "Ext": "N", "ProxCode": "0", "IrrLotCode": "Y", "LotType": "3", "BsmtCode": "0", "AssessLand": 11339550.0, "AssessTot": 28600650.0, "ExemptTot": 28600650.0, "YearBuilt": 0, "YearAlter1": 0, "YearAlter2": 0, "HistDist": null, "Landmark": null, "BuiltFAR": 0.56, "ResidFAR": 0.0, "CommFAR": 2.0, "FacilFAR": 0.0, "BoroCode": 3, "BBL": 3002810000.9999995, "CondoNo": 0, "Tract2010": "0047", "XCoord": 983131, "YCoord": 190474, "ZoneMap": "16a", "ZMCode": "Y", "Sanborn": "301 010", "TaxMap": "30201", "EDesigNum": null, "APPBBL": 0.0, "APPDate": null, "PLUTOMapID": "1", "FIRM07_FLA": "1", "PFIRM15_FL": "1", "Version": "25v4", "DCPEdited": "t", "Latitude": 40.6894838, "Longitude": -74.004035, "Notes": null, "Shape_Leng": 0.0, "Shape_Area": 1835201.79846 }, "geometry": { "type": "MultiPolygon", "coordinates": [ [ [ [ -73.999921101407324, 40.691040182406603 ], [ -74.000757007942738, 40.691260049676998 ], [ -74.000824721341786, 40.691116563701613 ], [ -73.999990967211176, 40.690897262420933 ], [ -74.000222380487045, 40.690423861144566 ], [ -74.000727291739182, 40.690556667583181 ], [ -74.000748183561953, 40.690562162656938 ], [ -74.000723647185694, 40.690613254693595 ], [ -74.001159042125892, 40.690735395704053 ], [ -74.002390423818269, 40.691078178910807 ], [ -74.004748861954113, 40.691731251873058 ], [ -74.004781408176711, 40.69178164680666 ], [ -74.004456352838318, 40.692450028497959 ], [ -74.004443680183627, 40.692476086129055 ], [ -74.004379717379422, 40.692503419841188 ], [ -74.004207393672672, 40.69245536740717 ], [ -74.004197475766546, 40.692454193488246 ], [ -74.002026494082074, 40.691847492720008 ], [ -74.002013027875094, 40.691872261558188 ], [ -74.001892437709103, 40.692132473624469 ], [ -74.001069639646062, 40.691916065876214 ], [ -73.999672564903932, 40.691548599422532 ], [ -73.999921101407324, 40.691040182406603 ] ] ], [ [ [ -74.000821453417842, 40.690366669214306 ], [ -74.000315404211889, 40.690233563264357 ], [ -74.000545434777436, 40.689762988945546 ], [ -74.001952118022714, 40.690132980782423 ], [ -74.001979442588706, 40.690083706131873 ], [ -74.002675590956784, 40.690271113462664 ], [ -74.002789548468456, 40.6901426809683 ], [ -74.000636631230606, 40.689576419879657 ], [ -74.000845320721737, 40.689149490968433 ], [ -74.003029354249392, 40.689834930132299 ], [ -74.003164632722246, 40.689690298378281 ], [ -74.000924607500195, 40.688987288620218 ], [ -74.001164250562752, 40.688497023235072 ], [ -74.003666177292587, 40.689282224949444 ], [ -74.003671903441401, 40.689284022060392 ], [ -74.003671454851272, 40.689284996469162 ], [ -74.003430215040822, 40.689609582893574 ], [ -74.005686868548977, 40.690234736152561 ], [ -74.005719414677088, 40.690284275400188 ], [ -74.005357021736671, 40.691037657183244 ], [ -74.005291937361037, 40.691057303804875 ], [ -74.00299486284618, 40.690421038617629 ], [ -74.002992618866102, 40.690427017139271 ], [ -74.002804096016163, 40.690374064237297 ], [ -74.002616697284651, 40.690321110919612 ], [ -74.001950139001679, 40.690140897026893 ], [ -74.001849152918581, 40.690354434077257 ], [ -74.001812125001635, 40.690366395202297 ], [ -74.000957049973024, 40.690127240331776 ], [ -74.000839755288624, 40.69037148295277 ], [ -74.000821453417842, 40.690366669214306 ] ] ], [ [ [ -74.001237108724084, 40.688347969895588 ], [ -74.001466241372981, 40.687879196504205 ], [ -74.00428728612755, 40.688764544937456 ], [ -74.004397117036959, 40.688610176178805 ], [ -74.003641510976749, 40.688373049376743 ], [ -74.004247148711187, 40.687103720835772 ], [ -74.005524809390138, 40.68745381263053 ], [ -74.005604413850691, 40.687289378191458 ], [ -74.004325736091829, 40.686939008137593 ], [ -74.004584457940922, 40.686396747407272 ], [ -74.005669894132637, 40.686694163848514 ], [ -74.005628794905249, 40.686794212506591 ], [ -74.005867746150955, 40.686860669368414 ], [ -74.006310477443151, 40.686983801190003 ], [ -74.007783821274529, 40.68739114531104 ], [ -74.007815246406437, 40.687443245996796 ], [ -74.007458500754808, 40.688182110017813 ], [ -74.007454013466528, 40.688191507979177 ], [ -74.00739117822279, 40.688214574030482 ], [ -74.007274475870034, 40.688182121397077 ], [ -74.006310563412626, 40.687916535093429 ], [ -74.005867743856086, 40.687794949331852 ], [ -74.005063322828605, 40.687574078098201 ], [ -74.005059397248246, 40.687584330535877 ], [ -74.004866421086831, 40.687920874132885 ], [ -74.00472616978773, 40.688104521907476 ], [ -74.004665582629571, 40.688182251060432 ], [ -74.004628273825816, 40.688229872439202 ], [ -74.005867741925769, 40.68857545413411 ], [ -74.006310635528209, 40.688698939316708 ], [ -74.006725828710088, 40.68881422812801 ], [ -74.006755007956471, 40.68886291352463 ], [ -74.006393757862583, 40.689611169348176 ], [ -74.006336530827284, 40.689634234518202 ], [ -74.006310721108605, 40.689627402816541 ], [ -74.005867739602536, 40.689505542919612 ], [ -74.003830217189417, 40.688945040401819 ], [ -74.003824045851616, 40.688953581085784 ], [ -74.003741065023377, 40.689133808805842 ], [ -74.001237108724084, 40.688347969895588 ] ] ], [ [ [ -74.004646150886359, 40.686267441458916 ], [ -74.004892974567412, 40.685750105619661 ], [ -74.007014148445961, 40.686331316913012 ], [ -74.006869406954536, 40.686461113004775 ], [ -74.006863612407145, 40.686458466149013 ], [ -74.006754765771362, 40.686412348995638 ], [ -74.006594304159137, 40.68634658815283 ], [ -74.0065460535847, 40.686327797113201 ], [ -74.006505655959543, 40.686313280432778 ], [ -74.006467505108233, 40.686301322796481 ], [ -74.006432719028894, 40.686292784176175 ], [ -74.006405791807765, 40.68628851633472 ], [ -74.006349685324508, 40.686284248197921 ], [ -74.006326122517194, 40.686280831992057 ], [ -74.006310412337683, 40.686277415367847 ], [ -74.006210546357593, 40.686257775899286 ], [ -74.006166785138291, 40.686250091420021 ], [ -74.006138730650875, 40.686246673565265 ], [ -74.006075895309721, 40.68624070013378 ], [ -74.006048964765199, 40.686238137714575 ], [ -74.005921048123284, 40.686216791139884 ], [ -74.005867747753896, 40.6862125243862 ], [ -74.005726947986588, 40.686555276307686 ], [ -74.004646150886359, 40.686267441458916 ] ] ] ] } },
{ "type": "Feature", "properties": { "Borough": "BK", "Block": 515, "Lot": 61, "CD": 306, "BCT2020": "3004700", "BCTCB2020": "30047001003", "CT2010": "47", "CB2010": "1002", "SchoolDist": "15", "Council": 39, "ZipCode": 11201, "FireComp": "E224", "PolicePrct": 76, "HealthCent": 38, "HealthArea": 4000, "Sanitboro": "3", "SanitDistr": "06", "SanitSub": "2C", "Address": "118 CONOVER STREET", "ZoneDist1": "M2-1", "ZoneDist2": null, "ZoneDist3": null, "ZoneDist4": null, "Overlay1": null, "Overlay2": null, "SPDist1": null, "SPDist2": null, "SPDist3": null, "LtdHeight": null, "SplitZone": "N", "BldgClass": "T2", "LandUse": "07", "Easements": 1, "OwnerType": "X", "OwnerName": "PORT AUTHORITY OF NY AND NJ", "LotArea": 974965, "BldgArea": 1785288, "ComArea": 1785288, "ResArea": 0, "OfficeArea": 0, "RetailArea": 0, "GarageArea": 0, "StrgeArea": 0, "FactryArea": 0, "OtherArea": 1785288, "AreaSource": "2", "NumBldgs": 13, "NumFloors": 1.0, "UnitsRes": 0, "UnitsTotal": 1, "LotFront": 326.0, "LotDepth": 725.5, "BldgFront": 326.0, "BldgDepth": 725.5, "Ext": "N", "ProxCode": "0", "IrrLotCode": "Y", "LotType": "5", "BsmtCode": "0", "AssessLand": 10814850.0, "AssessTot": 47888100.0, "ExemptTot": 47888100.0, "YearBuilt": 1936, "YearAlter1": 0, "YearAlter2": 0, "HistDist": null, "Landmark": null, "BuiltFAR": 1.83, "ResidFAR": 0.0, "CommFAR": 2.0, "FacilFAR": 0.0, "BoroCode": 3, "BBL": 3005150061.0, "CondoNo": 0, "Tract2010": "0047", "XCoord": 983131, "YCoord": 190474, "ZoneMap": "16a", "ZMCode": null, "Sanborn": "301 010", "TaxMap": "30201", "EDesigNum": null, "APPBBL": 0.0, "APPDate": null, "PLUTOMapID": "1", "FIRM07_FLA": "1", "PFIRM15_FL": "1", "Version": "25v4", "DCPEdited": "t", "Latitude": 40.6894838, "Longitude": -74.004035, "Notes": null, "Shape_Leng": 0.0, "Shape_Area": 2156406.6501799999 }, "geometry": { "type": "MultiPolygon", "coordinates": [ [ [ [ -74.007841079853804, 40.686089639097986 ], [ -74.006886272192688, 40.684532622688998 ], [ -74.007431693577402, 40.684021279174196 ], [ -74.006835586341253, 40.683605982376854 ], [ -74.007940493459358, 40.68266374290684 ], [ -74.00844098184163, 40.683003496802655 ], [ -74.008574639329154, 40.682881179653506 ], [ -74.008394232799873, 40.682753009122969 ], [ -74.009498507472088, 40.68179247774863 ], [ -74.009705770923816, 40.681927044231692 ], [ -74.009830900465801, 40.681808346383974 ], [ -74.009696545587147, 40.681721116731929 ], [ -74.010758214831156, 40.680818166195515 ], [ -74.010770949824135, 40.680826555945949 ], [ -74.010848869461654, 40.680760282823371 ], [ -74.010964858004584, 40.680836702135053 ], [ -74.011085352933264, 40.680735549743588 ], [ -74.012200534427478, 40.679799347311238 ], [ -74.012295767353265, 40.679863510567671 ], [ -74.012929516056886, 40.679318669120029 ], [ -74.014260926857261, 40.68021967747309 ], [ -74.013746572545827, 40.680658637199862 ], [ -74.013927959531614, 40.680775559947492 ], [ -74.014438507791027, 40.680339848013432 ], [ -74.016229481962185, 40.681551787537536 ], [ -74.015323076792015, 40.682111736151043 ], [ -74.015274836640359, 40.682141638527334 ], [ -74.014887797206313, 40.682374871694947 ], [ -74.013911772487532, 40.68296008715285 ], [ -74.013166839604011, 40.683410311503167 ], [ -74.01283475884118, 40.683608512339255 ], [ -74.012767436652453, 40.683605104073962 ], [ -74.012312934536212, 40.683159284617439 ], [ -74.012110934453105, 40.682965412737559 ], [ -74.012119901335367, 40.682908184230314 ], [ -74.013655754684578, 40.681984674072126 ], [ -74.013726432328937, 40.681941958115779 ], [ -74.013856568272644, 40.681865067820219 ], [ -74.014121326247889, 40.681707017873165 ], [ -74.013814962470974, 40.681414935308219 ], [ -74.013762219303203, 40.681365399833169 ], [ -74.0137307969066, 40.681335509215216 ], [ -74.013715648181091, 40.681320136497774 ], [ -74.013699374649349, 40.681305615825693 ], [ -74.013680296863782, 40.68128682886914 ], [ -74.013635409504218, 40.681244123730714 ], [ -74.013597254360292, 40.681208256218596 ], [ -74.013873224537178, 40.681018599350317 ], [ -74.01346925243422, 40.680729090234024 ], [ -74.013279610921927, 40.680593301961856 ], [ -74.013205550526578, 40.680541205780202 ], [ -74.013026010801241, 40.680418226659889 ], [ -74.012585143507522, 40.680792395507623 ], [ -74.012438188147144, 40.680917118661817 ], [ -74.011964781606466, 40.68131947366652 ], [ -74.01194907683427, 40.6813348497584 ], [ -74.011823434303977, 40.681450172173754 ], [ -74.011642819875448, 40.681604792071347 ], [ -74.011510445113572, 40.681716700948257 ], [ -74.011146968073987, 40.682024231323716 ], [ -74.010783488893324, 40.68233176045316 ], [ -74.010584920097926, 40.682500899204044 ], [ -74.010504146423273, 40.682576073128196 ], [ -74.010399813606512, 40.682666621726511 ], [ -74.010311185715125, 40.682739234265064 ], [ -74.01013280820564, 40.68288530830408 ], [ -74.009973501185257, 40.683018568908018 ], [ -74.009666104690936, 40.683279966404044 ], [ -74.009892785116094, 40.683497756316569 ], [ -74.009991536846684, 40.683586580809795 ], [ -74.010019591276546, 40.683612203438649 ], [ -74.010123954396391, 40.683711274265498 ], [ -74.010501013637153, 40.684077674127671 ], [ -74.010542162994255, 40.684115952399118 ], [ -74.010551512218427, 40.684124649342209 ], [ -74.010787175604591, 40.684349269739982 ], [ -74.010925172562153, 40.684262133389403 ], [ -74.01106541482666, 40.684184390748555 ], [ -74.01112824300867, 40.684148511132108 ], [ -74.011181783258479, 40.684115953775816 ], [ -74.011289800169479, 40.684050269670443 ], [ -74.011524282741277, 40.683905893878794 ], [ -74.011748663807964, 40.68377177005928 ], [ -74.011802521798288, 40.683774326684684 ], [ -74.011896789356101, 40.683868274794513 ], [ -74.012029211632367, 40.683996384349769 ], [ -74.012102503691708, 40.684070064880146 ], [ -74.011408625217555, 40.684488270190606 ], [ -74.011031023818305, 40.684780463687993 ], [ -74.010894151809026, 40.684863924256753 ], [ -74.010562879053168, 40.685065924885016 ], [ -74.010445075191768, 40.685137684600825 ], [ -74.010133173268827, 40.685328186371123 ], [ -74.010034439176152, 40.68538542413188 ], [ -74.009546386632991, 40.685681002781457 ], [ -74.009463360410749, 40.685731403870982 ], [ -74.009360141214842, 40.685793764451091 ], [ -74.009169403609562, 40.685908235436528 ], [ -74.008989887963367, 40.686020144985086 ], [ -74.008769980651294, 40.686153408448114 ], [ -74.008719490550419, 40.686183306464514 ], [ -74.008679098656927, 40.686207225245838 ], [ -74.008375041010652, 40.686392599516331 ], [ -74.008326785555596, 40.68634818782003 ], [ -74.008316124754629, 40.686339647234767 ], [ -74.008281903993634, 40.686352035251446 ], [ -74.008208971543809, 40.686384497467621 ], [ -74.008197752625165, 40.686387487102905 ], [ -74.008173067617179, 40.686388911622238 ], [ -74.008164650517855, 40.686387061627997 ], [ -74.008156234390597, 40.686383218837918 ], [ -74.00813828048922, 40.68637382406051 ], [ -74.008128741763912, 40.686370409102587 ], [ -74.008119203343426, 40.686369556081289 ], [ -74.008107984009612, 40.68636998192892 ], [ -74.008073197937733, 40.686363578907276 ], [ -74.008038414028661, 40.68635589452866 ], [ -74.00800587110399, 40.686342229675191 ], [ -74.007990160429188, 40.686325147064316 ], [ -74.007981124302972, 40.686318005396465 ], [ -74.007841079853804, 40.686089639097986 ] ] ] ] } },
{ "type": "Feature", "properties": { "Borough": "BK", "Block": 245, "Lot": 15, "CD": 302, "BCT2020": "3000301", "BCTCB2020": "30003014000", "CT2010": "3.01", "CB2010": "4000", "SchoolDist": "13", "Council": 33, "ZipCode": 11201, "FireComp": "E205", "PolicePrct": 84, "HealthCent": 38, "HealthArea": 2300, "Sanitboro": "3", "SanitDistr": "02", "SanitSub": "1A", "Address": "268 FURMAN STREET", "ZoneDist1": "M2-1", "ZoneDist2": null, "ZoneDist3": null, "ZoneDist4": null, "Overlay1": null, "Overlay2": null, "SPDist1": "SV-1", "SPDist2": null, "SPDist3": null, "LtdHeight": null, "SplitZone": "N", "BldgClass": "Q9", "LandUse": "09", "Easements": 0, "OwnerType": "M", "OwnerName": "BROOKLYN BRIDGE PK DEV CORP", "LotArea": 739420, "BldgArea": 20496, "ComArea": 20496, "ResArea": 0, "OfficeArea": 20496, "RetailArea": 0, "GarageArea": 0, "StrgeArea": 0, "FactryArea": 0, "OtherArea": 0, "AreaSource": "2", "NumBldgs": 4, "NumFloors": 3.0, "UnitsRes": 0, "UnitsTotal": 2, "LotFront": 689.83, "LotDepth": 300.0, "BldgFront": 217.0, "BldgDepth": 127.0, "Ext": "N", "ProxCode": "1", "IrrLotCode": "Y", "LotType": "3", "BsmtCode": "0", "AssessLand": 5339700.0, "AssessTot": 16600500.0, "ExemptTot": 16600500.0, "YearBuilt": 1925, "YearAlter1": 0, "YearAlter2": 0, "HistDist": null, "Landmark": null, "BuiltFAR": 0.03, "ResidFAR": 0.0, "CommFAR": 2.0, "FacilFAR": 0.0, "BoroCode": 3, "BBL": 3002450015.0, "CondoNo": 0, "Tract2010": "000301", "XCoord": 983981, "YCoord": 192354, "ZoneMap": "12b", "ZMCode": "Y", "Sanborn": "302 002", "TaxMap": "30107", "EDesigNum": null, "APPBBL": 3002450015.0, "APPDate": "02/12/2015", "PLUTOMapID": "1", "FIRM07_FLA": "1", "PFIRM15_FL": "1", "Version": "25v4", "DCPEdited": null, "Latitude": 40.694644, "Longitude": -74.0009701, "Notes": null, "Shape_Leng": 0.0, "Shape_Area": 541354.19434799999 }, "geometry": { "type": "MultiPolygon", "coordinates": [ [ [ [ -73.999258471292066, 40.693976459544515 ], [ -74.000376405577711, 40.694269744334044 ], [ -74.000393251860132, 40.69423500260406 ], [ -74.000407993260666, 40.694204603107963 ], [ -74.000421945684721, 40.694175828213474 ], [ -74.000535525651941, 40.694164495092984 ], [ -74.000577359248751, 40.69416032015733 ], [ -74.000591304446246, 40.694131606482379 ], [ -74.000584528713659, 40.69412973610283 ], [ -74.001039793444804, 40.693203044130286 ], [ -74.001328844002686, 40.69327886219466 ], [ -74.001379238366681, 40.693297079052343 ], [ -74.003413501173398, 40.694032352768389 ], [ -74.003410231354081, 40.69403323873825 ], [ -74.001329653790776, 40.693313225507445 ], [ -74.001216316908256, 40.69355495161274 ], [ -74.001147863340535, 40.693682222273083 ], [ -74.000968317669304, 40.694061466548654 ], [ -74.00172693218019, 40.694321975388171 ], [ -74.002332932104082, 40.694532942315298 ], [ -74.002959135549702, 40.694750735876582 ], [ -74.002980908908356, 40.694791170510442 ], [ -74.002955740903616, 40.694829525441769 ], [ -74.002911067797513, 40.694897927499916 ], [ -74.002911046476271, 40.694897958956226 ], [ -74.002840788480484, 40.695005534697962 ], [ -74.002780701126952, 40.695097536763377 ], [ -74.002767159752096, 40.695118269477319 ], [ -74.002403812019651, 40.695674600587637 ], [ -74.002377403338372, 40.695682305791564 ], [ -74.000320415098912, 40.694945778638505 ], [ -74.000303929367789, 40.694939875808913 ], [ -74.000270855034728, 40.694928033166271 ], [ -74.000065892220718, 40.69525590538705 ], [ -73.999546789508116, 40.69608627462847 ], [ -73.999545063327659, 40.696089034662897 ], [ -73.999546682998968, 40.696086244007091 ], [ -73.999396020677324, 40.696042711513648 ], [ -73.998395477356141, 40.695753610335807 ], [ -73.999258471292066, 40.693976459544515 ] ] ] ] } }
]
}
