{
"type": "FeatureCollection",
"name": "pluto_Randall's_Island",
"crs": { "type": "name", "properties": { "name": "urn:ogc:def:crs:OGC:1.3:CRS84" } },
"features": [
{ "type": "Feature", "properties": { "Borough": "MN", "Block": 1819, "Lot": 10, "CD": 111, "BCT2020": "1024000", "BCTCB2020": "10240002006", "CT2010": "240", "CB2010": "1002", "SchoolDist": "04", "Council": 8, "ZipCode": 10035, "FireComp": "E035", "PolicePrct": 25, "HealthCent": 12, "HealthArea": 8400, "Sanitboro": "1", "SanitDistr": "11", "SanitSub": null, "Address": "1 WARDS ISLAND", "ZoneDist1": "PARK", "ZoneDist2": "R6", "ZoneDist3": null, "ZoneDist4": null, "Overlay1": null, "Overlay2": null, "SPDist1": null, "SPDist2": null, "SPDist3": null, "LtdHeight": null, "SplitZone": "Y", "BldgClass": "Q1", "LandUse": "09", "Easements": 1, "OwnerType": "C", "OwnerName": "NYC DEPARTMENT OF PARKS AND RECREATION", "LotArea": 12300030, "BldgArea": 948, "ComArea": 948, "ResArea": 0, "OfficeArea": 0, "RetailArea": 0, "GarageArea": 0, "StrgeArea": 0, "FactryArea": 0, "OtherArea": 948, "AreaSource": "2", "NumBldgs": 51, "NumFloors": 1.0, "UnitsRes": 0, "UnitsTotal": 1, "LotFront": 3000.0, "LotDepth": 4000.0, "BldgFront": 31.0, "BldgDepth": 21.0, "Ext": "N", "ProxCode": "1", "IrrLotCode": "Y", "LotType": "5", "BsmtCode": "0", "AssessLand": 14596200.0, "AssessTot": 79699500.0, "ExemptTot": 79699500.0, "YearBuilt": 0, "YearAlter1": 0, "YearAlter2": 0, "HistDist": null, "Landmark": null, "BuiltFAR": 0.0, "ResidFAR": 0.0, "CommFAR": 0.0, "FacilFAR": 0.0, "BoroCode": 1, "BBL": 1018190010.0, "CondoNo": 0, "Tract2010": "0240", "XCoord": 1003776, "YCoord": 225496, "ZoneMap": "6b", "ZMCode": "Y", "Sanborn": "199 999", "TaxMap": "10611", "EDesigNum": null, "APPBBL": 0.0, "APPDate": null, "PLUTOMapID": "1", "FIRM07_FLA": "1", "PFIRM15_FL": "1", "Version": "25v4", "DCPEdited": "t", "Latitude": 40.785589, "Longitude": -73.9294899, "Notes": null, "Shape_Leng": 0.0, "Shape_Area": 9006934.7357700001 }, "geometry": { "type": "MultiPolygon", "coordinates": [ [ [ [ -73.926357963905048, 40.791624606555814 ], [ -73.926357435116785, 40.791623397751565 ], [ -73.926350157527779, 40.791599049779087 ], [ -73.926340659454496, 40.791549074818185 ], [ -73.926336205772245, 40.791511492175665 ], [ -73.926332929199702, 40.791425220145285 ], [ -73.926334096162364, 40.791386784759787 ], [ -73.926334124522867, 40.79136116096759 ], [ -73.926340959108686, 40.791278311907433 ], [ -73.926344350739711, 40.791259524266387 ], [ -73.92634999120655, 40.791240737061251 ], [ -73.926357881188423, 40.79122024212802 ], [ -73.926368018788949, 40.79119974963556 ], [ -73.926393914428317, 40.791157057153818 ], [ -73.926444564290534, 40.791085769782448 ], [ -73.92647045291352, 40.791050339864128 ], [ -73.926582913002292, 40.790981224244973 ], [ -73.92662562821026, 40.790971857514656 ], [ -73.92665597636217, 40.790967604868371 ], [ -73.926682950976598, 40.790965913815867 ], [ -73.926695313477438, 40.79096592169504 ], [ -73.926707672998504, 40.790967637820259 ], [ -73.926821162150731, 40.790984793482529 ], [ -73.926942517420756, 40.791001954030691 ], [ -73.92695263027295, 40.791002814201079 ], [ -73.926963869576952, 40.791002821338161 ], [ -73.927004328971762, 40.791001993273511 ], [ -73.927020062302688, 40.791002003256978 ], [ -73.927038040442895, 40.791004578415553 ], [ -73.927081860370464, 40.791013145688787 ], [ -73.927102088393283, 40.791014865838157 ], [ -73.927112201604828, 40.791015300919867 ], [ -73.927131309312088, 40.791013177025725 ], [ -73.927185269489044, 40.790998689704693 ], [ -73.927196509171594, 40.79099613666385 ], [ -73.927207749409121, 40.790995289192431 ], [ -73.927222361679966, 40.790994443854821 ], [ -73.927239217388689, 40.790995309102506 ], [ -73.92730551632215, 40.791001329516384 ], [ -73.927332488134041, 40.791002201059555 ], [ -73.927347100404717, 40.791001355789895 ], [ -73.927359462355469, 40.7909996552645 ], [ -73.927371828591461, 40.790996247497716 ], [ -73.927386024359805, 40.790989528793773 ], [ -73.927399949384622, 40.790973487961793 ], [ -73.927429189324272, 40.790954430148517 ], [ -73.927451678532591, 40.790942484755725 ], [ -73.927460673934021, 40.790939073931852 ], [ -73.927469668402267, 40.790936518612085 ], [ -73.927492149329936, 40.79093226170329 ], [ -73.92751799845324, 40.790931424247425 ], [ -73.927553960708053, 40.790932300651257 ], [ -73.927577559536758, 40.79093402284154 ], [ -73.927634868252298, 40.790940893745493 ], [ -73.927666332858337, 40.790941766280667 ], [ -73.927724774997458, 40.79093924018494 ], [ -73.927794461982742, 40.790931598130435 ], [ -73.927802890673021, 40.790930748921035 ], [ -73.927815251778696, 40.790932037175757 ], [ -73.927830420535031, 40.790935890942841 ], [ -73.927842775340181, 40.790941877104459 ], [ -73.927855131639689, 40.790948718769769 ], [ -73.927868606984106, 40.790957269383441 ], [ -73.927896113906783, 40.790982483609206 ], [ -73.927901165016081, 40.790988892017097 ], [ -73.927905647764504, 40.790998290654436 ], [ -73.927909008696659, 40.791008542334836 ], [ -73.927910121083045, 40.791019648028801 ], [ -73.927910108132394, 40.791031604839873 ], [ -73.927907847560277, 40.791043562166116 ], [ -73.927904464597574, 40.79105466320096 ], [ -73.927898831811873, 40.791065763745507 ], [ -73.927883074293334, 40.791087961179755 ], [ -73.927862251692815, 40.791117843934778 ], [ -73.92784480812935, 40.791140040223709 ], [ -73.927827930258061, 40.791159674115541 ], [ -73.927751419385331, 40.791241625856358 ], [ -73.927704170869205, 40.791286009875733 ], [ -73.927687294207516, 40.791302228086607 ], [ -73.927662536758547, 40.791332962914694 ], [ -73.927627645596019, 40.791379919262411 ], [ -73.92761075912945, 40.791407239774067 ], [ -73.927583738932825, 40.791450785483143 ], [ -73.927538721981406, 40.791509692329768 ], [ -73.927459951543511, 40.79160189009842 ], [ -73.927429189051921, 40.791632791001767 ], [ -73.927380070828207, 40.791682130294326 ], [ -73.927335577846122, 40.791727413818741 ], [ -73.926357963905048, 40.791624606555814 ] ] ], [ [ [ -73.925656108029841, 40.79155079844908 ], [ -73.925308912170408, 40.791464671954195 ], [ -73.92478086421427, 40.79133368020652 ], [ -73.92358162955874, 40.791036177842045 ], [ -73.923340513989714, 40.79097636098227 ], [ -73.923928154515337, 40.790357850074706 ], [ -73.924240926176125, 40.790028641810032 ], [ -73.924325695668458, 40.789935187570691 ], [ -73.924395333475687, 40.789854557317653 ], [ -73.924466260426257, 40.789768470908434 ], [ -73.924532483829168, 40.789684091290979 ], [ -73.924614482878852, 40.789573582227611 ], [ -73.92470630045068, 40.789440688578289 ], [ -73.924789922797842, 40.789309633690522 ], [ -73.924882282748456, 40.789151187541698 ], [ -73.924966846625324, 40.788985153976938 ], [ -73.925009459680098, 40.788901488185644 ], [ -73.925030947839929, 40.78885457424132 ], [ -73.9251092857006, 40.788667682715484 ], [ -73.925199144047113, 40.788409158153065 ], [ -73.925280068512208, 40.788097779986238 ], [ -73.925326966632355, 40.787827691036746 ], [ -73.925356010423101, 40.787488358056279 ], [ -73.925355556230159, 40.787216133032764 ], [ -73.925330766936796, 40.786917717223687 ], [ -73.925314848644831, 40.786805700545543 ], [ -73.925283702593887, 40.786635668942672 ], [ -73.925205747032862, 40.786328768222788 ], [ -73.925062350720879, 40.785933277426487 ], [ -73.924955229074925, 40.785702897620396 ], [ -73.924843983316535, 40.785497304922842 ], [ -73.924733501080397, 40.785316946507336 ], [ -73.924593299687231, 40.785113313914231 ], [ -73.924327946213722, 40.784783468038512 ], [ -73.924065653389476, 40.784508520139148 ], [ -73.922885702372227, 40.783544819532786 ], [ -73.922936892214238, 40.783471764324489 ], [ -73.922960526943385, 40.783441031562646 ], [ -73.922995408232012, 40.783400909566367 ], [ -73.923014535233662, 40.78338042244286 ], [ -73.92303590705238, 40.783359936733056 ], [ -73.923046031866093, 40.783351401334372 ], [ -73.92307527727236, 40.78332579705318 ], [ -73.923094400170442, 40.783308726414731 ], [ -73.923109021318893, 40.783296780191755 ], [ -73.923133766382819, 40.783278005053425 ], [ -73.923180998463494, 40.783245579760468 ], [ -73.923230478307673, 40.783214862359387 ], [ -73.92337553321876, 40.783129545458898 ], [ -73.923418267883633, 40.783101386319657 ], [ -73.923455380125631, 40.783074077170589 ], [ -73.923514988637919, 40.783027993888219 ], [ -73.923640963937174, 40.782924725030568 ], [ -73.923694948090656, 40.782882056260725 ], [ -73.923887266988444, 40.782737832019421 ], [ -73.923956997310171, 40.782684066777549 ], [ -73.924004238431877, 40.782643098056973 ], [ -73.924023362843343, 40.782624320768697 ], [ -73.924063873462231, 40.782573097152408 ], [ -73.924085249303303, 40.782551759424756 ], [ -73.92410099632977, 40.782538102889738 ], [ -73.924116740318127, 40.782527009103426 ], [ -73.924133607835572, 40.782517624391247 ], [ -73.924150471093881, 40.782509947002595 ], [ -73.924161712853888, 40.782506539754877 ], [ -73.924174074518788, 40.782504839653072 ], [ -73.924228016427449, 40.782499748607854 ], [ -73.924242065944213, 40.782496342280496 ], [ -73.924250498839655, 40.782492931248854 ], [ -73.924262867540975, 40.782486106390259 ], [ -73.924277485515887, 40.782477573840794 ], [ -73.924315725449333, 40.782447705915928 ], [ -73.92434384278738, 40.782424662483898 ], [ -73.924396713213866, 40.782375156049739 ], [ -73.924420333791815, 40.782353817893295 ], [ -73.924436079002845, 40.782342725069029 ], [ -73.924452945948516, 40.78233163021649 ], [ -73.924472061421412, 40.782320540437127 ], [ -73.92449342456932, 40.782310303201122 ], [ -73.924540642955208, 40.782289836013391 ], [ -73.924606965862367, 40.782266818496048 ], [ -73.924653052185931, 40.782253179927196 ], [ -73.924703629268464, 40.782242965298188 ], [ -73.924758699295793, 40.782235313746412 ], [ -73.924816011809142, 40.782231933801022 ], [ -73.924972215750657, 40.782221784452055 ], [ -73.925035144975865, 40.782219265408024 ], [ -73.925073348602339, 40.782220143965894 ], [ -73.925089079625749, 40.782221435630646 ], [ -73.925101435076698, 40.782225287930622 ], [ -73.925110420773862, 40.782229563028338 ], [ -73.92513849465881, 40.782245811067746 ], [ -73.92515197428466, 40.782250732096387 ], [ -73.925181186479492, 40.782253524678232 ], [ -73.925235121387942, 40.782254414334325 ], [ -73.92525871707879, 40.782256139761145 ], [ -73.925277817309592, 40.782259567751439 ], [ -73.925322752391779, 40.782269846439782 ], [ -73.925335112573521, 40.7822715627142 ], [ -73.925345221655093, 40.782272423862487 ], [ -73.925355336428467, 40.782272430427128 ], [ -73.925366574007668, 40.782271583132925 ], [ -73.92539017545235, 40.782268181944332 ], [ -73.925414902461029, 40.782261364057575 ], [ -73.925456495175951, 40.782247726770137 ], [ -73.925541927624792, 40.782219594588064 ], [ -73.925582090191227, 40.782203961377256 ], [ -73.925627364515762, 40.782186338428325 ], [ -73.92571055891635, 40.782149663334806 ], [ -73.925800503858625, 40.782105305867226 ], [ -73.925900571459621, 40.782051559848092 ], [ -73.926009637765077, 40.781989275600196 ], [ -73.92634925110454, 40.781753751596128 ], [ -73.926661871766996, 40.781538706630528 ], [ -73.926905916066858, 40.781350949349822 ], [ -73.926956524922645, 40.78131083613718 ], [ -73.927074616544189, 40.781213539592208 ], [ -73.92712860046997, 40.781170011940816 ], [ -73.927152216392145, 40.781152943386907 ], [ -73.927175830322128, 40.781137584081229 ], [ -73.927200566452157, 40.781123079982521 ], [ -73.927225301807738, 40.78111028237344 ], [ -73.927250035117652, 40.781098341183181 ], [ -73.927274764302183, 40.781088959140511 ], [ -73.92730061932123, 40.781080435067288 ], [ -73.927325347181593, 40.781074472275549 ], [ -73.927499556985055, 40.78103614510951 ], [ -73.927537771401234, 40.78102762885711 ], [ -73.927689503687915, 40.780994412912918 ], [ -73.927707486572118, 40.780990153129977 ], [ -73.927869333444391, 40.780953525883639 ], [ -73.927904175207544, 40.780945860139539 ], [ -73.927921035139249, 40.780941601375737 ], [ -73.927974983172462, 40.780930531080337 ], [ -73.9280176880428, 40.780924578477752 ], [ -73.928054771912173, 40.780922892509636 ], [ -73.928088479242973, 40.780924622762349 ], [ -73.928216558446479, 40.780941786204849 ], [ -73.928260372820688, 40.780949500213268 ], [ -73.928299692934587, 40.78095806691001 ], [ -73.928337887786526, 40.780967484799653 ], [ -73.928488406726785, 40.781014557778661 ], [ -73.928558050529759, 40.781038516661773 ], [ -73.928635552672574, 40.781067606050819 ], [ -73.928658014522298, 40.781077869493551 ], [ -73.928680474659132, 40.781089839424908 ], [ -73.928702933158206, 40.781104374864498 ], [ -73.928728475327929, 40.781123396714278 ], [ -73.928736612656408, 40.78113343876781 ], [ -73.9287489446954, 40.781159069337612 ], [ -73.928753430127756, 40.781167612535185 ], [ -73.928761006562297, 40.781175946909045 ], [ -73.928793848505805, 40.781198387927631 ], [ -73.928824171654099, 40.781215488371636 ], [ -73.928856738581487, 40.781232591953291 ], [ -73.928890431602596, 40.781247987133895 ], [ -73.928907279579491, 40.781254831474357 ], [ -73.928952211195693, 40.781269379833134 ], [ -73.928963441076093, 40.781274512444107 ], [ -73.928973550233039, 40.781279640763962 ], [ -73.92908135790843, 40.781339499844201 ], [ -73.929209383063764, 40.781409617177857 ], [ -73.929276769047121, 40.781442972835386 ], [ -73.929311578967003, 40.781464346078067 ], [ -73.929347512755015, 40.781488282836222 ], [ -73.929407016839036, 40.781534444996673 ], [ -73.929519304255265, 40.781611387168162 ], [ -73.929584497352593, 40.781654505160297 ], [ -73.92963047018479, 40.781684911119626 ], [ -73.929714691005316, 40.781737065739264 ], [ -73.929851696024102, 40.781817438351887 ], [ -73.929949396663673, 40.781873871187123 ], [ -73.930039239348545, 40.781922613410273 ], [ -73.930067318008327, 40.78193544199263 ], [ -73.930132466295049, 40.781959397185304 ], [ -73.930157175204059, 40.781970515364456 ], [ -73.93037729196773, 40.782089375736838 ], [ -73.930496336205863, 40.782155217869054 ], [ -73.93051093337408, 40.782164621608857 ], [ -73.930526654238221, 40.782175735197228 ], [ -73.930590649058345, 40.782227023370822 ], [ -73.930609739440385, 40.782238992646413 ], [ -73.93062770834203, 40.782248398489415 ], [ -73.93065129516215, 40.782258663976499 ], [ -73.930678254583142, 40.782268075233979 ], [ -73.930708585169285, 40.782276635686273 ], [ -73.930750151930695, 40.782286909308397 ], [ -73.930884961342443, 40.782318593588379 ], [ -73.931179294418072, 40.782389664976847 ], [ -73.931477000382799, 40.782459028450837 ], [ -73.931709547466312, 40.782516394725249 ], [ -73.931989309459041, 40.782551580199289 ], [ -73.932254453376231, 40.782597860474219 ], [ -73.932502751272835, 40.782637296327856 ], [ -73.932760039091278, 40.782674174150337 ], [ -73.932976885543951, 40.782701634590772 ], [ -73.933156650114796, 40.78272821848801 ], [ -73.933538891286318, 40.782781495030228 ], [ -73.933827403872741, 40.782821707715065 ], [ -73.933906048980063, 40.78283627361872 ], [ -73.933985817526562, 40.782848278114891 ], [ -73.934030760048046, 40.782855135987759 ], [ -73.934100420681148, 40.782863717182643 ], [ -73.934338612163756, 40.782895457540057 ], [ -73.934549839710499, 40.782925472889367 ], [ -73.934784664934341, 40.782954646650644 ], [ -73.934818370694103, 40.78295808318304 ], [ -73.934921745006136, 40.782965829321952 ], [ -73.934950958398161, 40.782969260596488 ], [ -73.934976798603827, 40.782974401720331 ], [ -73.93500376048398, 40.782982103714666 ], [ -73.935025099413792, 40.782991511611812 ], [ -73.935034084182675, 40.782997496025921 ], [ -73.935041942362403, 40.783003478881497 ], [ -73.935049803233369, 40.78301031548807 ], [ -73.93505541470978, 40.783018007165118 ], [ -73.935068881686476, 40.783036806446567 ], [ -73.935076733477146, 40.783050476047279 ], [ -73.935080655020613, 40.78306115551819 ], [ -73.935082892752888, 40.783072259950082 ], [ -73.935083436379728, 40.783090624263579 ], [ -73.935120480103237, 40.783129935936152 ], [ -73.935232736273903, 40.783246164186011 ], [ -73.935330413969453, 40.783334195608916 ], [ -73.935379818238204, 40.783374368733796 ], [ -73.935459538280057, 40.783438474446541 ], [ -73.935517928139376, 40.783482920962811 ], [ -73.935651555859607, 40.783581223608671 ], [ -73.935712190754401, 40.783628235874261 ], [ -73.935735767854581, 40.783648747221356 ], [ -73.935760467061144, 40.783672677532792 ], [ -73.935785161064999, 40.783700878836662 ], [ -73.935817711232403, 40.783738478685564 ], [ -73.935876078395708, 40.783809405187334 ], [ -73.935920969679827, 40.783869220898801 ], [ -73.935937798925792, 40.783895709620012 ], [ -73.935953502746912, 40.783924758706227 ], [ -73.935970325449716, 40.783958079500152 ], [ -73.935989388936434, 40.784000797374894 ], [ -73.936008443566294, 40.784050348242651 ], [ -73.936024129285386, 40.784098189066562 ], [ -73.936036446189519, 40.784144320599424 ], [ -73.936045394275894, 40.78418874108722 ], [ -73.936050408057568, 40.784231877968089 ], [ -73.936054296145613, 40.784280138136332 ], [ -73.936056493095805, 40.784331387867439 ], [ -73.936056438940483, 40.784387762939176 ], [ -73.936057507299964, 40.784448407962238 ], [ -73.93605635360602, 40.784476594911723 ], [ -73.93605295603713, 40.784504776932884 ], [ -73.936046191140676, 40.784529543342124 ], [ -73.93603380356727, 40.784556870293848 ], [ -73.936004532218917, 40.784614083691316 ], [ -73.935993271385641, 40.78463884667336 ], [ -73.935935822160687, 40.784781456197962 ], [ -73.935883996331867, 40.784920652327713 ], [ -73.935877229792283, 40.784947127894121 ], [ -73.935816331724808, 40.785169170602892 ], [ -73.935766636112263, 40.785430512122005 ], [ -73.935759853429431, 40.785472360163112 ], [ -73.935723703050272, 40.785670502885949 ], [ -73.934545770492619, 40.78706380194815 ], [ -73.93409574929052, 40.787582010373981 ], [ -73.933789730743584, 40.787933741225935 ], [ -73.933784105399354, 40.787939719996515 ], [ -73.934095273149822, 40.788062893947448 ], [ -73.934119985721267, 40.788073157603343 ], [ -73.934211135944096, 40.787949358243864 ], [ -73.934298744961652, 40.78799553298483 ], [ -73.934095064254237, 40.788273868167721 ], [ -73.934081560376953, 40.788292649411083 ], [ -73.93398270778637, 40.788249887228069 ], [ -73.934074973453377, 40.788135485371299 ], [ -73.933737979108599, 40.787992650242394 ], [ -73.933538889771782, 40.788219255891654 ], [ -73.933377957948466, 40.788402430325498 ], [ -73.932992054423622, 40.788841236423131 ], [ -73.932707410167595, 40.789162227302278 ], [ -73.932503592774552, 40.789565264723947 ], [ -73.932503581513188, 40.789576369715014 ], [ -73.932502445521095, 40.789586615863946 ], [ -73.932500189109078, 40.789597720457351 ], [ -73.932496805541589, 40.789607967044695 ], [ -73.932479914700892, 40.789642122189498 ], [ -73.932452900896365, 40.789683105302039 ], [ -73.932241621359083, 40.789686399352746 ], [ -73.931923239353068, 40.790020181619383 ], [ -73.931576737301697, 40.790377007244103 ], [ -73.931275278649068, 40.790640758560023 ], [ -73.931076190074634, 40.790805489881301 ], [ -73.930839985494046, 40.790996676018231 ], [ -73.930722021030746, 40.790961584464704 ], [ -73.930408337004835, 40.791089516818658 ], [ -73.93027791561498, 40.791142395457342 ], [ -73.929713514158792, 40.791364129328194 ], [ -73.929345057736455, 40.791210158122787 ], [ -73.92906872472868, 40.791088698467007 ], [ -73.928732854864677, 40.790940723797299 ], [ -73.928374364118071, 40.790928543374697 ], [ -73.92801599462689, 40.790804469919046 ], [ -73.927429189325167, 40.790791590116733 ], [ -73.926974227188666, 40.790781604165787 ], [ -73.926833771599533, 40.790760161257325 ], [ -73.926710168916898, 40.79074214549793 ], [ -73.926595555283058, 40.790727550836152 ], [ -73.926487680592459, 40.790715526882344 ], [ -73.926470453037922, 40.79071375014739 ], [ -73.926387670077773, 40.790705212510723 ], [ -73.926330359014386, 40.790701757565813 ], [ -73.926302262090516, 40.79070173956746 ], [ -73.926276414140659, 40.790702577503993 ], [ -73.926252810803774, 40.79070512612698 ], [ -73.926230329874571, 40.790709381872809 ], [ -73.926211218912229, 40.790714494443925 ], [ -73.926190982589873, 40.790720460791349 ], [ -73.926099911602421, 40.790757129285474 ], [ -73.926076303648955, 40.79076480169455 ], [ -73.926054942887788, 40.790770768215488 ], [ -73.926043704035919, 40.79077246923935 ], [ -73.926030216211274, 40.790773313310488 ], [ -73.926002120467871, 40.790773295239717 ], [ -73.925976834299647, 40.790772853977707 ], [ -73.925960538949496, 40.790773268482518 ], [ -73.925950422194248, 40.790774970218237 ], [ -73.925941427686439, 40.790777528181046 ], [ -73.925933559900443, 40.790780085948555 ], [ -73.925924561354151, 40.79078627290032 ], [ -73.925918370850312, 40.790794596824234 ], [ -73.925916678443627, 40.790801428727512 ], [ -73.925917788076006, 40.790812531677858 ], [ -73.925921151804445, 40.790821075170477 ], [ -73.92592619938479, 40.790830474248907 ], [ -73.92593685657927, 40.790846709096002 ], [ -73.925949197048269, 40.79086551053549 ], [ -73.925953686837232, 40.790871490916167 ], [ -73.925959299828264, 40.790877473858487 ], [ -73.925973896628463, 40.790889441076637 ], [ -73.925989618534487, 40.790899701605191 ], [ -73.926027802471253, 40.79092278890235 ], [ -73.926044644862188, 40.79093561122076 ], [ -73.926058117537735, 40.790948431285543 ], [ -73.926062606390701, 40.79095526808544 ], [ -73.926065970832951, 40.790962102404755 ], [ -73.926073816018203, 40.790980898180862 ], [ -73.926079412638074, 40.791000548100563 ], [ -73.926082761903587, 40.791021050154626 ], [ -73.926084985809823, 40.791042405234386 ], [ -73.92608608530054, 40.791063759507757 ], [ -73.926086060163755, 40.791086394557439 ], [ -73.926083787407435, 40.791109026322594 ], [ -73.926080388807208, 40.791132939700809 ], [ -73.926075314403946, 40.791148740186415 ], [ -73.926057836659638, 40.791201258910405 ], [ -73.926054447536529, 40.791216630967888 ], [ -73.926054432354533, 40.791230296108708 ], [ -73.926055542537313, 40.791243110066752 ], [ -73.926058883269931, 40.791271298856934 ], [ -73.926061113818633, 40.791286673690379 ], [ -73.926065595103367, 40.791300344399041 ], [ -73.926095854822435, 40.791373819614257 ], [ -73.926122735643204, 40.791456689397556 ], [ -73.926147387697583, 40.791521620674189 ], [ -73.926156339654071, 40.791557498801666 ], [ -73.926157444177974, 40.791575437499091 ], [ -73.926159667863487, 40.791595937070063 ], [ -73.926159659192763, 40.791603752558288 ], [ -73.925656108029841, 40.79155079844908 ] ] ] ] } },
{ "type": "Feature", "properties": { "Borough": "MN", "Block": 1819, "Lot": 15, "CD": 111, "BCT2020": "1024000", "BCTCB2020": "10240002000", "CT2010": "240", "CB2010": "1004", "SchoolDist": "04", "Council": 8, "ZipCode": 10035, "FireComp": "E035", "PolicePrct": 25, "HealthCent": 12, "HealthArea": 8400, "Sanitboro": "1", "SanitDistr": "11", "SanitSub": null, "Address": "WARDS ISLAND", "ZoneDist1": "M3-1", "ZoneDist2": null, "ZoneDist3": null, "ZoneDist4": null, "Overlay1": null, "Overlay2": null, "SPDist1": null, "SPDist2": null, "SPDist3": null, "LtdHeight": null, "SplitZone": "N", "BldgClass": "U9", "LandUse": "07", "Easements": 1, "OwnerType": "C", "OwnerName": "NYC DEPARTMENT OF CITYWIDE ADMINISTRATIVE SERVICES", "LotArea": 3302500, "BldgArea": 0, "ComArea": 0, "ResArea": 0, "OfficeArea": 0, "RetailArea": 0, "GarageArea": 0, "StrgeArea": 0, "FactryArea": 0, "OtherArea": 0, "AreaSource": "7", "NumBldgs": 51, "NumFloors": 0.0, "UnitsRes": 0, "UnitsTotal": 0, "LotFront": 375.0, "LotDepth": 160.0, "BldgFront": 0.0, "BldgDepth": 0.0, "Ext": "N", "ProxCode": "0", "IrrLotCode": "Y", "LotType": "5", "BsmtCode": "0", "AssessLand": 0.0, "AssessTot": 0.0, "ExemptTot": 0.0, "YearBuilt": 0, "YearAlter1": 0, "YearAlter2": 0, "HistDist": null, "Landmark": null, "BuiltFAR": 0.0, "ResidFAR": 0.0, "CommFAR": 2.0, "FacilFAR": 0.0, "BoroCode": 1, "BBL": 1018190014.9999999, "CondoNo": 0, "Tract2010": "0240", "XCoord": 1005874, "YCoord": 226175, "ZoneMap": "6b", "ZMCode": null, "Sanborn": "199 999", "TaxMap": "10611", "EDesigNum": null, "APPBBL": 0.0, "APPDate": null, "PLUTOMapID": "1", "FIRM07_FLA": "1", "PFIRM15_FL": "1", "Version": "25v4", "DCPEdited": "t", "Latitude": 40.7874478, "Longitude": -73.9219116, "Notes": null, "Shape_Leng": 0.0, "Shape_Area": 2960809.34675 }, "geometry": { "type": "MultiPolygon", "coordinates": [ [ [ [ -73.924065653389476, 40.784508520139148 ], [ -73.924327946213722, 40.784783468038512 ], [ -73.924593299687231, 40.785113313914231 ], [ -73.924733501080397, 40.785316946507336 ], [ -73.924843983316535, 40.785497304922842 ], [ -73.924955229074925, 40.785702897620396 ], [ -73.925062350720879, 40.785933277426487 ], [ -73.925205747032862, 40.786328768222788 ], [ -73.925283702593887, 40.786635668942672 ], [ -73.925314848644831, 40.786805700545543 ], [ -73.925330766936796, 40.786917717223687 ], [ -73.925355556230159, 40.787216133032764 ], [ -73.925356010423101, 40.787488358056279 ], [ -73.925326966632355, 40.787827691036746 ], [ -73.925280068512208, 40.788097779986238 ], [ -73.925199144047113, 40.788409158153065 ], [ -73.9251092857006, 40.788667682715484 ], [ -73.925030947839929, 40.78885457424132 ], [ -73.925009459680098, 40.788901488185644 ], [ -73.924966846625324, 40.788985153976938 ], [ -73.924882282748456, 40.789151187541698 ], [ -73.924789922797842, 40.789309633690522 ], [ -73.92470630045068, 40.789440688578289 ], [ -73.924614482878852, 40.789573582227611 ], [ -73.924532483829168, 40.789684091290979 ], [ -73.924466260426257, 40.789768470908434 ], [ -73.924395333475687, 40.789854557317653 ], [ -73.924325695668458, 40.789935187570691 ], [ -73.924240926176125, 40.790028641810032 ], [ -73.923928154515337, 40.790357850074706 ], [ -73.923340513989714, 40.79097636098227 ], [ -73.923280804992601, 40.790828790876411 ], [ -73.923017255434118, 40.790896165127009 ], [ -73.922460560376294, 40.790758053062149 ], [ -73.92195295717157, 40.790632117594434 ], [ -73.921640651813206, 40.790787713896911 ], [ -73.921355247428593, 40.790942633367244 ], [ -73.921141443888871, 40.791067293979815 ], [ -73.921003783310496, 40.7911517306053 ], [ -73.918166920366176, 40.790004000629523 ], [ -73.91821607423914, 40.789968544596974 ], [ -73.918302687760459, 40.789902838846054 ], [ -73.918347681739633, 40.78987041213469 ], [ -73.918456779487201, 40.789799595634797 ], [ -73.918481526023797, 40.789781676097903 ], [ -73.918502898429466, 40.789764608667312 ], [ -73.918527647857786, 40.789742418040298 ], [ -73.918546781246818, 40.78972022426818 ], [ -73.918562541447045, 40.789698026348724 ], [ -73.918574372424217, 40.78967326456997 ], [ -73.918576066711523, 40.789665578187495 ], [ -73.918576080293349, 40.789654475876468 ], [ -73.918567147367, 40.789607491242712 ], [ -73.918567159908022, 40.789597240837296 ], [ -73.918568295792653, 40.789587846732609 ], [ -73.918593159169575, 40.789473408634947 ], [ -73.918493198979974, 40.789425504879304 ], [ -73.919408061048713, 40.788430217644937 ], [ -73.920152992144466, 40.787613321736202 ], [ -73.921143208999609, 40.786523262335471 ], [ -73.921875733931032, 40.785708052971323 ], [ -73.921988055510198, 40.785753399370449 ], [ -73.922087094539947, 40.785626199235715 ], [ -73.922111853439603, 40.785594611912913 ], [ -73.922135490091236, 40.785562171081743 ], [ -73.922156879396297, 40.785529727803421 ], [ -73.922177147669856, 40.785496430097879 ], [ -73.922196288079803, 40.785463129869377 ], [ -73.922214307457565, 40.785428977808834 ], [ -73.922230081809516, 40.785394822553599 ], [ -73.922244730403747, 40.785359811865241 ], [ -73.922258255982868, 40.785324802173569 ], [ -73.92227065932849, 40.785288935464429 ], [ -73.922401470815558, 40.784896117051083 ], [ -73.922624753310387, 40.784222348717144 ], [ -73.922807433736537, 40.783671547015267 ], [ -73.922851348276652, 40.783593847690327 ], [ -73.922885702372227, 40.783544819532786 ], [ -73.924065653389476, 40.784508520139148 ] ], [ [ -73.924404313641602, 40.788836981666961 ], [ -73.924135698536006, 40.789386782376084 ], [ -73.924308201459567, 40.789432404757697 ], [ -73.924576896080652, 40.788882440649644 ], [ -73.924643379635896, 40.788746360636928 ], [ -73.924470877162008, 40.788700738751835 ], [ -73.924404313641602, 40.788836981666961 ] ] ] ] } },
{ "type": "Feature", "properties": { "Borough": "MN", "Block": 1819, "Lot": 203, "CD": 111, "BCT2020": "1024000", "BCTCB2020": "10240001013", "CT2010": "240", "CB2010": "1002", "SchoolDist": "04", "Council": 8, "ZipCode": 10035, "FireComp": "E035", "PolicePrct": 25, "HealthCent": 12, "HealthArea": 8400, "Sanitboro": "1", "SanitDistr": "11", "SanitSub": null, "Address": "RANDALLS ISLAND", "ZoneDist1": "PARK", "ZoneDist2": null, "ZoneDist3": null, "ZoneDist4": null, "Overlay1": null, "Overlay2": null, "SPDist1": null, "SPDist2": null, "SPDist3": null, "LtdHeight": null, "SplitZone": "N", "BldgClass": "Q1", "LandUse": "09", "Easements": 1, "OwnerType": "C", "OwnerName": "NYC DEPARTMENT OF PARKS AND RECREATION", "LotArea": 9020800, "BldgArea": 0, "ComArea": 0, "ResArea": 0, "OfficeArea": 0, "RetailArea": 0, "GarageArea": 0, "StrgeArea": 0, "FactryArea": 0, "OtherArea": 0, "AreaSource": "7", "NumBldgs": 31, "NumFloors": 0.0, "UnitsRes": 0, "UnitsTotal": 0, "LotFront": 4000.0, "LotDepth": 4500.0, "BldgFront": 0.0, "BldgDepth": 0.0, "Ext": null, "ProxCode": "0", "IrrLotCode": "Y", "LotType": "5", "BsmtCode": "0", "AssessLand": 69162300.0, "AssessTot": 95024700.0, "ExemptTot": 95024700.0, "YearBuilt": 0, "YearAlter1": 0, "YearAlter2": 0, "HistDist": null, "Landmark": null, "BuiltFAR": 0.0, "ResidFAR": 0.0, "CommFAR": 0.0, "FacilFAR": 0.0, "BoroCode": 1, "BBL": 1018190203.0, "CondoNo": 0, "Tract2010": "0240", "XCoord": 1005829, "YCoord": 229117, "ZoneMap": "6b", "ZMCode": null, "Sanborn": "199 999", "TaxMap": "10611", "EDesigNum": null, "APPBBL": 1018190003.0, "APPDate": "03/26/2019", "PLUTOMapID": "1", "FIRM07_FLA": "1", "PFIRM15_FL": "1", "Version": "25v4", "DCPEdited": "t", "Latitude": 40.7955229, "Longitude": -73.9220647, "Notes": null, "Shape_Leng": 0.0, "Shape_Area": 9481920.1003399994 }, "geometry": { "type": "MultiPolygon", "coordinates": [ [ [ [ -73.91647652072389, 40.790977852061175 ], [ -73.91645150442767, 40.791002500893455 ], [ -73.916453830292625, 40.791014704358744 ], [ -73.916490422023401, 40.790983428787762 ], [ -73.919614261303153, 40.792236604688362 ], [ -73.920171028920805, 40.79245994599227 ], [ -73.921368487614629, 40.792372980656836 ], [ -73.921843943637867, 40.792338448070865 ], [ -73.921884096465433, 40.792340058437084 ], [ -73.921920531499808, 40.792341522118264 ], [ -73.921996158703593, 40.792352410120088 ], [ -73.922026666813423, 40.792359176454333 ], [ -73.92225615498306, 40.792435881685094 ], [ -73.922327223454701, 40.792459634509797 ], [ -73.922637389065088, 40.792317418246142 ], [ -73.923167214673938, 40.792074482775718 ], [ -73.923333070311401, 40.791786309317921 ], [ -73.923529875103256, 40.791444357445272 ], [ -73.923429653694043, 40.791196667954807 ], [ -73.923340513989714, 40.79097636098227 ], [ -73.92358162955874, 40.791036177842045 ], [ -73.92478086421427, 40.79133368020652 ], [ -73.925308912170408, 40.791464671954195 ], [ -73.925656108029841, 40.79155079844908 ], [ -73.926159659192763, 40.791603752558288 ], [ -73.926159644171221, 40.79161729246001 ], [ -73.926159615744453, 40.791642915329739 ], [ -73.926162893316302, 40.791729186526489 ], [ -73.926470452679226, 40.791801126121982 ], [ -73.926516250851193, 40.791811838485891 ], [ -73.926525798800895, 40.791815687914394 ], [ -73.926533661456247, 40.791819962176923 ], [ -73.926540399679652, 40.791824238481055 ], [ -73.926546014015273, 40.791830220559724 ], [ -73.926562848140563, 40.791850731207504 ], [ -73.926567336005832, 40.791857567986128 ], [ -73.926570698390464, 40.791865256789826 ], [ -73.926574062929859, 40.791872092014742 ], [ -73.926574054447968, 40.79187978042291 ], [ -73.926573294965777, 40.791888320342849 ], [ -73.926567478888785, 40.791896574264939 ], [ -73.926557172809325, 40.791901121535538 ], [ -73.926549305022462, 40.791903681101097 ], [ -73.926540310120686, 40.791905381848295 ], [ -73.92653019441785, 40.79190708447296 ], [ -73.92650884103449, 40.79190707083216 ], [ -73.926470452645489, 40.791904680150409 ], [ -73.926467261639033, 40.791904481426549 ], [ -73.926409948702428, 40.791901881104934 ], [ -73.926372865289451, 40.791897588051533 ], [ -73.926341404819979, 40.791891588580313 ], [ -73.926254889390648, 40.791873596916055 ], [ -73.926206570342387, 40.791865877430801 ], [ -73.926157128613866, 40.791859866373699 ], [ -73.926141393603629, 40.791859003526412 ], [ -73.92612341257724, 40.791859844724563 ], [ -73.926062715016542, 40.791867493386725 ], [ -73.926041359858999, 40.791869186985785 ], [ -73.925950326437103, 40.791871692171924 ], [ -73.925876152359152, 40.791870790650904 ], [ -73.925808727458914, 40.79186647610107 ], [ -73.925794119046643, 40.791864758430343 ], [ -73.925748047007858, 40.791858750290253 ], [ -73.925723329557542, 40.791852754083948 ], [ -73.925696366004487, 40.791844194507348 ], [ -73.925679517840052, 40.791836496965701 ], [ -73.925669407591741, 40.791832221110099 ], [ -73.92563964360582, 40.79181469163678 ], [ -73.925630100736697, 40.791807424722627 ], [ -73.925613258758332, 40.791792039514064 ], [ -73.925599787098108, 40.791779219399643 ], [ -73.925586873120935, 40.791771095716172 ], [ -73.925577886599797, 40.791767460826321 ], [ -73.925569459672118, 40.79176553103278 ], [ -73.925561030701218, 40.791765525578491 ], [ -73.92554473245896, 40.791767225118164 ], [ -73.925534052500169, 40.791770206948961 ], [ -73.925523651672151, 40.791774684713012 ], [ -73.925514936068396, 40.7917808699749 ], [ -73.925512258218561, 40.791787384329943 ], [ -73.925515477459001, 40.791797953811816 ], [ -73.925518841883957, 40.7918047899039 ], [ -73.925530066988344, 40.791817610414803 ], [ -73.925543539488629, 40.791829576037685 ], [ -73.925561505231627, 40.791842400907058 ], [ -73.925569368927555, 40.791846676156098 ], [ -73.925603063695064, 40.791864635021085 ], [ -73.925637886985527, 40.791880031856586 ], [ -73.92581095130376, 40.791887831183281 ], [ -73.926153709151819, 40.791902571472903 ], [ -73.926358212439013, 40.791936013963692 ], [ -73.926379562050585, 40.791939445884339 ], [ -73.926470452730896, 40.791943959989311 ], [ -73.926484075381069, 40.791944636636202 ], [ -73.926585216378001, 40.791948970473321 ], [ -73.926611069001481, 40.791946426815571 ], [ -73.926732453078642, 40.791937962954478 ], [ -73.926735272011783, 40.79193027717281 ], [ -73.926736969335508, 40.791920027843823 ], [ -73.926736977328844, 40.791912766184154 ], [ -73.926735865591112, 40.791901235489661 ], [ -73.926731381574882, 40.791890983981155 ], [ -73.926719044293222, 40.79186791339017 ], [ -73.926699963027815, 40.791845693000553 ], [ -73.926675264586038, 40.791823469947147 ], [ -73.926667402593736, 40.791817486525638 ], [ -73.926659542913882, 40.791811503106324 ], [ -73.926643822571023, 40.791799535260353 ], [ -73.926635958704395, 40.79179525740669 ], [ -73.926625847728289, 40.79179268988225 ], [ -73.926606744854055, 40.791790114862202 ], [ -73.926561230902848, 40.79178837664498 ], [ -73.926545501154621, 40.791784951944678 ], [ -73.926537075012661, 40.791782382810538 ], [ -73.926489896460794, 40.79176014535782 ], [ -73.926470452778915, 40.791748825228971 ], [ -73.926451710937968, 40.791737913719992 ], [ -73.926433743007678, 40.791725942651659 ], [ -73.926422513968532, 40.791716539643005 ], [ -73.926410166856911, 40.791704575764079 ], [ -73.926398940659752, 40.791692609001856 ], [ -73.926382106828783, 40.791670819589761 ], [ -73.92636752458931, 40.791646464266833 ], [ -73.926357963905048, 40.791624606555814 ], [ -73.927335577846122, 40.791727413818741 ], [ -73.927333942168588, 40.791729078617799 ], [ -73.927326072181899, 40.791732489222369 ], [ -73.92730807956238, 40.791741872758024 ], [ -73.927286711410048, 40.79175552707914 ], [ -73.92726759292799, 40.7917683273973 ], [ -73.927251844478661, 40.791781983425075 ], [ -73.927212466730097, 40.791820393723768 ], [ -73.927182086342583, 40.791853686800785 ], [ -73.927157330434071, 40.791882714107516 ], [ -73.927144385116421, 40.791901923554853 ], [ -73.927139313439426, 40.791914304996382 ], [ -73.927137058310251, 40.791921136561221 ], [ -73.927137426411306, 40.791927969786386 ], [ -73.927429188965377, 40.791951078426088 ], [ -73.927648360174103, 40.791968437603465 ], [ -73.927702296605219, 40.791975303590938 ], [ -73.927776457738318, 40.79198816166604 ], [ -73.92778600717827, 40.791990729574557 ], [ -73.927801171545411, 40.791996718422205 ], [ -73.927813527111326, 40.792004414674174 ], [ -73.927824757323208, 40.792012962127352 ], [ -73.928002198355699, 40.792130947227378 ], [ -73.928108882381864, 40.792207885375916 ], [ -73.928171758885924, 40.792261735102571 ], [ -73.928210491521938, 40.792299343503444 ], [ -73.928232379645479, 40.792323273641458 ], [ -73.928246967676031, 40.792342925379671 ], [ -73.928261552607808, 40.792367706374655 ], [ -73.928282784829975, 40.792481320666631 ], [ -73.928299551674726, 40.792565036447542 ], [ -73.928338526132805, 40.792899887307044 ], [ -73.928329385659751, 40.793039960121057 ], [ -73.928323713404353, 40.793088642197048 ], [ -73.928319198417071, 40.793105721945928 ], [ -73.928313562024286, 40.793121094504748 ], [ -73.928303427490945, 40.793139024331673 ], [ -73.928291043709649, 40.793159516590279 ], [ -73.928258403590277, 40.793203909930334 ], [ -73.928212256988999, 40.793267089155528 ], [ -73.928140225210697, 40.793363561812917 ], [ -73.928034427314444, 40.793505284255858 ], [ -73.927998408968335, 40.79355394824217 ], [ -73.927992780783555, 40.793561632294143 ], [ -73.927759782783312, 40.793890330627598 ], [ -73.92756618386781, 40.794156700789593 ], [ -73.927545925684015, 40.79418402183331 ], [ -73.927400729411843, 40.794379527439396 ], [ -73.927372590203021, 40.794417946711853 ], [ -73.927368088099087, 40.794423923195012 ], [ -73.927354581183138, 40.794442704552729 ], [ -73.927342188473602, 40.794470885111494 ], [ -73.927337680600758, 40.794481131832292 ], [ -73.92733090754939, 40.794508459598219 ], [ -73.927326373834433, 40.79454347719016 ], [ -73.927322976604742, 40.794567391513013 ], [ -73.92731732943254, 40.794591304415299 ], [ -73.927312824513891, 40.794599842806093 ], [ -73.927307196438747, 40.794608381406967 ], [ -73.927299317546655, 40.79461862415679 ], [ -73.92728243928714, 40.794636550546215 ], [ -73.927275687172653, 40.794646797603264 ], [ -73.927270054799976, 40.794657043527721 ], [ -73.927267235814028, 40.794664728482836 ], [ -73.927259855992901, 40.794732201977581 ], [ -73.92725529869837, 40.794789851925373 ], [ -73.927251914424147, 40.794803089016945 ], [ -73.927246280444393, 40.794815898690771 ], [ -73.927221510768035, 40.794854320053624 ], [ -73.927213630132258, 40.794867124706386 ], [ -73.927203488494513, 40.794891035594254 ], [ -73.927179826209567, 40.794948248454389 ], [ -73.927166308573319, 40.794975573695154 ], [ -73.927147170004659, 40.795003746361239 ], [ -73.927105523159909, 40.795060948733344 ], [ -73.927092013894537, 40.795080585478054 ], [ -73.927069503733577, 40.795111320665505 ], [ -73.927049511862478, 40.795149315510017 ], [ -73.927045844287008, 40.795162553251458 ], [ -73.927042452653779, 40.795181343661923 ], [ -73.927042385240227, 40.795242839772158 ], [ -73.927041237508234, 40.79526504810039 ], [ -73.927012941284531, 40.795446109387839 ], [ -73.926945040644341, 40.795869721812352 ], [ -73.926922397636787, 40.796020036277987 ], [ -73.926914470953761, 40.796074694397987 ], [ -73.926903150384575, 40.796148999343885 ], [ -73.926899728368923, 40.796194264504344 ], [ -73.926898545860979, 40.796248075001913 ], [ -73.926900751276932, 40.796285659763733 ], [ -73.926912982504916, 40.796406103346946 ], [ -73.926924093023985, 40.796523126960153 ], [ -73.926929643747172, 40.796586336712885 ], [ -73.926935197791593, 40.796644422563936 ], [ -73.926947456613746, 40.796740948855494 ], [ -73.926951922239141, 40.796768283726415 ], [ -73.926958632868093, 40.796798183773575 ], [ -73.926983274761199, 40.79687592620234 ], [ -73.927005679971415, 40.796942563139154 ], [ -73.927026974920054, 40.796997242476067 ], [ -73.927068445196554, 40.797102328512111 ], [ -73.927121132848754, 40.797229629766868 ], [ -73.927206346908804, 40.79741588404908 ], [ -73.927281095372379, 40.79741080842755 ], [ -73.927310820390403, 40.797465491195346 ], [ -73.927338857519914, 40.797521883060213 ], [ -73.927362405430088, 40.797572293596446 ], [ -73.927384828961209, 40.797622700739886 ], [ -73.927402764181394, 40.797666273815274 ], [ -73.927404327149247, 40.79767074356603 ], [ -73.927411726505625, 40.797691904092332 ], [ -73.927418455584586, 40.797707282642534 ], [ -73.927430776325394, 40.797745726510485 ], [ -73.927438610868734, 40.797776479976932 ], [ -73.927445319025992, 40.797808940979643 ], [ -73.927456478197428, 40.797882406471949 ], [ -73.927457595280799, 40.797889239243247 ], [ -73.927467082359513, 40.797949890365892 ], [ -73.92746425860264, 40.797961845475292 ], [ -73.927468662601044, 40.798048116338748 ], [ -73.927469730068566, 40.798099367254764 ], [ -73.927469721691267, 40.798107053899102 ], [ -73.927469675146753, 40.79814976103814 ], [ -73.927466259758432, 40.798188194976333 ], [ -73.927460603359634, 40.798222357344798 ], [ -73.927449313484757, 40.798267620222617 ], [ -73.927442537579708, 40.798298364470398 ], [ -73.927417706616978, 40.798394013622435 ], [ -73.927371434923842, 40.798565666829894 ], [ -73.927320663184716, 40.798744150155748 ], [ -73.927290217273367, 40.798834671823471 ], [ -73.927251885226696, 40.798941414618653 ], [ -73.92719890659086, 40.799079750311385 ], [ -73.927147058449137, 40.799214672041551 ], [ -73.927058000621258, 40.799452068780134 ], [ -73.927005025468034, 40.799588698889714 ], [ -73.926944154333597, 40.799749237563475 ], [ -73.926935141933697, 40.799768024471213 ], [ -73.926923879849582, 40.799788517192134 ], [ -73.926912058898083, 40.799806444969427 ], [ -73.926892361067956, 40.79983205890521 ], [ -73.926831581974326, 40.799906330516947 ], [ -73.926822579191196, 40.799917426172428 ], [ -73.926789941624207, 40.799956696071085 ], [ -73.92676068050632, 40.799989135124093 ], [ -73.926739297532222, 40.800014745283619 ], [ -73.926711163083127, 40.800046330458521 ], [ -73.926639135802603, 40.800129991533765 ], [ -73.926651715953355, 40.80013513868235 ], [ -73.926670593715471, 40.800141968476929 ], [ -73.926693062637668, 40.800151381288153 ], [ -73.92715471614126, 40.800357451901903 ], [ -73.927233439925729, 40.800392592256372 ], [ -73.927108495289232, 40.800556507023558 ], [ -73.927066926378032, 40.800539399053349 ], [ -73.927164859679394, 40.800406213064832 ], [ -73.927114303504368, 40.800383974683008 ], [ -73.927043401050668, 40.800467635797631 ], [ -73.92702430222522, 40.800459081532331 ], [ -73.927092958081261, 40.800375418085409 ], [ -73.927046895566008, 40.800357451838977 ], [ -73.926979363970375, 40.800440262227255 ], [ -73.9269591385479, 40.800432562740106 ], [ -73.927016576884526, 40.800357451765315 ], [ -73.927024424924682, 40.800347188947427 ], [ -73.926981735616707, 40.800327517405627 ], [ -73.926956248436497, 40.800357451706439 ], [ -73.926911957084371, 40.8004094709082 ], [ -73.926896229975185, 40.800401772426454 ], [ -73.926927834979125, 40.800357451649141 ], [ -73.926955892874489, 40.800318105185177 ], [ -73.926916576383718, 40.800299289424757 ], [ -73.926872178327812, 40.800357451584738 ], [ -73.926854667120637, 40.800380391551819 ], [ -73.926831070159665, 40.800371837071907 ], [ -73.926842020488252, 40.800357451567415 ], [ -73.926894106994808, 40.800289024750782 ], [ -73.926852536266864, 40.800272770446405 ], [ -73.926799636538277, 40.80033765115013 ], [ -73.926780541811965, 40.80032653401868 ], [ -73.926834566787477, 40.800259946630185 ], [ -73.926668866993879, 40.800178696966967 ], [ -73.926549147402511, 40.800325316748278 ], [ -73.926618297599788, 40.800357451208818 ], [ -73.926715265488482, 40.800402512786462 ], [ -73.926709635906704, 40.800411904175945 ], [ -73.926587728462422, 40.800357451196334 ], [ -73.926541120773933, 40.800336632694012 ], [ -73.926521266764553, 40.800357451096041 ], [ -73.92650286023914, 40.800376751744459 ], [ -73.926509599329009, 40.800381026204697 ], [ -73.926520197129378, 40.800383970431 ], [ -73.926621947057768, 40.800428076151235 ], [ -73.926631602705413, 40.80043212742072 ], [ -73.926676996821527, 40.800451174038692 ], [ -73.926648856398486, 40.800487884849971 ], [ -73.926538545127741, 40.800631309293095 ], [ -73.926864337011921, 40.80078440844553 ], [ -73.926988151268645, 40.800625617049619 ], [ -73.927030843083799, 40.800645287668253 ], [ -73.926883393680214, 40.800831398785853 ], [ -73.926490193332469, 40.800649641442568 ], [ -73.926477820066026, 40.800657749690203 ], [ -73.926441268022998, 40.800678653109422 ], [ -73.926423834337385, 40.800689319188201 ], [ -73.926412583008812, 40.800698706883253 ], [ -73.926405270560124, 40.800705960263485 ], [ -73.926384439501234, 40.800737979535867 ], [ -73.926349522131162, 40.800805433610037 ], [ -73.926331507329323, 40.800833608592676 ], [ -73.926312367666767, 40.800860928351604 ], [ -73.926265090427833, 40.800924105161663 ], [ -73.926242575180808, 40.800957402065997 ], [ -73.926229055411227, 40.800983018924867 ], [ -73.926226021566421, 40.800990913527968 ], [ -73.923312704108767, 40.801065832934114 ], [ -73.923234638092254, 40.801153024135786 ], [ -73.923124849672135, 40.801222199325167 ], [ -73.923013269708392, 40.801275678415507 ], [ -73.92291814579373, 40.801294370372048 ], [ -73.922853112723431, 40.801290839178016 ], [ -73.922612982882228, 40.801181392171692 ], [ -73.922588027752042, 40.80115684930994 ], [ -73.922569427875871, 40.801127315655449 ], [ -73.922559748863222, 40.801098624598829 ], [ -73.92250861308581, 40.800883037212735 ], [ -73.922496561378196, 40.800769236359038 ], [ -73.922480747601313, 40.800650025459035 ], [ -73.922455311838547, 40.80057352250094 ], [ -73.922391667694882, 40.800458731367307 ], [ -73.92223755400974, 40.800203845822907 ], [ -73.922092353433285, 40.800017091730332 ], [ -73.922017024144935, 40.799941719161382 ], [ -73.921900506713726, 40.799833272865307 ], [ -73.921842763143559, 40.799781015396881 ], [ -73.921791651819092, 40.799697714892297 ], [ -73.921753489575451, 40.79962795687559 ], [ -73.921691361594611, 40.799572860619044 ], [ -73.920047310589197, 40.798478664397621 ], [ -73.919942520868446, 40.798421214220468 ], [ -73.919668101121957, 40.798304234224695 ], [ -73.919225744240677, 40.798115663838061 ], [ -73.917087935289572, 40.797204305163383 ], [ -73.916852039336391, 40.797103737129575 ], [ -73.91641666095893, 40.796918123603213 ], [ -73.916355071753728, 40.796856624117034 ], [ -73.916293101928289, 40.796804802073304 ], [ -73.9161819922154, 40.796738586533266 ], [ -73.916064514587291, 40.796676282518852 ], [ -73.915611231061462, 40.796466284393887 ], [ -73.915524092603292, 40.79640742852213 ], [ -73.9154551597655, 40.796357736826678 ], [ -73.915393859594019, 40.796299198752742 ], [ -73.915304818008167, 40.796205373905956 ], [ -73.915192865985389, 40.796085734549983 ], [ -73.91491103677582, 40.795750231807986 ], [ -73.914647237579061, 40.795453620906585 ], [ -73.914323001985025, 40.795061555273954 ], [ -73.914140709826015, 40.794843358355735 ], [ -73.913907670034234, 40.794612117189942 ], [ -73.913846435020858, 40.794546780471684 ], [ -73.913766240287842, 40.7944667274053 ], [ -73.91376332176273, 40.794446133801827 ], [ -73.913758884845535, 40.794400860447311 ], [ -73.913756700198732, 40.794352174041187 ], [ -73.913755668814431, 40.794280423933905 ], [ -73.913754739151415, 40.794130093414871 ], [ -73.913757057703805, 40.794076284802586 ], [ -73.913760491880382, 40.794027599928917 ], [ -73.91376729711817, 40.793980628506269 ], [ -73.913776344324333, 40.79393622075758 ], [ -73.913787638337666, 40.793894375599713 ], [ -73.913801175522423, 40.793855095037046 ], [ -73.913816957092479, 40.793817523564584 ], [ -73.91383386541699, 40.793779952849818 ], [ -73.913853021429659, 40.793742387411768 ], [ -73.913874421613684, 40.793704819217254 ], [ -73.913898074214728, 40.793667254460487 ], [ -73.913922847720187, 40.793629692293564 ], [ -73.91394986990322, 40.793591275462717 ], [ -73.913978016618401, 40.793552861306225 ], [ -73.914170508462391, 40.793313843391608 ], [ -73.914236927502074, 40.79322762300302 ], [ -73.914589302946368, 40.792757252845327 ], [ -73.914954073493519, 40.792258703262796 ], [ -73.914994601318639, 40.792204067341267 ], [ -73.915036249036902, 40.792152850486538 ], [ -73.915076770432748, 40.792105047524188 ], [ -73.915118412812532, 40.792058955463489 ], [ -73.915160051747151, 40.792014569792499 ], [ -73.915202810582628, 40.791972747764603 ], [ -73.915245566099131, 40.791933488551209 ], [ -73.915289443818523, 40.791895941072234 ], [ -73.915317566115434, 40.791875461873381 ], [ -73.91535130822912, 40.79185498496085 ], [ -73.91539179217375, 40.791835371178074 ], [ -73.915479501718366, 40.791796144005659 ], [ -73.915515488146667, 40.791779088787031 ], [ -73.915552599803064, 40.791758614290785 ], [ -73.915582969838198, 40.791738993016907 ], [ -73.915744959697832, 40.791615259350394 ], [ -73.915866456023593, 40.791520539755801 ], [ -73.915974452892371, 40.791434349659767 ], [ -73.916035204962455, 40.791383143711165 ], [ -73.91607120486934, 40.791353276842031 ], [ -73.916128584874173, 40.791302922967787 ], [ -73.916257976258024, 40.791184292311634 ], [ -73.916316480119534, 40.791132231748968 ], [ -73.916337093480649, 40.791112771585446 ], [ -73.916196361465992, 40.791027938227039 ], [ -73.916314718898704, 40.790912942763029 ], [ -73.91647652072389, 40.790977852061175 ] ] ] ] } },
{ "type": "Feature", "properties": { "Borough": "MN", "Block": 1819, "Lot": 20, "CD": 111, "BCT2020": "1024000", "BCTCB2020": "10240003000", "CT2010": "240", "CB2010": "1004", "SchoolDist": "04", "Council": 8, "ZipCode": 10035, "FireComp": "E035", "PolicePrct": 25, "HealthCent": 12, "HealthArea": 8400, "Sanitboro": null, "SanitDistr": null, "SanitSub": null, "Address": "WARDS ISLAND", "ZoneDist1": "M3-1", "ZoneDist2": null, "ZoneDist3": null, "ZoneDist4": null, "Overlay1": null, "Overlay2": null, "SPDist1": null, "SPDist2": null, "SPDist3": null, "LtdHeight": null, "SplitZone": "N", "BldgClass": "U2", "LandUse": "07", "Easements": 0, "OwnerType": "X", "OwnerName": "CONSOLIDATED GAS CO", "LotArea": 13482, "BldgArea": 0, "ComArea": 0, "ResArea": 0, "OfficeArea": 0, "RetailArea": 0, "GarageArea": 0, "StrgeArea": 0, "FactryArea": 0, "OtherArea": 0, "AreaSource": "7", "NumBldgs": 0, "NumFloors": 0.0, "UnitsRes": 0, "UnitsTotal": 0, "LotFront": 3.0, "LotDepth": 30.0, "BldgFront": 0.0, "BldgDepth": 0.0, "Ext": "N", "ProxCode": "0", "IrrLotCode": "Y", "LotType": "5", "BsmtCode": "0", "AssessLand": 0.0, "AssessTot": 0.0, "ExemptTot": 0.0, "YearBuilt": 0, "YearAlter1": 0, "YearAlter2": 0, "HistDist": null, "Landmark": null, "BuiltFAR": 0.0, "ResidFAR": 0.0, "CommFAR": 2.0, "FacilFAR": 0.0, "BoroCode": 1, "BBL": 1018190019.9999999, "CondoNo": 0, "Tract2010": "0240", "XCoord": 1005187, "YCoord": 226764, "ZoneMap": "6b", "ZMCode": null, "Sanborn": "199 999", "TaxMap": "10611", "EDesigNum": null, "APPBBL": 0.0, "APPDate": null, "PLUTOMapID": "1", "FIRM07_FLA": null, "PFIRM15_FL": null, "Version": "25v4", "DCPEdited": "t", "Latitude": 40.7890661, "Longitude": -73.9243907, "Notes": null, "Shape_Leng": 0.0, "Shape_Area": 13482.2680808 }, "geometry": { "type": "MultiPolygon", "coordinates": [ [ [ [ -73.924470877162008, 40.788700738751835 ], [ -73.924643379635896, 40.788746360636928 ], [ -73.924576896080652, 40.788882440649644 ], [ -73.924308201459567, 40.789432404757697 ], [ -73.924135698536006, 40.789386782376084 ], [ -73.924404313641602, 40.788836981666961 ], [ -73.924470877162008, 40.788700738751835 ] ] ] ] } },
{ "type": "Feature", "properties": { "Borough": "MN", "Block": 1819, "Lot": 30, "CD": 111, "BCT2020": "1024000", "BCTCB2020": "10240003000", "CT2010": "240", "CB2010": "1004", "SchoolDist": "04", "Council": 8, "ZipCode": 10035, "FireComp": "E035", "PolicePrct": 25, "HealthCent": 12, "HealthArea": 8400, "Sanitboro": "1", "SanitDistr": "11", "SanitSub": null, "Address": "WARDS ISLAND", "ZoneDist1": "M3-1", "ZoneDist2": null, "ZoneDist3": null, "ZoneDist4": null, "Overlay1": null, "Overlay2": null, "SPDist1": null, "SPDist2": null, "SPDist3": null, "LtdHeight": null, "SplitZone": "N", "BldgClass": "V1", "LandUse": "11", "Easements": 0, "OwnerType": "C", "OwnerName": "NYC DEPARTMENT OF ENVIRONMENTAL PROTECTION", "LotArea": 62060, "BldgArea": 0, "ComArea": 0, "ResArea": 0, "OfficeArea": 0, "RetailArea": 0, "GarageArea": 0, "StrgeArea": 0, "FactryArea": 0, "OtherArea": 0, "AreaSource": "7", "NumBldgs": 2, "NumFloors": 0.0, "UnitsRes": 0, "UnitsTotal": 0, "LotFront": 150.0, "LotDepth": 535.98, "BldgFront": 0.0, "BldgDepth": 0.0, "Ext": null, "ProxCode": "0", "IrrLotCode": "Y", "LotType": "5", "BsmtCode": "5", "AssessLand": 8043300.0, "AssessTot": 8043300.0, "ExemptTot": 8043300.0, "YearBuilt": 0, "YearAlter1": 0, "YearAlter2": 0, "HistDist": null, "Landmark": null, "BuiltFAR": 0.0, "ResidFAR": 0.0, "CommFAR": 2.0, "FacilFAR": 0.0, "BoroCode": 1, "BBL": 1018190030.0, "CondoNo": 0, "Tract2010": "0240", "XCoord": 1005870, "YCoord": 227458, "ZoneMap": "6b", "ZMCode": null, "Sanborn": "199 999", "TaxMap": "10611", "EDesigNum": null, "APPBBL": 0.0, "APPDate": null, "PLUTOMapID": "1", "FIRM07_FLA": null, "PFIRM15_FL": null, "Version": "25v4", "DCPEdited": "t", "Latitude": 40.7909693, "Longitude": -73.921922, "Notes": null, "Shape_Leng": 0.0, "Shape_Area": 62771.099175399999 }, "geometry": { "type": "MultiPolygon", "coordinates": [ [ [ [ -73.921003783310496, 40.7911517306053 ], [ -73.921141443888871, 40.791067293979815 ], [ -73.921355247428593, 40.790942633367244 ], [ -73.921640651813206, 40.790787713896911 ], [ -73.92195295717157, 40.790632117594434 ], [ -73.922460560376294, 40.790758053062149 ], [ -73.923017255434118, 40.790896165127009 ], [ -73.922465479235811, 40.791037216689276 ], [ -73.921396303359543, 40.791310524830244 ], [ -73.921003783310496, 40.7911517306053 ] ] ] ] } },
{ "type": "Feature", "properties": { "Borough": "MN", "Block": 1819, "Lot": 40, "CD": 111, "BCT2020": "1024000", "BCTCB2020": "10240003000", "CT2010": "240", "CB2010": "1004", "SchoolDist": "04", "Council": 8, "ZipCode": 10035, "FireComp": "E035", "PolicePrct": 25, "HealthCent": 12, "HealthArea": 8400, "Sanitboro": "1", "SanitDistr": "11", "SanitSub": null, "Address": "8 RANDALLS ISLAND", "ZoneDist1": "M3-1", "ZoneDist2": null, "ZoneDist3": null, "ZoneDist4": null, "Overlay1": null, "Overlay2": null, "SPDist1": null, "SPDist2": null, "SPDist3": null, "LtdHeight": null, "SplitZone": "N", "BldgClass": "Y1", "LandUse": "08", "Easements": 1, "OwnerType": "C", "OwnerName": "FIRE DEPARTMENT OF NEW YORK", "LotArea": 1000000, "BldgArea": 94875, "ComArea": 94875, "ResArea": 0, "OfficeArea": 0, "RetailArea": 0, "GarageArea": 0, "StrgeArea": 0, "FactryArea": 0, "OtherArea": 94875, "AreaSource": "2", "NumBldgs": 23, "NumFloors": 5.0, "UnitsRes": 0, "UnitsTotal": 1, "LotFront": 132.5, "LotDepth": 306.5, "BldgFront": 0.0, "BldgDepth": 0.0, "Ext": "N", "ProxCode": "0", "IrrLotCode": "Y", "LotType": "5", "BsmtCode": "0", "AssessLand": 12059100.0, "AssessTot": 25555500.0, "ExemptTot": 25555500.0, "YearBuilt": 1965, "YearAlter1": 0, "YearAlter2": 0, "HistDist": null, "Landmark": null, "BuiltFAR": 0.09, "ResidFAR": 0.0, "CommFAR": 2.0, "FacilFAR": 0.0, "BoroCode": 1, "BBL": 1018190040.0, "CondoNo": 0, "Tract2010": "0240", "XCoord": 1006462, "YCoord": 227571, "ZoneMap": "6b", "ZMCode": null, "Sanborn": "199 999", "TaxMap": "10611", "EDesigNum": null, "APPBBL": 0.0, "APPDate": null, "PLUTOMapID": "1", "FIRM07_FLA": "1", "PFIRM15_FL": "1", "Version": "25v4", "DCPEdited": "t", "Latitude": 40.791278, "Longitude": -73.9197836, "Notes": null, "Shape_Leng": 0.0, "Shape_Area": 912324.95850900002 }, "geometry": { "type": "MultiPolygon", "coordinates": [ [ [ [ -73.916490422023401, 40.790983428787762 ], [ -73.916536990479528, 40.790943625893156 ], [ -73.916715605769568, 40.79079143717226 ], [ -73.916669797093491, 40.790787414771422 ], [ -73.91647652072389, 40.790977852061175 ], [ -73.916314718898704, 40.790912942763029 ], [ -73.916337637054013, 40.790890675649131 ], [ -73.916861354913109, 40.790381834534188 ], [ -73.917056738477115, 40.790513512886911 ], [ -73.917098360257739, 40.790481086074891 ], [ -73.917125355929414, 40.790461460203289 ], [ -73.91715797023474, 40.790442693791547 ], [ -73.917196205193633, 40.790423073235253 ], [ -73.917251303027484, 40.79039919730927 ], [ -73.917326637536249, 40.790367648322146 ], [ -73.91741209126242, 40.790333544636532 ], [ -73.917670423262209, 40.7902363597738 ], [ -73.917704421686963, 40.790223569513451 ], [ -73.917813485891841, 40.790180941172132 ], [ -73.917922552020443, 40.790135747134798 ], [ -73.918018130253984, 40.79009225614972 ], [ -73.91804961767636, 40.79007604883774 ], [ -73.918081104876663, 40.79005813326868 ], [ -73.918113719924335, 40.790039367507461 ], [ -73.918147461187274, 40.790018036942882 ], [ -73.918166920366176, 40.790004000629523 ], [ -73.921003783310496, 40.7911517306053 ], [ -73.921396303359543, 40.791310524830244 ], [ -73.922465479235811, 40.791037216689276 ], [ -73.923017255434118, 40.790896165127009 ], [ -73.923280804992601, 40.790828790876411 ], [ -73.923340513989714, 40.79097636098227 ], [ -73.923429653694043, 40.791196667954807 ], [ -73.923529875103256, 40.791444357445272 ], [ -73.923333070311401, 40.791786309317921 ], [ -73.923167214673938, 40.792074482775718 ], [ -73.922637389065088, 40.792317418246142 ], [ -73.922327223454701, 40.792459634509797 ], [ -73.92225615498306, 40.792435881685094 ], [ -73.922026666813423, 40.792359176454333 ], [ -73.921996158703593, 40.792352410120088 ], [ -73.921920531499808, 40.792341522118264 ], [ -73.921884096465433, 40.792340058437084 ], [ -73.921843943637867, 40.792338448070865 ], [ -73.921368487614629, 40.792372980656836 ], [ -73.920171028920805, 40.79245994599227 ], [ -73.919614261303153, 40.792236604688362 ], [ -73.916490422023401, 40.790983428787762 ] ], [ [ -73.916920616454206, 40.790623598431409 ], [ -73.917040986908873, 40.790527167603095 ], [ -73.91699832495712, 40.790492972612306 ], [ -73.916791333050952, 40.790657673657556 ], [ -73.916841178600407, 40.790689025554194 ], [ -73.916920616454206, 40.790623598431409 ] ] ] ] } },
{ "type": "Feature", "properties": { "Borough": "BX", "Block": 2543, "Lot": 110, "CD": 201, "BCT2020": "2001903", "BCTCB2020": "20019032013", "CT2010": "19", "CB2010": "4008", "SchoolDist": "07", "Council": 8, "ZipCode": 10454, "FireComp": "L029", "PolicePrct": 40, "HealthCent": 23, "HealthArea": 4700, "Sanitboro": "2", "SanitDistr": "01", "SanitSub": "2A", "Address": "ST. ANN'S AVENUE", "ZoneDist1": "M3-1", "ZoneDist2": "M2-1", "ZoneDist3": null, "ZoneDist4": null, "Overlay1": null, "Overlay2": null, "SPDist1": null, "SPDist2": null, "SPDist3": null, "LtdHeight": null, "SplitZone": "Y", "BldgClass": "E9", "LandUse": "06", "Easements": 0, "OwnerType": "X", "OwnerName": "NYS DEPARTMENT OF TRANSPORTATION", "LotArea": 346839, "BldgArea": 3845, "ComArea": 3845, "ResArea": 0, "OfficeArea": 0, "RetailArea": 0, "GarageArea": 0, "StrgeArea": 0, "FactryArea": 3845, "OtherArea": 0, "AreaSource": "2", "NumBldgs": 1, "NumFloors": 2.0, "UnitsRes": 0, "UnitsTotal": 1, "LotFront": 0.0, "LotDepth": 0.0, "BldgFront": 0.0, "BldgDepth": 0.0, "Ext": "N", "ProxCode": "1", "IrrLotCode": "Y", "LotType": "0", "BsmtCode": "0", "AssessLand": 341550.0, "AssessTot": 594000.0, "ExemptTot": 594000.0, "YearBuilt": 2017, "YearAlter1": 2017, "YearAlter2": 0, "HistDist": null, "Landmark": null, "BuiltFAR": 0.01, "ResidFAR": 0.0, "CommFAR": 2.0, "FacilFAR": 0.0, "BoroCode": 2, "BBL": 2025430109.9999998, "CondoNo": 0, "Tract2010": "0019", "XCoord": 1006077, "YCoord": 231179, "ZoneMap": "6b", "ZMCode": null, "Sanborn": "209S007", "TaxMap": "2", "EDesigNum": null, "APPBBL": 0.0, "APPDate": null, "PLUTOMapID": "1", "FIRM07_FLA": "1", "PFIRM15_FL": "1", "Version": "25v4", "DCPEdited": "t", "Latitude": 40.8011819, "Longitude": -73.9211623, "Notes": null, "Shape_Leng": 0.0, "Shape_Area": 244159.80200200001 }, "geometry": { "type": "MultiPolygon", "coordinates": [ [ [ [ -73.919110087624972, 40.799236715934263 ], [ -73.918804207932325, 40.799097776465416 ], [ -73.918743800512971, 40.799070336957335 ], [ -73.918728821288965, 40.799063533883 ], [ -73.917898035837453, 40.798686158958752 ], [ -73.917823279033897, 40.798652201678252 ], [ -73.917742067299784, 40.798618531538615 ], [ -73.91765911192347, 40.798587390463439 ], [ -73.917574553638772, 40.798558830002314 ], [ -73.917488528776175, 40.798532897848901 ], [ -73.917401182918567, 40.798509636438695 ], [ -73.91731265835449, 40.79848908460329 ], [ -73.917223101885511, 40.79847127582768 ], [ -73.917132662745558, 40.798456239916028 ], [ -73.917027383966655, 40.798442373753616 ], [ -73.916921360088438, 40.798432269299745 ], [ -73.916814825440454, 40.798425950062828 ], [ -73.916708017116804, 40.798423427924106 ], [ -73.916601169575657, 40.798424711168629 ], [ -73.916494519931064, 40.79842979553549 ], [ -73.916388305195156, 40.798438670236365 ], [ -73.916282757553063, 40.798451314861872 ], [ -73.916192666115876, 40.798465190825105 ], [ -73.916103390012907, 40.798481811182619 ], [ -73.916015073919837, 40.798501148935557 ], [ -73.915927862193314, 40.798523170978378 ], [ -73.915841896110393, 40.798547842197323 ], [ -73.915757317727568, 40.798575123126575 ], [ -73.915674264698382, 40.798604968860637 ], [ -73.915592870840001, 40.798637329057613 ], [ -73.916273286256256, 40.798928767359918 ], [ -73.915762733010993, 40.799588984540783 ], [ -73.914915340485265, 40.799264730820418 ], [ -73.915596942552767, 40.798345751437516 ], [ -73.915837042625157, 40.798022025026889 ], [ -73.915869662049687, 40.797978045905353 ], [ -73.915943100427796, 40.797879028124655 ], [ -73.916029570297596, 40.797762440317811 ], [ -73.916063331242199, 40.797716919788648 ], [ -73.916076659536884, 40.797722629997232 ], [ -73.91609126050102, 40.797732037384243 ], [ -73.916110350437023, 40.797744861858277 ], [ -73.916121580116112, 40.797753410442546 ], [ -73.916135056562212, 40.797762817840486 ], [ -73.916149094115326, 40.797771795299454 ], [ -73.916166499765637, 40.797785048046634 ], [ -73.916183341880156, 40.797797872627093 ], [ -73.916199061871225, 40.797809840048252 ], [ -73.91621478282795, 40.797820957401463 ], [ -73.916231626684024, 40.797832500562016 ], [ -73.916246225948527, 40.797842333002436 ], [ -73.916268124514914, 40.797856869497068 ], [ -73.916284408476955, 40.797867986331617 ], [ -73.916291145583699, 40.79787311421665 ], [ -73.916301250636252, 40.797880810058352 ], [ -73.916318093077322, 40.79789534194655 ], [ -73.916328200420352, 40.797902184124496 ], [ -73.916337183348176, 40.797909022806195 ], [ -73.916351779961559, 40.797920990225769 ], [ -73.916366377650661, 40.797932105821374 ], [ -73.916384907218614, 40.797944076179135 ], [ -73.916405690832121, 40.797950071525044 ], [ -73.916425917607071, 40.797955211879625 ], [ -73.916451758876732, 40.797962916375305 ], [ -73.916471983237102, 40.797968055799949 ], [ -73.916493330810482, 40.797973196955013 ], [ -73.91651018510295, 40.797978334009493 ], [ -73.916523666978264, 40.797982615705706 ], [ -73.916538270068202, 40.797989458448882 ], [ -73.91655287423049, 40.797995448365569 ], [ -73.916568600617751, 40.798001438174069 ], [ -73.916583204926098, 40.798008281748714 ], [ -73.916596683353077, 40.798014270927453 ], [ -73.916618031373218, 40.798021973970187 ], [ -73.916638250132749, 40.798029676190808 ], [ -73.916657351238158, 40.798035667512003 ], [ -73.916675327780979, 40.798040805355143 ], [ -73.916689930753364, 40.798046796089878 ], [ -73.916709028628645, 40.798054496650138 ], [ -73.916724754149982, 40.798063049265856 ], [ -73.916737109275189, 40.798069038451438 ], [ -73.916755083728049, 40.798076739027394 ], [ -73.916771932835317, 40.798086146112574 ], [ -73.916789900461339, 40.798096408672357 ], [ -73.916810121861829, 40.798105818190663 ], [ -73.916832588812483, 40.798115231170001 ], [ -73.916851685370176, 40.798122077121185 ], [ -73.916871911198015, 40.798128924722675 ], [ -73.916886516342444, 40.798133207270304 ], [ -73.916912359976337, 40.798139204339449 ], [ -73.916930331125471, 40.798148613131673 ], [ -73.916944925730917, 40.798161435142362 ], [ -73.916958400246671, 40.798172548931653 ], [ -73.916973003420779, 40.798179393377289 ], [ -73.916988730992699, 40.798185382207727 ], [ -73.917008953477975, 40.798193083529419 ], [ -73.9170314202307, 40.798201641885335 ], [ -73.917051641661956, 40.798210196778015 ], [ -73.917062876858736, 40.798214477795128 ], [ -73.91707656072434, 40.798218488429804 ], [ -73.917077482034799, 40.798218758478342 ], [ -73.917090963998092, 40.798223039270425 ], [ -73.917119051182638, 40.798232455323308 ], [ -73.917146018201635, 40.798238453231612 ], [ -73.917156129939414, 40.798241875165886 ], [ -73.917172975695337, 40.798252994117433 ], [ -73.9171808353194, 40.798259831841875 ], [ -73.917198811963189, 40.798264969603224 ], [ -73.9172190352988, 40.798270964315137 ], [ -73.91724375235475, 40.798278668829106 ], [ -73.91726846960529, 40.79828808058015 ], [ -73.917293183338487, 40.798297494247265 ], [ -73.917316774849553, 40.798306907940251 ], [ -73.917339242093036, 40.798317173563611 ], [ -73.917356092144132, 40.798324872317579 ], [ -73.917375190024373, 40.798331719940393 ], [ -73.917387552984238, 40.798333437063697 ], [ -73.917403280477927, 40.798338571338029 ], [ -73.917419006111544, 40.798346271115783 ], [ -73.917433610583018, 40.798353114583684 ], [ -73.917444843708836, 40.798359102887893 ], [ -73.917454951997755, 40.798363380296564 ], [ -73.917484161672661, 40.798373650812252 ], [ -73.917501015082024, 40.798379642220105 ], [ -73.917517868344589, 40.798384779043651 ], [ -73.917536969434309, 40.798389063811456 ], [ -73.917554949203591, 40.798391638605217 ], [ -73.917571803639163, 40.798395921758718 ], [ -73.917585287827833, 40.79839934883146 ], [ -73.917602138834212, 40.798405339302697 ], [ -73.917615621022321, 40.798410472860077 ], [ -73.917624789032573, 40.798412028300042 ], [ -73.917635848823963, 40.798413904671506 ], [ -73.917651579524787, 40.798416477925223 ], [ -73.917668436086231, 40.798419052818751 ], [ -73.917685292538749, 40.798421627708443 ], [ -73.917701023401307, 40.798425053614658 ], [ -73.917715631038803, 40.798428482395799 ], [ -73.917736979916285, 40.798432766897733 ], [ -73.917749338633442, 40.798437047729635 ], [ -73.917759447264217, 40.798443033359099 ], [ -73.917771795480959, 40.798456707320369 ], [ -73.917778532602583, 40.798460984132724 ], [ -73.917798760381189, 40.798463561414927 ], [ -73.91782011153731, 40.79846699316019 ], [ -73.917833596652642, 40.798468711038375 ], [ -73.91785382459274, 40.798472141975282 ], [ -73.917866185170723, 40.798473858125448 ], [ -73.91787854484916, 40.798477283524754 ], [ -73.917896518442831, 40.79848498475782 ], [ -73.917907751633606, 40.798490972180517 ], [ -73.91792235060484, 40.798500378411426 ], [ -73.917941447747168, 40.798509786929841 ], [ -73.917953801071192, 40.798517482471503 ], [ -73.917968400054761, 40.79852688869785 ], [ -73.917986368458244, 40.798539713816126 ], [ -73.918006581538435, 40.798554247022068 ], [ -73.918021179640675, 40.798565364163494 ], [ -73.918040274663682, 40.798575626410639 ], [ -73.9180548771471, 40.798584177124006 ], [ -73.918071725085682, 40.79859273043828 ], [ -73.918090819804334, 40.798601285265811 ], [ -73.918109915944484, 40.798611551099988 ], [ -73.918126766160398, 40.798619248819627 ], [ -73.918142490894013, 40.798627802161889 ], [ -73.918155970798665, 40.798633790237233 ], [ -73.918170577347354, 40.798638072540285 ], [ -73.918170805239072, 40.798638153517594 ], [ -73.918187430887627, 40.798644062091185 ], [ -73.918203158625658, 40.79864919709253 ], [ -73.918222256686136, 40.798656044574692 ], [ -73.918239111283981, 40.798661182213522 ], [ -73.918252595560148, 40.7986646082867 ], [ -73.918269448790539, 40.798668891337087 ], [ -73.918286303183081, 40.798672318043813 ], [ -73.918303157625473, 40.798676602010218 ], [ -73.918320013284756, 40.798680884133546 ], [ -73.918337992223613, 40.798684314308815 ], [ -73.918353720919882, 40.79868859562729 ], [ -73.91837170002907, 40.79869287854028 ], [ -73.918387428729403, 40.798697159937966 ], [ -73.918402034422002, 40.798703151377026 ], [ -73.918417762407572, 40.798709994678944 ], [ -73.91843910645747, 40.798719406547882 ], [ -73.918451463954312, 40.798723685463216 ], [ -73.918476178181706, 40.798733952456708 ], [ -73.918494153015288, 40.798741652844541 ], [ -73.918512126586577, 40.798748498561878 ], [ -73.918531227019699, 40.798755345073012 ], [ -73.918551445398123, 40.798765609786912 ], [ -73.918570544795699, 40.798773309955003 ], [ -73.918591890810063, 40.798780158966686 ], [ -73.918609863524992, 40.798788712997812 ], [ -73.918628960680294, 40.798797267737598 ], [ -73.918641317326163, 40.798803254879161 ], [ -73.918657043214949, 40.798810952731088 ], [ -73.918676138126557, 40.79882036296582 ], [ -73.91869298846143, 40.798828061522556 ], [ -73.918707591023505, 40.798835759411354 ], [ -73.918719948730072, 40.798840891124563 ], [ -73.918723510801001, 40.798842188942267 ], [ -73.918745789730892, 40.798850306111888 ], [ -73.918768261379739, 40.798856301302749 ], [ -73.918783989268078, 40.798862292649218 ], [ -73.918796913342447, 40.79886358134496 ], [ -73.918814328083329, 40.798869146125618 ], [ -73.91883342841372, 40.798875138004739 ], [ -73.918851403266586, 40.798881983753681 ], [ -73.918873872744157, 40.798889686246866 ], [ -73.918894095549234, 40.798897388994753 ], [ -73.918904206374265, 40.798900812614761 ], [ -73.918917688484143, 40.798905092272655 ], [ -73.918945777364229, 40.798913653379799 ], [ -73.918959260687956, 40.798917934790076 ], [ -73.91897105727827, 40.798922640170346 ], [ -73.918990715434887, 40.798929913829994 ], [ -73.919016557723268, 40.798939326918472 ], [ -73.919030037594823, 40.798944462064689 ], [ -73.919043520001892, 40.798949597212385 ], [ -73.919057000052788, 40.798955585182128 ], [ -73.919081712445191, 40.798968413952785 ], [ -73.919106424783152, 40.798980389976606 ], [ -73.919118782544487, 40.798985522567058 ], [ -73.919126645394584, 40.798988946343599 ], [ -73.919142373460019, 40.798994934963332 ], [ -73.9191603477462, 40.799002209252045 ], [ -73.919180565888524, 40.799012900685725 ], [ -73.919200785657196, 40.799023164366133 ], [ -73.919218757544087, 40.799033425627115 ], [ -73.91923448147989, 40.799042832482058 ], [ -73.919252453376259, 40.799053094575378 ], [ -73.919267052834897, 40.799063355219594 ], [ -73.919273975711562, 40.799068185983579 ], [ -73.919280528786146, 40.799072758733089 ], [ -73.919296251703642, 40.799083020161774 ], [ -73.919307480629655, 40.799090714768852 ], [ -73.919318709904474, 40.799100121136291 ], [ -73.91933555435098, 40.799113796242416 ], [ -73.919346781149528, 40.799122346264724 ], [ -73.919356889168711, 40.799130040082488 ], [ -73.919380474136389, 40.799145431748634 ], [ -73.919402937377924, 40.799157406131215 ], [ -73.91942203399249, 40.799167669905842 ], [ -73.919438882255633, 40.799176222099497 ], [ -73.919454607359654, 40.799185628004899 ], [ -73.919466961049466, 40.799194178804264 ], [ -73.919482685057218, 40.799203586545183 ], [ -73.919498411205822, 40.799212137944821 ], [ -73.919511887149696, 40.799220689524532 ], [ -73.919526490994869, 40.799228387308638 ], [ -73.91954446384085, 40.799236941109662 ], [ -73.919561311213542, 40.79924634870526 ], [ -73.919575912828705, 40.799254899308025 ], [ -73.919593886897815, 40.799263454022231 ], [ -73.919612982183466, 40.799272861424775 ], [ -73.919632078575745, 40.799282269659926 ], [ -73.919650054541904, 40.799288262458042 ], [ -73.91966690624578, 40.799295108131197 ], [ -73.919682633290691, 40.799301951175337 ], [ -73.919699483790652, 40.799308796842901 ], [ -73.919718582444887, 40.799317352323769 ], [ -73.919739926764436, 40.799326763029555 ], [ -73.919759022087774, 40.799336171326587 ], [ -73.919778118519872, 40.799345578702443 ], [ -73.919798339512298, 40.799354988614098 ], [ -73.919817439148474, 40.799361835832151 ], [ -73.919834289570076, 40.799368680559795 ], [ -73.919853391346408, 40.799374672269032 ], [ -73.919872493049581, 40.799379812153724 ], [ -73.919891593440781, 40.79938494843644 ], [ -73.919910695335062, 40.799390941893954 ], [ -73.919926419159225, 40.799399495073438 ], [ -73.919937648395347, 40.799408043199278 ], [ -73.919947754212842, 40.799415738721009 ], [ -73.919958985694635, 40.799423432345868 ], [ -73.919973589268736, 40.799429421827121 ], [ -73.919988194164716, 40.799435411307435 ], [ -73.920002799983195, 40.799440545282231 ], [ -73.920021900582384, 40.799446538804126 ], [ -73.92003762909485, 40.799454237304928 ], [ -73.920054480697601, 40.799460227416873 ], [ -73.920066839461114, 40.799463652580272 ], [ -73.920085938973287, 40.799469645170689 ], [ -73.920106161910084, 40.799476493120977 ], [ -73.92011740879704, 40.799471375270478 ], [ -73.920130910688854, 40.799459425080045 ], [ -73.920134225697524, 40.799457490743656 ], [ -73.920168165724419, 40.799480852327527 ], [ -73.920179193805666, 40.799489364819273 ], [ -73.920167956818048, 40.799497886876679 ], [ -73.920157824239936, 40.799511547656593 ], [ -73.920152192783988, 40.799521792305221 ], [ -73.92014992847605, 40.799535459464849 ], [ -73.92015778120107, 40.799547420881986 ], [ -73.920169009651218, 40.799557679071683 ], [ -73.920179112258538, 40.799567082815066 ], [ -73.920192588627657, 40.799577339885481 ], [ -73.92020269439125, 40.799585034463185 ], [ -73.920212800344444, 40.799593582702975 ], [ -73.920224028809741, 40.799603841807325 ], [ -73.920233008083997, 40.799613243848235 ], [ -73.920245360094682, 40.799624355634528 ], [ -73.92025546382564, 40.799633757533059 ], [ -73.920271187106522, 40.799644871654436 ], [ -73.920285785747708, 40.799655133924382 ], [ -73.920300387735139, 40.799664537177719 ], [ -73.920313860694705, 40.799675651490759 ], [ -73.920323962184625, 40.799688043125997 ], [ -73.920346421367924, 40.799704714308156 ], [ -73.920356526146904, 40.799713262618091 ], [ -73.920365508789629, 40.799721809146597 ], [ -73.920376738324322, 40.799731213652414 ], [ -73.920381539547549, 40.799735993857595 ], [ -73.920391331897406, 40.79974574346798 ], [ -73.920403679682053, 40.799759418901537 ], [ -73.92041266214504, 40.799767113603551 ], [ -73.920432875295234, 40.799783355462836 ], [ -73.920448591301479, 40.79979959521426 ], [ -73.920462059398915, 40.799815834244548 ], [ -73.920471040968422, 40.799824380847696 ], [ -73.920481144759904, 40.799833782726161 ], [ -73.920512573047688, 40.79987053411989 ], [ -73.920520425045268, 40.799884204594385 ], [ -73.9205271502519, 40.799898728956556 ], [ -73.920533881959869, 40.799909837666654 ], [ -73.920542856299861, 40.799924365337702 ], [ -73.920551833897051, 40.799937182086872 ], [ -73.920561934766539, 40.799949149544702 ], [ -73.920568667314697, 40.799958549087577 ], [ -73.920576523414368, 40.799968802230772 ], [ -73.920585503058263, 40.799979914329654 ], [ -73.920593353681895, 40.799992730213823 ], [ -73.920602331293765, 40.800005550556811 ], [ -73.920610185282442, 40.800016658280327 ], [ -73.920625900562072, 40.800034606250684 ], [ -73.920636001351639, 40.800046571862936 ], [ -73.92064498082469, 40.800056827532615 ], [ -73.920653959475146, 40.80006879236926 ], [ -73.920661812462811, 40.800080754671242 ], [ -73.920673035989466, 40.800095283882726 ], [ -73.920680886643112, 40.800108101600877 ], [ -73.920692114251167, 40.800119213400762 ], [ -73.920701100043345, 40.800125199000291 ], [ -73.920719079693924, 40.800129479704815 ], [ -73.920734810917395, 40.800132054293627 ], [ -73.920747172068175, 40.80013462563879 ], [ -73.920757283370762, 40.800138902758519 ], [ -73.920770754665455, 40.800152577167957 ], [ -73.920772992423878, 40.800161119940476 ], [ -73.920765675069035, 40.80017008572387 ], [ -73.920748250587792, 40.800171353297323 ], [ -73.920730263174448, 40.800175612900851 ], [ -73.920726881712227, 40.800184151801226 ], [ -73.920731366187354, 40.80019269436481 ], [ -73.920740342643114, 40.800205513775758 ], [ -73.920749317262192, 40.800220895092906 ], [ -73.920759411092007, 40.80023883917346 ], [ -73.920765019321919, 40.800249092511514 ], [ -73.920770626534306, 40.800260200516455 ], [ -73.92078184159304, 40.800279854448846 ], [ -73.920788575417589, 40.800289253059141 ], [ -73.9207953070146, 40.800299509010543 ], [ -73.920807649081411, 40.800319162879816 ], [ -73.920818865291238, 40.800337959548656 ], [ -73.920828958228284, 40.800357612705248 ], [ -73.920839049960904, 40.800377264102345 ], [ -73.920848019265705, 40.80039520740096 ], [ -73.920853627714038, 40.800406316238742 ], [ -73.920859233745986, 40.800417422313025 ], [ -73.920864839972808, 40.800429385732798 ], [ -73.920870445186949, 40.800442201056519 ], [ -73.920877174585698, 40.800453309743936 ], [ -73.920882782029977, 40.800465271322125 ], [ -73.920889510529065, 40.800477234674695 ], [ -73.920895117782635, 40.800488341669336 ], [ -73.920906335337037, 40.800507996511989 ], [ -73.920916429145322, 40.800525939656531 ], [ -73.92092764652017, 40.800544737236294 ], [ -73.920941112967228, 40.800562683534082 ], [ -73.920952331563939, 40.80058148286858 ], [ -73.920963549971674, 40.800599428622903 ], [ -73.92097364381037, 40.800617370842112 ], [ -73.920984864453743, 40.800634461929299 ], [ -73.920997204522592, 40.800654971194859 ], [ -73.921003926053032, 40.800673765679583 ], [ -73.921007281957571, 40.800685727546792 ], [ -73.92101064352812, 40.800695978493295 ], [ -73.921013999635363, 40.800708793102949 ], [ -73.921019604902853, 40.800721607498822 ], [ -73.921024083562315, 40.800736132964246 ], [ -73.921030807046478, 40.80075236545543 ], [ -73.9210409072017, 40.800766039275672 ], [ -73.921049888047733, 40.800776294077195 ], [ -73.921055495155201, 40.800786547400747 ], [ -73.92106672192665, 40.800798513745029 ], [ -73.921079071061612, 40.800811333684408 ], [ -73.921087028389081, 40.800823456152827 ], [ -73.921089168109575, 40.800826715744805 ], [ -73.92109253262737, 40.800834404781419 ], [ -73.921097008184859, 40.800850636648121 ], [ -73.921101486873084, 40.800865159433783 ], [ -73.921107092165329, 40.800877978257944 ], [ -73.921111575721881, 40.80088737630922 ], [ -73.921119425938315, 40.800902755904765 ], [ -73.92112727606775, 40.80091728192081 ], [ -73.921137378495246, 40.800930099309632 ], [ -73.92114747950987, 40.800942065794182 ], [ -73.92115420718244, 40.800955736456324 ], [ -73.921158688925502, 40.800967697248623 ], [ -73.921163172693852, 40.800977949796817 ], [ -73.921168780034122, 40.800989057779823 ], [ -73.921175510749833, 40.801000165529672 ], [ -73.921184489533445, 40.801011276659274 ], [ -73.921190098091941, 40.801022383723236 ], [ -73.921194580458177, 40.801031782606572 ], [ -73.921199063424368, 40.80104374339799 ], [ -73.921204668754626, 40.801056558704261 ], [ -73.921211393214577, 40.801071938442206 ], [ -73.9212158761854, 40.801083900154275 ], [ -73.921220359969325, 40.801094153618841 ], [ -73.921227087581556, 40.801106969693649 ], [ -73.921237183989462, 40.801124913646433 ], [ -73.921246059288364, 40.801141441493868 ], [ -73.921205736592796, 40.801189562676107 ], [ -73.921169560367048, 40.80123273671213 ], [ -73.921106485704783, 40.80112469007566 ], [ -73.920792087043893, 40.800599510737413 ], [ -73.920760166077159, 40.800531294696142 ], [ -73.920725399040862, 40.800463879984719 ], [ -73.920687823839984, 40.800397334055567 ], [ -73.920647475742783, 40.800331725363066 ], [ -73.920589713185336, 40.800246205442228 ], [ -73.920527235743123, 40.800162606655661 ], [ -73.92046015455638, 40.800081077486816 ], [ -73.920388590556612, 40.800001763160274 ], [ -73.920323261095803, 40.799935148456996 ], [ -73.920265328858932, 40.799880058857667 ], [ -73.920205169706875, 40.799826355346816 ], [ -73.920148429831983, 40.799779146834865 ], [ -73.920089313254678, 40.799733642213042 ], [ -73.920027905211654, 40.799689908967196 ], [ -73.919964301619174, 40.799648014002997 ], [ -73.919898350979778, 40.79960787957652 ], [ -73.919830381092481, 40.799569723929267 ], [ -73.919760495149021, 40.799533605606406 ], [ -73.91968880085517, 40.799499579645023 ], [ -73.919320628928816, 40.799332347530729 ], [ -73.919114295529553, 40.799238627084954 ], [ -73.919110087624972, 40.799236715934263 ] ] ], [ [ [ -73.916538391435139, 40.797792525267418 ], [ -73.917519264270879, 40.7982305624909 ], [ -73.91751805995348, 40.798230180139797 ], [ -73.917506825936087, 40.798225900089321 ], [ -73.917492220575596, 40.798220766717456 ], [ -73.917475367358819, 40.798215628049903 ], [ -73.91745851509495, 40.798209635717541 ], [ -73.917440539464621, 40.798202789833738 ], [ -73.917421443693073, 40.798193380313997 ], [ -73.917401223431241, 40.79818482456696 ], [ -73.917381003283808, 40.798176269652728 ], [ -73.917361906316415, 40.798166861041004 ], [ -73.917346180882319, 40.798160014918409 ], [ -73.917331574340238, 40.798154879685121 ], [ -73.917316972231788, 40.798148037962143 ], [ -73.917292258664872, 40.798138622543611 ], [ -73.917275404269034, 40.798133487526208 ], [ -73.917259675366665, 40.798127496893756 ], [ -73.917240577816258, 40.798121502914789 ], [ -73.917222603335532, 40.798114656077637 ], [ -73.917206876673845, 40.798106958948516 ], [ -73.917187781001644, 40.798098403973071 ], [ -73.917170926478107, 40.798092413438404 ], [ -73.917155201190326, 40.7980855682098 ], [ -73.917140593617603, 40.798081285693144 ], [ -73.917123740496834, 40.798077005156401 ], [ -73.917108012940687, 40.79807101450281 ], [ -73.917088918319195, 40.798060751264259 ], [ -73.917076560776366, 40.79805561669906 ], [ -73.917059710826948, 40.798047916983826 ], [ -73.917039488490587, 40.79804021391454 ], [ -73.917021515261013, 40.79803336880321 ], [ -73.917004664257846, 40.798026523662251 ], [ -73.916988936614672, 40.798020533913707 ], [ -73.916976579196216, 40.798015400172872 ], [ -73.916959731543287, 40.798006847701636 ], [ -73.916937264430373, 40.797995726500638 ], [ -73.916915921893576, 40.797985459770317 ], [ -73.916895702969484, 40.797976904855282 ], [ -73.916879971968825, 40.797971768668667 ], [ -73.916863119004958, 40.797967486336098 ], [ -73.916845142471374, 40.797962346764486 ], [ -73.916828290576134, 40.797957211684626 ], [ -73.916804697011273, 40.797949507057133 ], [ -73.916781101956957, 40.797943084675339 ], [ -73.916760877048617, 40.797938370380294 ], [ -73.916744018472727, 40.797936649935451 ], [ -73.916726038856709, 40.797934075851366 ], [ -73.916710310335588, 40.797929792470093 ], [ -73.916694580427688, 40.797923803598387 ], [ -73.916677733907591, 40.797914393741962 ], [ -73.91665976381681, 40.797904132167751 ], [ -73.916647409655212, 40.797896435564525 ], [ -73.916636182166101, 40.797887033454032 ], [ -73.916626080283407, 40.797876775733428 ], [ -73.916617100542425, 40.797867373324529 ], [ -73.916608120774214, 40.797857116415514 ], [ -73.916590157102604, 40.797840874590563 ], [ -73.916568819058966, 40.797827193983004 ], [ -73.916553093785552, 40.797820348671934 ], [ -73.916537364059508, 40.797815213443165 ], [ -73.91652366701112, 40.79781039483214 ], [ -73.916522758869704, 40.797810075346476 ], [ -73.916507031318773, 40.79780408737215 ], [ -73.916492428274935, 40.797797242867134 ], [ -73.916477827515124, 40.797789545535139 ], [ -73.91646772006014, 40.797782706130342 ], [ -73.916456488193461, 40.797775862227958 ], [ -73.916446381526654, 40.797769450574123 ], [ -73.916428975427436, 40.797757478365412 ], [ -73.916419430286595, 40.797750212448847 ], [ -73.916401466578606, 40.797733971430446 ], [ -73.91639499356134, 40.797726574809907 ], [ -73.916538391435139, 40.797792525267418 ] ] ] ] } }
]
}
