{
"type": "FeatureCollection",
"name": "pluto_Snug_Harbor",
"crs": { "type": "name", "properties": { "name": "urn:ogc:def:crs:OGC:1.3:CRS84" } },
"features": [
{ "type": "Feature", "properties": { "Borough": "SI", "Block": 68, "Lot": 80, "CD": 501, "BCT2020": "5009702", "BCTCB2020": "50097020001", "CT2010": "89", "CB2010": "0001", "SchoolDist": null, "Council": 49, "ZipCode": 0, "FireComp": null, "PolicePrct": 0, "HealthCent": 0, "HealthArea": 0, "Sanitboro": null, "SanitDistr": null, "SanitSub": null, "Address": "RICHMOND TERRACE", "ZoneDist1": "PARK", "ZoneDist2": null, "ZoneDist3": null, "ZoneDist4": null, "Overlay1": null, "Overlay2": null, "SPDist1": null, "SPDist2": null, "SPDist3": null, "LtdHeight": null, "SplitZone": "N", "BldgClass": "Q0", "LandUse": "09", "Easements": 0, "OwnerType": "X", "OwnerName": "MTA STATEN ISLAND RAILWAY", "LotArea": 32200, "BldgArea": 0, "ComArea": 0, "ResArea": 0, "OfficeArea": 0, "RetailArea": 0, "GarageArea": 0, "StrgeArea": 0, "FactryArea": 0, "OtherArea": 0, "AreaSource": "7", "NumBldgs": 0, "NumFloors": 0.0, "UnitsRes": 0, "UnitsTotal": 0, "LotFront": 120.0, "LotDepth": 200.0, "BldgFront": 0.0, "BldgDepth": 0.0, "Ext": null, "ProxCode": "0", "IrrLotCode": "Y", "LotType": "5", "BsmtCode": "5", "AssessLand": 45765.0, "AssessTot": 45765.0, "ExemptTot": 45765.0, "YearBuilt": 0, "YearAlter1": 0, "YearAlter2": 0, "HistDist": null, "Landmark": null, "BuiltFAR": 0.0, "ResidFAR": 0.0, "CommFAR": 0.0, "FacilFAR": 0.0, "BoroCode": 5, "BBL": 5000680080.0, "CondoNo": 0, "Tract2010": "0089", "XCoord": 956347, "YCoord": 174465, "ZoneMap": "21a", "ZMCode": null, "Sanborn": "501 066", "TaxMap": "50103", "EDesigNum": null, "APPBBL": 0.0, "APPDate": null, "PLUTOMapID": "1", "FIRM07_FLA": "1", "PFIRM15_FL": "1", "Version": "25v4", "DCPEdited": null, "Latitude": 40.6454988, "Longitude": -74.1005487, "Notes": null, "Shape_Leng": 0.0, "Shape_Area": 1818.3525946 }, "geometry": { "type": "MultiPolygon", "coordinates": [ [ [ [ -74.100270039189525, 40.645098785623539 ], [ -74.10026963917953, 40.645095346909635 ], [ -74.100268297797442, 40.645083862814865 ], [ -74.10037347838076, 40.645086122515508 ], [ -74.100426987322848, 40.645085747174306 ], [ -74.1004453178044, 40.64508953769414 ], [ -74.100504437794712, 40.645101761070855 ], [ -74.100711378434653, 40.645108448588573 ], [ -74.100712247143989, 40.645113792441634 ], [ -74.100715152833189, 40.645131673240584 ], [ -74.10071812293269, 40.645149949365809 ], [ -74.100718763603197, 40.645153890671523 ], [ -74.100605854400399, 40.645131777616122 ], [ -74.100539139236801, 40.645136533856849 ], [ -74.10042308158917, 40.645138770290856 ], [ -74.100349058183994, 40.645132001600757 ], [ -74.100276164251014, 40.645129501361886 ], [ -74.100273655474993, 40.645129764150489 ], [ -74.100270039189525, 40.645098785623539 ] ] ] ] } },
{ "type": "Feature", "properties": { "Borough": "SI", "Block": 70, "Lot": 65, "CD": 501, "BCT2020": "5009702", "BCTCB2020": "50097021001", "CT2010": "81", "CB2010": "1010", "SchoolDist": "31", "Council": 49, "ZipCode": 10301, "FireComp": "E156", "PolicePrct": 120, "HealthCent": 51, "HealthArea": 400, "Sanitboro": "5", "SanitDistr": "01", "SanitSub": "2D", "Address": "363 FILLMORE STREET", "ZoneDist1": "R2", "ZoneDist2": null, "ZoneDist3": null, "ZoneDist4": null, "Overlay1": null, "Overlay2": null, "SPDist1": "HS", "SPDist2": null, "SPDist3": null, "LtdHeight": null, "SplitZone": "N", "BldgClass": "A1", "LandUse": "01", "Easements": 0, "OwnerType": null, "OwnerName": "WEGENER, MARGARET", "LotArea": 6950, "BldgArea": 1732, "ComArea": 0, "ResArea": 1232, "OfficeArea": 0, "RetailArea": 0, "GarageArea": 0, "StrgeArea": 0, "FactryArea": 0, "OtherArea": 0, "AreaSource": "2", "NumBldgs": 2, "NumFloors": 2.0, "UnitsRes": 1, "UnitsTotal": 1, "LotFront": 50.0, "LotDepth": 139.0, "BldgFront": 22.0, "BldgDepth": 28.0, "Ext": "G", "ProxCode": "1", "IrrLotCode": "N", "LotType": "5", "BsmtCode": "1", "AssessLand": 14880.0, "AssessTot": 35340.0, "ExemptTot": 0.0, "YearBuilt": 1899, "YearAlter1": 0, "YearAlter2": 0, "HistDist": null, "Landmark": null, "BuiltFAR": 0.25, "ResidFAR": 0.75, "CommFAR": 0.0, "FacilFAR": 1.0, "BoroCode": 5, "BBL": 5000700065.0, "CondoNo": 0, "Tract2010": "0081", "XCoord": 956458, "YCoord": 173701, "ZoneMap": "21a", "ZMCode": null, "Sanborn": "501 067", "TaxMap": "50103", "EDesigNum": null, "APPBBL": 0.0, "APPDate": null, "PLUTOMapID": "1", "FIRM07_FLA": null, "PFIRM15_FL": null, "Version": "25v4", "DCPEdited": null, "Latitude": 40.6434021, "Longitude": -74.1001455, "Notes": null, "Shape_Leng": 0.0, "Shape_Area": 7287.0427837999996 }, "geometry": { "type": "MultiPolygon", "coordinates": [ [ [ [ -74.100253177283861, 40.643593388476816 ], [ -74.100067213408423, 40.643600597629607 ], [ -74.10003320495548, 40.643214351618397 ], [ -74.100219167760727, 40.643207142519117 ], [ -74.100253177283861, 40.643593388476816 ] ] ] ] } },
{ "type": "Feature", "properties": { "Borough": "SI", "Block": 72, "Lot": 97, "CD": 501, "BCT2020": "5008100", "BCTCB2020": "50081001009", "CT2010": "81", "CB2010": "1011", "SchoolDist": "31", "Council": 49, "ZipCode": 10301, "FireComp": "E156", "PolicePrct": 120, "HealthCent": 51, "HealthArea": 400, "Sanitboro": "5", "SanitDistr": "01", "SanitSub": "2D", "Address": "118 TYSEN STREET", "ZoneDist1": "R2", "ZoneDist2": null, "ZoneDist3": null, "ZoneDist4": null, "Overlay1": null, "Overlay2": null, "SPDist1": null, "SPDist2": null, "SPDist3": null, "LtdHeight": null, "SplitZone": "N", "BldgClass": "A5", "LandUse": "01", "Easements": 0, "OwnerType": null, "OwnerName": "GUNTHER, MARIA VICTORIA", "LotArea": 5226, "BldgArea": 1545, "ComArea": 0, "ResArea": 1545, "OfficeArea": 0, "RetailArea": 0, "GarageArea": 0, "StrgeArea": 0, "FactryArea": 0, "OtherArea": 0, "AreaSource": "2", "NumBldgs": 1, "NumFloors": 2.5, "UnitsRes": 1, "UnitsTotal": 1, "LotFront": 26.0, "LotDepth": 201.0, "BldgFront": 20.0, "BldgDepth": 28.0, "Ext": "N", "ProxCode": "2", "IrrLotCode": "N", "LotType": "5", "BsmtCode": "2", "AssessLand": 11100.0, "AssessTot": 40800.0, "ExemptTot": 0.0, "YearBuilt": 1910, "YearAlter1": 0, "YearAlter2": 0, "HistDist": null, "Landmark": null, "BuiltFAR": 0.3, "ResidFAR": 0.75, "CommFAR": 0.0, "FacilFAR": 1.0, "BoroCode": 5, "BBL": 5000720097.0, "CondoNo": 0, "Tract2010": "0081", "XCoord": 956515, "YCoord": 173388, "ZoneMap": "21a", "ZMCode": null, "Sanborn": "501 066", "TaxMap": "50103", "EDesigNum": null, "APPBBL": 0.0, "APPDate": null, "PLUTOMapID": "1", "FIRM07_FLA": null, "PFIRM15_FL": null, "Version": "25v4", "DCPEdited": null, "Latitude": 40.6425432, "Longitude": -74.0999388, "Notes": null, "Shape_Leng": 0.0, "Shape_Area": 5130.2868251999998 }, "geometry": { "type": "MultiPolygon", "coordinates": [ [ [ [ -74.100298272740645, 40.642566771695002 ], [ -74.099798617058497, 40.64258479813634 ], [ -74.099574060864754, 40.642595317858472 ], [ -74.099563201958304, 40.642527526333822 ], [ -74.100286387202047, 40.642493648229475 ], [ -74.100298272740645, 40.642566771695002 ] ] ] ] } },
{ "type": "Feature", "properties": { "Borough": "SI", "Block": 72, "Lot": 106, "CD": 501, "BCT2020": "5008100", "BCTCB2020": "50081001009", "CT2010": "81", "CB2010": "1011", "SchoolDist": "31", "Council": 49, "ZipCode": 10301, "FireComp": "E156", "PolicePrct": 120, "HealthCent": 51, "HealthArea": 400, "Sanitboro": "5", "SanitDistr": "01", "SanitSub": "2D", "Address": "134 TYSEN STREET", "ZoneDist1": "R2", "ZoneDist2": null, "ZoneDist3": null, "ZoneDist4": null, "Overlay1": null, "Overlay2": null, "SPDist1": null, "SPDist2": null, "SPDist3": null, "LtdHeight": null, "SplitZone": "N", "BldgClass": "A1", "LandUse": "01", "Easements": 0, "OwnerType": null, "OwnerName": "MICHAEL A BERGERON", "LotArea": 6000, "BldgArea": 2540, "ComArea": 0, "ResArea": 2540, "OfficeArea": 0, "RetailArea": 0, "GarageArea": 0, "StrgeArea": 0, "FactryArea": 0, "OtherArea": 0, "AreaSource": "2", "NumBldgs": 1, "NumFloors": 2.5, "UnitsRes": 1, "UnitsTotal": 1, "LotFront": 30.0, "LotDepth": 200.0, "BldgFront": 23.0, "BldgDepth": 45.0, "Ext": "N", "ProxCode": "1", "IrrLotCode": "N", "LotType": "5", "BsmtCode": "2", "AssessLand": 12480.0, "AssessTot": 46080.0, "ExemptTot": 0.0, "YearBuilt": 1901, "YearAlter1": 0, "YearAlter2": 0, "HistDist": null, "Landmark": null, "BuiltFAR": 0.42, "ResidFAR": 0.75, "CommFAR": 0.0, "FacilFAR": 1.0, "BoroCode": 5, "BBL": 5000720106.0, "CondoNo": 0, "Tract2010": "0081", "XCoord": 956536, "YCoord": 173231, "ZoneMap": "21a", "ZMCode": null, "Sanborn": "501 066", "TaxMap": "50103", "EDesigNum": null, "APPBBL": 0.0, "APPDate": null, "PLUTOMapID": "1", "FIRM07_FLA": null, "PFIRM15_FL": null, "Version": "25v4", "DCPEdited": null, "Latitude": 40.6421123, "Longitude": -74.0998625, "Notes": null, "Shape_Leng": 0.0, "Shape_Area": 6024.5581453000004 }, "geometry": { "type": "MultiPolygon", "coordinates": [ [ [ [ -74.099493072809778, 40.642089685491463 ], [ -74.09973917008756, 40.642078156723343 ], [ -74.099974605773809, 40.642067127438821 ], [ -74.100215235627246, 40.642055854552019 ], [ -74.100228542138382, 40.642137728930635 ], [ -74.099506188122064, 40.64217156906777 ], [ -74.099493072809778, 40.642089685491463 ] ] ] ] } },
{ "type": "Feature", "properties": { "Borough": "SI", "Block": 74, "Lot": 123, "CD": 501, "BCT2020": "5008100", "BCTCB2020": "50081002004", "CT2010": "81", "CB2010": "2005", "SchoolDist": "31", "Council": 49, "ZipCode": 10301, "FireComp": "E156", "PolicePrct": 120, "HealthCent": 51, "HealthArea": 400, "Sanitboro": "5", "SanitDistr": "01", "SanitSub": "2D", "Address": "200 TYSEN STREET", "ZoneDist1": "R2", "ZoneDist2": null, "ZoneDist3": null, "ZoneDist4": null, "Overlay1": null, "Overlay2": null, "SPDist1": null, "SPDist2": null, "SPDist3": null, "LtdHeight": null, "SplitZone": "N", "BldgClass": "B3", "LandUse": "01", "Easements": 0, "OwnerType": "X", "OwnerName": "AHRC NYC NEW PROJECT", "LotArea": 11100, "BldgArea": 3220, "ComArea": 0, "ResArea": 3220, "OfficeArea": 0, "RetailArea": 0, "GarageArea": 0, "StrgeArea": 0, "FactryArea": 0, "OtherArea": 0, "AreaSource": "2", "NumBldgs": 2, "NumFloors": 2.75, "UnitsRes": 2, "UnitsTotal": 2, "LotFront": 74.0, "LotDepth": 150.0, "BldgFront": 24.0, "BldgDepth": 52.0, "Ext": "G", "ProxCode": "1", "IrrLotCode": "N", "LotType": "3", "BsmtCode": "2", "AssessLand": 18960.0, "AssessTot": 53580.0, "ExemptTot": 53580.0, "YearBuilt": 1915, "YearAlter1": 0, "YearAlter2": 0, "HistDist": null, "Landmark": null, "BuiltFAR": 0.29, "ResidFAR": 0.75, "CommFAR": 0.0, "FacilFAR": 1.0, "BoroCode": 5, "BBL": 5000740123.0, "CondoNo": 0, "Tract2010": "0081", "XCoord": 956590, "YCoord": 172591, "ZoneMap": "21a", "ZMCode": null, "Sanborn": "501 066", "TaxMap": "50103", "EDesigNum": null, "APPBBL": 0.0, "APPDate": null, "PLUTOMapID": "1", "FIRM07_FLA": null, "PFIRM15_FL": null, "Version": "25v4", "DCPEdited": null, "Latitude": 40.6403558, "Longitude": -74.0996653, "Notes": null, "Shape_Leng": 0.0, "Shape_Area": 11103.5172102 }, "geometry": { "type": "MultiPolygon", "coordinates": [ [ [ [ -74.099951370408007, 40.640432268649427 ], [ -74.099421071762407, 40.64048560964661 ], [ -74.099385726930237, 40.640272064996587 ], [ -74.099919896877083, 40.640238606078086 ], [ -74.099951370408007, 40.640432268649427 ] ] ] ] } },
{ "type": "Feature", "properties": { "Borough": "SI", "Block": 75, "Lot": 1, "CD": 501, "BCT2020": "5009702", "BCTCB2020": "50097021000", "CT2010": "97", "CB2010": "3004", "SchoolDist": "31", "Council": 49, "ZipCode": 10310, "FireComp": "E156", "PolicePrct": 120, "HealthCent": 51, "HealthArea": 300, "Sanitboro": "5", "SanitDistr": "01", "SanitSub": "2D", "Address": "RICHMOND TERRACE", "ZoneDist1": "PARK", "ZoneDist2": "R3-2", "ZoneDist3": null, "ZoneDist4": null, "Overlay1": null, "Overlay2": null, "SPDist1": null, "SPDist2": null, "SPDist3": null, "LtdHeight": null, "SplitZone": "Y", "BldgClass": "Q0", "LandUse": "09", "Easements": 0, "OwnerType": "C", "OwnerName": "NYC DEPARTMENT OF PARKS AND RECREATION", "LotArea": 20000, "BldgArea": 0, "ComArea": 0, "ResArea": 0, "OfficeArea": 0, "RetailArea": 0, "GarageArea": 0, "StrgeArea": 0, "FactryArea": 0, "OtherArea": 0, "AreaSource": "7", "NumBldgs": 0, "NumFloors": 0.0, "UnitsRes": 0, "UnitsTotal": 0, "LotFront": 563.0, "LotDepth": 75.0, "BldgFront": 0.0, "BldgDepth": 0.0, "Ext": null, "ProxCode": "0", "IrrLotCode": "Y", "LotType": "5", "BsmtCode": "5", "AssessLand": 291150.0, "AssessTot": 291150.0, "ExemptTot": 291150.0, "YearBuilt": 0, "YearAlter1": 0, "YearAlter2": 0, "HistDist": null, "Landmark": null, "BuiltFAR": 0.0, "ResidFAR": 0.0, "CommFAR": 0.0, "FacilFAR": 0.0, "BoroCode": 5, "BBL": 5000750001.0, "CondoNo": 0, "Tract2010": "0097", "XCoord": 956083, "YCoord": 174329, "ZoneMap": "21a", "ZMCode": null, "Sanborn": "501 066", "TaxMap": "50103", "EDesigNum": null, "APPBBL": 0.0, "APPDate": null, "PLUTOMapID": "1", "FIRM07_FLA": null, "PFIRM15_FL": "1", "Version": "25v4", "DCPEdited": "t", "Latitude": 40.6451246, "Longitude": -74.1014994, "Notes": null, "Shape_Leng": 0.0, "Shape_Area": 28202.097922299999 }, "geometry": { "type": "MultiPolygon", "coordinates": [ [ [ [ -74.100698071965112, 40.645026586003098 ], [ -74.100694652013487, 40.645005550203379 ], [ -74.100665417535907, 40.644825682792174 ], [ -74.100739577869376, 40.644824684136189 ], [ -74.100758187699952, 40.644824819118618 ], [ -74.10077604264788, 40.644825322200539 ], [ -74.100790133592923, 40.644825979914081 ], [ -74.100804662292745, 40.644826898351525 ], [ -74.100821134150394, 40.644828236487157 ], [ -74.100836872128738, 40.644829813947609 ], [ -74.100860308494063, 40.64483270659828 ], [ -74.10088759729247, 40.644836909684287 ], [ -74.100914878150391, 40.644842034970132 ], [ -74.100941386934011, 40.644847924584639 ], [ -74.100972233115158, 40.644855951783704 ], [ -74.101166934189081, 40.64493595769008 ], [ -74.101282893472927, 40.644982960073733 ], [ -74.101419662948729, 40.645035632649012 ], [ -74.101524568571961, 40.645074064392567 ], [ -74.101648432917173, 40.645117306146176 ], [ -74.101757403351201, 40.645151846522133 ], [ -74.10185182060718, 40.645183446085419 ], [ -74.10199038429613, 40.645225150752765 ], [ -74.102100800786175, 40.64525649182238 ], [ -74.102258165086127, 40.645298328084095 ], [ -74.102410161188288, 40.645335649188624 ], [ -74.102507953385228, 40.645358089580782 ], [ -74.102603630428177, 40.645378871182615 ], [ -74.10266689134663, 40.645391982258516 ], [ -74.102721906475921, 40.645402980760394 ], [ -74.102764392672142, 40.645411220391935 ], [ -74.102735949625895, 40.645474752159387 ], [ -74.10269810886966, 40.645469875322384 ], [ -74.102657214442658, 40.645464256526637 ], [ -74.102614867334523, 40.645458058232677 ], [ -74.102570127382464, 40.645451083922318 ], [ -74.102526653273372, 40.645443884254732 ], [ -74.102477925533151, 40.64543531686634 ], [ -74.102420533277069, 40.645424545493334 ], [ -74.102377354940415, 40.645415951459405 ], [ -74.10233690910745, 40.645407512601146 ], [ -74.102300907048971, 40.645399684857622 ], [ -74.102263188529534, 40.645391160725559 ], [ -74.102201984905207, 40.645376615825036 ], [ -74.102132590793587, 40.645359041670424 ], [ -74.101222305532872, 40.645132738053114 ], [ -74.100698071965112, 40.645026586003098 ] ] ] ] } },
{ "type": "Feature", "properties": { "Borough": "SI", "Block": 75, "Lot": 100, "CD": 501, "BCT2020": "5009701", "BCTCB2020": "50097013000", "CT2010": "97", "CB2010": "3001", "SchoolDist": "31", "Council": 49, "ZipCode": 10310, "FireComp": "E156", "PolicePrct": 120, "HealthCent": 51, "HealthArea": 300, "Sanitboro": "5", "SanitDistr": "01", "SanitSub": "2D", "Address": "RICHMOND TERRACE", "ZoneDist1": "R3-1", "ZoneDist2": "R3-2", "ZoneDist3": "PARK", "ZoneDist4": null, "Overlay1": null, "Overlay2": null, "SPDist1": null, "SPDist2": null, "SPDist3": null, "LtdHeight": null, "SplitZone": "Y", "BldgClass": "U9", "LandUse": "07", "Easements": 1, "OwnerType": "C", "OwnerName": "NYC DEPARTMENT OF ENVIRONMENTAL PROTECTION", "LotArea": 108066, "BldgArea": 0, "ComArea": 0, "ResArea": 0, "OfficeArea": 0, "RetailArea": 0, "GarageArea": 0, "StrgeArea": 0, "FactryArea": 0, "OtherArea": 0, "AreaSource": "7", "NumBldgs": 0, "NumFloors": 0.0, "UnitsRes": 0, "UnitsTotal": 0, "LotFront": 40.0, "LotDepth": 30.0, "BldgFront": 0.0, "BldgDepth": 0.0, "Ext": "N", "ProxCode": "0", "IrrLotCode": "Y", "LotType": "5", "BsmtCode": "0", "AssessLand": 0.0, "AssessTot": 0.0, "ExemptTot": 0.0, "YearBuilt": 0, "YearAlter1": 0, "YearAlter2": 0, "HistDist": null, "Landmark": null, "BuiltFAR": 0.0, "ResidFAR": 0.75, "CommFAR": 0.0, "FacilFAR": 1.0, "BoroCode": 5, "BBL": 5000750100.0, "CondoNo": 0, "Tract2010": "0097", "XCoord": 954883, "YCoord": 174479, "ZoneMap": "21a", "ZMCode": null, "Sanborn": "501 066", "TaxMap": "50103", "EDesigNum": null, "APPBBL": 0.0, "APPDate": null, "PLUTOMapID": "1", "FIRM07_FLA": "1", "PFIRM15_FL": "1", "Version": "25v4", "DCPEdited": "t", "Latitude": 40.6455325, "Longitude": -74.1058242, "Notes": null, "Shape_Leng": 0.0, "Shape_Area": 82940.9747069 }, "geometry": { "type": "MultiPolygon", "coordinates": [ [ [ [ -74.102654004402481, 40.645535745223903 ], [ -74.102607926159337, 40.645529557448114 ], [ -74.102555885041511, 40.645522125899795 ], [ -74.102492060320273, 40.645512365227717 ], [ -74.102421326163778, 40.645500707872323 ], [ -74.102350388296983, 40.645488122267075 ], [ -74.1022879178105, 40.645476289077877 ], [ -74.102206793831613, 40.645459859995277 ], [ -74.102090141000986, 40.645434231169695 ], [ -74.101182295311972, 40.645213539747353 ], [ -74.100712247143989, 40.645113792441634 ], [ -74.100711378434653, 40.645108448588573 ], [ -74.100698071965112, 40.645026586003098 ], [ -74.101222305532872, 40.645132738053114 ], [ -74.102132590793587, 40.645359041670424 ], [ -74.102201984905207, 40.645376615825036 ], [ -74.102263188529534, 40.645391160725559 ], [ -74.102300907048971, 40.645399684857622 ], [ -74.10233690910745, 40.645407512601146 ], [ -74.102377354940415, 40.645415951459405 ], [ -74.102420533277069, 40.645424545493334 ], [ -74.102477925533151, 40.64543531686634 ], [ -74.102526653273372, 40.645443884254732 ], [ -74.102570127382464, 40.645451083922318 ], [ -74.102614867334523, 40.645458058232677 ], [ -74.102657214442658, 40.645464256526637 ], [ -74.10269810886966, 40.645469875322384 ], [ -74.102735949625895, 40.645474752159387 ], [ -74.1027740523581, 40.645479353086195 ], [ -74.102850958808787, 40.645487697083006 ], [ -74.102928515968387, 40.645494846435426 ], [ -74.103027193217983, 40.645502119906766 ], [ -74.103114335967362, 40.645506857056553 ], [ -74.103196453874872, 40.64550988216434 ], [ -74.103277908858956, 40.645511508490252 ], [ -74.103361136214474, 40.645511756188107 ], [ -74.103429479623131, 40.645510894289799 ], [ -74.103484878988013, 40.645509488385244 ], [ -74.104891279413124, 40.64548524855411 ], [ -74.104915115082747, 40.645434213409956 ], [ -74.104975584630381, 40.645434811210272 ], [ -74.10625532915752, 40.645447456226727 ], [ -74.106254836779826, 40.645492469100283 ], [ -74.106306796887807, 40.645492567983318 ], [ -74.106747425682585, 40.645493401343849 ], [ -74.10689483988638, 40.645493678925114 ], [ -74.107475584772871, 40.645494773842742 ], [ -74.107476104059316, 40.645447128704468 ], [ -74.107564587752435, 40.645447455881772 ], [ -74.108167812273891, 40.645449678909102 ], [ -74.108697331319974, 40.64545162985759 ], [ -74.108718231311656, 40.645451706509768 ], [ -74.108719096366045, 40.645456566662808 ], [ -74.108722897639538, 40.645477908988184 ], [ -74.10872925116746, 40.645513580660086 ], [ -74.108737177185589, 40.645558083967828 ], [ -74.108742042834081, 40.645585407400411 ], [ -74.108754024782257, 40.64565268364948 ], [ -74.108741202668071, 40.64564969156347 ], [ -74.108645862556543, 40.64563611622232 ], [ -74.108568480571876, 40.64563106518527 ], [ -74.108500050738328, 40.645616606994707 ], [ -74.108448477815813, 40.64562348959884 ], [ -74.108359914699832, 40.64564065582104 ], [ -74.108280312022117, 40.64564927207342 ], [ -74.108191719811146, 40.645648501642363 ], [ -74.108123293556673, 40.645634044144494 ], [ -74.108072797347319, 40.645614448545203 ], [ -74.108008854128144, 40.645599133930297 ], [ -74.107911285290101, 40.64559409870219 ], [ -74.107856320082007, 40.64558390051193 ], [ -74.10776323948518, 40.645580571995211 ], [ -74.10771840002225, 40.645590009009162 ], [ -74.107654484905296, 40.645594338999956 ], [ -74.107560275300628, 40.645585884698264 ], [ -74.107476175054302, 40.64558767147863 ], [ -74.107474571150505, 40.645587753374407 ], [ -74.107474751220664, 40.645571244836866 ], [ -74.107475017019098, 40.645546844120354 ], [ -74.106906273309548, 40.645545360749139 ], [ -74.10675883399793, 40.645544976955904 ], [ -74.106305971516619, 40.645543794684485 ], [ -74.106253890707762, 40.645543657260376 ], [ -74.106253424220299, 40.645586370178719 ], [ -74.105073627379184, 40.645600353814928 ], [ -74.104937366323568, 40.645598555577408 ], [ -74.104705898528266, 40.645599612527157 ], [ -74.10470480528123, 40.645590948141667 ], [ -74.10470184720414, 40.645567520250069 ], [ -74.103485201413449, 40.64558569259345 ], [ -74.103401733432833, 40.645585876559323 ], [ -74.103301369927024, 40.645584569881187 ], [ -74.103203506925695, 40.645581690388106 ], [ -74.103085868880797, 40.645576122486702 ], [ -74.102983468282559, 40.645569396191448 ], [ -74.102909995184305, 40.645563486015938 ], [ -74.102801006258431, 40.645553041014139 ], [ -74.102705728456797, 40.645542253138558 ], [ -74.102654004402481, 40.645535745223903 ] ] ] ] } },
{ "type": "Feature", "properties": { "Borough": "SI", "Block": 75, "Lot": 200, "CD": 501, "BCT2020": "5009702", "BCTCB2020": "50097020001", "CT2010": "89", "CB2010": "0001", "SchoolDist": null, "Council": 49, "ZipCode": 0, "FireComp": null, "PolicePrct": 0, "HealthCent": 0, "HealthArea": 0, "Sanitboro": null, "SanitDistr": null, "SanitSub": null, "Address": "RICHMOND TERRACE", "ZoneDist1": "PARK", "ZoneDist2": null, "ZoneDist3": null, "ZoneDist4": null, "Overlay1": null, "Overlay2": null, "SPDist1": null, "SPDist2": null, "SPDist3": null, "LtdHeight": null, "SplitZone": "N", "BldgClass": "Q0", "LandUse": "09", "Easements": 0, "OwnerType": "C", "OwnerName": "NYC DEPARTMENT OF PARKS AND RECREATION", "LotArea": 69773, "BldgArea": 0, "ComArea": 0, "ResArea": 0, "OfficeArea": 0, "RetailArea": 0, "GarageArea": 0, "StrgeArea": 0, "FactryArea": 0, "OtherArea": 0, "AreaSource": "7", "NumBldgs": 0, "NumFloors": 0.0, "UnitsRes": 0, "UnitsTotal": 0, "LotFront": 564.0, "LotDepth": 79.0, "BldgFront": 0.0, "BldgDepth": 0.0, "Ext": null, "ProxCode": "0", "IrrLotCode": "Y", "LotType": "5", "BsmtCode": "5", "AssessLand": 210600.0, "AssessTot": 210600.0, "ExemptTot": 210600.0, "YearBuilt": 0, "YearAlter1": 0, "YearAlter2": 0, "HistDist": null, "Landmark": null, "BuiltFAR": 0.0, "ResidFAR": 0.0, "CommFAR": 0.0, "FacilFAR": 0.0, "BoroCode": 5, "BBL": 5000750200.0, "CondoNo": 0, "Tract2010": "0089", "XCoord": 956069, "YCoord": 174462, "ZoneMap": "21a", "ZMCode": null, "Sanborn": "501 066", "TaxMap": "50103", "EDesigNum": null, "APPBBL": 0.0, "APPDate": null, "PLUTOMapID": "1", "FIRM07_FLA": "1", "PFIRM15_FL": "1", "Version": "25v4", "DCPEdited": "t", "Latitude": 40.6454897, "Longitude": -74.1015504, "Notes": null, "Shape_Leng": 0.0, "Shape_Area": 14489.776681400001 }, "geometry": { "type": "MultiPolygon", "coordinates": [ [ [ [ -74.10071812293269, 40.645149949365809 ], [ -74.100715152833189, 40.645131673240584 ], [ -74.100712247143989, 40.645113792441634 ], [ -74.101182295311972, 40.645213539747353 ], [ -74.102090141000986, 40.645434231169695 ], [ -74.102206793831613, 40.645459859995277 ], [ -74.1022879178105, 40.645476289077877 ], [ -74.102350388296983, 40.645488122267075 ], [ -74.102421326163778, 40.645500707872323 ], [ -74.102492060320273, 40.645512365227717 ], [ -74.102555885041511, 40.645522125899795 ], [ -74.102607926159337, 40.645529557448114 ], [ -74.102654004402481, 40.645535745223903 ], [ -74.102705728456797, 40.645542253138558 ], [ -74.102683391961349, 40.645592144676307 ], [ -74.102668161800381, 40.645626162271014 ], [ -74.102562281294354, 40.6456117981745 ], [ -74.102420950215759, 40.645588007017416 ], [ -74.102212306278446, 40.645545484371411 ], [ -74.101955425036905, 40.645491046937934 ], [ -74.101685058131721, 40.645416972412427 ], [ -74.10133951856676, 40.645316486471167 ], [ -74.101056812256672, 40.645239006525202 ], [ -74.100882925213853, 40.645190473378371 ], [ -74.100872831200732, 40.645190482217778 ], [ -74.100740459595158, 40.645158139760838 ], [ -74.100718763603197, 40.645153890671523 ], [ -74.10071812293269, 40.645149949365809 ] ] ] ] } },
{ "type": "Feature", "properties": { "Borough": "SI", "Block": 70, "Lot": 60, "CD": 501, "BCT2020": "5009702", "BCTCB2020": "50097021001", "CT2010": "81", "CB2010": "1010", "SchoolDist": "31", "Council": 49, "ZipCode": 10301, "FireComp": "E156", "PolicePrct": 120, "HealthCent": 51, "HealthArea": 400, "Sanitboro": "5", "SanitDistr": "01", "SanitSub": "2D", "Address": "355 FILLMORE STREET", "ZoneDist1": "PARK", "ZoneDist2": null, "ZoneDist3": null, "ZoneDist4": null, "Overlay1": null, "Overlay2": null, "SPDist1": null, "SPDist2": null, "SPDist3": null, "LtdHeight": null, "SplitZone": "N", "BldgClass": "Q1", "LandUse": "09", "Easements": 0, "OwnerType": "C", "OwnerName": "NYC DEPARTMENT OF PARKS AND RECREATION", "LotArea": 110000, "BldgArea": 3291, "ComArea": 3291, "ResArea": 0, "OfficeArea": 3291, "RetailArea": 0, "GarageArea": 0, "StrgeArea": 0, "FactryArea": 0, "OtherArea": 0, "AreaSource": "2", "NumBldgs": 2, "NumFloors": 2.0, "UnitsRes": 0, "UnitsTotal": 1, "LotFront": 534.0, "LotDepth": 232.0, "BldgFront": 35.83, "BldgDepth": 80.83, "Ext": "N", "ProxCode": "0", "IrrLotCode": "Y", "LotType": "5", "BsmtCode": "0", "AssessLand": 472950.0, "AssessTot": 569250.0, "ExemptTot": 569250.0, "YearBuilt": 1900, "YearAlter1": 0, "YearAlter2": 0, "HistDist": null, "Landmark": null, "BuiltFAR": 0.03, "ResidFAR": 0.0, "CommFAR": 0.0, "FacilFAR": 0.0, "BoroCode": 5, "BBL": 5000700060.0, "CondoNo": 0, "Tract2010": "0081", "XCoord": 956461, "YCoord": 173920, "ZoneMap": "21a", "ZMCode": null, "Sanborn": "501 067", "TaxMap": "50103", "EDesigNum": null, "APPBBL": 0.0, "APPDate": null, "PLUTOMapID": "1", "FIRM07_FLA": null, "PFIRM15_FL": null, "Version": "25v4", "DCPEdited": "t", "Latitude": 40.6440032, "Longitude": -74.1001356, "Notes": null, "Shape_Leng": 0.0, "Shape_Area": 109333.589314 }, "geometry": { "type": "MultiPolygon", "coordinates": [ [ [ [ -74.10003320495548, 40.643214351618397 ], [ -74.100067213408423, 40.643600597629607 ], [ -74.100253177283861, 40.643593388476816 ], [ -74.100219167760727, 40.643207142519117 ], [ -74.100401203511836, 40.643200085124015 ], [ -74.100623940072879, 40.644570492311821 ], [ -74.100641385882582, 40.644677826052224 ], [ -74.099803847884104, 40.644691245803998 ], [ -74.099794857065518, 40.644589116792623 ], [ -74.099675035919802, 40.643228235552023 ], [ -74.10003320495548, 40.643214351618397 ] ] ] ] } },
{ "type": "Feature", "properties": { "Borough": "SI", "Block": 72, "Lot": 117, "CD": 501, "BCT2020": "5008100", "BCTCB2020": "50081001009", "CT2010": "81", "CB2010": "1011", "SchoolDist": "31", "Council": 49, "ZipCode": 10301, "FireComp": "E156", "PolicePrct": 120, "HealthCent": 51, "HealthArea": 400, "Sanitboro": "5", "SanitDistr": "01", "SanitSub": "2D", "Address": "3 GORDON PLACE", "ZoneDist1": "R2", "ZoneDist2": null, "ZoneDist3": null, "ZoneDist4": null, "Overlay1": null, "Overlay2": null, "SPDist1": null, "SPDist2": null, "SPDist3": null, "LtdHeight": null, "SplitZone": "N", "BldgClass": "B3", "LandUse": "01", "Easements": 0, "OwnerType": null, "OwnerName": "LIU, NIYA", "LotArea": 6600, "BldgArea": 3030, "ComArea": 0, "ResArea": 3030, "OfficeArea": 0, "RetailArea": 0, "GarageArea": 0, "StrgeArea": 0, "FactryArea": 0, "OtherArea": 0, "AreaSource": "2", "NumBldgs": 1, "NumFloors": 2.5, "UnitsRes": 2, "UnitsTotal": 2, "LotFront": 66.0, "LotDepth": 100.0, "BldgFront": 25.0, "BldgDepth": 35.0, "Ext": "E", "ProxCode": "1", "IrrLotCode": "N", "LotType": "5", "BsmtCode": "5", "AssessLand": 11760.0, "AssessTot": 61320.0, "ExemptTot": 0.0, "YearBuilt": 1901, "YearAlter1": 0, "YearAlter2": 0, "HistDist": null, "Landmark": null, "BuiltFAR": 0.46, "ResidFAR": 0.75, "CommFAR": 0.0, "FacilFAR": 1.0, "BoroCode": 5, "BBL": 5000720117.0, "CondoNo": 0, "Tract2010": "0081", "XCoord": 956477, "YCoord": 173163, "ZoneMap": "21a", "ZMCode": null, "Sanborn": "501 066", "TaxMap": "50103", "EDesigNum": null, "APPBBL": 0.0, "APPDate": null, "PLUTOMapID": "1", "FIRM07_FLA": null, "PFIRM15_FL": null, "Version": "25v4", "DCPEdited": null, "Latitude": 40.6419255, "Longitude": -74.1000748, "Notes": null, "Shape_Leng": 0.0, "Shape_Area": 6624.7600845999996 }, "geometry": { "type": "MultiPolygon", "coordinates": [ [ [ [ -74.09993125845169, 40.641796512383408 ], [ -74.100171259597118, 40.641785268993857 ], [ -74.100215235627246, 40.642055854552019 ], [ -74.099974605773809, 40.642067127438821 ], [ -74.09993125845169, 40.641796512383408 ] ] ] ] } },
{ "type": "Feature", "properties": { "Borough": "SI", "Block": 74, "Lot": 100, "CD": 501, "BCT2020": "5008100", "BCTCB2020": "50081002004", "CT2010": "81", "CB2010": "2005", "SchoolDist": "31", "Council": 49, "ZipCode": 10301, "FireComp": "E156", "PolicePrct": 120, "HealthCent": 51, "HealthArea": 400, "Sanitboro": "5", "SanitDistr": "01", "SanitSub": "2D", "Address": "150 TYSEN STREET", "ZoneDist1": "R2", "ZoneDist2": null, "ZoneDist3": null, "ZoneDist4": null, "Overlay1": null, "Overlay2": null, "SPDist1": null, "SPDist2": null, "SPDist3": null, "LtdHeight": null, "SplitZone": "N", "BldgClass": "B3", "LandUse": "01", "Easements": 0, "OwnerType": null, "OwnerName": "MURRAY, JOHN", "LotArea": 9800, "BldgArea": 3432, "ComArea": 0, "ResArea": 3432, "OfficeArea": 0, "RetailArea": 0, "GarageArea": 0, "StrgeArea": 0, "FactryArea": 0, "OtherArea": 0, "AreaSource": "2", "NumBldgs": 2, "NumFloors": 2.5, "UnitsRes": 2, "UnitsTotal": 2, "LotFront": 56.0, "LotDepth": 175.0, "BldgFront": 38.0, "BldgDepth": 38.0, "Ext": "EG", "ProxCode": "1", "IrrLotCode": "N", "LotType": "3", "BsmtCode": "2", "AssessLand": 16320.0, "AssessTot": 64500.0, "ExemptTot": 1420.0, "YearBuilt": 1905, "YearAlter1": 2014, "YearAlter2": 0, "HistDist": null, "Landmark": null, "BuiltFAR": 0.35, "ResidFAR": 0.75, "CommFAR": 0.0, "FacilFAR": 1.0, "BoroCode": 5, "BBL": 5000740100.0, "CondoNo": 0, "Tract2010": "0081", "XCoord": 956536, "YCoord": 173031, "ZoneMap": "21a", "ZMCode": null, "Sanborn": "501 066", "TaxMap": "50103", "EDesigNum": null, "APPBBL": 0.0, "APPDate": null, "PLUTOMapID": "1", "FIRM07_FLA": null, "PFIRM15_FL": null, "Version": "25v4", "DCPEdited": null, "Latitude": 40.6415633, "Longitude": -74.0998617, "Notes": null, "Shape_Leng": 0.0, "Shape_Area": 9026.7717606999995 }, "geometry": { "type": "MultiPolygon", "coordinates": [ [ [ [ -74.099590618789733, 40.641509939174313 ], [ -74.10011789253754, 40.641456903484773 ], [ -74.100146238703402, 40.641631321923597 ], [ -74.099498785127096, 40.641654936222025 ], [ -74.099507843245874, 40.641650346605154 ], [ -74.099516921786943, 40.641645165317023 ], [ -74.099523901958833, 40.641640735864812 ], [ -74.099530309890454, 40.641636285405454 ], [ -74.09953826163165, 40.641630175697692 ], [ -74.099545661979519, 40.641623809876435 ], [ -74.099554181402581, 40.641615472696351 ], [ -74.09956044364209, 40.641608477470477 ], [ -74.099567085544948, 40.641599996928157 ], [ -74.09957311196132, 40.641590997381684 ], [ -74.099580463682528, 40.641577351732352 ], [ -74.099585229362901, 40.641565617467421 ], [ -74.099588679111136, 40.641553833893013 ], [ -74.09959076104056, 40.641542780023514 ], [ -74.099591653286481, 40.641533853350381 ], [ -74.099591853202966, 40.641525167633347 ], [ -74.099591423359911, 40.641516776111999 ], [ -74.099590618789733, 40.641509939174313 ] ] ] ] } },
{ "type": "Feature", "properties": { "Borough": "SI", "Block": 74, "Lot": 103, "CD": 501, "BCT2020": "5008100", "BCTCB2020": "50081002004", "CT2010": "81", "CB2010": "2005", "SchoolDist": "31", "Council": 49, "ZipCode": 10301, "FireComp": "E156", "PolicePrct": 120, "HealthCent": 51, "HealthArea": 400, "Sanitboro": "5", "SanitDistr": "01", "SanitSub": "2D", "Address": "156 TYSEN STREET", "ZoneDist1": "R2", "ZoneDist2": null, "ZoneDist3": null, "ZoneDist4": null, "Overlay1": null, "Overlay2": null, "SPDist1": null, "SPDist2": null, "SPDist3": null, "LtdHeight": null, "SplitZone": "N", "BldgClass": "B3", "LandUse": "01", "Easements": 0, "OwnerType": null, "OwnerName": "EILEEN SCHNOCK", "LotArea": 5550, "BldgArea": 2342, "ComArea": 0, "ResArea": 2342, "OfficeArea": 0, "RetailArea": 0, "GarageArea": 0, "StrgeArea": 0, "FactryArea": 0, "OtherArea": 0, "AreaSource": "2", "NumBldgs": 2, "NumFloors": 2.5, "UnitsRes": 2, "UnitsTotal": 2, "LotFront": 37.0, "LotDepth": 150.0, "BldgFront": 20.0, "BldgDepth": 44.0, "Ext": "G", "ProxCode": "1", "IrrLotCode": "N", "LotType": "5", "BsmtCode": "2", "AssessLand": 9420.0, "AssessTot": 49500.0, "ExemptTot": 0.0, "YearBuilt": 1905, "YearAlter1": 0, "YearAlter2": 0, "HistDist": null, "Landmark": null, "BuiltFAR": 0.42, "ResidFAR": 0.75, "CommFAR": 0.0, "FacilFAR": 1.0, "BoroCode": 5, "BBL": 5000740103.0, "CondoNo": 0, "Tract2010": "0081", "XCoord": 956540, "YCoord": 172982, "ZoneMap": "21a", "ZMCode": null, "Sanborn": "501 066", "TaxMap": "50103", "EDesigNum": null, "APPBBL": 0.0, "APPDate": null, "PLUTOMapID": "1", "FIRM07_FLA": null, "PFIRM15_FL": null, "Version": "25v4", "DCPEdited": null, "Latitude": 40.6414289, "Longitude": -74.0998471, "Notes": null, "Shape_Leng": 0.0, "Shape_Area": 5658.0760613000002 }, "geometry": { "type": "MultiPolygon", "coordinates": [ [ [ [ -74.09957334422451, 40.641405576740937 ], [ -74.100100926832965, 40.641352511161635 ], [ -74.10011789253754, 40.641456903484773 ], [ -74.099590618789733, 40.641509939174313 ], [ -74.09957334422451, 40.641405576740937 ] ] ] ] } },
{ "type": "Feature", "properties": { "Borough": "SI", "Block": 74, "Lot": 107, "CD": 501, "BCT2020": "5008100", "BCTCB2020": "50081002004", "CT2010": "81", "CB2010": "2005", "SchoolDist": "31", "Council": 49, "ZipCode": 10301, "FireComp": "E156", "PolicePrct": 120, "HealthCent": 51, "HealthArea": 400, "Sanitboro": "5", "SanitDistr": "01", "SanitSub": "2D", "Address": "164 TYSEN STREET", "ZoneDist1": "R2", "ZoneDist2": null, "ZoneDist3": null, "ZoneDist4": null, "Overlay1": null, "Overlay2": null, "SPDist1": null, "SPDist2": null, "SPDist3": null, "LtdHeight": null, "SplitZone": "N", "BldgClass": "A1", "LandUse": "01", "Easements": 0, "OwnerType": null, "OwnerName": "KLIESCH, ANDREW", "LotArea": 7500, "BldgArea": 2088, "ComArea": 0, "ResArea": 2088, "OfficeArea": 0, "RetailArea": 0, "GarageArea": 0, "StrgeArea": 0, "FactryArea": 0, "OtherArea": 0, "AreaSource": "2", "NumBldgs": 2, "NumFloors": 2.0, "UnitsRes": 1, "UnitsTotal": 1, "LotFront": 50.0, "LotDepth": 150.0, "BldgFront": 38.0, "BldgDepth": 30.0, "Ext": "G", "ProxCode": "1", "IrrLotCode": "Y", "LotType": "5", "BsmtCode": "2", "AssessLand": 15540.0, "AssessTot": 53040.0, "ExemptTot": 1420.0, "YearBuilt": 1930, "YearAlter1": 0, "YearAlter2": 0, "HistDist": null, "Landmark": null, "BuiltFAR": 0.28, "ResidFAR": 0.75, "CommFAR": 0.0, "FacilFAR": 1.0, "BoroCode": 5, "BBL": 5000740107.0, "CondoNo": 0, "Tract2010": "0081", "XCoord": 956550, "YCoord": 172902, "ZoneMap": "21a", "ZMCode": null, "Sanborn": "501 066", "TaxMap": "50103", "EDesigNum": null, "APPBBL": 0.0, "APPDate": null, "PLUTOMapID": "1", "FIRM07_FLA": null, "PFIRM15_FL": null, "Version": "25v4", "DCPEdited": null, "Latitude": 40.6412093, "Longitude": -74.0998107, "Notes": null, "Shape_Leng": 0.0, "Shape_Area": 7386.1001451000002 }, "geometry": { "type": "MultiPolygon", "coordinates": [ [ [ [ -74.100062555995606, 40.641116409605921 ], [ -74.100084674834548, 40.641252516369576 ], [ -74.099556798599579, 40.641305612751275 ], [ -74.099534275502336, 40.641169545892815 ], [ -74.100062555995606, 40.641116409605921 ] ] ] ] } },
{ "type": "Feature", "properties": { "Borough": "SI", "Block": 74, "Lot": 111, "CD": 501, "BCT2020": "5008100", "BCTCB2020": "50081002004", "CT2010": "81", "CB2010": "2005", "SchoolDist": "31", "Council": 49, "ZipCode": 10301, "FireComp": "E156", "PolicePrct": 120, "HealthCent": 51, "HealthArea": 400, "Sanitboro": "5", "SanitDistr": "01", "SanitSub": "2D", "Address": "170 TYSEN STREET", "ZoneDist1": "R2", "ZoneDist2": null, "ZoneDist3": null, "ZoneDist4": null, "Overlay1": null, "Overlay2": null, "SPDist1": null, "SPDist2": null, "SPDist3": null, "LtdHeight": null, "SplitZone": "N", "BldgClass": "A1", "LandUse": "01", "Easements": 0, "OwnerType": null, "OwnerName": "334 21ST STREET LLC", "LotArea": 18750, "BldgArea": 2774, "ComArea": 0, "ResArea": 2774, "OfficeArea": 0, "RetailArea": 0, "GarageArea": 0, "StrgeArea": 0, "FactryArea": 0, "OtherArea": 0, "AreaSource": "2", "NumBldgs": 2, "NumFloors": 2.5, "UnitsRes": 1, "UnitsTotal": 1, "LotFront": 125.0, "LotDepth": 150.0, "BldgFront": 64.0, "BldgDepth": 25.0, "Ext": "G", "ProxCode": "1", "IrrLotCode": "N", "LotType": "5", "BsmtCode": "2", "AssessLand": 22320.0, "AssessTot": 62760.0, "ExemptTot": 0.0, "YearBuilt": 1925, "YearAlter1": 0, "YearAlter2": 0, "HistDist": null, "Landmark": null, "BuiltFAR": 0.15, "ResidFAR": 0.75, "CommFAR": 0.0, "FacilFAR": 1.0, "BoroCode": 5, "BBL": 5000740111.0, "CondoNo": 0, "Tract2010": "0081", "XCoord": 956561, "YCoord": 172815, "ZoneMap": "21a", "ZMCode": null, "Sanborn": "501 066", "TaxMap": "50103", "EDesigNum": null, "APPBBL": 0.0, "APPDate": null, "PLUTOMapID": "1", "FIRM07_FLA": null, "PFIRM15_FL": null, "Version": "25v4", "DCPEdited": null, "Latitude": 40.6409705, "Longitude": -74.0997707, "Notes": null, "Shape_Leng": 0.0, "Shape_Area": 18463.532680699998 }, "geometry": { "type": "MultiPolygon", "coordinates": [ [ [ [ -74.099534275502336, 40.641169545892815 ], [ -74.099478052022647, 40.640829863841525 ], [ -74.10000733343584, 40.640776627043934 ], [ -74.100062555995606, 40.641116409605921 ], [ -74.099534275502336, 40.641169545892815 ] ] ] ] } },
{ "type": "Feature", "properties": { "Borough": "SI", "Block": 74, "Lot": 115, "CD": 501, "BCT2020": "5008100", "BCTCB2020": "50081002004", "CT2010": "81", "CB2010": "2005", "SchoolDist": "31", "Council": 49, "ZipCode": 10301, "FireComp": "E156", "PolicePrct": 120, "HealthCent": 51, "HealthArea": 400, "Sanitboro": "5", "SanitDistr": "01", "SanitSub": "2D", "Address": "182 TYSEN STREET", "ZoneDist1": "R2", "ZoneDist2": null, "ZoneDist3": null, "ZoneDist4": null, "Overlay1": null, "Overlay2": null, "SPDist1": null, "SPDist2": null, "SPDist3": null, "LtdHeight": null, "SplitZone": "N", "BldgClass": "A1", "LandUse": "01", "Easements": 0, "OwnerType": null, "OwnerName": "JOHN C GARETTI", "LotArea": 11250, "BldgArea": 1550, "ComArea": 0, "ResArea": 1550, "OfficeArea": 0, "RetailArea": 0, "GarageArea": 0, "StrgeArea": 0, "FactryArea": 0, "OtherArea": 0, "AreaSource": "2", "NumBldgs": 3, "NumFloors": 2.0, "UnitsRes": 1, "UnitsTotal": 1, "LotFront": 75.0, "LotDepth": 150.0, "BldgFront": 28.0, "BldgDepth": 30.0, "Ext": "G", "ProxCode": "1", "IrrLotCode": "N", "LotType": "5", "BsmtCode": "2", "AssessLand": 18840.0, "AssessTot": 47160.0, "ExemptTot": 0.0, "YearBuilt": 1920, "YearAlter1": 0, "YearAlter2": 0, "HistDist": null, "Landmark": null, "BuiltFAR": 0.14, "ResidFAR": 0.75, "CommFAR": 0.0, "FacilFAR": 1.0, "BoroCode": 5, "BBL": 5000740115.0, "CondoNo": 0, "Tract2010": "0081", "XCoord": 956573, "YCoord": 172716, "ZoneMap": "21a", "ZMCode": null, "Sanborn": "501 066", "TaxMap": "50103", "EDesigNum": null, "APPBBL": 0.0, "APPDate": null, "PLUTOMapID": "1", "FIRM07_FLA": null, "PFIRM15_FL": null, "Version": "25v4", "DCPEdited": null, "Latitude": 40.6406989, "Longitude": -74.0997271, "Notes": null, "Shape_Leng": 0.0, "Shape_Area": 11118.720048200001 }, "geometry": { "type": "MultiPolygon", "coordinates": [ [ [ [ -74.099974130697476, 40.640572320101541 ], [ -74.10000733343584, 40.640776627043934 ], [ -74.099478052022647, 40.640829863841525 ], [ -74.099444245713372, 40.64062561943134 ], [ -74.099974130697476, 40.640572320101541 ] ] ] ] } },
{ "type": "Feature", "properties": { "Borough": "SI", "Block": 74, "Lot": 119, "CD": 501, "BCT2020": "5008100", "BCTCB2020": "50081002004", "CT2010": "81", "CB2010": "2005", "SchoolDist": "31", "Council": 49, "ZipCode": 10301, "FireComp": "E156", "PolicePrct": 120, "HealthCent": 51, "HealthArea": 400, "Sanitboro": "5", "SanitDistr": "01", "SanitSub": "2D", "Address": "188 TYSEN STREET", "ZoneDist1": "R2", "ZoneDist2": null, "ZoneDist3": null, "ZoneDist4": null, "Overlay1": null, "Overlay2": null, "SPDist1": null, "SPDist2": null, "SPDist3": null, "LtdHeight": null, "SplitZone": "N", "BldgClass": "A1", "LandUse": "01", "Easements": 0, "OwnerType": null, "OwnerName": "JOHN B. AND NANCY J. MYERS FAMILY PROTEC TION TRUST", "LotArea": 7500, "BldgArea": 3086, "ComArea": 0, "ResArea": 3086, "OfficeArea": 0, "RetailArea": 0, "GarageArea": 0, "StrgeArea": 0, "FactryArea": 0, "OtherArea": 0, "AreaSource": "2", "NumBldgs": 2, "NumFloors": 2.75, "UnitsRes": 1, "UnitsTotal": 1, "LotFront": 50.0, "LotDepth": 150.0, "BldgFront": 36.0, "BldgDepth": 40.0, "Ext": "G", "ProxCode": "1", "IrrLotCode": "N", "LotType": "5", "BsmtCode": "2", "AssessLand": 13980.0, "AssessTot": 64560.0, "ExemptTot": 0.0, "YearBuilt": 1935, "YearAlter1": 0, "YearAlter2": 0, "HistDist": null, "Landmark": null, "BuiltFAR": 0.41, "ResidFAR": 0.75, "CommFAR": 0.0, "FacilFAR": 1.0, "BoroCode": 5, "BBL": 5000740119.0, "CondoNo": 0, "Tract2010": "0081", "XCoord": 956581, "YCoord": 172654, "ZoneMap": "21a", "ZMCode": null, "Sanborn": "501 066", "TaxMap": "50103", "EDesigNum": null, "APPBBL": 0.0, "APPDate": null, "PLUTOMapID": "1", "FIRM07_FLA": null, "PFIRM15_FL": null, "Version": "25v4", "DCPEdited": null, "Latitude": 40.6405287, "Longitude": -74.099698, "Notes": null, "Shape_Leng": 0.0, "Shape_Area": 7629.2019613000002 }, "geometry": { "type": "MultiPolygon", "coordinates": [ [ [ [ -74.099974130697476, 40.640572320101541 ], [ -74.099444245713372, 40.64062561943134 ], [ -74.099421071762407, 40.64048560964661 ], [ -74.099951370408007, 40.640432268649427 ], [ -74.099974130697476, 40.640572320101541 ] ] ] ] } },
{ "type": "Feature", "properties": { "Borough": "SI", "Block": 75, "Lot": 30, "CD": 501, "BCT2020": "5009702", "BCTCB2020": "50097021001", "CT2010": "97", "CB2010": "3005", "SchoolDist": "31", "Council": 49, "ZipCode": 10301, "FireComp": "E156", "PolicePrct": 120, "HealthCent": 51, "HealthArea": 300, "Sanitboro": "5", "SanitDistr": "01", "SanitSub": "2D", "Address": "RICHMOND TERRACE", "ZoneDist1": "PARK", "ZoneDist2": "R3-2", "ZoneDist3": null, "ZoneDist4": null, "Overlay1": null, "Overlay2": null, "SPDist1": null, "SPDist2": null, "SPDist3": null, "LtdHeight": null, "SplitZone": "Y", "BldgClass": "Q0", "LandUse": "09", "Easements": 1, "OwnerType": "C", "OwnerName": "NYC DEPARTMENT OF PARKS AND RECREATION", "LotArea": 232000, "BldgArea": 0, "ComArea": 0, "ResArea": 0, "OfficeArea": 0, "RetailArea": 0, "GarageArea": 0, "StrgeArea": 0, "FactryArea": 0, "OtherArea": 0, "AreaSource": "7", "NumBldgs": 0, "NumFloors": 0.0, "UnitsRes": 0, "UnitsTotal": 0, "LotFront": 1856.0, "LotDepth": 258.0, "BldgFront": 0.0, "BldgDepth": 0.0, "Ext": null, "ProxCode": "0", "IrrLotCode": "Y", "LotType": "5", "BsmtCode": "0", "AssessLand": 166050.0, "AssessTot": 166050.0, "ExemptTot": 166050.0, "YearBuilt": 0, "YearAlter1": 0, "YearAlter2": 0, "HistDist": null, "Landmark": null, "BuiltFAR": 0.0, "ResidFAR": 0.0, "CommFAR": 0.0, "FacilFAR": 0.0, "BoroCode": 5, "BBL": 5000750030.0, "CondoNo": 0, "Tract2010": "0097", "XCoord": 954801, "YCoord": 174273, "ZoneMap": "21a", "ZMCode": null, "Sanborn": "501 066", "TaxMap": "50103", "EDesigNum": null, "APPBBL": 0.0, "APPDate": null, "PLUTOMapID": "1", "FIRM07_FLA": "1", "PFIRM15_FL": "1", "Version": "25v4", "DCPEdited": "t", "Latitude": 40.6449668, "Longitude": -74.1061188, "Notes": null, "Shape_Leng": 0.0, "Shape_Area": 286840.18017299997 }, "geometry": { "type": "MultiPolygon", "coordinates": [ [ [ [ -74.102735949625895, 40.645474752159387 ], [ -74.102764392672142, 40.645411220391935 ], [ -74.102830528066306, 40.645422207164472 ], [ -74.10289954316319, 40.645432210649481 ], [ -74.102954321498586, 40.645439103744557 ], [ -74.103003581218502, 40.645444522284137 ], [ -74.103052001433227, 40.645449130123303 ], [ -74.103138068623224, 40.645455584609778 ], [ -74.103201020258595, 40.645458907807836 ], [ -74.103273215797984, 40.645461276308602 ], [ -74.103362563192135, 40.645462077792281 ], [ -74.103449131216664, 40.645460611472913 ], [ -74.103526520072322, 40.645457426153222 ], [ -74.103571596329061, 40.645454751642838 ], [ -74.103617585362301, 40.64545139997626 ], [ -74.103966754633632, 40.645439130087311 ], [ -74.104267914087202, 40.645428545127203 ], [ -74.104330388630714, 40.64542609409181 ], [ -74.104360416261812, 40.645423586001016 ], [ -74.104392858812474, 40.645420078807234 ], [ -74.104425201876182, 40.6454157440335 ], [ -74.104462066914465, 40.645409767229907 ], [ -74.104491194890841, 40.645404246778405 ], [ -74.104513686835162, 40.645399489642386 ], [ -74.104528594491015, 40.645396095532242 ], [ -74.104547428780918, 40.645391527268615 ], [ -74.104560922301246, 40.645388058809139 ], [ -74.104570691884348, 40.645385445649985 ], [ -74.104590918117978, 40.645379621615767 ], [ -74.104605362765909, 40.645375004119714 ], [ -74.104620131716828, 40.645369872229722 ], [ -74.104633496272456, 40.64536485229614 ], [ -74.10464414875257, 40.645360585852082 ], [ -74.104655577070346, 40.645355736086749 ], [ -74.104666407089965, 40.645350870632001 ], [ -74.104677230749772, 40.645345731443186 ], [ -74.104686133276331, 40.645341288303783 ], [ -74.104694277048068, 40.645337047560162 ], [ -74.104701703609706, 40.645333024485232 ], [ -74.104710177475596, 40.645328249431827 ], [ -74.104716640833942, 40.645324469514229 ], [ -74.104721690234541, 40.645321427436066 ], [ -74.10473282314419, 40.645314441975756 ], [ -74.104740845879874, 40.645309153983966 ], [ -74.104753074766776, 40.64530065727218 ], [ -74.104765752654899, 40.645291247992553 ], [ -74.104777478981632, 40.645281941226237 ], [ -74.104791802798033, 40.645269697342151 ], [ -74.104805727121061, 40.64525673977176 ], [ -74.104818937779953, 40.645243321708811 ], [ -74.104830094242217, 40.645230986164961 ], [ -74.104839820102825, 40.645219350745947 ], [ -74.10484827378977, 40.645208444921131 ], [ -74.104856405243993, 40.645197135137728 ], [ -74.104867348997388, 40.645180351265715 ], [ -74.104877598267706, 40.645162521506393 ], [ -74.104886895726196, 40.645143864200463 ], [ -74.104896830065528, 40.645121957244122 ], [ -74.104906455432641, 40.645100539569327 ], [ -74.104916317349335, 40.645078404869885 ], [ -74.104927929388893, 40.645052086516351 ], [ -74.104939495134971, 40.645025598956842 ], [ -74.10495051378858, 40.645000093491959 ], [ -74.104965030371275, 40.644966077579198 ], [ -74.104982044305487, 40.64492559639065 ], [ -74.105008325708155, 40.64486168603986 ], [ -74.105125892461501, 40.64458725745979 ], [ -74.105129096400077, 40.644579767609123 ], [ -74.105131535638378, 40.644574699944911 ], [ -74.105135378430901, 40.644567530183913 ], [ -74.105139137613008, 40.644561251908698 ], [ -74.105142531888177, 40.644556066331631 ], [ -74.105149212512131, 40.644546910036127 ], [ -74.105158266905164, 40.644536176651435 ], [ -74.105164561640549, 40.644527484441689 ], [ -74.10517219080559, 40.644517086415348 ], [ -74.105184506932218, 40.644505594421197 ], [ -74.105208657327196, 40.644486584945653 ], [ -74.105227744907879, 40.644474122398655 ], [ -74.105250921478458, 40.644461384046025 ], [ -74.105280183728055, 40.644448388055075 ], [ -74.105303216237317, 40.64444022182618 ], [ -74.105332326681037, 40.644432179709597 ], [ -74.105357879610864, 40.644428529038827 ], [ -74.105395698435899, 40.644424270969992 ], [ -74.105423091014572, 40.644422188253813 ], [ -74.105450409681268, 40.644419761584331 ], [ -74.105461515550559, 40.644418966171443 ], [ -74.106074185717944, 40.644359772618159 ], [ -74.106102794889395, 40.644357008704105 ], [ -74.106535245236785, 40.644315225244291 ], [ -74.106608992068928, 40.644308099682306 ], [ -74.106639659155533, 40.64430513737863 ], [ -74.106939300232284, 40.644274902067309 ], [ -74.106948999453337, 40.644273505288851 ], [ -74.106956409433906, 40.644272665477793 ], [ -74.10696580341893, 40.644271880461467 ], [ -74.106974909381222, 40.644271414544676 ], [ -74.106982983711916, 40.644271242316478 ], [ -74.106994735333657, 40.644271392531643 ], [ -74.107008217477244, 40.644272154459529 ], [ -74.107021733820588, 40.644273560210351 ], [ -74.107035090374723, 40.644275594738943 ], [ -74.107050735250823, 40.644278830104668 ], [ -74.107062435942055, 40.644281881899204 ], [ -74.107073964805267, 40.644285449876527 ], [ -74.107085624865832, 40.644289670538051 ], [ -74.107096077955219, 40.644294018482604 ], [ -74.107101346495497, 40.644296525094248 ], [ -74.107107846655396, 40.644299617778984 ], [ -74.107120531257564, 40.644306589437271 ], [ -74.107130481512328, 40.64431284331485 ], [ -74.107139340446039, 40.64431908465393 ], [ -74.107146705523235, 40.644324835704325 ], [ -74.107155549113514, 40.644332535019785 ], [ -74.107163412710747, 40.644340265031069 ], [ -74.107171516137953, 40.644349334652226 ], [ -74.107180502239757, 40.644361178913449 ], [ -74.107188800620435, 40.644374631282083 ], [ -74.107195412420339, 40.644388367909592 ], [ -74.107509167711015, 40.645029935399414 ], [ -74.107516821033144, 40.645044319411184 ], [ -74.107524109406242, 40.645056671296402 ], [ -74.10753277895239, 40.645070048583165 ], [ -74.107542062826752, 40.645083096506752 ], [ -74.107553821903508, 40.645098106149675 ], [ -74.107568035173273, 40.645114439111353 ], [ -74.10758127007982, 40.645128201071621 ], [ -74.107595606605216, 40.645141808901258 ], [ -74.107606804004746, 40.645151626712128 ], [ -74.107619957131092, 40.645162268430511 ], [ -74.107479238713765, 40.64515979017844 ], [ -74.107479236613059, 40.645159987369212 ], [ -74.107477736273253, 40.645297496133871 ], [ -74.107477502477408, 40.645318981812224 ], [ -74.107476104059316, 40.645447128704468 ], [ -74.107475584772871, 40.645494773842742 ], [ -74.10689483988638, 40.645493678925114 ], [ -74.106747425682585, 40.645493401343849 ], [ -74.106306796887807, 40.645492567983318 ], [ -74.106254836779826, 40.645492469100283 ], [ -74.10625532915752, 40.645447456226727 ], [ -74.104975584630381, 40.645434811210272 ], [ -74.104915115082747, 40.645434213409956 ], [ -74.104891279413124, 40.64548524855411 ], [ -74.103484878988013, 40.645509488385244 ], [ -74.103429479623131, 40.645510894289799 ], [ -74.103361136214474, 40.645511756188107 ], [ -74.103277908858956, 40.645511508490252 ], [ -74.103196453874872, 40.64550988216434 ], [ -74.103114335967362, 40.645506857056553 ], [ -74.103027193217983, 40.645502119906766 ], [ -74.102928515968387, 40.645494846435426 ], [ -74.102850958808787, 40.645487697083006 ], [ -74.1027740523581, 40.645479353086195 ], [ -74.102735949625895, 40.645474752159387 ] ] ] ] } },
{ "type": "Feature", "properties": { "Borough": "SI", "Block": 75, "Lot": 60, "CD": 501, "BCT2020": "5009701", "BCTCB2020": "50097013000", "CT2010": "97", "CB2010": "3002", "SchoolDist": "31", "Council": 49, "ZipCode": 10310, "FireComp": "E156", "PolicePrct": 120, "HealthCent": 51, "HealthArea": 300, "Sanitboro": "5", "SanitDistr": "01", "SanitSub": "2D", "Address": "RICHMOND TERRACE", "ZoneDist1": "R3-1", "ZoneDist2": null, "ZoneDist3": null, "ZoneDist4": null, "Overlay1": null, "Overlay2": null, "SPDist1": null, "SPDist2": null, "SPDist3": null, "LtdHeight": null, "SplitZone": "N", "BldgClass": "V0", "LandUse": "11", "Easements": 0, "OwnerType": "C", "OwnerName": "NYC DEPARTMENT OF SMALL BUSINESS SERVICES", "LotArea": 3710, "BldgArea": 0, "ComArea": 0, "ResArea": 0, "OfficeArea": 0, "RetailArea": 0, "GarageArea": 0, "StrgeArea": 0, "FactryArea": 0, "OtherArea": 0, "AreaSource": "7", "NumBldgs": 0, "NumFloors": 0.0, "UnitsRes": 0, "UnitsTotal": 0, "LotFront": 40.0, "LotDepth": 140.0, "BldgFront": 0.0, "BldgDepth": 0.0, "Ext": null, "ProxCode": "0", "IrrLotCode": "Y", "LotType": "5", "BsmtCode": "5", "AssessLand": 16980.0, "AssessTot": 16980.0, "ExemptTot": 16980.0, "YearBuilt": 0, "YearAlter1": 0, "YearAlter2": 0, "HistDist": null, "Landmark": null, "BuiltFAR": 0.0, "ResidFAR": 0.75, "CommFAR": 0.0, "FacilFAR": 1.0, "BoroCode": 5, "BBL": 5000750060.0, "CondoNo": 0, "Tract2010": "0097", "XCoord": 954382, "YCoord": 174375, "ZoneMap": "21a", "ZMCode": null, "Sanborn": "501 065", "TaxMap": "50103", "EDesigNum": null, "APPBBL": 0.0, "APPDate": null, "PLUTOMapID": "1", "FIRM07_FLA": "1", "PFIRM15_FL": "1", "Version": "25v4", "DCPEdited": "t", "Latitude": 40.6452453, "Longitude": -74.1076291, "Notes": null, "Shape_Leng": 0.0, "Shape_Area": 4067.9334365 }, "geometry": { "type": "MultiPolygon", "coordinates": [ [ [ [ -74.107619957131092, 40.645162268430511 ], [ -74.107635212511113, 40.645173874471141 ], [ -74.10765326301177, 40.645186325302014 ], [ -74.107667537856173, 40.64519537389414 ], [ -74.107682350031155, 40.645204090599144 ], [ -74.107696083324782, 40.645211594386957 ], [ -74.107716241593238, 40.645221736947882 ], [ -74.107734702864036, 40.645230140435572 ], [ -74.107752002415751, 40.645237315773755 ], [ -74.107769873514414, 40.64524405930014 ], [ -74.107789521414901, 40.645250735321028 ], [ -74.107807766443258, 40.645256279876747 ], [ -74.107825450000988, 40.645261076605706 ], [ -74.107837261809465, 40.6452639768765 ], [ -74.107849470536394, 40.645266725597025 ], [ -74.10786151329124, 40.645269192533142 ], [ -74.107870634758427, 40.645270903983253 ], [ -74.107878815899738, 40.645272324501086 ], [ -74.107892562980254, 40.645274462053919 ], [ -74.107907055655716, 40.645276417947123 ], [ -74.10792487411922, 40.64527836620433 ], [ -74.107949922454921, 40.645280581423293 ], [ -74.107975526310469, 40.645281285025341 ], [ -74.107992473517527, 40.64528109353229 ], [ -74.107784108145438, 40.64529642460856 ], [ -74.107477502477408, 40.645318981812224 ], [ -74.107477736273253, 40.645297496133871 ], [ -74.107479236613059, 40.645159987369212 ], [ -74.107479238713765, 40.64515979017844 ], [ -74.107619957131092, 40.645162268430511 ] ] ] ] } },
{ "type": "Feature", "properties": { "Borough": "SI", "Block": 76, "Lot": 1, "CD": 501, "BCT2020": "5009702", "BCTCB2020": "50097021001", "CT2010": "97", "CB2010": "3005", "SchoolDist": "31", "Council": 49, "ZipCode": 10310, "FireComp": "E156", "PolicePrct": 120, "HealthCent": 51, "HealthArea": 300, "Sanitboro": "5", "SanitDistr": "01", "SanitSub": "2D", "Address": "1000 SNUG HARBOR ROAD", "ZoneDist1": "PARK", "ZoneDist2": null, "ZoneDist3": null, "ZoneDist4": null, "Overlay1": null, "Overlay2": null, "SPDist1": null, "SPDist2": null, "SPDist3": null, "LtdHeight": null, "SplitZone": "N", "BldgClass": "P7", "LandUse": "08", "Easements": 1, "OwnerType": "C", "OwnerName": "NYC DEPARTMENT OF PARKS AND RECREATION", "LotArea": 2627539, "BldgArea": 65530, "ComArea": 65530, "ResArea": 0, "OfficeArea": 0, "RetailArea": 0, "GarageArea": 0, "StrgeArea": 0, "FactryArea": 0, "OtherArea": 65530, "AreaSource": "2", "NumBldgs": 25, "NumFloors": 3.0, "UnitsRes": 0, "UnitsTotal": 13, "LotFront": 1917.0, "LotDepth": 1447.0, "BldgFront": 55.0, "BldgDepth": 130.0, "Ext": "N", "ProxCode": "1", "IrrLotCode": "Y", "LotType": "3", "BsmtCode": "0", "AssessLand": 11823750.0, "AssessTot": 17242200.0, "ExemptTot": 17242200.0, "YearBuilt": 1903, "YearAlter1": 0, "YearAlter2": 2011, "HistDist": null, "Landmark": "INDIVIDUAL AND INTERIOR LANDMARK", "BuiltFAR": 0.02, "ResidFAR": 0.0, "CommFAR": 0.0, "FacilFAR": 0.0, "BoroCode": 5, "BBL": 5000760001.0, "CondoNo": 0, "Tract2010": "0097", "XCoord": 955551, "YCoord": 173180, "ZoneMap": "21a", "ZMCode": null, "Sanborn": "501 066", "TaxMap": "50103", "EDesigNum": null, "APPBBL": 0.0, "APPDate": null, "PLUTOMapID": "1", "FIRM07_FLA": "1", "PFIRM15_FL": "1", "Version": "25v4", "DCPEdited": "t", "Latitude": 40.6419692, "Longitude": -74.1034116, "Notes": null, "Shape_Leng": 0.0, "Shape_Area": 2665978.5817399998 }, "geometry": { "type": "MultiPolygon", "coordinates": [ [ [ [ -74.102778190960947, 40.645265940991301 ], [ -74.102824621020204, 40.645150368423501 ], [ -74.103170973989307, 40.644288222152305 ], [ -74.102471023532615, 40.644106525279206 ], [ -74.10266915387075, 40.643554176153756 ], [ -74.102523176697318, 40.643510596774256 ], [ -74.10264648601661, 40.64303649640496 ], [ -74.102066236120947, 40.642896359074527 ], [ -74.102002953654164, 40.643047462747774 ], [ -74.101485659364712, 40.642944405035372 ], [ -74.101343083288526, 40.643284827514051 ], [ -74.100577060483147, 40.643132214461183 ], [ -74.100401203511836, 40.643200085124015 ], [ -74.100374689991014, 40.643036950493382 ], [ -74.100307894801929, 40.642625975063794 ], [ -74.100298272740645, 40.642566771695002 ], [ -74.100286387202047, 40.642493648229475 ], [ -74.100268646649241, 40.642384480228905 ], [ -74.100250903738427, 40.642275313229021 ], [ -74.100229921469349, 40.642146217840427 ], [ -74.100228542138382, 40.642137728930635 ], [ -74.100215235627246, 40.642055854552019 ], [ -74.100171259597118, 40.641785268993857 ], [ -74.100146238703402, 40.641631321923597 ], [ -74.10011789253754, 40.641456903484773 ], [ -74.100100926832965, 40.641352511161635 ], [ -74.100084674834548, 40.641252516369576 ], [ -74.100062555995606, 40.641116409605921 ], [ -74.10000733343584, 40.640776627043934 ], [ -74.099974130697476, 40.640572320101541 ], [ -74.099951370408007, 40.640432268649427 ], [ -74.099919896877083, 40.640238606078086 ], [ -74.104935766971309, 40.639043265691889 ], [ -74.105328920464515, 40.639000208742225 ], [ -74.105346982822155, 40.638998230866328 ], [ -74.106449213423474, 40.644177228262073 ], [ -74.106431146152275, 40.644179186484486 ], [ -74.105214824306756, 40.644311027748557 ], [ -74.105195620865317, 40.644314463686271 ], [ -74.10517657265035, 40.644318898981147 ], [ -74.105160357337965, 40.644323527201365 ], [ -74.105146136673056, 40.644328275995008 ], [ -74.105131429089766, 40.644333916726033 ], [ -74.105120357928243, 40.644338689664941 ], [ -74.105101358726486, 40.644348041839791 ], [ -74.105080449004362, 40.644360283656589 ], [ -74.105062701719433, 40.644372603569344 ], [ -74.105047576579281, 40.644384846461946 ], [ -74.105032429602531, 40.644398993836916 ], [ -74.105016593874851, 40.644419520338779 ], [ -74.105003379193747, 40.644438502654843 ], [ -74.10499220941827, 40.644455826279334 ], [ -74.104977882466727, 40.64448028297587 ], [ -74.104965548075214, 40.644503531207732 ], [ -74.104958243296977, 40.644518738609598 ], [ -74.104951134886377, 40.644534778846193 ], [ -74.104946100035136, 40.644547048421281 ], [ -74.104942698466388, 40.644555854105228 ], [ -74.104936657658058, 40.644572751565235 ], [ -74.104933022047504, 40.64458387805665 ], [ -74.10492968884455, 40.644594888150408 ], [ -74.104837162424843, 40.644797047831794 ], [ -74.104749536828905, 40.644988494002547 ], [ -74.104691884469474, 40.645114454226054 ], [ -74.104679999285807, 40.645131024681213 ], [ -74.10466501762717, 40.645148219216047 ], [ -74.104648828446145, 40.645163662561558 ], [ -74.104643559977148, 40.645167925871654 ], [ -74.104632869460829, 40.645176573354483 ], [ -74.104616363121835, 40.645188052863325 ], [ -74.104598382626634, 40.645198792553543 ], [ -74.104577863291198, 40.645209177061218 ], [ -74.104554490126574, 40.645218938286483 ], [ -74.104531990801391, 40.645226521263474 ], [ -74.104511343303997, 40.645232078205375 ], [ -74.104488957642019, 40.645236704649776 ], [ -74.104469878207709, 40.645239564010623 ], [ -74.104456899347781, 40.645240960709522 ], [ -74.104444021397796, 40.64524191792507 ], [ -74.104287395872547, 40.64526069696165 ], [ -74.104116861256912, 40.645278019684433 ], [ -74.1040192621155, 40.645286480843303 ], [ -74.103855754401238, 40.645298300038739 ], [ -74.103750023504205, 40.645304380106921 ], [ -74.103614809702975, 40.6453103776741 ], [ -74.103543943479409, 40.645312726016812 ], [ -74.103447652945547, 40.645315039509399 ], [ -74.103419389214707, 40.645316014944342 ], [ -74.10338199014636, 40.645316894999638 ], [ -74.103331115209087, 40.645317344982566 ], [ -74.103311665891212, 40.645317289475557 ], [ -74.103296479804442, 40.645317157272764 ], [ -74.103277039582679, 40.645316876618466 ], [ -74.103256241997002, 40.645316436883014 ], [ -74.103231948080904, 40.645315740927494 ], [ -74.103209582242428, 40.645314925277113 ], [ -74.103187324887557, 40.645313946552797 ], [ -74.103165671534157, 40.645312836688269 ], [ -74.103122386396947, 40.645310144158657 ], [ -74.103076752152717, 40.645306620783209 ], [ -74.103051498198298, 40.645304371390822 ], [ -74.103016499438297, 40.645300885243046 ], [ -74.102974857004241, 40.645296194780357 ], [ -74.102916571256685, 40.645288620395469 ], [ -74.102839827556053, 40.645276829120562 ], [ -74.102778190960947, 40.645265940991301 ] ] ] ] } },
{ "type": "Feature", "properties": { "Borough": "SI", "Block": 76, "Lot": 200, "CD": 501, "BCT2020": "5009702", "BCTCB2020": "50097021001", "CT2010": "97", "CB2010": "3005", "SchoolDist": "31", "Council": 49, "ZipCode": 10310, "FireComp": "E156", "PolicePrct": 120, "HealthCent": 51, "HealthArea": 300, "Sanitboro": "5", "SanitDistr": "01", "SanitSub": "2D", "Address": "1000 RICHMOND TERRACE", "ZoneDist1": "PARK", "ZoneDist2": null, "ZoneDist3": null, "ZoneDist4": null, "Overlay1": null, "Overlay2": null, "SPDist1": null, "SPDist2": null, "SPDist3": null, "LtdHeight": null, "SplitZone": "N", "BldgClass": "P7", "LandUse": "08", "Easements": 0, "OwnerType": "C", "OwnerName": "NYC DEPARTMENT OF CULTURAL AFFAIRS", "LotArea": 424460, "BldgArea": 183839, "ComArea": 183839, "ResArea": 0, "OfficeArea": 0, "RetailArea": 0, "GarageArea": 0, "StrgeArea": 0, "FactryArea": 0, "OtherArea": 183839, "AreaSource": "2", "NumBldgs": 12, "NumFloors": 3.0, "UnitsRes": 0, "UnitsTotal": 18, "LotFront": 542.0, "LotDepth": 315.0, "BldgFront": 428.0, "BldgDepth": 293.0, "Ext": "N", "ProxCode": "0", "IrrLotCode": "Y", "LotType": "5", "BsmtCode": "0", "AssessLand": 4511700.0, "AssessTot": 33564600.0, "ExemptTot": 33564600.0, "YearBuilt": 1900, "YearAlter1": 2012, "YearAlter2": 2003, "HistDist": null, "Landmark": "INDIVIDUAL AND INTERIOR LANDMARK", "BuiltFAR": 0.43, "ResidFAR": 0.0, "CommFAR": 0.0, "FacilFAR": 0.0, "BoroCode": 5, "BBL": 5000760200.0, "CondoNo": 0, "Tract2010": "0097", "XCoord": 956011, "YCoord": 173938, "ZoneMap": "21a", "ZMCode": null, "Sanborn": "501 066", "TaxMap": "50103", "EDesigNum": null, "APPBBL": 0.0, "APPDate": null, "PLUTOMapID": "1", "FIRM07_FLA": null, "PFIRM15_FL": null, "Version": "25v4", "DCPEdited": "t", "Latitude": 40.6440512, "Longitude": -74.1017572, "Notes": null, "Shape_Leng": 0.0, "Shape_Area": 424478.039299 }, "geometry": { "type": "MultiPolygon", "coordinates": [ [ [ [ -74.100641385882582, 40.644677826052224 ], [ -74.100623940072879, 40.644570492311821 ], [ -74.100401203511836, 40.643200085124015 ], [ -74.100577060483147, 40.643132214461183 ], [ -74.101343083288526, 40.643284827514051 ], [ -74.101485659364712, 40.642944405035372 ], [ -74.102002953654164, 40.643047462747774 ], [ -74.102066236120947, 40.642896359074527 ], [ -74.10264648601661, 40.64303649640496 ], [ -74.102523176697318, 40.643510596774256 ], [ -74.10266915387075, 40.643554176153756 ], [ -74.102471023532615, 40.644106525279206 ], [ -74.103170973989307, 40.644288222152305 ], [ -74.102824621020204, 40.645150368423501 ], [ -74.102778190960947, 40.645265940991301 ], [ -74.102750961425727, 40.645260540606131 ], [ -74.102718982158962, 40.645253971016921 ], [ -74.102691337366508, 40.645248368275922 ], [ -74.1026579989515, 40.645241326276007 ], [ -74.102618221723148, 40.645232508687478 ], [ -74.102570816707697, 40.645221403383601 ], [ -74.102527421232566, 40.645210661932403 ], [ -74.102481043328751, 40.645198564210247 ], [ -74.102437172942757, 40.645186521879822 ], [ -74.102396573356657, 40.645174850341853 ], [ -74.102300569522214, 40.645150365845758 ], [ -74.102208383398292, 40.645126031984844 ], [ -74.102049480278893, 40.645080356298841 ], [ -74.101902853779634, 40.645033881530047 ], [ -74.101759493887201, 40.644984255516079 ], [ -74.101625182033203, 40.644933840614755 ], [ -74.101536334692597, 40.64489832236692 ], [ -74.101441027743959, 40.644858224350557 ], [ -74.101394857149174, 40.644837536844015 ], [ -74.101340816918295, 40.644814132231964 ], [ -74.101258622335166, 40.644780151383408 ], [ -74.101218040150854, 40.644764074984124 ], [ -74.101147677064318, 40.644737615595318 ], [ -74.10112119837494, 40.644728948866572 ], [ -74.101094976486692, 40.644721227447157 ], [ -74.101066368044258, 40.6447137386007 ], [ -74.101038569887749, 40.644707362066363 ], [ -74.101006415386834, 40.64470105334626 ], [ -74.100975483966948, 40.644696031257368 ], [ -74.100959100822479, 40.644693851099824 ], [ -74.10093781901935, 40.644691261778881 ], [ -74.100922775120523, 40.644689763033192 ], [ -74.100906939354871, 40.644688433307287 ], [ -74.100891043774766, 40.644687350432335 ], [ -74.100869040663881, 40.644686267463925 ], [ -74.100641385882582, 40.644677826052224 ] ] ] ] } },
{ "type": "Feature", "properties": { "Borough": "SI", "Block": 68, "Lot": 70, "CD": 501, "BCT2020": "5009702", "BCTCB2020": "50097021000", "CT2010": "97", "CB2010": "3000", "SchoolDist": "31", "Council": 49, "ZipCode": 10310, "FireComp": "E156", "PolicePrct": 120, "HealthCent": 51, "HealthArea": 300, "Sanitboro": "5", "SanitDistr": "01", "SanitSub": "2D", "Address": "RICHMOND TERRACE", "ZoneDist1": "R3-2", "ZoneDist2": "PARK", "ZoneDist3": null, "ZoneDist4": null, "Overlay1": null, "Overlay2": null, "SPDist1": null, "SPDist2": null, "SPDist3": null, "LtdHeight": null, "SplitZone": "Y", "BldgClass": "U6", "LandUse": "07", "Easements": 0, "OwnerType": "C", "OwnerName": "NYC DEPARTMENT OF SMALL BUSINESS SERVICES", "LotArea": 17207, "BldgArea": 0, "ComArea": 0, "ResArea": 0, "OfficeArea": 0, "RetailArea": 0, "GarageArea": 0, "StrgeArea": 0, "FactryArea": 0, "OtherArea": 0, "AreaSource": "7", "NumBldgs": 0, "NumFloors": 0.0, "UnitsRes": 0, "UnitsTotal": 0, "LotFront": 82.0, "LotDepth": 143.0, "BldgFront": 0.0, "BldgDepth": 0.0, "Ext": "N", "ProxCode": "0", "IrrLotCode": "Y", "LotType": "5", "BsmtCode": "0", "AssessLand": 0.0, "AssessTot": 0.0, "ExemptTot": 0.0, "YearBuilt": 0, "YearAlter1": 0, "YearAlter2": 0, "HistDist": null, "Landmark": null, "BuiltFAR": 0.0, "ResidFAR": 0.75, "CommFAR": 0.0, "FacilFAR": 1.0, "BoroCode": 5, "BBL": 5000680070.0, "CondoNo": 0, "Tract2010": "0097", "XCoord": 956439, "YCoord": 174285, "ZoneMap": "21a", "ZMCode": null, "Sanborn": "501 066", "TaxMap": "50103", "EDesigNum": null, "APPBBL": 0.0, "APPDate": null, "PLUTOMapID": "1", "FIRM07_FLA": "1", "PFIRM15_FL": "1", "Version": "25v4", "DCPEdited": "t", "Latitude": 40.645005, "Longitude": -74.1002164, "Notes": null, "Shape_Leng": 0.0, "Shape_Area": 17174.425822599998 }, "geometry": { "type": "MultiPolygon", "coordinates": [ [ [ [ -74.099829427684199, 40.644880397304703 ], [ -74.100232870385838, 40.644876178312515 ], [ -74.100694652013487, 40.645005550203379 ], [ -74.100698071965112, 40.645026586003098 ], [ -74.100711378434653, 40.645108448588573 ], [ -74.100504437794712, 40.645101761070855 ], [ -74.1004453178044, 40.64508953769414 ], [ -74.100426987322848, 40.645085747174306 ], [ -74.10037347838076, 40.645086122515508 ], [ -74.100268297797442, 40.645083862814865 ], [ -74.10026963917953, 40.645095346909635 ], [ -74.100270039189525, 40.645098785623539 ], [ -74.100273655474993, 40.645129764150489 ], [ -74.100214346643213, 40.645135978078088 ], [ -74.099849328691931, 40.645108725324391 ], [ -74.099829427684199, 40.644880397304703 ] ] ] ] } },
{ "type": "Feature", "properties": { "Borough": "SI", "Block": 72, "Lot": 80, "CD": 501, "BCT2020": "5008100", "BCTCB2020": "50081001009", "CT2010": "81", "CB2010": "1011", "SchoolDist": "31", "Council": 49, "ZipCode": 10301, "FireComp": "E156", "PolicePrct": 120, "HealthCent": 51, "HealthArea": 400, "Sanitboro": "5", "SanitDistr": "01", "SanitSub": "2D", "Address": "368 FILLMORE STREET", "ZoneDist1": "R2", "ZoneDist2": null, "ZoneDist3": null, "ZoneDist4": null, "Overlay1": null, "Overlay2": null, "SPDist1": null, "SPDist2": null, "SPDist3": null, "LtdHeight": null, "SplitZone": "N", "BldgClass": "B2", "LandUse": "01", "Easements": 0, "OwnerType": null, "OwnerName": "EVLYN LONGMORE", "LotArea": 15000, "BldgArea": 2184, "ComArea": 0, "ResArea": 1092, "OfficeArea": 0, "RetailArea": 0, "GarageArea": 0, "StrgeArea": 0, "FactryArea": 0, "OtherArea": 0, "AreaSource": "2", "NumBldgs": 1, "NumFloors": 1.0, "UnitsRes": 2, "UnitsTotal": 2, "LotFront": 100.0, "LotDepth": 150.0, "BldgFront": 42.0, "BldgDepth": 26.0, "Ext": "N", "ProxCode": "1", "IrrLotCode": "N", "LotType": "5", "BsmtCode": "1", "AssessLand": 27000.0, "AssessTot": 51360.0, "ExemptTot": 1420.0, "YearBuilt": 1970, "YearAlter1": 0, "YearAlter2": 0, "HistDist": null, "Landmark": null, "BuiltFAR": 0.15, "ResidFAR": 0.75, "CommFAR": 0.0, "FacilFAR": 1.0, "BoroCode": 5, "BBL": 5000720080.0, "CondoNo": 0, "Tract2010": "0081", "XCoord": 956453, "YCoord": 173496, "ZoneMap": "21a", "ZMCode": null, "Sanborn": "501 066", "TaxMap": "50103", "EDesigNum": null, "APPBBL": 0.0, "APPDate": null, "PLUTOMapID": "1", "FIRM07_FLA": null, "PFIRM15_FL": null, "Version": "25v4", "DCPEdited": null, "Latitude": 40.6428394, "Longitude": -74.1001627, "Notes": null, "Shape_Leng": 0.0, "Shape_Area": 15108.3441478 }, "geometry": { "type": "MultiPolygon", "coordinates": [ [ [ [ -74.099990226394794, 40.642915853510573 ], [ -74.099968365519302, 40.642779380009742 ], [ -74.099946506050003, 40.642642904660121 ], [ -74.100307894801929, 40.642625975063794 ], [ -74.100374689991014, 40.643036950493382 ], [ -74.100011972719315, 40.643051608540063 ], [ -74.099990226394794, 40.642915853510573 ] ] ] ] } },
{ "type": "Feature", "properties": { "Borough": "SI", "Block": 72, "Lot": 96, "CD": 501, "BCT2020": "5008100", "BCTCB2020": "50081001009", "CT2010": "81", "CB2010": "1011", "SchoolDist": "31", "Council": 49, "ZipCode": 10301, "FireComp": "E156", "PolicePrct": 120, "HealthCent": 51, "HealthArea": 400, "Sanitboro": "5", "SanitDistr": "01", "SanitSub": "2D", "Address": "116 TYSEN STREET", "ZoneDist1": "R2", "ZoneDist2": null, "ZoneDist3": null, "ZoneDist4": null, "Overlay1": null, "Overlay2": null, "SPDist1": null, "SPDist2": null, "SPDist3": null, "LtdHeight": null, "SplitZone": "N", "BldgClass": "A5", "LandUse": "01", "Easements": 0, "OwnerType": null, "OwnerName": "FIAU BROTHERS LLC", "LotArea": 4824, "BldgArea": 1545, "ComArea": 0, "ResArea": 1545, "OfficeArea": 0, "RetailArea": 0, "GarageArea": 0, "StrgeArea": 0, "FactryArea": 0, "OtherArea": 0, "AreaSource": "2", "NumBldgs": 1, "NumFloors": 2.5, "UnitsRes": 1, "UnitsTotal": 1, "LotFront": 24.0, "LotDepth": 201.0, "BldgFront": 19.0, "BldgDepth": 40.0, "Ext": "E", "ProxCode": "2", "IrrLotCode": "N", "LotType": "5", "BsmtCode": "2", "AssessLand": 10380.0, "AssessTot": 39240.0, "ExemptTot": 0.0, "YearBuilt": 1910, "YearAlter1": 0, "YearAlter2": 0, "HistDist": null, "Landmark": null, "BuiltFAR": 0.32, "ResidFAR": 0.75, "CommFAR": 0.0, "FacilFAR": 1.0, "BoroCode": 5, "BBL": 5000720096.0, "CondoNo": 0, "Tract2010": "0081", "XCoord": 956515, "YCoord": 173413, "ZoneMap": "21a", "ZMCode": null, "Sanborn": "501 066", "TaxMap": "50103", "EDesigNum": null, "APPBBL": 0.0, "APPDate": null, "PLUTOMapID": "1", "FIRM07_FLA": null, "PFIRM15_FL": null, "Version": "25v4", "DCPEdited": null, "Latitude": 40.6426118, "Longitude": -74.0999389, "Notes": null, "Shape_Leng": 0.0, "Shape_Area": 4621.1771988 }, "geometry": { "type": "MultiPolygon", "coordinates": [ [ [ [ -74.100307894801929, 40.642625975063794 ], [ -74.099946506050003, 40.642642904660121 ], [ -74.099584399533981, 40.642659867958585 ], [ -74.099574060864754, 40.642595317858472 ], [ -74.099798617058497, 40.64258479813634 ], [ -74.100298272740645, 40.642566771695002 ], [ -74.100307894801929, 40.642625975063794 ] ] ] ] } },
{ "type": "Feature", "properties": { "Borough": "SI", "Block": 72, "Lot": 99, "CD": 501, "BCT2020": "5008100", "BCTCB2020": "50081001009", "CT2010": "81", "CB2010": "1011", "SchoolDist": "31", "Council": 49, "ZipCode": 10301, "FireComp": "E156", "PolicePrct": 120, "HealthCent": 51, "HealthArea": 400, "Sanitboro": "5", "SanitDistr": "01", "SanitSub": "2D", "Address": "120 TYSEN STREET", "ZoneDist1": "R2", "ZoneDist2": null, "ZoneDist3": null, "ZoneDist4": null, "Overlay1": null, "Overlay2": null, "SPDist1": null, "SPDist2": null, "SPDist3": null, "LtdHeight": null, "SplitZone": "N", "BldgClass": "A1", "LandUse": "01", "Easements": 0, "OwnerType": null, "OwnerName": "MCDERMOTT MARGARET", "LotArea": 8000, "BldgArea": 3292, "ComArea": 0, "ResArea": 3292, "OfficeArea": 0, "RetailArea": 0, "GarageArea": 0, "StrgeArea": 0, "FactryArea": 0, "OtherArea": 0, "AreaSource": "2", "NumBldgs": 1, "NumFloors": 2.75, "UnitsRes": 1, "UnitsTotal": 1, "LotFront": 40.0, "LotDepth": 200.0, "BldgFront": 22.0, "BldgDepth": 48.0, "Ext": "E", "ProxCode": "1", "IrrLotCode": "N", "LotType": "5", "BsmtCode": "2", "AssessLand": 13680.0, "AssessTot": 47820.0, "ExemptTot": 0.0, "YearBuilt": 1901, "YearAlter1": 0, "YearAlter2": 0, "HistDist": null, "Landmark": null, "BuiltFAR": 0.41, "ResidFAR": 0.75, "CommFAR": 0.0, "FacilFAR": 1.0, "BoroCode": 5, "BBL": 5000720099.0, "CondoNo": 0, "Tract2010": "0081", "XCoord": 956521, "YCoord": 173356, "ZoneMap": "21a", "ZMCode": null, "Sanborn": "501 066", "TaxMap": "50103", "EDesigNum": null, "APPBBL": 0.0, "APPDate": null, "PLUTOMapID": "1", "FIRM07_FLA": null, "PFIRM15_FL": null, "Version": "25v4", "DCPEdited": null, "Latitude": 40.6424554, "Longitude": -74.0999171, "Notes": null, "Shape_Leng": 0.0, "Shape_Area": 8041.6873065 }, "geometry": { "type": "MultiPolygon", "coordinates": [ [ [ [ -74.099563201958304, 40.642527526333822 ], [ -74.099545714291793, 40.642418347213358 ], [ -74.100268646649241, 40.642384480228905 ], [ -74.100286387202047, 40.642493648229475 ], [ -74.099563201958304, 40.642527526333822 ] ] ] ] } },
{ "type": "Feature", "properties": { "Borough": "SI", "Block": 72, "Lot": 101, "CD": 501, "BCT2020": "5008100", "BCTCB2020": "50081001009", "CT2010": "81", "CB2010": "1011", "SchoolDist": "31", "Council": 49, "ZipCode": 10301, "FireComp": "E156", "PolicePrct": 120, "HealthCent": 51, "HealthArea": 400, "Sanitboro": "5", "SanitDistr": "01", "SanitSub": "2D", "Address": "124 TYSEN STREET", "ZoneDist1": "R2", "ZoneDist2": null, "ZoneDist3": null, "ZoneDist4": null, "Overlay1": null, "Overlay2": null, "SPDist1": null, "SPDist2": null, "SPDist3": null, "LtdHeight": null, "SplitZone": "N", "BldgClass": "A1", "LandUse": "01", "Easements": 0, "OwnerType": null, "OwnerName": "ORENGO, MARIBELLE", "LotArea": 8000, "BldgArea": 2470, "ComArea": 0, "ResArea": 2470, "OfficeArea": 0, "RetailArea": 0, "GarageArea": 0, "StrgeArea": 0, "FactryArea": 0, "OtherArea": 0, "AreaSource": "2", "NumBldgs": 1, "NumFloors": 2.5, "UnitsRes": 1, "UnitsTotal": 1, "LotFront": 40.0, "LotDepth": 200.0, "BldgFront": 22.0, "BldgDepth": 48.0, "Ext": "E", "ProxCode": "1", "IrrLotCode": "N", "LotType": "5", "BsmtCode": "2", "AssessLand": 14880.0, "AssessTot": 49320.0, "ExemptTot": 0.0, "YearBuilt": 1901, "YearAlter1": 0, "YearAlter2": 0, "HistDist": null, "Landmark": null, "BuiltFAR": 0.31, "ResidFAR": 0.75, "CommFAR": 0.0, "FacilFAR": 1.0, "BoroCode": 5, "BBL": 5000720101.0, "CondoNo": 0, "Tract2010": "0081", "XCoord": 956526, "YCoord": 173316, "ZoneMap": "21a", "ZMCode": null, "Sanborn": "501 066", "TaxMap": "50103", "EDesigNum": null, "APPBBL": 0.0, "APPDate": null, "PLUTOMapID": "1", "FIRM07_FLA": null, "PFIRM15_FL": null, "Version": "25v4", "DCPEdited": null, "Latitude": 40.6423456, "Longitude": -74.0998989, "Notes": null, "Shape_Leng": 0.0, "Shape_Area": 8038.8776476000003 }, "geometry": { "type": "MultiPolygon", "coordinates": [ [ [ [ -74.099528226791207, 40.642309167252556 ], [ -74.100250903738427, 40.642275313229021 ], [ -74.100268646649241, 40.642384480228905 ], [ -74.099545714291793, 40.642418347213358 ], [ -74.099528226791207, 40.642309167252556 ] ] ] ] } },
{ "type": "Feature", "properties": { "Borough": "SI", "Block": 72, "Lot": 103, "CD": 501, "BCT2020": "5008100", "BCTCB2020": "50081001009", "CT2010": "81", "CB2010": "1011", "SchoolDist": "31", "Council": 49, "ZipCode": 10301, "FireComp": "E156", "PolicePrct": 120, "HealthCent": 51, "HealthArea": 400, "Sanitboro": "5", "SanitDistr": "01", "SanitSub": "2D", "Address": "130 TYSEN STREET", "ZoneDist1": "R2", "ZoneDist2": null, "ZoneDist3": null, "ZoneDist4": null, "Overlay1": null, "Overlay2": null, "SPDist1": null, "SPDist2": null, "SPDist3": null, "LtdHeight": null, "SplitZone": "N", "BldgClass": "A1", "LandUse": "01", "Easements": 0, "OwnerType": null, "OwnerName": "FALCO, ARTHUR J", "LotArea": 10000, "BldgArea": 2220, "ComArea": 0, "ResArea": 2220, "OfficeArea": 0, "RetailArea": 0, "GarageArea": 0, "StrgeArea": 0, "FactryArea": 0, "OtherArea": 0, "AreaSource": "2", "NumBldgs": 2, "NumFloors": 2.5, "UnitsRes": 1, "UnitsTotal": 1, "LotFront": 50.0, "LotDepth": 200.0, "BldgFront": 34.0, "BldgDepth": 27.0, "Ext": "G", "ProxCode": "1", "IrrLotCode": "N", "LotType": "5", "BsmtCode": "2", "AssessLand": 19800.0, "AssessTot": 39360.0, "ExemptTot": 0.0, "YearBuilt": 1901, "YearAlter1": 0, "YearAlter2": 0, "HistDist": null, "Landmark": null, "BuiltFAR": 0.22, "ResidFAR": 0.75, "CommFAR": 0.0, "FacilFAR": 1.0, "BoroCode": 5, "BBL": 5000720103.0, "CondoNo": 0, "Tract2010": "0081", "XCoord": 956531, "YCoord": 173271, "ZoneMap": "21a", "ZMCode": null, "Sanborn": "501 066", "TaxMap": "50103", "EDesigNum": null, "APPBBL": 0.0, "APPDate": null, "PLUTOMapID": "1", "FIRM07_FLA": null, "PFIRM15_FL": null, "Version": "25v4", "DCPEdited": null, "Latitude": 40.6422221, "Longitude": -74.0998807, "Notes": null, "Shape_Leng": 0.0, "Shape_Area": 10127.351065499999 }, "geometry": { "type": "MultiPolygon", "coordinates": [ [ [ [ -74.099506188122064, 40.64217156906777 ], [ -74.100228542138382, 40.642137728930635 ], [ -74.100229921469349, 40.642146217840427 ], [ -74.100250903738427, 40.642275313229021 ], [ -74.099528226791207, 40.642309167252556 ], [ -74.099506188122064, 40.64217156906777 ] ] ] ] } },
{ "type": "Feature", "properties": { "Borough": "SI", "Block": 74, "Lot": 105, "CD": 501, "BCT2020": "5008100", "BCTCB2020": "50081002004", "CT2010": "81", "CB2010": "2005", "SchoolDist": "31", "Council": 49, "ZipCode": 10301, "FireComp": "E156", "PolicePrct": 120, "HealthCent": 51, "HealthArea": 400, "Sanitboro": "5", "SanitDistr": "01", "SanitSub": "2D", "Address": "160 TYSEN STREET", "ZoneDist1": "R2", "ZoneDist2": null, "ZoneDist3": null, "ZoneDist4": null, "Overlay1": null, "Overlay2": null, "SPDist1": null, "SPDist2": null, "SPDist3": null, "LtdHeight": null, "SplitZone": "N", "BldgClass": "A1", "LandUse": "01", "Easements": 0, "OwnerType": null, "OwnerName": "MICHAEL MC DERMOTT", "LotArea": 5550, "BldgArea": 2528, "ComArea": 0, "ResArea": 2528, "OfficeArea": 0, "RetailArea": 0, "GarageArea": 0, "StrgeArea": 0, "FactryArea": 0, "OtherArea": 0, "AreaSource": "2", "NumBldgs": 1, "NumFloors": 2.5, "UnitsRes": 1, "UnitsTotal": 1, "LotFront": 37.0, "LotDepth": 150.0, "BldgFront": 20.0, "BldgDepth": 44.0, "Ext": "E", "ProxCode": "1", "IrrLotCode": "N", "LotType": "5", "BsmtCode": "2", "AssessLand": 12360.0, "AssessTot": 51360.0, "ExemptTot": 27100.0, "YearBuilt": 1905, "YearAlter1": 0, "YearAlter2": 0, "HistDist": null, "Landmark": null, "BuiltFAR": 0.46, "ResidFAR": 0.75, "CommFAR": 0.0, "FacilFAR": 1.0, "BoroCode": 5, "BBL": 5000740105.0, "CondoNo": 0, "Tract2010": "0081", "XCoord": 956544, "YCoord": 172945, "ZoneMap": "21a", "ZMCode": null, "Sanborn": "501 066", "TaxMap": "50103", "EDesigNum": null, "APPBBL": 0.0, "APPDate": null, "PLUTOMapID": "1", "FIRM07_FLA": null, "PFIRM15_FL": null, "Version": "25v4", "DCPEdited": null, "Latitude": 40.6413273, "Longitude": -74.0998325, "Notes": null, "Shape_Leng": 0.0, "Shape_Area": 5422.7762223 }, "geometry": { "type": "MultiPolygon", "coordinates": [ [ [ [ -74.099556798599579, 40.641305612751275 ], [ -74.100084674834548, 40.641252516369576 ], [ -74.100100926832965, 40.641352511161635 ], [ -74.09957334422451, 40.641405576740937 ], [ -74.099556798599579, 40.641305612751275 ] ] ] ] } },
{ "type": "Feature", "properties": { "Borough": "SI", "Block": 75, "Lot": 150, "CD": 501, "BCT2020": "5009701", "BCTCB2020": "50097010001", "CT2010": "97", "CB2010": "0001", "SchoolDist": null, "Council": 49, "ZipCode": 0, "FireComp": null, "PolicePrct": 0, "HealthCent": 0, "HealthArea": 0, "Sanitboro": null, "SanitDistr": null, "SanitSub": null, "Address": "RICHMOND TERRACE", "ZoneDist1": "PARK", "ZoneDist2": null, "ZoneDist3": null, "ZoneDist4": null, "Overlay1": null, "Overlay2": null, "SPDist1": null, "SPDist2": null, "SPDist3": null, "LtdHeight": null, "SplitZone": "N", "BldgClass": "Q0", "LandUse": "09", "Easements": 1, "OwnerType": "C", "OwnerName": "NYC DEPARTMENT OF PARKS AND RECREATION", "LotArea": 136000, "BldgArea": 0, "ComArea": 0, "ResArea": 0, "OfficeArea": 0, "RetailArea": 0, "GarageArea": 0, "StrgeArea": 0, "FactryArea": 0, "OtherArea": 0, "AreaSource": "7", "NumBldgs": 0, "NumFloors": 0.0, "UnitsRes": 0, "UnitsTotal": 0, "LotFront": 660.0, "LotDepth": 79.0, "BldgFront": 0.0, "BldgDepth": 0.0, "Ext": null, "ProxCode": "0", "IrrLotCode": "Y", "LotType": "5", "BsmtCode": "0", "AssessLand": 274950.0, "AssessTot": 274950.0, "ExemptTot": 274950.0, "YearBuilt": 0, "YearAlter1": 0, "YearAlter2": 0, "HistDist": null, "Landmark": null, "BuiltFAR": 0.0, "ResidFAR": 0.0, "CommFAR": 0.0, "FacilFAR": 0.0, "BoroCode": 5, "BBL": 5000750150.0, "CondoNo": 0, "Tract2010": "0097", "XCoord": 955031, "YCoord": 174542, "ZoneMap": "21a", "ZMCode": null, "Sanborn": "501 066", "TaxMap": "50103", "EDesigNum": null, "APPBBL": 0.0, "APPDate": null, "PLUTOMapID": "1", "FIRM07_FLA": "1", "PFIRM15_FL": "1", "Version": "25v4", "DCPEdited": "t", "Latitude": 40.6457059, "Longitude": -74.1052912, "Notes": null, "Shape_Leng": 0.0, "Shape_Area": 28873.595964600001 }, "geometry": { "type": "MultiPolygon", "coordinates": [ [ [ [ -74.102683391961349, 40.645592144676307 ], [ -74.102705728456797, 40.645542253138558 ], [ -74.102801006258431, 40.645553041014139 ], [ -74.102909995184305, 40.645563486015938 ], [ -74.102983468282559, 40.645569396191448 ], [ -74.103085868880797, 40.645576122486702 ], [ -74.103203506925695, 40.645581690388106 ], [ -74.103301369927024, 40.645584569881187 ], [ -74.103401733432833, 40.645585876559323 ], [ -74.103485201413449, 40.64558569259345 ], [ -74.10470184720414, 40.645567520250069 ], [ -74.10470480528123, 40.645590948141667 ], [ -74.104705898528266, 40.645599612527157 ], [ -74.104704117671005, 40.645599620671689 ], [ -74.104678346988351, 40.645612455722222 ], [ -74.104645854825634, 40.64563042447012 ], [ -74.104592040231921, 40.645639014738343 ], [ -74.104515799456991, 40.64564762541648 ], [ -74.104441798832141, 40.64565452657002 ], [ -74.104404814456544, 40.645668225404677 ], [ -74.104395846215141, 40.645669941810745 ], [ -74.104384655489767, 40.645686180222953 ], [ -74.104377951066908, 40.645700707124774 ], [ -74.104381359993596, 40.64572974761537 ], [ -74.104384756811683, 40.645751097559334 ], [ -74.104371897897764, 40.645774169758525 ], [ -74.104343306778617, 40.645776760295277 ], [ -74.104255845621296, 40.645781963401383 ], [ -74.104196411323684, 40.645782017177773 ], [ -74.104136975462751, 40.645780361809329 ], [ -74.104105569372692, 40.645776119877226 ], [ -74.104074128376254, 40.645747962069372 ], [ -74.104061743352773, 40.645715515045922 ], [ -74.104039252523251, 40.645676243031943 ], [ -74.103993248005267, 40.645658348944735 ], [ -74.103909136953121, 40.645653298172711 ], [ -74.103847457736038, 40.645653353794025 ], [ -74.103759995037549, 40.645655996408074 ], [ -74.103721880490127, 40.64566371752683 ], [ -74.103588454939228, 40.645677502979815 ], [ -74.103232965854531, 40.64567184535094 ], [ -74.103072603645742, 40.645670279751904 ], [ -74.102888670963665, 40.645654214158334 ], [ -74.102856148084783, 40.645652535844697 ], [ -74.102724916461199, 40.64563386179902 ], [ -74.102668161800381, 40.645626162271014 ], [ -74.102683391961349, 40.645592144676307 ] ] ], [ [ [ -74.106253424220299, 40.645586370178719 ], [ -74.106253890707762, 40.645543657260376 ], [ -74.106305971516619, 40.645543794684485 ], [ -74.10675883399793, 40.645544976955904 ], [ -74.106906273309548, 40.645545360749139 ], [ -74.107475017019098, 40.645546844120354 ], [ -74.107474751220664, 40.645571244836866 ], [ -74.107474571150505, 40.645587753374407 ], [ -74.107390955746595, 40.645592023040784 ], [ -74.107319204944432, 40.645603192427799 ], [ -74.10729791199654, 40.645610900900181 ], [ -74.107233982977505, 40.645605835596612 ], [ -74.10715999214807, 40.645618716086624 ], [ -74.107139803245431, 40.64561532014968 ], [ -74.107120745103629, 40.645619606271268 ], [ -74.107052326219303, 40.645610273885517 ], [ -74.107015334364164, 40.645619704252738 ], [ -74.107006352531059, 40.645612881322272 ], [ -74.107008576120862, 40.645600919465743 ], [ -74.1069973501981, 40.645593243016336 ], [ -74.106982768882915, 40.645590694601687 ], [ -74.106896418122503, 40.645589066492043 ], [ -74.106810071194275, 40.645589146592137 ], [ -74.106715875333009, 40.645589233899365 ], [ -74.106621679361496, 40.645589321129542 ], [ -74.106611585398824, 40.645589330472475 ], [ -74.106586912594011, 40.645587644106328 ], [ -74.106508419890744, 40.645590281430508 ], [ -74.106445625152034, 40.645592900515162 ], [ -74.1063906871928, 40.645598929785237 ], [ -74.106362664643129, 40.645606643462067 ], [ -74.106330156745727, 40.645614361188834 ], [ -74.106295396503683, 40.645616102470406 ], [ -74.1061271690468, 40.645604296876151 ], [ -74.105829997815832, 40.645602008330961 ], [ -74.10552161570503, 40.645602291245446 ], [ -74.105387048221743, 40.645601562518017 ], [ -74.105179590166955, 40.645601752135192 ], [ -74.105073627379184, 40.645600353814928 ], [ -74.106253424220299, 40.645586370178719 ] ] ] ] } }
]
}
