{
"type": "FeatureCollection",
"name": "pluto_Holy_Cross_Cemetery",
"crs": { "type": "name", "properties": { "name": "urn:ogc:def:crs:OGC:1.3:CRS84" } },
"features": [
{ "type": "Feature", "properties": { "Borough": "BK", "Block": 4907, "Lot": 1, "CD": 317, "BCT2020": "3085600", "BCTCB2020": "30856002000", "CT2010": "856", "CB2010": "2000", "SchoolDist": "17", "Council": 45, "ZipCode": 11203, "FireComp": "E248", "PolicePrct": 67, "HealthCent": 35, "HealthArea": 5520, "Sanitboro": "3", "SanitDistr": "17", "SanitSub": "2B", "Address": "3602 SNYDER AVENUE", "ZoneDist1": "R4", "ZoneDist2": null, "ZoneDist3": null, "ZoneDist4": null, "Overlay1": "C2-2", "Overlay2": null, "SPDist1": null, "SPDist2": null, "SPDist3": null, "LtdHeight": null, "SplitZone": "N", "BldgClass": "G4", "LandUse": "07", "Easements": 0, "OwnerType": null, "OwnerName": "BLUE HILLS FUELS, LLC", "LotArea": 20940, "BldgArea": 2556, "ComArea": 2556, "ResArea": 0, "OfficeArea": 0, "RetailArea": 0, "GarageArea": 2556, "StrgeArea": 0, "FactryArea": 0, "OtherArea": 0, "AreaSource": "2", "NumBldgs": 2, "NumFloors": 1.0, "UnitsRes": 0, "UnitsTotal": 1, "LotFront": 96.25, "LotDepth": 216.58, "BldgFront": 73.5, "BldgDepth": 156.0, "Ext": "N", "ProxCode": "1", "IrrLotCode": "Y", "LotType": "3", "BsmtCode": "0", "AssessLand": 517500.0, "AssessTot": 1626750.0, "ExemptTot": 0.0, "YearBuilt": 1931, "YearAlter1": 1990, "YearAlter2": 2021, "HistDist": null, "Landmark": null, "BuiltFAR": 0.12, "ResidFAR": 1.0, "CommFAR": 0.0, "FacilFAR": 2.0, "BoroCode": 3, "BBL": 3049070000.9999995, "CondoNo": 0, "Tract2010": "0856", "XCoord": 999999, "YCoord": 175690, "ZoneMap": "23a", "ZMCode": "Y", "Sanborn": "310 028", "TaxMap": "31509", "EDesigNum": null, "APPBBL": 0.0, "APPDate": null, "PLUTOMapID": "1", "FIRM07_FLA": null, "PFIRM15_FL": null, "Version": "25v4", "DCPEdited": null, "Latitude": 40.6488911, "Longitude": -73.9432455, "Notes": null, "Shape_Leng": 0.0, "Shape_Area": 21132.398517400001 }, "geometry": { "type": "MultiPolygon", "coordinates": [ [ [ [ -73.943033399225257, 40.64861424606223 ], [ -73.943114244744976, 40.6486091875014 ], [ -73.943112930061076, 40.648598142921202 ], [ -73.943385817641484, 40.648584093087109 ], [ -73.943447949976658, 40.649179827027218 ], [ -73.943103318901379, 40.649201390399867 ], [ -73.943033399225257, 40.64861424606223 ] ] ] ] } },
{ "type": "Feature", "properties": { "Borough": "BK", "Block": 4910, "Lot": 23, "CD": 317, "BCT2020": "3085800", "BCTCB2020": "30858001004", "CT2010": "858", "CB2010": "1004", "SchoolDist": "18", "Council": 45, "ZipCode": 11203, "FireComp": "E248", "PolicePrct": 67, "HealthCent": 35, "HealthArea": 5520, "Sanitboro": "3", "SanitDistr": "17", "SanitSub": "2B", "Address": "288 EAST 43 STREET", "ZoneDist1": "R4", "ZoneDist2": null, "ZoneDist3": null, "ZoneDist4": null, "Overlay1": null, "Overlay2": null, "SPDist1": null, "SPDist2": null, "SPDist3": null, "LtdHeight": null, "SplitZone": "N", "BldgClass": "B3", "LandUse": "01", "Easements": 0, "OwnerType": null, "OwnerName": "JONES, LISA M", "LotArea": 2242, "BldgArea": 1472, "ComArea": 0, "ResArea": 1472, "OfficeArea": 0, "RetailArea": 0, "GarageArea": 0, "StrgeArea": 0, "FactryArea": 0, "OtherArea": 0, "AreaSource": "2", "NumBldgs": 2, "NumFloors": 2.0, "UnitsRes": 2, "UnitsTotal": 2, "LotFront": 22.42, "LotDepth": 100.0, "BldgFront": 16.0, "BldgDepth": 42.0, "Ext": "N", "ProxCode": "1", "IrrLotCode": "N", "LotType": "5", "BsmtCode": "2", "AssessLand": 13020.0, "AssessTot": 39060.0, "ExemptTot": 1420.0, "YearBuilt": 1920, "YearAlter1": 0, "YearAlter2": 0, "HistDist": null, "Landmark": null, "BuiltFAR": 0.66, "ResidFAR": 1.0, "CommFAR": 0.0, "FacilFAR": 2.0, "BoroCode": 3, "BBL": 3049100023.0, "CondoNo": 0, "Tract2010": "0858", "XCoord": 1001696, "YCoord": 175607, "ZoneMap": "23a", "ZMCode": null, "Sanborn": "310 064", "TaxMap": "31509", "EDesigNum": null, "APPBBL": 0.0, "APPDate": null, "PLUTOMapID": "1", "FIRM07_FLA": null, "PFIRM15_FL": null, "Version": "25v4", "DCPEdited": null, "Latitude": 40.6486601, "Longitude": -73.9371302, "Notes": null, "Shape_Leng": 0.0, "Shape_Area": 2352.0082736 }, "geometry": { "type": "MultiPolygon", "coordinates": [ [ [ [ -73.936945636605827, 40.648636653002939 ], [ -73.937311432437809, 40.648621355754017 ], [ -73.937318176283597, 40.648680398209372 ], [ -73.936953355802032, 40.648704205013715 ], [ -73.936945636605827, 40.648636653002939 ] ] ] ] } },
{ "type": "Feature", "properties": { "Borough": "BK", "Block": 4910, "Lot": 55, "CD": 317, "BCT2020": "3085800", "BCTCB2020": "30858001004", "CT2010": "858", "CB2010": "1004", "SchoolDist": "18", "Council": 45, "ZipCode": 11203, "FireComp": "E248", "PolicePrct": 67, "HealthCent": 35, "HealthArea": 5520, "Sanitboro": "3", "SanitDistr": "17", "SanitSub": "2B", "Address": "285 EAST 42 STREET", "ZoneDist1": "R4", "ZoneDist2": null, "ZoneDist3": null, "ZoneDist4": null, "Overlay1": null, "Overlay2": null, "SPDist1": null, "SPDist2": null, "SPDist3": null, "LtdHeight": null, "SplitZone": "N", "BldgClass": "C0", "LandUse": "02", "Easements": 0, "OwnerType": null, "OwnerName": "AUSTIN, OSWALD RICHARD", "LotArea": 3725, "BldgArea": 2464, "ComArea": 0, "ResArea": 2464, "OfficeArea": 0, "RetailArea": 0, "GarageArea": 0, "StrgeArea": 0, "FactryArea": 0, "OtherArea": 0, "AreaSource": "2", "NumBldgs": 2, "NumFloors": 2.75, "UnitsRes": 3, "UnitsTotal": 3, "LotFront": 37.25, "LotDepth": 100.0, "BldgFront": 20.0, "BldgDepth": 36.0, "Ext": "EG", "ProxCode": "1", "IrrLotCode": "N", "LotType": "5", "BsmtCode": "2", "AssessLand": 18540.0, "AssessTot": 60180.0, "ExemptTot": 0.0, "YearBuilt": 1910, "YearAlter1": 0, "YearAlter2": 0, "HistDist": null, "Landmark": null, "BuiltFAR": 0.66, "ResidFAR": 1.0, "CommFAR": 0.0, "FacilFAR": 2.0, "BoroCode": 3, "BBL": 3049100055.0, "CondoNo": 0, "Tract2010": "0858", "XCoord": 1001593, "YCoord": 175609, "ZoneMap": "23a", "ZMCode": null, "Sanborn": "310 064", "TaxMap": "31509", "EDesigNum": null, "APPBBL": 0.0, "APPDate": null, "PLUTOMapID": "1", "FIRM07_FLA": null, "PFIRM15_FL": null, "Version": "25v4", "DCPEdited": null, "Latitude": 40.6486658, "Longitude": -73.9375014, "Notes": null, "Shape_Leng": 0.0, "Shape_Area": 4003.7997556 }, "geometry": { "type": "MultiPolygon", "coordinates": [ [ [ [ -73.937318176283597, 40.648680398209372 ], [ -73.937311432437809, 40.648621355754017 ], [ -73.937678930579764, 40.648605985314049 ], [ -73.937689922851035, 40.648709122944815 ], [ -73.937324186110544, 40.648732990747931 ], [ -73.937318176283597, 40.648680398209372 ] ] ] ] } },
{ "type": "Feature", "properties": { "Borough": "BK", "Block": 4911, "Lot": 23, "CD": 317, "BCT2020": "3085800", "BCTCB2020": "30858001005", "CT2010": "858", "CB2010": "1005", "SchoolDist": "18", "Council": 45, "ZipCode": 11203, "FireComp": "E248", "PolicePrct": 67, "HealthCent": 35, "HealthArea": 5520, "Sanitboro": "3", "SanitDistr": "17", "SanitSub": "2B", "Address": "990 TROY AVENUE", "ZoneDist1": "R4", "ZoneDist2": null, "ZoneDist3": null, "ZoneDist4": null, "Overlay1": null, "Overlay2": null, "SPDist1": null, "SPDist2": null, "SPDist3": null, "LtdHeight": null, "SplitZone": "N", "BldgClass": "B1", "LandUse": "01", "Easements": 0, "OwnerType": null, "OwnerName": "RODRIGUEZ, GARRY", "LotArea": 2925, "BldgArea": 2400, "ComArea": 0, "ResArea": 2400, "OfficeArea": 0, "RetailArea": 0, "GarageArea": 0, "StrgeArea": 0, "FactryArea": 0, "OtherArea": 0, "AreaSource": "2", "NumBldgs": 1, "NumFloors": 2.0, "UnitsRes": 2, "UnitsTotal": 2, "LotFront": 29.25, "LotDepth": 100.0, "BldgFront": 25.0, "BldgDepth": 48.0, "Ext": "N", "ProxCode": "1", "IrrLotCode": "Y", "LotType": "5", "BsmtCode": "2", "AssessLand": 20880.0, "AssessTot": 56820.0, "ExemptTot": 0.0, "YearBuilt": 2004, "YearAlter1": 0, "YearAlter2": 0, "HistDist": null, "Landmark": null, "BuiltFAR": 0.82, "ResidFAR": 1.0, "CommFAR": 0.0, "FacilFAR": 2.0, "BoroCode": 3, "BBL": 3049110023.0, "CondoNo": 0, "Tract2010": "0858", "XCoord": 1001956, "YCoord": 175625, "ZoneMap": "23a", "ZMCode": null, "Sanborn": "310 064", "TaxMap": "31509", "EDesigNum": null, "APPBBL": 0.0, "APPDate": null, "PLUTOMapID": "1", "FIRM07_FLA": null, "PFIRM15_FL": null, "Version": "25v4", "DCPEdited": null, "Latitude": 40.648709, "Longitude": -73.9361932, "Notes": null, "Shape_Leng": 0.0, "Shape_Area": 2931.6366002999998 }, "geometry": { "type": "MultiPolygon", "coordinates": [ [ [ [ -73.936002101239453, 40.648680623761081 ], [ -73.936375465544131, 40.648662654718798 ], [ -73.936384186722464, 40.648737633832511 ], [ -73.936011343803031, 40.648760111269709 ], [ -73.936002101239453, 40.648680623761081 ] ] ] ] } },
{ "type": "Feature", "properties": { "Borough": "BK", "Block": 4911, "Lot": 55, "CD": 317, "BCT2020": "3085800", "BCTCB2020": "30858001005", "CT2010": "858", "CB2010": "1005", "SchoolDist": "18", "Council": 45, "ZipCode": 11203, "FireComp": "E248", "PolicePrct": 67, "HealthCent": 35, "HealthArea": 5520, "Sanitboro": "3", "SanitDistr": "17", "SanitSub": "2B", "Address": "289 EAST 43 STREET", "ZoneDist1": "R4", "ZoneDist2": null, "ZoneDist3": null, "ZoneDist4": null, "Overlay1": null, "Overlay2": null, "SPDist1": null, "SPDist2": null, "SPDist3": null, "LtdHeight": null, "SplitZone": "N", "BldgClass": "B2", "LandUse": "01", "Easements": 0, "OwnerType": null, "OwnerName": "VICTOR IDA", "LotArea": 2400, "BldgArea": 1320, "ComArea": 0, "ResArea": 1320, "OfficeArea": 0, "RetailArea": 0, "GarageArea": 0, "StrgeArea": 0, "FactryArea": 0, "OtherArea": 0, "AreaSource": "2", "NumBldgs": 2, "NumFloors": 2.75, "UnitsRes": 2, "UnitsTotal": 2, "LotFront": 24.0, "LotDepth": 100.0, "BldgFront": 19.0, "BldgDepth": 30.0, "Ext": "N", "ProxCode": "1", "IrrLotCode": "N", "LotType": "5", "BsmtCode": "2", "AssessLand": 14160.0, "AssessTot": 39300.0, "ExemptTot": 0.0, "YearBuilt": 1920, "YearAlter1": 0, "YearAlter2": 0, "HistDist": null, "Landmark": null, "BuiltFAR": 0.55, "ResidFAR": 1.0, "CommFAR": 0.0, "FacilFAR": 2.0, "BoroCode": 3, "BBL": 3049110055.0, "CondoNo": 0, "Tract2010": "0858", "XCoord": 1001854, "YCoord": 175618, "ZoneMap": "23a", "ZMCode": null, "Sanborn": "310 064", "TaxMap": "31509", "EDesigNum": null, "APPBBL": 0.0, "APPDate": null, "PLUTOMapID": "1", "FIRM07_FLA": null, "PFIRM15_FL": null, "Version": "25v4", "DCPEdited": null, "Latitude": 40.64869, "Longitude": -73.9365608, "Notes": null, "Shape_Leng": 0.0, "Shape_Area": 2674.7242553000001 }, "geometry": { "type": "MultiPolygon", "coordinates": [ [ [ [ -73.936375465544131, 40.648662654718798 ], [ -73.936741726843167, 40.648646758853758 ], [ -73.936749327496642, 40.648715622870384 ], [ -73.936384186722464, 40.648737633832511 ], [ -73.936375465544131, 40.648662654718798 ] ] ] ] } },
{ "type": "Feature", "properties": { "Borough": "BK", "Block": 4912, "Lot": 54, "CD": 317, "BCT2020": "3086000", "BCTCB2020": "30860003002", "CT2010": "860", "CB2010": "3002", "SchoolDist": "18", "Council": 45, "ZipCode": 11203, "FireComp": "E248", "PolicePrct": 67, "HealthCent": 35, "HealthArea": 5520, "Sanitboro": "3", "SanitDistr": "17", "SanitSub": "2B", "Address": "991 TROY AVENUE", "ZoneDist1": "R4", "ZoneDist2": null, "ZoneDist3": null, "ZoneDist4": null, "Overlay1": null, "Overlay2": null, "SPDist1": null, "SPDist2": null, "SPDist3": null, "LtdHeight": null, "SplitZone": "N", "BldgClass": "B1", "LandUse": "01", "Easements": 0, "OwnerType": null, "OwnerName": "PARAISON, MILLER", "LotArea": 2567, "BldgArea": 2200, "ComArea": 0, "ResArea": 2200, "OfficeArea": 0, "RetailArea": 0, "GarageArea": 0, "StrgeArea": 0, "FactryArea": 0, "OtherArea": 0, "AreaSource": "2", "NumBldgs": 2, "NumFloors": 2.0, "UnitsRes": 2, "UnitsTotal": 2, "LotFront": 25.67, "LotDepth": 100.0, "BldgFront": 21.0, "BldgDepth": 55.0, "Ext": "G", "ProxCode": "1", "IrrLotCode": "N", "LotType": "5", "BsmtCode": "2", "AssessLand": 15960.0, "AssessTot": 47400.0, "ExemptTot": 0.0, "YearBuilt": 1920, "YearAlter1": 0, "YearAlter2": 0, "HistDist": null, "Landmark": null, "BuiltFAR": 0.86, "ResidFAR": 1.0, "CommFAR": 0.0, "FacilFAR": 2.0, "BoroCode": 3, "BBL": 3049120054.0, "CondoNo": 0, "Tract2010": "0860", "XCoord": 1002131, "YCoord": 175633, "ZoneMap": "23a", "ZMCode": null, "Sanborn": "310 064", "TaxMap": "31509", "EDesigNum": null, "APPBBL": 0.0, "APPDate": null, "PLUTOMapID": "1", "FIRM07_FLA": null, "PFIRM15_FL": null, "Version": "25v4", "DCPEdited": null, "Latitude": 40.6487306, "Longitude": -73.9355626, "Notes": null, "Shape_Leng": 0.0, "Shape_Area": 3102.6283414999998 }, "geometry": { "type": "MultiPolygon", "coordinates": [ [ [ [ -73.935367962535778, 40.648742616147501 ], [ -73.935363137680966, 40.648700986197824 ], [ -73.935753913361467, 40.648685077596291 ], [ -73.935761464256515, 40.64875915381802 ], [ -73.935372698163718, 40.648783498703793 ], [ -73.935367962535778, 40.648742616147501 ] ] ] ] } },
{ "type": "Feature", "properties": { "Borough": "BK", "Block": 4913, "Lot": 23, "CD": 317, "BCT2020": "3086000", "BCTCB2020": "30860003003", "CT2010": "860", "CB2010": "3003", "SchoolDist": "18", "Council": 45, "ZipCode": 11203, "FireComp": "E248", "PolicePrct": 67, "HealthCent": 35, "HealthArea": 5520, "Sanitboro": "3", "SanitDistr": "17", "SanitSub": "2B", "Address": "522 EAST 46 STREET", "ZoneDist1": "R4", "ZoneDist2": null, "ZoneDist3": null, "ZoneDist4": null, "Overlay1": null, "Overlay2": null, "SPDist1": null, "SPDist2": null, "SPDist3": null, "LtdHeight": null, "SplitZone": "N", "BldgClass": "A1", "LandUse": "01", "Easements": 0, "OwnerType": null, "OwnerName": "522 EAST 46TH STREET, LLC", "LotArea": 4583, "BldgArea": 1224, "ComArea": 0, "ResArea": 1224, "OfficeArea": 0, "RetailArea": 0, "GarageArea": 0, "StrgeArea": 0, "FactryArea": 0, "OtherArea": 0, "AreaSource": "2", "NumBldgs": 1, "NumFloors": 2.0, "UnitsRes": 1, "UnitsTotal": 1, "LotFront": 45.83, "LotDepth": 100.0, "BldgFront": 18.0, "BldgDepth": 30.0, "Ext": "N", "ProxCode": "1", "IrrLotCode": "N", "LotType": "5", "BsmtCode": "2", "AssessLand": 17880.0, "AssessTot": 41460.0, "ExemptTot": 0.0, "YearBuilt": 1920, "YearAlter1": 0, "YearAlter2": 0, "HistDist": null, "Landmark": null, "BuiltFAR": 0.27, "ResidFAR": 1.0, "CommFAR": 0.0, "FacilFAR": 2.0, "BoroCode": 3, "BBL": 3049130023.0, "CondoNo": 0, "Tract2010": "0860", "XCoord": 1002494, "YCoord": 175660, "ZoneMap": "23a", "ZMCode": null, "Sanborn": "310 065", "TaxMap": "31509", "EDesigNum": null, "APPBBL": 0.0, "APPDate": null, "PLUTOMapID": "1", "FIRM07_FLA": null, "PFIRM15_FL": null, "Version": "25v4", "DCPEdited": null, "Latitude": 40.6488039, "Longitude": -73.9342544, "Notes": null, "Shape_Leng": 0.0, "Shape_Area": 4720.4714115999996 }, "geometry": { "type": "MultiPolygon", "coordinates": [ [ [ [ -73.934064685269021, 40.648749495116299 ], [ -73.934431402403135, 40.648735097291379 ], [ -73.934438538666598, 40.648798858792119 ], [ -73.934445112474421, 40.648857576213544 ], [ -73.934079354425336, 40.648880548552668 ], [ -73.934064685269021, 40.648749495116299 ] ] ] ] } },
{ "type": "Feature", "properties": { "Borough": "BK", "Block": 4913, "Lot": 53, "CD": 317, "BCT2020": "3086000", "BCTCB2020": "30860003003", "CT2010": "860", "CB2010": "3003", "SchoolDist": "18", "Council": 45, "ZipCode": 11203, "FireComp": "E248", "PolicePrct": 67, "HealthCent": 35, "HealthArea": 5520, "Sanitboro": "3", "SanitDistr": "17", "SanitSub": "2B", "Address": "523 EAST 45 STREET", "ZoneDist1": "R4", "ZoneDist2": null, "ZoneDist3": null, "ZoneDist4": null, "Overlay1": null, "Overlay2": null, "SPDist1": null, "SPDist2": null, "SPDist3": null, "LtdHeight": null, "SplitZone": "N", "BldgClass": "A1", "LandUse": "01", "Easements": 0, "OwnerType": null, "OwnerName": "BROWN-CLARKE, BETTY", "LotArea": 1842, "BldgArea": 1352, "ComArea": 0, "ResArea": 1352, "OfficeArea": 0, "RetailArea": 0, "GarageArea": 0, "StrgeArea": 0, "FactryArea": 0, "OtherArea": 0, "AreaSource": "2", "NumBldgs": 2, "NumFloors": 2.0, "UnitsRes": 1, "UnitsTotal": 1, "LotFront": 18.42, "LotDepth": 100.0, "BldgFront": 13.0, "BldgDepth": 48.0, "Ext": "G", "ProxCode": "1", "IrrLotCode": "N", "LotType": "5", "BsmtCode": "2", "AssessLand": 14160.0, "AssessTot": 40800.0, "ExemptTot": 1420.0, "YearBuilt": 1920, "YearAlter1": 0, "YearAlter2": 0, "HistDist": null, "Landmark": null, "BuiltFAR": 0.73, "ResidFAR": 1.0, "CommFAR": 0.0, "FacilFAR": 2.0, "BoroCode": 3, "BBL": 3049130053.0000005, "CondoNo": 0, "Tract2010": "0860", "XCoord": 1002394, "YCoord": 175643, "ZoneMap": "23a", "ZMCode": null, "Sanborn": "310 065", "TaxMap": "31509", "EDesigNum": null, "APPBBL": 0.0, "APPDate": null, "PLUTOMapID": "1", "FIRM07_FLA": null, "PFIRM15_FL": null, "Version": "25v4", "DCPEdited": null, "Latitude": 40.6487575, "Longitude": -73.9346148, "Notes": null, "Shape_Leng": 0.0, "Shape_Area": 2216.2077549000001 }, "geometry": { "type": "MultiPolygon", "coordinates": [ [ [ [ -73.934431402403135, 40.648735097291379 ], [ -73.934797626663951, 40.648720443102043 ], [ -73.934803494478487, 40.648775935385473 ], [ -73.934438538666598, 40.648798858792119 ], [ -73.934431402403135, 40.648735097291379 ] ] ] ] } },
{ "type": "Feature", "properties": { "Borough": "BK", "Block": 4914, "Lot": 24, "CD": 317, "BCT2020": "3086000", "BCTCB2020": "30860002002", "CT2010": "860", "CB2010": "2002", "SchoolDist": "18", "Council": 45, "ZipCode": 11203, "FireComp": "E248", "PolicePrct": 67, "HealthCent": 35, "HealthArea": 5520, "Sanitboro": "3", "SanitDistr": "17", "SanitSub": "3D", "Address": "992 SCHENECTADY AVENUE", "ZoneDist1": "R4", "ZoneDist2": null, "ZoneDist3": null, "ZoneDist4": null, "Overlay1": null, "Overlay2": null, "SPDist1": null, "SPDist2": null, "SPDist3": null, "LtdHeight": null, "SplitZone": "N", "BldgClass": "A1", "LandUse": "01", "Easements": 0, "OwnerType": null, "OwnerName": "MENTOR, TYRONE", "LotArea": 3550, "BldgArea": 1520, "ComArea": 0, "ResArea": 1520, "OfficeArea": 0, "RetailArea": 0, "GarageArea": 0, "StrgeArea": 0, "FactryArea": 0, "OtherArea": 0, "AreaSource": "2", "NumBldgs": 2, "NumFloors": 2.0, "UnitsRes": 1, "UnitsTotal": 1, "LotFront": 35.5, "LotDepth": 100.0, "BldgFront": 23.5, "BldgDepth": 34.0, "Ext": "N", "ProxCode": "1", "IrrLotCode": "N", "LotType": "5", "BsmtCode": "5", "AssessLand": 15000.0, "AssessTot": 33060.0, "ExemptTot": 1420.0, "YearBuilt": 1920, "YearAlter1": 0, "YearAlter2": 0, "HistDist": null, "Landmark": null, "BuiltFAR": 0.43, "ResidFAR": 1.0, "CommFAR": 0.0, "FacilFAR": 2.0, "BoroCode": 3, "BBL": 3049140024.0, "CondoNo": 0, "Tract2010": "0860", "XCoord": 1002754, "YCoord": 175666, "ZoneMap": "23a", "ZMCode": null, "Sanborn": "310 065", "TaxMap": "31509", "EDesigNum": null, "APPBBL": 0.0, "APPDate": null, "PLUTOMapID": "1", "FIRM07_FLA": null, "PFIRM15_FL": null, "Version": "25v4", "DCPEdited": null, "Latitude": 40.6488199, "Longitude": -73.9333174, "Notes": null, "Shape_Leng": 0.0, "Shape_Area": 3443.4591676 }, "geometry": { "type": "MultiPolygon", "coordinates": [ [ [ [ -73.933142297775149, 40.648881777224766 ], [ -73.933131502386786, 40.64878140292852 ], [ -73.933496961152173, 40.648766651622722 ], [ -73.933505562934329, 40.648846656741462 ], [ -73.933506124065403, 40.648851870155383 ], [ -73.933142297775149, 40.648881777224766 ] ] ] ] } },
{ "type": "Feature", "properties": { "Borough": "BK", "Block": 4914, "Lot": 53, "CD": 317, "BCT2020": "3086000", "BCTCB2020": "30860002002", "CT2010": "860", "CB2010": "2002", "SchoolDist": "18", "Council": 45, "ZipCode": 11203, "FireComp": "E248", "PolicePrct": 67, "HealthCent": 35, "HealthArea": 5520, "Sanitboro": "3", "SanitDistr": "17", "SanitSub": "2B", "Address": "523 EAST 46 STREET", "ZoneDist1": "R4", "ZoneDist2": null, "ZoneDist3": null, "ZoneDist4": null, "Overlay1": null, "Overlay2": null, "SPDist1": null, "SPDist2": null, "SPDist3": null, "LtdHeight": null, "SplitZone": "N", "BldgClass": "A9", "LandUse": "01", "Easements": 0, "OwnerType": null, "OwnerName": "PENNILL, SHARRET", "LotArea": 2400, "BldgArea": 1216, "ComArea": 0, "ResArea": 1216, "OfficeArea": 0, "RetailArea": 0, "GarageArea": 0, "StrgeArea": 0, "FactryArea": 0, "OtherArea": 0, "AreaSource": "2", "NumBldgs": 2, "NumFloors": 2.0, "UnitsRes": 1, "UnitsTotal": 1, "LotFront": 24.0, "LotDepth": 100.0, "BldgFront": 16.0, "BldgDepth": 38.0, "Ext": "G", "ProxCode": "2", "IrrLotCode": "N", "LotType": "5", "BsmtCode": "2", "AssessLand": 12480.0, "AssessTot": 36060.0, "ExemptTot": 0.0, "YearBuilt": 1920, "YearAlter1": 0, "YearAlter2": 0, "HistDist": null, "Landmark": null, "BuiltFAR": 0.51, "ResidFAR": 1.0, "CommFAR": 0.0, "FacilFAR": 2.0, "BoroCode": 3, "BBL": 3049140053.0, "CondoNo": 0, "Tract2010": "0860", "XCoord": 1002654, "YCoord": 175657, "ZoneMap": "23a", "ZMCode": null, "Sanborn": "310 065", "TaxMap": "31509", "EDesigNum": null, "APPBBL": 0.0, "APPDate": null, "PLUTOMapID": "1", "FIRM07_FLA": null, "PFIRM15_FL": null, "Version": "25v4", "DCPEdited": null, "Latitude": 40.6487954, "Longitude": -73.9336778, "Notes": null, "Shape_Leng": 0.0, "Shape_Area": 2777.0162452999998 }, "geometry": { "type": "MultiPolygon", "coordinates": [ [ [ [ -73.933505562934329, 40.648846656741462 ], [ -73.933496961152173, 40.648766651622722 ], [ -73.933856021592504, 40.648750207016015 ], [ -73.933864039317143, 40.648822384443513 ], [ -73.933505562934329, 40.648846656741462 ] ] ] ] } },
{ "type": "Feature", "properties": { "Borough": "BK", "Block": 4936, "Lot": 54, "CD": 317, "BCT2020": "3085400", "BCTCB2020": "30854001002", "CT2010": "854", "CB2010": "1002", "SchoolDist": "17", "Council": 45, "ZipCode": 11203, "FireComp": "E255", "PolicePrct": 67, "HealthCent": 35, "HealthArea": 5520, "Sanitboro": "3", "SanitDistr": "17", "SanitSub": "2B", "Address": "1175 BROOKLYN AVENUE", "ZoneDist1": "R4", "ZoneDist2": null, "ZoneDist3": null, "ZoneDist4": null, "Overlay1": null, "Overlay2": null, "SPDist1": null, "SPDist2": null, "SPDist3": null, "LtdHeight": null, "SplitZone": "N", "BldgClass": "A1", "LandUse": "01", "Easements": 0, "OwnerType": null, "OwnerName": "SAINT-FIRMIN, EMMANUELLE", "LotArea": 1775, "BldgArea": 1334, "ComArea": 0, "ResArea": 1334, "OfficeArea": 0, "RetailArea": 0, "GarageArea": 0, "StrgeArea": 0, "FactryArea": 0, "OtherArea": 0, "AreaSource": "2", "NumBldgs": 2, "NumFloors": 2.0, "UnitsRes": 1, "UnitsTotal": 1, "LotFront": 17.75, "LotDepth": 100.0, "BldgFront": 17.75, "BldgDepth": 35.0, "Ext": "E", "ProxCode": "3", "IrrLotCode": "N", "LotType": "5", "BsmtCode": "2", "AssessLand": 10020.0, "AssessTot": 35580.0, "ExemptTot": 0.0, "YearBuilt": 1925, "YearAlter1": 0, "YearAlter2": 0, "HistDist": null, "Landmark": null, "BuiltFAR": 0.75, "ResidFAR": 1.0, "CommFAR": 0.0, "FacilFAR": 2.0, "BoroCode": 3, "BBL": 3049360054.0, "CondoNo": 0, "Tract2010": "0854", "XCoord": 1000123, "YCoord": 174197, "ZoneMap": "23a", "ZMCode": null, "Sanborn": "310 037", "TaxMap": "31509", "EDesigNum": null, "APPBBL": 0.0, "APPDate": null, "PLUTOMapID": "1", "FIRM07_FLA": null, "PFIRM15_FL": null, "Version": "25v4", "DCPEdited": null, "Latitude": 40.6447929, "Longitude": -73.9428021, "Notes": null, "Shape_Leng": 0.0, "Shape_Area": 1823.0566655 }, "geometry": { "type": "MultiPolygon", "coordinates": [ [ [ [ -73.942614573000924, 40.644782179602437 ], [ -73.942984247405221, 40.644758879562289 ], [ -73.942989353376475, 40.644807333497816 ], [ -73.942619678704816, 40.644830634474474 ], [ -73.942614573000924, 40.644782179602437 ] ] ] ] } },
{ "type": "Feature", "properties": { "Borough": "BK", "Block": 4936, "Lot": 56, "CD": 317, "BCT2020": "3085400", "BCTCB2020": "30854001002", "CT2010": "854", "CB2010": "1002", "SchoolDist": "17", "Council": 45, "ZipCode": 11203, "FireComp": "E255", "PolicePrct": 67, "HealthCent": 35, "HealthArea": 5520, "Sanitboro": "3", "SanitDistr": "17", "SanitSub": "2B", "Address": "1171 BROOKLYN AVENUE", "ZoneDist1": "R4", "ZoneDist2": null, "ZoneDist3": null, "ZoneDist4": null, "Overlay1": null, "Overlay2": null, "SPDist1": null, "SPDist2": null, "SPDist3": null, "LtdHeight": null, "SplitZone": "N", "BldgClass": "B1", "LandUse": "01", "Easements": 0, "OwnerType": null, "OwnerName": "TROTMAN, LESLIE M", "LotArea": 1775, "BldgArea": 1334, "ComArea": 0, "ResArea": 1334, "OfficeArea": 0, "RetailArea": 0, "GarageArea": 0, "StrgeArea": 0, "FactryArea": 0, "OtherArea": 0, "AreaSource": "2", "NumBldgs": 2, "NumFloors": 2.0, "UnitsRes": 2, "UnitsTotal": 2, "LotFront": 17.75, "LotDepth": 100.0, "BldgFront": 17.75, "BldgDepth": 35.0, "Ext": "N", "ProxCode": "3", "IrrLotCode": "N", "LotType": "5", "BsmtCode": "2", "AssessLand": 14040.0, "AssessTot": 37200.0, "ExemptTot": 1420.0, "YearBuilt": 1925, "YearAlter1": 0, "YearAlter2": 0, "HistDist": null, "Landmark": null, "BuiltFAR": 0.75, "ResidFAR": 1.0, "CommFAR": 0.0, "FacilFAR": 2.0, "BoroCode": 3, "BBL": 3049360056.0, "CondoNo": 0, "Tract2010": "0854", "XCoord": 1000120, "YCoord": 174233, "ZoneMap": "23a", "ZMCode": null, "Sanborn": "310 037", "TaxMap": "31509", "EDesigNum": null, "APPBBL": 0.0, "APPDate": null, "PLUTOMapID": "1", "FIRM07_FLA": null, "PFIRM15_FL": null, "Version": "25v4", "DCPEdited": null, "Latitude": 40.6448917, "Longitude": -73.9428129, "Notes": null, "Shape_Leng": 0.0, "Shape_Area": 1802.3748151 }, "geometry": { "type": "MultiPolygon", "coordinates": [ [ [ [ -73.942624807844027, 40.644879305454637 ], [ -73.942994482780918, 40.644856005381584 ], [ -73.942999532453797, 40.644903909969997 ], [ -73.942629857251688, 40.644927210057936 ], [ -73.942624807844027, 40.644879305454637 ] ] ] ] } },
{ "type": "Feature", "properties": { "Borough": "BK", "Block": 4936, "Lot": 57, "CD": 317, "BCT2020": "3085400", "BCTCB2020": "30854001002", "CT2010": "854", "CB2010": "1002", "SchoolDist": "17", "Council": 45, "ZipCode": 11203, "FireComp": "E255", "PolicePrct": 67, "HealthCent": 35, "HealthArea": 5520, "Sanitboro": "3", "SanitDistr": "17", "SanitSub": "2B", "Address": "1169 BROOKLYN AVENUE", "ZoneDist1": "R4", "ZoneDist2": null, "ZoneDist3": null, "ZoneDist4": null, "Overlay1": null, "Overlay2": null, "SPDist1": null, "SPDist2": null, "SPDist3": null, "LtdHeight": null, "SplitZone": "N", "BldgClass": "A5", "LandUse": "01", "Easements": 0, "OwnerType": null, "OwnerName": "SAMMY ELVA", "LotArea": 1775, "BldgArea": 1334, "ComArea": 0, "ResArea": 1334, "OfficeArea": 0, "RetailArea": 0, "GarageArea": 0, "StrgeArea": 0, "FactryArea": 0, "OtherArea": 0, "AreaSource": "2", "NumBldgs": 2, "NumFloors": 2.0, "UnitsRes": 1, "UnitsTotal": 1, "LotFront": 17.75, "LotDepth": 100.0, "BldgFront": 17.75, "BldgDepth": 35.0, "Ext": "N", "ProxCode": "3", "IrrLotCode": "N", "LotType": "5", "BsmtCode": "2", "AssessLand": 10020.0, "AssessTot": 35580.0, "ExemptTot": 17790.0, "YearBuilt": 1925, "YearAlter1": 0, "YearAlter2": 0, "HistDist": null, "Landmark": null, "BuiltFAR": 0.75, "ResidFAR": 1.0, "CommFAR": 0.0, "FacilFAR": 2.0, "BoroCode": 3, "BBL": 3049360057.0, "CondoNo": 0, "Tract2010": "0854", "XCoord": 1000118, "YCoord": 174250, "ZoneMap": "23a", "ZMCode": null, "Sanborn": "310 037", "TaxMap": "31509", "EDesigNum": null, "APPBBL": 0.0, "APPDate": null, "PLUTOMapID": "1", "FIRM07_FLA": null, "PFIRM15_FL": null, "Version": "25v4", "DCPEdited": null, "Latitude": 40.6449384, "Longitude": -73.94282, "Notes": null, "Shape_Leng": 0.0, "Shape_Area": 1835.2888618 }, "geometry": { "type": "MultiPolygon", "coordinates": [ [ [ [ -73.942629857251688, 40.644927210057936 ], [ -73.942999532453797, 40.644903909969997 ], [ -73.943004672435535, 40.644952689947672 ], [ -73.942634995757913, 40.644975989131446 ], [ -73.942629857251688, 40.644927210057936 ] ] ] ] } },
{ "type": "Feature", "properties": { "Borough": "BK", "Block": 4936, "Lot": 58, "CD": 317, "BCT2020": "3085400", "BCTCB2020": "30854001002", "CT2010": "854", "CB2010": "1002", "SchoolDist": "17", "Council": 45, "ZipCode": 11203, "FireComp": "E255", "PolicePrct": 67, "HealthCent": 35, "HealthArea": 5520, "Sanitboro": "3", "SanitDistr": "17", "SanitSub": "2B", "Address": "1165 BROOKLYN AVENUE", "ZoneDist1": "R4", "ZoneDist2": null, "ZoneDist3": null, "ZoneDist4": null, "Overlay1": null, "Overlay2": null, "SPDist1": null, "SPDist2": null, "SPDist3": null, "LtdHeight": null, "SplitZone": "N", "BldgClass": "B1", "LandUse": "01", "Easements": 0, "OwnerType": null, "OwnerName": "OKEYEMI, TOSIN A", "LotArea": 1775, "BldgArea": 1334, "ComArea": 0, "ResArea": 1334, "OfficeArea": 0, "RetailArea": 0, "GarageArea": 0, "StrgeArea": 0, "FactryArea": 0, "OtherArea": 0, "AreaSource": "2", "NumBldgs": 2, "NumFloors": 2.0, "UnitsRes": 2, "UnitsTotal": 2, "LotFront": 17.75, "LotDepth": 100.0, "BldgFront": 17.75, "BldgDepth": 35.0, "Ext": "N", "ProxCode": "3", "IrrLotCode": "N", "LotType": "5", "BsmtCode": "2", "AssessLand": 14040.0, "AssessTot": 40620.0, "ExemptTot": 0.0, "YearBuilt": 1925, "YearAlter1": 0, "YearAlter2": 0, "HistDist": null, "Landmark": null, "BuiltFAR": 0.75, "ResidFAR": 1.0, "CommFAR": 0.0, "FacilFAR": 2.0, "BoroCode": 3, "BBL": 3049360058.0000005, "CondoNo": 0, "Tract2010": "0854", "XCoord": 1000117, "YCoord": 174268, "ZoneMap": "23a", "ZMCode": null, "Sanborn": "310 037", "TaxMap": "31509", "EDesigNum": null, "APPBBL": 0.0, "APPDate": null, "PLUTOMapID": "1", "FIRM07_FLA": null, "PFIRM15_FL": null, "Version": "25v4", "DCPEdited": null, "Latitude": 40.6449878, "Longitude": -73.9428236, "Notes": null, "Shape_Leng": 0.0, "Shape_Area": 1787.1945827 }, "geometry": { "type": "MultiPolygon", "coordinates": [ [ [ [ -73.942634995757913, 40.644975989131446 ], [ -73.943004672435535, 40.644952689947672 ], [ -73.943009677655013, 40.645000190177363 ], [ -73.942640001812492, 40.645023491219249 ], [ -73.942634995757913, 40.644975989131446 ] ] ] ] } },
{ "type": "Feature", "properties": { "Borough": "BK", "Block": 4936, "Lot": 59, "CD": 317, "BCT2020": "3085400", "BCTCB2020": "30854001002", "CT2010": "854", "CB2010": "1002", "SchoolDist": "17", "Council": 45, "ZipCode": 11203, "FireComp": "E255", "PolicePrct": 67, "HealthCent": 35, "HealthArea": 5520, "Sanitboro": "3", "SanitDistr": "17", "SanitSub": "2B", "Address": "1163 BROOKLYN AVENUE", "ZoneDist1": "R4", "ZoneDist2": null, "ZoneDist3": null, "ZoneDist4": null, "Overlay1": null, "Overlay2": null, "SPDist1": null, "SPDist2": null, "SPDist3": null, "LtdHeight": null, "SplitZone": "N", "BldgClass": "A5", "LandUse": "01", "Easements": 0, "OwnerType": null, "OwnerName": "JACQUES ADAM 1163 IRREVOCABLE TRUST", "LotArea": 1775, "BldgArea": 1334, "ComArea": 0, "ResArea": 1334, "OfficeArea": 0, "RetailArea": 0, "GarageArea": 0, "StrgeArea": 0, "FactryArea": 0, "OtherArea": 0, "AreaSource": "2", "NumBldgs": 2, "NumFloors": 2.0, "UnitsRes": 1, "UnitsTotal": 1, "LotFront": 17.75, "LotDepth": 100.0, "BldgFront": 17.75, "BldgDepth": 35.0, "Ext": "N", "ProxCode": "3", "IrrLotCode": "N", "LotType": "5", "BsmtCode": "2", "AssessLand": 8100.0, "AssessTot": 40500.0, "ExemptTot": 24330.0, "YearBuilt": 1925, "YearAlter1": 0, "YearAlter2": 0, "HistDist": null, "Landmark": null, "BuiltFAR": 0.75, "ResidFAR": 1.0, "CommFAR": 0.0, "FacilFAR": 2.0, "BoroCode": 3, "BBL": 3049360058.9999995, "CondoNo": 0, "Tract2010": "0854", "XCoord": 1000115, "YCoord": 174285, "ZoneMap": "23a", "ZMCode": null, "Sanborn": "310 037", "TaxMap": "31509", "EDesigNum": null, "APPBBL": 0.0, "APPDate": null, "PLUTOMapID": "1", "FIRM07_FLA": null, "PFIRM15_FL": null, "Version": "25v4", "DCPEdited": null, "Latitude": 40.6450345, "Longitude": -73.9428308, "Notes": null, "Shape_Leng": 0.0, "Shape_Area": 1831.8661269 }, "geometry": { "type": "MultiPolygon", "coordinates": [ [ [ [ -73.943009677655013, 40.645000190177363 ], [ -73.943014808284076, 40.645048879210414 ], [ -73.94264513217459, 40.645072179264957 ], [ -73.942640001812492, 40.645023491219249 ], [ -73.943009677655013, 40.645000190177363 ] ] ] ] } },
{ "type": "Feature", "properties": { "Borough": "BK", "Block": 4936, "Lot": 62, "CD": 317, "BCT2020": "3085400", "BCTCB2020": "30854001002", "CT2010": "854", "CB2010": "1002", "SchoolDist": "17", "Council": 45, "ZipCode": 11203, "FireComp": "E255", "PolicePrct": 67, "HealthCent": 35, "HealthArea": 5520, "Sanitboro": "3", "SanitDistr": "17", "SanitSub": "2B", "Address": "1157 BROOKLYN AVENUE", "ZoneDist1": "R4", "ZoneDist2": null, "ZoneDist3": null, "ZoneDist4": null, "Overlay1": null, "Overlay2": null, "SPDist1": null, "SPDist2": null, "SPDist3": null, "LtdHeight": null, "SplitZone": "N", "BldgClass": "B3", "LandUse": "01", "Easements": 0, "OwnerType": null, "OwnerName": "ROSE MULVINA M", "LotArea": 1775, "BldgArea": 1334, "ComArea": 0, "ResArea": 1334, "OfficeArea": 0, "RetailArea": 0, "GarageArea": 0, "StrgeArea": 0, "FactryArea": 0, "OtherArea": 0, "AreaSource": "2", "NumBldgs": 2, "NumFloors": 2.0, "UnitsRes": 2, "UnitsTotal": 2, "LotFront": 17.75, "LotDepth": 100.0, "BldgFront": 17.75, "BldgDepth": 35.0, "Ext": "N", "ProxCode": "3", "IrrLotCode": "N", "LotType": "5", "BsmtCode": "2", "AssessLand": 14040.0, "AssessTot": 37200.0, "ExemptTot": 0.0, "YearBuilt": 1925, "YearAlter1": 0, "YearAlter2": 0, "HistDist": null, "Landmark": null, "BuiltFAR": 0.75, "ResidFAR": 1.0, "CommFAR": 0.0, "FacilFAR": 2.0, "BoroCode": 3, "BBL": 3049360062.0, "CondoNo": 0, "Tract2010": "0854", "XCoord": 1000111, "YCoord": 174338, "ZoneMap": "23a", "ZMCode": null, "Sanborn": "310 037", "TaxMap": "31509", "EDesigNum": null, "APPBBL": 0.0, "APPDate": null, "PLUTOMapID": "1", "FIRM07_FLA": null, "PFIRM15_FL": null, "Version": "25v4", "DCPEdited": null, "Latitude": 40.6451799, "Longitude": -73.9428451, "Notes": null, "Shape_Leng": 0.0, "Shape_Area": 1739.2136962 }, "geometry": { "type": "MultiPolygon", "coordinates": [ [ [ [ -73.942655504383993, 40.64517059657166 ], [ -73.943025179717836, 40.645147295479298 ], [ -73.943030052388195, 40.64519352232017 ], [ -73.942660374385738, 40.6452168215868 ], [ -73.942655504383993, 40.64517059657166 ] ] ] ] } },
{ "type": "Feature", "properties": { "Borough": "BK", "Block": 4936, "Lot": 63, "CD": 317, "BCT2020": "3085400", "BCTCB2020": "30854001002", "CT2010": "854", "CB2010": "1002", "SchoolDist": "17", "Council": 45, "ZipCode": 11203, "FireComp": "E255", "PolicePrct": 67, "HealthCent": 35, "HealthArea": 5520, "Sanitboro": "3", "SanitDistr": "17", "SanitSub": "2B", "Address": "1155 BROOKLYN AVENUE", "ZoneDist1": "R4", "ZoneDist2": null, "ZoneDist3": null, "ZoneDist4": null, "Overlay1": null, "Overlay2": null, "SPDist1": null, "SPDist2": null, "SPDist3": null, "LtdHeight": null, "SplitZone": "N", "BldgClass": "B1", "LandUse": "01", "Easements": 0, "OwnerType": null, "OwnerName": "ROSENBLUM, SARAH", "LotArea": 1775, "BldgArea": 1334, "ComArea": 0, "ResArea": 1334, "OfficeArea": 0, "RetailArea": 0, "GarageArea": 0, "StrgeArea": 0, "FactryArea": 0, "OtherArea": 0, "AreaSource": "2", "NumBldgs": 2, "NumFloors": 2.0, "UnitsRes": 2, "UnitsTotal": 2, "LotFront": 17.75, "LotDepth": 100.0, "BldgFront": 17.75, "BldgDepth": 35.0, "Ext": "N", "ProxCode": "3", "IrrLotCode": "N", "LotType": "5", "BsmtCode": "2", "AssessLand": 14040.0, "AssessTot": 37200.0, "ExemptTot": 0.0, "YearBuilt": 1925, "YearAlter1": 0, "YearAlter2": 0, "HistDist": null, "Landmark": null, "BuiltFAR": 0.75, "ResidFAR": 1.0, "CommFAR": 0.0, "FacilFAR": 2.0, "BoroCode": 3, "BBL": 3049360063.0, "CondoNo": 0, "Tract2010": "0854", "XCoord": 1000110, "YCoord": 174356, "ZoneMap": "23a", "ZMCode": null, "Sanborn": "310 037", "TaxMap": "31509", "EDesigNum": null, "APPBBL": 0.0, "APPDate": null, "PLUTOMapID": "1", "FIRM07_FLA": null, "PFIRM15_FL": null, "Version": "25v4", "DCPEdited": null, "Latitude": 40.6452293, "Longitude": -73.9428486, "Notes": null, "Shape_Leng": 0.0, "Shape_Area": 1896.2103343000001 }, "geometry": { "type": "MultiPolygon", "coordinates": [ [ [ [ -73.942660374385738, 40.6452168215868 ], [ -73.943030052388195, 40.64519352232017 ], [ -73.943035362481027, 40.645243920636815 ], [ -73.942665686508192, 40.645267220841752 ], [ -73.942660374385738, 40.6452168215868 ] ] ] ] } },
{ "type": "Feature", "properties": { "Borough": "BK", "Block": 4936, "Lot": 64, "CD": 317, "BCT2020": "3085400", "BCTCB2020": "30854001002", "CT2010": "854", "CB2010": "1002", "SchoolDist": "17", "Council": 45, "ZipCode": 11203, "FireComp": "E255", "PolicePrct": 67, "HealthCent": 35, "HealthArea": 5520, "Sanitboro": "3", "SanitDistr": "17", "SanitSub": "2B", "Address": "1153 BROOKLYN AVENUE", "ZoneDist1": "R4", "ZoneDist2": null, "ZoneDist3": null, "ZoneDist4": null, "Overlay1": null, "Overlay2": null, "SPDist1": null, "SPDist2": null, "SPDist3": null, "LtdHeight": null, "SplitZone": "N", "BldgClass": "B1", "LandUse": "01", "Easements": 0, "OwnerType": null, "OwnerName": "LEE, UTOPIA", "LotArea": 1775, "BldgArea": 1334, "ComArea": 0, "ResArea": 1334, "OfficeArea": 0, "RetailArea": 0, "GarageArea": 0, "StrgeArea": 0, "FactryArea": 0, "OtherArea": 0, "AreaSource": "2", "NumBldgs": 2, "NumFloors": 2.0, "UnitsRes": 2, "UnitsTotal": 2, "LotFront": 17.75, "LotDepth": 100.0, "BldgFront": 17.75, "BldgDepth": 35.0, "Ext": "N", "ProxCode": "3", "IrrLotCode": "N", "LotType": "5", "BsmtCode": "2", "AssessLand": 14040.0, "AssessTot": 37200.0, "ExemptTot": 1420.0, "YearBuilt": 1925, "YearAlter1": 0, "YearAlter2": 0, "HistDist": null, "Landmark": null, "BuiltFAR": 0.75, "ResidFAR": 1.0, "CommFAR": 0.0, "FacilFAR": 2.0, "BoroCode": 3, "BBL": 3049360064.0, "CondoNo": 0, "Tract2010": "0854", "XCoord": 1000108, "YCoord": 174373, "ZoneMap": "23a", "ZMCode": null, "Sanborn": "310 037", "TaxMap": "31509", "EDesigNum": null, "APPBBL": 0.0, "APPDate": null, "PLUTOMapID": "1", "FIRM07_FLA": null, "PFIRM15_FL": null, "Version": "25v4", "DCPEdited": null, "Latitude": 40.645276, "Longitude": -73.9428558, "Notes": null, "Shape_Leng": 0.0, "Shape_Area": 1685.4551389000001 }, "geometry": { "type": "MultiPolygon", "coordinates": [ [ [ [ -73.942665686508192, 40.645267220841752 ], [ -73.943035362481027, 40.645243920636815 ], [ -73.94304008382943, 40.645288718219255 ], [ -73.942670406511169, 40.645312017602514 ], [ -73.942665686508192, 40.645267220841752 ] ] ] ] } },
{ "type": "Feature", "properties": { "Borough": "BK", "Block": 4936, "Lot": 65, "CD": 317, "BCT2020": "3085400", "BCTCB2020": "30854001002", "CT2010": "854", "CB2010": "1002", "SchoolDist": "17", "Council": 45, "ZipCode": 11203, "FireComp": "E255", "PolicePrct": 67, "HealthCent": 35, "HealthArea": 5520, "Sanitboro": "3", "SanitDistr": "17", "SanitSub": "2B", "Address": "1151 BROOKLYN AVENUE", "ZoneDist1": "R4", "ZoneDist2": null, "ZoneDist3": null, "ZoneDist4": null, "Overlay1": null, "Overlay2": null, "SPDist1": null, "SPDist2": null, "SPDist3": null, "LtdHeight": null, "SplitZone": "N", "BldgClass": "B1", "LandUse": "01", "Easements": 0, "OwnerType": null, "OwnerName": "PRINCE-CARRILLO, SHARON J", "LotArea": 1775, "BldgArea": 1334, "ComArea": 0, "ResArea": 1334, "OfficeArea": 0, "RetailArea": 0, "GarageArea": 0, "StrgeArea": 0, "FactryArea": 0, "OtherArea": 0, "AreaSource": "2", "NumBldgs": 2, "NumFloors": 2.0, "UnitsRes": 2, "UnitsTotal": 2, "LotFront": 17.75, "LotDepth": 100.0, "BldgFront": 17.75, "BldgDepth": 35.0, "Ext": "N", "ProxCode": "3", "IrrLotCode": "N", "LotType": "5", "BsmtCode": "2", "AssessLand": 14040.0, "AssessTot": 37200.0, "ExemptTot": 1420.0, "YearBuilt": 1925, "YearAlter1": 0, "YearAlter2": 0, "HistDist": null, "Landmark": null, "BuiltFAR": 0.75, "ResidFAR": 1.0, "CommFAR": 0.0, "FacilFAR": 2.0, "BoroCode": 3, "BBL": 3049360065.0, "CondoNo": 0, "Tract2010": "0854", "XCoord": 1000107, "YCoord": 174391, "ZoneMap": "23a", "ZMCode": null, "Sanborn": "310 037", "TaxMap": "31509", "EDesigNum": null, "APPBBL": 0.0, "APPDate": null, "PLUTOMapID": "1", "FIRM07_FLA": null, "PFIRM15_FL": null, "Version": "25v4", "DCPEdited": null, "Latitude": 40.6453254, "Longitude": -73.9428593, "Notes": null, "Shape_Leng": 0.0, "Shape_Area": 2009.7899331000001 }, "geometry": { "type": "MultiPolygon", "coordinates": [ [ [ [ -73.942670406511169, 40.645312017602514 ], [ -73.94304008382943, 40.645288718219255 ], [ -73.94304571415924, 40.645342135184023 ], [ -73.942676035228487, 40.645365435421034 ], [ -73.942670406511169, 40.645312017602514 ] ] ] ] } },
{ "type": "Feature", "properties": { "Borough": "BK", "Block": 4921, "Lot": 12, "CD": 317, "BCT2020": "3085200", "BCTCB2020": "30852001000", "CT2010": "852", "CB2010": "1001", "SchoolDist": "17", "Council": 45, "ZipCode": 11203, "FireComp": "E248", "PolicePrct": 67, "HealthCent": 35, "HealthArea": 5520, "Sanitboro": "3", "SanitDistr": "17", "SanitSub": "2B", "Address": "1129 BROOKLYN AVENUE", "ZoneDist1": "R4", "ZoneDist2": null, "ZoneDist3": null, "ZoneDist4": null, "Overlay1": null, "Overlay2": null, "SPDist1": null, "SPDist2": null, "SPDist3": null, "LtdHeight": null, "SplitZone": "N", "BldgClass": "Z8", "LandUse": "09", "Easements": 0, "OwnerType": "X", "OwnerName": "SAINT JOHN'S CEMETERY", "LotArea": 22996, "BldgArea": 0, "ComArea": 0, "ResArea": 0, "OfficeArea": 0, "RetailArea": 0, "GarageArea": 0, "StrgeArea": 0, "FactryArea": 0, "OtherArea": 0, "AreaSource": "7", "NumBldgs": 0, "NumFloors": 0.0, "UnitsRes": 0, "UnitsTotal": 0, "LotFront": 200.0, "LotDepth": 119.0, "BldgFront": 0.0, "BldgDepth": 0.0, "Ext": "N", "ProxCode": "0", "IrrLotCode": "Y", "LotType": "5", "BsmtCode": "0", "AssessLand": 1008900.0, "AssessTot": 1008900.0, "ExemptTot": 1008900.0, "YearBuilt": 0, "YearAlter1": 0, "YearAlter2": 0, "HistDist": null, "Landmark": null, "BuiltFAR": 0.0, "ResidFAR": 1.0, "CommFAR": 0.0, "FacilFAR": 2.0, "BoroCode": 3, "BBL": 3049210011.9999995, "CondoNo": 0, "Tract2010": "0852", "XCoord": 1000085, "YCoord": 174746, "ZoneMap": "23a", "ZMCode": null, "Sanborn": "310 037", "TaxMap": "31509", "EDesigNum": null, "APPBBL": 0.0, "APPDate": null, "PLUTOMapID": "1", "FIRM07_FLA": null, "PFIRM15_FL": null, "Version": "25v4", "DCPEdited": null, "Latitude": 40.6462999, "Longitude": -73.9429378, "Notes": null, "Shape_Leng": 0.0, "Shape_Area": 23235.6409853 }, "geometry": { "type": "MultiPolygon", "coordinates": [ [ [ [ -73.942750312875489, 40.646042391862082 ], [ -73.943116680000244, 40.646015393093144 ], [ -73.943174702423889, 40.646565800597628 ], [ -73.942774668679178, 40.646586896018334 ], [ -73.942680583677259, 40.646047520564132 ], [ -73.942750312875489, 40.646042391862082 ] ] ] ] } },
{ "type": "Feature", "properties": { "Borough": "BK", "Block": 4922, "Lot": 1, "CD": 317, "BCT2020": "3085200", "BCTCB2020": "30852001000", "CT2010": "852", "CB2010": "1000", "SchoolDist": "18", "Council": 45, "ZipCode": 11203, "FireComp": "E248", "PolicePrct": 67, "HealthCent": 35, "HealthArea": 5520, "Sanitboro": "3", "SanitDistr": "17", "SanitSub": "2B", "Address": "3620 SNYDER AVENUE", "ZoneDist1": "R4", "ZoneDist2": null, "ZoneDist3": null, "ZoneDist4": null, "Overlay1": null, "Overlay2": null, "SPDist1": null, "SPDist2": null, "SPDist3": null, "LtdHeight": null, "SplitZone": "N", "BldgClass": "Z8", "LandUse": "09", "Easements": 0, "OwnerType": "X", "OwnerName": "SAINT JOHN'S CEMETERY", "LotArea": 2853077, "BldgArea": 7948, "ComArea": 7948, "ResArea": 0, "OfficeArea": 0, "RetailArea": 0, "GarageArea": 0, "StrgeArea": 0, "FactryArea": 0, "OtherArea": 7948, "AreaSource": "2", "NumBldgs": 7, "NumFloors": 1.0, "UnitsRes": 0, "UnitsTotal": 0, "LotFront": 1278.83, "LotDepth": 2231.0, "BldgFront": 36.0, "BldgDepth": 138.0, "Ext": "N", "ProxCode": "0", "IrrLotCode": "Y", "LotType": "1", "BsmtCode": "0", "AssessLand": 28887300.0, "AssessTot": 35203500.0, "ExemptTot": 35203500.0, "YearBuilt": 1917, "YearAlter1": 0, "YearAlter2": 0, "HistDist": null, "Landmark": null, "BuiltFAR": 0.0, "ResidFAR": 1.0, "CommFAR": 0.0, "FacilFAR": 2.0, "BoroCode": 3, "BBL": 3049220001.0, "CondoNo": 0, "Tract2010": "0852", "XCoord": 1001405, "YCoord": 175002, "ZoneMap": "23a", "ZMCode": "Y", "Sanborn": "310 028", "TaxMap": "31509", "EDesigNum": null, "APPBBL": 0.0, "APPDate": null, "PLUTOMapID": "1", "FIRM07_FLA": null, "PFIRM15_FL": null, "Version": "25v4", "DCPEdited": null, "Latitude": 40.6470001, "Longitude": -73.9381805, "Notes": null, "Shape_Leng": 0.0, "Shape_Area": 4164347.56917 }, "geometry": { "type": "MultiPolygon", "coordinates": [ [ [ [ -73.938463041091055, 40.64921162802343 ], [ -73.93838639307728, 40.649216421704544 ], [ -73.938316303714529, 40.649220803737549 ], [ -73.938310394630449, 40.64916457414536 ], [ -73.938305031679974, 40.649113565126328 ], [ -73.938299076767365, 40.649056908585223 ], [ -73.938293526341965, 40.649004116481422 ], [ -73.938287774288213, 40.648949396215663 ], [ -73.93828202224303, 40.648894675027897 ], [ -73.938276270207353, 40.648839955598518 ], [ -73.93827005054321, 40.648780783892768 ], [ -73.938258544104457, 40.648671343269122 ], [ -73.938249262131549, 40.648583039051132 ], [ -73.937867271833781, 40.648599359787539 ], [ -73.937866471500456, 40.648591750046229 ], [ -73.937678117224905, 40.648598344944659 ], [ -73.937678930579764, 40.648605985314049 ], [ -73.937311432437809, 40.648621355754017 ], [ -73.936945636605827, 40.648636653002939 ], [ -73.936945038665812, 40.648631402691578 ], [ -73.936741091496316, 40.648641011407335 ], [ -73.936741726843167, 40.648646758853758 ], [ -73.936375465544131, 40.648662654718798 ], [ -73.936002101239453, 40.648680623761081 ], [ -73.936000554621572, 40.648667324053143 ], [ -73.935753327653345, 40.648679428306977 ], [ -73.935753913361467, 40.648685077596291 ], [ -73.935363137680966, 40.648700986197824 ], [ -73.934994102416638, 40.648715398310323 ], [ -73.934993162189897, 40.648707291356104 ], [ -73.93479715106001, 40.648715951990617 ], [ -73.934797626663951, 40.648720443102043 ], [ -73.934431402403135, 40.648735097291379 ], [ -73.934064685269021, 40.648749495116299 ], [ -73.934062920268687, 40.648733718889346 ], [ -73.933855111946187, 40.648741198622474 ], [ -73.933856021592504, 40.648750207016015 ], [ -73.933496961152173, 40.648766651622722 ], [ -73.933131502386786, 40.64878140292852 ], [ -73.933130620373305, 40.648773193340055 ], [ -73.932986614273474, 40.648779004940984 ], [ -73.932610384637869, 40.645280538255655 ], [ -73.932752789122006, 40.645259897347792 ], [ -73.933567351777214, 40.645140563889349 ], [ -73.94260907096448, 40.644729973838643 ], [ -73.942614573000924, 40.644782179602437 ], [ -73.942619678704816, 40.644830634474474 ], [ -73.942624807844027, 40.644879305454637 ], [ -73.942629857251688, 40.644927210057936 ], [ -73.942634995757913, 40.644975989131446 ], [ -73.942640001812492, 40.645023491219249 ], [ -73.94264513217459, 40.645072179264957 ], [ -73.942650152311757, 40.64511980024097 ], [ -73.942655504383993, 40.64517059657166 ], [ -73.942660374385738, 40.6452168215868 ], [ -73.942665686508192, 40.645267220841752 ], [ -73.942670406511169, 40.645312017602514 ], [ -73.942676035228487, 40.645365435421034 ], [ -73.942681205530548, 40.645414485569013 ], [ -73.942627333574308, 40.645417879675868 ], [ -73.942650182924268, 40.645634643655789 ], [ -73.942706937646278, 40.645630905206801 ], [ -73.942712570021044, 40.645684349211479 ], [ -73.942716830360069, 40.645724753029938 ], [ -73.942721891661591, 40.645772772916011 ], [ -73.942726624606166, 40.645817677684207 ], [ -73.942730995202567, 40.645859144220054 ], [ -73.94273615621141, 40.645908108772218 ], [ -73.942740770748827, 40.645951890581024 ], [ -73.942745269175006, 40.645994547592316 ], [ -73.942750312875489, 40.646042391862082 ], [ -73.942680583677259, 40.646047520564132 ], [ -73.942774668679178, 40.646586896018334 ], [ -73.943174702423889, 40.646565800597628 ], [ -73.94322357555518, 40.647029421554741 ], [ -73.942765452427707, 40.647046737454417 ], [ -73.942783315363201, 40.647236683331492 ], [ -73.943243045393274, 40.647215121270811 ], [ -73.943385817641484, 40.648584093087109 ], [ -73.943112930061076, 40.648598142921202 ], [ -73.943114244744976, 40.6486091875014 ], [ -73.943033399225257, 40.64861424606223 ], [ -73.943103318901379, 40.649201390399867 ], [ -73.943028919031676, 40.649206045146009 ], [ -73.943031340593052, 40.649229267976935 ], [ -73.942209163215423, 40.649265115588427 ], [ -73.941580655700434, 40.649292514834549 ], [ -73.941581082454675, 40.649296619630242 ], [ -73.940862758319113, 40.649341549833544 ], [ -73.94086076183342, 40.649322396615069 ], [ -73.940644978253232, 40.649333139000866 ], [ -73.94064726068062, 40.649355028169445 ], [ -73.939928934188131, 40.649399952623725 ], [ -73.93992522772416, 40.649364383862796 ], [ -73.939709061856959, 40.649371455586845 ], [ -73.939713437382352, 40.649413429128167 ], [ -73.938564115287633, 40.649485297858583 ], [ -73.938534873163846, 40.649207136988174 ], [ -73.938463041091055, 40.64921162802343 ] ] ] ] } },
{ "type": "Feature", "properties": { "Borough": "BK", "Block": 4936, "Lot": 53, "CD": 317, "BCT2020": "3085400", "BCTCB2020": "30854001002", "CT2010": "854", "CB2010": "1002", "SchoolDist": "17", "Council": 45, "ZipCode": 11203, "FireComp": "E255", "PolicePrct": 67, "HealthCent": 35, "HealthArea": 5520, "Sanitboro": "3", "SanitDistr": "17", "SanitSub": "2B", "Address": "1177 BROOKLYN AVENUE", "ZoneDist1": "R4", "ZoneDist2": null, "ZoneDist3": null, "ZoneDist4": null, "Overlay1": null, "Overlay2": null, "SPDist1": null, "SPDist2": null, "SPDist3": null, "LtdHeight": null, "SplitZone": "N", "BldgClass": "A1", "LandUse": "01", "Easements": 0, "OwnerType": null, "OwnerName": "MILIEN, MARIE", "LotArea": 1775, "BldgArea": 1334, "ComArea": 0, "ResArea": 1334, "OfficeArea": 0, "RetailArea": 0, "GarageArea": 0, "StrgeArea": 0, "FactryArea": 0, "OtherArea": 0, "AreaSource": "2", "NumBldgs": 2, "NumFloors": 2.0, "UnitsRes": 1, "UnitsTotal": 1, "LotFront": 17.75, "LotDepth": 100.0, "BldgFront": 17.75, "BldgDepth": 35.0, "Ext": "EG", "ProxCode": "2", "IrrLotCode": "N", "LotType": "3", "BsmtCode": "2", "AssessLand": 10020.0, "AssessTot": 35580.0, "ExemptTot": 0.0, "YearBuilt": 1925, "YearAlter1": 0, "YearAlter2": 0, "HistDist": null, "Landmark": null, "BuiltFAR": 0.75, "ResidFAR": 1.0, "CommFAR": 0.0, "FacilFAR": 2.0, "BoroCode": 3, "BBL": 3049360053.0, "CondoNo": 0, "Tract2010": "0854", "XCoord": 1000125, "YCoord": 174180, "ZoneMap": "23a", "ZMCode": null, "Sanborn": "310 037", "TaxMap": "31509", "EDesigNum": null, "APPBBL": 0.0, "APPDate": null, "PLUTOMapID": "1", "FIRM07_FLA": null, "PFIRM15_FL": null, "Version": "25v4", "DCPEdited": null, "Latitude": 40.6447462, "Longitude": -73.942795, "Notes": null, "Shape_Leng": 0.0, "Shape_Area": 1842.5411792 }, "geometry": { "type": "MultiPolygon", "coordinates": [ [ [ [ -73.94260907096448, 40.644729973838643 ], [ -73.94297942644188, 40.644713140821658 ], [ -73.942984247405221, 40.644758879562289 ], [ -73.942614573000924, 40.644782179602437 ], [ -73.94260907096448, 40.644729973838643 ] ] ] ] } },
{ "type": "Feature", "properties": { "Borough": "BK", "Block": 4936, "Lot": 55, "CD": 317, "BCT2020": "3085400", "BCTCB2020": "30854001002", "CT2010": "854", "CB2010": "1002", "SchoolDist": "17", "Council": 45, "ZipCode": 11203, "FireComp": "E255", "PolicePrct": 67, "HealthCent": 35, "HealthArea": 5520, "Sanitboro": "3", "SanitDistr": "17", "SanitSub": "2B", "Address": "1173 BROOKLYN AVENUE", "ZoneDist1": "R4", "ZoneDist2": null, "ZoneDist3": null, "ZoneDist4": null, "Overlay1": null, "Overlay2": null, "SPDist1": null, "SPDist2": null, "SPDist3": null, "LtdHeight": null, "SplitZone": "N", "BldgClass": "B1", "LandUse": "01", "Easements": 0, "OwnerType": null, "OwnerName": "GREEN, BYRON", "LotArea": 1775, "BldgArea": 1334, "ComArea": 0, "ResArea": 1334, "OfficeArea": 0, "RetailArea": 0, "GarageArea": 0, "StrgeArea": 0, "FactryArea": 0, "OtherArea": 0, "AreaSource": "2", "NumBldgs": 2, "NumFloors": 2.0, "UnitsRes": 2, "UnitsTotal": 2, "LotFront": 17.75, "LotDepth": 100.0, "BldgFront": 17.75, "BldgDepth": 35.0, "Ext": "EG", "ProxCode": "3", "IrrLotCode": "N", "LotType": "5", "BsmtCode": "2", "AssessLand": 14040.0, "AssessTot": 37200.0, "ExemptTot": 1420.0, "YearBuilt": 1925, "YearAlter1": 0, "YearAlter2": 0, "HistDist": null, "Landmark": null, "BuiltFAR": 0.75, "ResidFAR": 1.0, "CommFAR": 0.0, "FacilFAR": 2.0, "BoroCode": 3, "BBL": 3049360055.0, "CondoNo": 0, "Tract2010": "0854", "XCoord": 1000121, "YCoord": 174215, "ZoneMap": "23a", "ZMCode": null, "Sanborn": "310 037", "TaxMap": "31509", "EDesigNum": null, "APPBBL": 0.0, "APPDate": null, "PLUTOMapID": "1", "FIRM07_FLA": null, "PFIRM15_FL": null, "Version": "25v4", "DCPEdited": null, "Latitude": 40.6448423, "Longitude": -73.9428093, "Notes": null, "Shape_Leng": 0.0, "Shape_Area": 1831.2238591 }, "geometry": { "type": "MultiPolygon", "coordinates": [ [ [ [ -73.942619678704816, 40.644830634474474 ], [ -73.942989353376475, 40.644807333497816 ], [ -73.942994482780918, 40.644856005381584 ], [ -73.942624807844027, 40.644879305454637 ], [ -73.942619678704816, 40.644830634474474 ] ] ] ] } },
{ "type": "Feature", "properties": { "Borough": "BK", "Block": 4912, "Lot": 123, "CD": 317, "BCT2020": "3086000", "BCTCB2020": "30860003002", "CT2010": "860", "CB2010": "3002", "SchoolDist": "18", "Council": 45, "ZipCode": 11203, "FireComp": "E248", "PolicePrct": 67, "HealthCent": 35, "HealthArea": 5520, "Sanitboro": "3", "SanitDistr": "17", "SanitSub": "2B", "Address": "524 EAST 45 STREET", "ZoneDist1": "R4", "ZoneDist2": null, "ZoneDist3": null, "ZoneDist4": null, "Overlay1": null, "Overlay2": null, "SPDist1": null, "SPDist2": null, "SPDist3": null, "LtdHeight": null, "SplitZone": "N", "BldgClass": "A9", "LandUse": "01", "Easements": 0, "OwnerType": null, "OwnerName": "EVANS, TAINA  K", "LotArea": 1850, "BldgArea": 1274, "ComArea": 0, "ResArea": 1274, "OfficeArea": 0, "RetailArea": 0, "GarageArea": 0, "StrgeArea": 0, "FactryArea": 0, "OtherArea": 0, "AreaSource": "2", "NumBldgs": 2, "NumFloors": 2.0, "UnitsRes": 1, "UnitsTotal": 1, "LotFront": 18.5, "LotDepth": 100.0, "BldgFront": 13.0, "BldgDepth": 50.0, "Ext": "G", "ProxCode": "1", "IrrLotCode": "N", "LotType": "5", "BsmtCode": "2", "AssessLand": 14220.0, "AssessTot": 43860.0, "ExemptTot": 0.0, "YearBuilt": 1920, "YearAlter1": 0, "YearAlter2": 0, "HistDist": null, "Landmark": null, "BuiltFAR": 0.69, "ResidFAR": 1.0, "CommFAR": 0.0, "FacilFAR": 2.0, "BoroCode": 3, "BBL": 3049120122.9999995, "CondoNo": 0, "Tract2010": "0860", "XCoord": 1002238, "YCoord": 175633, "ZoneMap": "23a", "ZMCode": null, "Sanborn": "310 064", "TaxMap": "31509", "EDesigNum": null, "APPBBL": 0.0, "APPDate": null, "PLUTOMapID": "1", "FIRM07_FLA": null, "PFIRM15_FL": null, "Version": "25v4", "DCPEdited": null, "Latitude": 40.6487304, "Longitude": -73.935177, "Notes": null, "Shape_Leng": 0.0, "Shape_Area": 1735.5026115000001 }, "geometry": { "type": "MultiPolygon", "coordinates": [ [ [ [ -73.934994102416638, 40.648715398310323 ], [ -73.935363137680966, 40.648700986197824 ], [ -73.935367962535778, 40.648742616147501 ], [ -73.935000007965968, 40.648766382613374 ], [ -73.934994102416638, 40.648715398310323 ] ] ] ] } },
{ "type": "Feature", "properties": { "Borough": "BK", "Block": 4936, "Lot": 1, "CD": 317, "BCT2020": "3085400", "BCTCB2020": "30854001002", "CT2010": "854", "CB2010": "1002", "SchoolDist": "17", "Council": 45, "ZipCode": 11203, "FireComp": "E255", "PolicePrct": 67, "HealthCent": 35, "HealthArea": 5520, "Sanitboro": "3", "SanitDistr": "17", "SanitSub": "2B", "Address": "1149 BROOKLYN AVENUE", "ZoneDist1": "R4", "ZoneDist2": null, "ZoneDist3": null, "ZoneDist4": null, "Overlay1": null, "Overlay2": null, "SPDist1": null, "SPDist2": null, "SPDist3": null, "LtdHeight": null, "SplitZone": "N", "BldgClass": "B1", "LandUse": "01", "Easements": 0, "OwnerType": null, "OwnerName": "SACKS, BENJAMIN", "LotArea": 1775, "BldgArea": 1310, "ComArea": 0, "ResArea": 1310, "OfficeArea": 0, "RetailArea": 0, "GarageArea": 0, "StrgeArea": 0, "FactryArea": 0, "OtherArea": 0, "AreaSource": "2", "NumBldgs": 2, "NumFloors": 2.0, "UnitsRes": 2, "UnitsTotal": 2, "LotFront": 17.75, "LotDepth": 100.0, "BldgFront": 17.75, "BldgDepth": 35.0, "Ext": "EG", "ProxCode": "2", "IrrLotCode": "N", "LotType": "3", "BsmtCode": "2", "AssessLand": 13920.0, "AssessTot": 39780.0, "ExemptTot": 0.0, "YearBuilt": 1925, "YearAlter1": 0, "YearAlter2": 0, "HistDist": null, "Landmark": null, "BuiltFAR": 0.74, "ResidFAR": 1.0, "CommFAR": 0.0, "FacilFAR": 2.0, "BoroCode": 3, "BBL": 3049360001.0, "CondoNo": 0, "Tract2010": "0854", "XCoord": 1000105, "YCoord": 174410, "ZoneMap": "23a", "ZMCode": null, "Sanborn": "310 037", "TaxMap": "31509", "EDesigNum": null, "APPBBL": 0.0, "APPDate": null, "PLUTOMapID": "1", "FIRM07_FLA": null, "PFIRM15_FL": null, "Version": "25v4", "DCPEdited": null, "Latitude": 40.6453776, "Longitude": -73.9428665, "Notes": null, "Shape_Leng": 0.0, "Shape_Area": 1845.4713354 }, "geometry": { "type": "MultiPolygon", "coordinates": [ [ [ [ -73.942676035228487, 40.645365435421034 ], [ -73.94304571415924, 40.645342135184023 ], [ -73.943050882315219, 40.645391185314203 ], [ -73.942681205530548, 40.645414485569013 ], [ -73.942676035228487, 40.645365435421034 ] ] ] ] } },
{ "type": "Feature", "properties": { "Borough": "BK", "Block": 4936, "Lot": 60, "CD": 317, "BCT2020": "3085400", "BCTCB2020": "30854001002", "CT2010": "854", "CB2010": "1002", "SchoolDist": "17", "Council": 45, "ZipCode": 11203, "FireComp": "E255", "PolicePrct": 67, "HealthCent": 35, "HealthArea": 5520, "Sanitboro": "3", "SanitDistr": "17", "SanitSub": "2B", "Address": "1161 BROOKLYN AVENUE", "ZoneDist1": "R4", "ZoneDist2": null, "ZoneDist3": null, "ZoneDist4": null, "Overlay1": null, "Overlay2": null, "SPDist1": null, "SPDist2": null, "SPDist3": null, "LtdHeight": null, "SplitZone": "N", "BldgClass": "B3", "LandUse": "01", "Easements": 0, "OwnerType": null, "OwnerName": "REID , JANELLE  L", "LotArea": 1775, "BldgArea": 1334, "ComArea": 0, "ResArea": 1334, "OfficeArea": 0, "RetailArea": 0, "GarageArea": 0, "StrgeArea": 0, "FactryArea": 0, "OtherArea": 0, "AreaSource": "2", "NumBldgs": 2, "NumFloors": 2.0, "UnitsRes": 2, "UnitsTotal": 2, "LotFront": 17.75, "LotDepth": 100.0, "BldgFront": 17.75, "BldgDepth": 35.0, "Ext": "N", "ProxCode": "3", "IrrLotCode": "N", "LotType": "5", "BsmtCode": "2", "AssessLand": 14040.0, "AssessTot": 37200.0, "ExemptTot": 0.0, "YearBuilt": 1925, "YearAlter1": 0, "YearAlter2": 0, "HistDist": null, "Landmark": null, "BuiltFAR": 0.75, "ResidFAR": 1.0, "CommFAR": 0.0, "FacilFAR": 2.0, "BoroCode": 3, "BBL": 3049360059.9999995, "CondoNo": 0, "Tract2010": "0854", "XCoord": 1000114, "YCoord": 174303, "ZoneMap": "23a", "ZMCode": null, "Sanborn": "310 037", "TaxMap": "31509", "EDesigNum": null, "APPBBL": 0.0, "APPDate": null, "PLUTOMapID": "1", "FIRM07_FLA": null, "PFIRM15_FL": null, "Version": "25v4", "DCPEdited": null, "Latitude": 40.6450839, "Longitude": -73.9428343, "Notes": null, "Shape_Leng": 0.0, "Shape_Area": 1791.6988061 }, "geometry": { "type": "MultiPolygon", "coordinates": [ [ [ [ -73.942650152311757, 40.64511980024097 ], [ -73.94264513217459, 40.645072179264957 ], [ -73.943014808284076, 40.645048879210414 ], [ -73.94301982747362, 40.645096500085948 ], [ -73.942650152311757, 40.64511980024097 ] ] ] ] } },
{ "type": "Feature", "properties": { "Borough": "BK", "Block": 4936, "Lot": 61, "CD": 317, "BCT2020": "3085400", "BCTCB2020": "30854001002", "CT2010": "854", "CB2010": "1002", "SchoolDist": "17", "Council": 45, "ZipCode": 11203, "FireComp": "E255", "PolicePrct": 67, "HealthCent": 35, "HealthArea": 5520, "Sanitboro": "3", "SanitDistr": "17", "SanitSub": "2B", "Address": "1159 BROOKLYN AVENUE", "ZoneDist1": "R4", "ZoneDist2": null, "ZoneDist3": null, "ZoneDist4": null, "Overlay1": null, "Overlay2": null, "SPDist1": null, "SPDist2": null, "SPDist3": null, "LtdHeight": null, "SplitZone": "N", "BldgClass": "B3", "LandUse": "01", "Easements": 0, "OwnerType": null, "OwnerName": "SCHERON MCDOWALL", "LotArea": 1775, "BldgArea": 1334, "ComArea": 0, "ResArea": 1334, "OfficeArea": 0, "RetailArea": 0, "GarageArea": 0, "StrgeArea": 0, "FactryArea": 0, "OtherArea": 0, "AreaSource": "2", "NumBldgs": 2, "NumFloors": 2.0, "UnitsRes": 2, "UnitsTotal": 2, "LotFront": 17.75, "LotDepth": 100.0, "BldgFront": 17.75, "BldgDepth": 35.0, "Ext": "N", "ProxCode": "3", "IrrLotCode": "N", "LotType": "5", "BsmtCode": "2", "AssessLand": 14040.0, "AssessTot": 37200.0, "ExemptTot": 0.0, "YearBuilt": 1925, "YearAlter1": 0, "YearAlter2": 0, "HistDist": null, "Landmark": null, "BuiltFAR": 0.75, "ResidFAR": 1.0, "CommFAR": 0.0, "FacilFAR": 2.0, "BoroCode": 3, "BBL": 3049360061.0, "CondoNo": 0, "Tract2010": "0854", "XCoord": 1000113, "YCoord": 174321, "ZoneMap": "23a", "ZMCode": null, "Sanborn": "310 037", "TaxMap": "31509", "EDesigNum": null, "APPBBL": 0.0, "APPDate": null, "PLUTOMapID": "1", "FIRM07_FLA": null, "PFIRM15_FL": null, "Version": "25v4", "DCPEdited": null, "Latitude": 40.6451333, "Longitude": -73.9428379, "Notes": null, "Shape_Leng": 0.0, "Shape_Area": 1911.1452156 }, "geometry": { "type": "MultiPolygon", "coordinates": [ [ [ [ -73.942650152311757, 40.64511980024097 ], [ -73.94301982747362, 40.645096500085948 ], [ -73.943025179717836, 40.645147295479298 ], [ -73.942655504383993, 40.64517059657166 ], [ -73.942650152311757, 40.64511980024097 ] ] ] ] } }
]
}
